{
  "id": 2048546833,
  "type": "Feature",
  "properties": {
    "geom:area": 0,
    "geom:bbox": "-122.361680,37.492680,-121.281460,37.615140",
    "geom:latitude": 37.54295440127961,
    "geom:longitude": -121.82770178853734,
    "src:alt_label": "swim-approach",
    "src:geom": "swim",
    "swim:elevations": [
      4212,
      4060,
      3048,
      2689,
      2281,
      2023,
      1612,
      894,
      798,
      705,
      549,
      425,
      334,
      215,
      184,
      71,
      80
    ],
    "swim:geom": "approach",
    "swim:timestamps": [
      1791504950,
      1791504966,
      1791505124,
      1791505189,
      1791505263,
      1791505316,
      1791505385,
      1791505526,
      1791505545,
      1791505570,
      1791505613,
      1791505646,
      1791505667,
      1791505703,
      1791505712,
      1791505735,
      1791505755
    ],
    "wof:geomhash": "3efc4f930f5fd4705d01cf78e282cc3c",
    "wof:id": 2048546833,
    "wof:repo": "sfomuseum-data-flights-2026-10"
  },
  "bbox": [
    -122.36168,
    37.49268,
    -121.28146,
    37.61514
  ],
  "geometry": {"type":"LineString","coordinates":[[-121.28146,37.59014],[-121.31335,37.58639],[-121.61625,37.55152],[-121.7237,37.52722],[-121.83639,37.50008],[-121.91072,37.49268],[-122.00879,37.49855],[-122.1832,37.54028],[-122.20197,37.54821],[-122.22252,37.55689],[-122.25458,37.57042],[-122.27854,37.58055],[-122.29411,37.58712],[-122.32176,37.59867],[-122.32901,37.60175],[-122.34666,37.60916],[-122.36168,37.61514]]}
}
