{
  "id": 2048499403,
  "type": "Feature",
  "properties": {
    "geom:area": 0,
    "geom:bbox": "-122.356880,37.491590,-121.266000,37.613460",
    "geom:latitude": 37.54614449305524,
    "geom:longitude": -121.81621574490636,
    "src:alt_label": "swim-approach",
    "src:geom": "swim",
    "swim:elevations": [
      4433,
      4197,
      3888,
      3669,
      3579,
      3382,
      3324,
      3243,
      3035,
      2789,
      2746,
      2611,
      2512,
      2264,
      2132,
      1899,
      1844,
      1719,
      1567,
      1182,
      1126,
      914,
      914,
      666,
      570,
      415,
      371,
      209,
      110,
      0
    ],
    "swim:geom": "approach",
    "swim:timestamps": [
      1791020360,
      1791020397,
      1791020425,
      1791020457,
      1791020473,
      1791020497,
      1791020513,
      1791020533,
      1791020567,
      1791020602,
      1791020613,
      1791020651,
      1791020674,
      1791020717,
      1791020741,
      1791020781,
      1791020792,
      1791020843,
      1791020860,
      1791020901,
      1791020912,
      1791020964,
      1791020983,
      1791021021,
      1791021040,
      1791021081,
      1791021091,
      1791021133,
      1791021156,
      1791021180
    ],
    "wof:geomhash": "83dfa5288347ba9fe5cceba82ef283a2",
    "wof:id": 2048499403,
    "wof:repo": "sfomuseum-data-flights-2026-10"
  },
  "bbox": [
    -122.35688,
    37.49159,
    -121.266,
    37.61346
  ],
  "geometry": {"type":"LineString","coordinates":[[-121.266,37.5925],[-121.33995,37.5837],[-121.39193,37.57787],[-121.45033,37.57144],[-121.47831,37.56831],[-121.5213,37.56322],[-121.54786,37.55989],[-121.58041,37.55602],[-121.63397,37.54866],[-121.68532,37.53633],[-121.70305,37.53218],[-121.75639,37.51937],[-121.78757,37.5119],[-121.84316,37.49855],[-121.87522,37.49159],[-121.93091,37.4924],[-121.94633,37.49281],[-122.01553,37.50354],[-122.03722,37.51052],[-122.08749,37.52711],[-122.09988,37.53112],[-122.15662,37.54945],[-122.17614,37.55572],[-122.21787,37.56922],[-122.23758,37.57555],[-122.27672,37.58769],[-122.28578,37.59033],[-122.32061,37.60056],[-122.33926,37.60604],[-122.35688,37.61346]]}
}
