{
  "id": 2048546155,
  "type": "Feature",
  "properties": {
    "geom:area": 0,
    "geom:bbox": "-122.359200,36.719580,-121.876600,37.614320",
    "geom:latitude": 37.21528899115207,
    "geom:longitude": -122.07003860766714,
    "src:alt_label": "swim-approach",
    "src:geom": "swim",
    "swim:elevations": [
      5517,
      5474,
      5067,
      4717,
      4314,
      4056,
      3676,
      3518,
      3233,
      3033,
      2870,
      2677,
      2437,
      2391,
      2320,
      2286,
      2207,
      2132,
      2046,
      1808,
      1617,
      1585,
      1554,
      1528,
      1309,
      1106,
      892,
      602,
      398,
      297,
      167,
      44,
      146
    ],
    "swim:geom": "approach",
    "swim:timestamps": [
      1791467067,
      1791467071,
      1791467104,
      1791467137,
      1791467179,
      1791467200,
      1791467236,
      1791467252,
      1791467282,
      1791467331,
      1791467358,
      1791467385,
      1791467428,
      1791467448,
      1791467473,
      1791467486,
      1791467506,
      1791467523,
      1791467541,
      1791467576,
      1791467605,
      1791467618,
      1791467624,
      1791467634,
      1791467677,
      1791467704,
      1791467734,
      1791467774,
      1791467816,
      1791467839,
      1791467869,
      1791467906,
      1791467911
    ],
    "wof:geomhash": "5e5cebaf6427c38603597bec421e8884",
    "wof:id": 2048546155,
    "wof:repo": "sfomuseum-data-flights-2026-10"
  },
  "bbox": [
    -122.3592,
    36.71958,
    -121.8766,
    37.61432
  ],
  "geometry": {"type":"LineString","coordinates":[[-121.8766,36.71958],[-121.88135,36.72655],[-121.90467,36.78003],[-121.92031,36.83587],[-121.93913,36.90387],[-121.94931,36.93896],[-121.97035,36.99566],[-121.98025,37.02099],[-121.9984,37.06804],[-122.02628,37.13918],[-122.04101,37.17706],[-122.05513,37.2133],[-122.07699,37.26918],[-122.08637,37.29316],[-122.09844,37.32337],[-122.10402,37.3375],[-122.11317,37.36002],[-122.11999,37.37754],[-122.12655,37.39767],[-122.13865,37.43383],[-122.14938,37.46378],[-122.15366,37.47678],[-122.15539,37.48206],[-122.15855,37.49193],[-122.17053,37.52964],[-122.17901,37.55247],[-122.20597,37.56518],[-122.24631,37.57851],[-122.28583,37.58982],[-122.30539,37.5955],[-122.32844,37.60227],[-122.35588,37.61287],[-122.3592,37.61432]]}
}
