{
  "id": 2048493031,
  "type": "Feature",
  "properties": {
    "date:inception_lower": "2026-10-02",
    "date:inception_upper": "2026-10-02",
    "edtf:cessation": "",
    "edtf:inception": "2026-10-02",
    "flysfo:actual_timestamp": -1,
    "flysfo:airline": "LA",
    "flysfo:base_airline": "",
    "flysfo:base_flight_number": "7479",
    "flysfo:date": "2026-10-02",
    "flysfo:estimated_timestamp": 1790982120,
    "flysfo:event": "A",
    "flysfo:flight_number": "LA8447",
    "flysfo:gate": "C9",
    "flysfo:journey": "LAX-SFO",
    "flysfo:scheduled_timestamp": 1790981640,
    "flysfo:timestamp": 1790982120,
    "geom:area": 0,
    "geom:bbox": "-122.370943,33.942593,-118.389510,37.617990",
    "geom:latitude": 35.780291500000004,
    "geom:longitude": -120.38022649999999,
    "iata:airline": "LA",
    "iata:base_airline": "",
    "icao:airline": "LAN",
    "icao:base_airline": "KLM",
    "lbl:latitude": 37.61799,
    "lbl:longitude": -122.370943,
    "sfomuseum:airline_id": 1159285641,
    "sfomuseum:arrival_id": 102527513,
    "sfomuseum:base_flight_id": "20261002-A-KLM-7479",
    "sfomuseum:departure_id": 102533795,
    "sfomuseum:flight_id": "20261002-A-LAN-8447",
    "sfomuseum:flight_number": [
      "LAN8447",
      "LA8447"
    ],
    "sfomuseum:placetype": "flight",
    "src:geom": "flysfo",
    "wof:belongsto": [
      1763588121,
      102527513,
      1763588233,
      102191575,
      85633793,
      102087579,
      85922583,
      554784711,
      85688637,
      1763588251,
      1763588123,
      102085387
    ],
    "wof:country": "US",
    "wof:created": 1791043571,
    "wof:geomhash": "f16008bc2ad68c6d1bc593247c6c74a9",
    "wof:hierarchy": [
      {
        "building_id": 1763588121,
        "campus_id": 102527513,
        "concourse_id": 1763588233,
        "continent_id": 102191575,
        "country_id": 85633793,
        "county_id": 102087579,
        "custom_id": 2048493031,
        "flight_id": 2048493031,
        "locality_id": 85922583,
        "postalcode_id": 554784711,
        "region_id": 85688637,
        "venue_id": 1763588251,
        "wing_id": 1763588123
      },
      {
        "building_id": 1763588121,
        "campus_id": 102527513,
        "concourse_id": 1763588233,
        "continent_id": 102191575,
        "country_id": 85633793,
        "county_id": 102085387,
        "custom_id": 2048493031,
        "flight_id": 2048493031,
        "region_id": 85688637,
        "venue_id": 1763588251,
        "wing_id": 1763588123
      }
    ],
    "wof:id": 2048493031,
    "wof:involves": [
      102527513,
      102533795,
      1159285641,
      1763588251,
      1159284613
    ],
    "wof:lastmodified": 1791043571,
    "wof:name": "LA8447 (LAX-SFO)",
    "wof:parent_id": 1763588251,
    "wof:placetype": "custom",
    "wof:placetype_alt": [
      "flight"
    ],
    "wof:repo": "sfomuseum-data-flights-2026-10",
    "wof:superseded_by": [],
    "wof:supersedes": []
  },
  "bbox": [
    -122.370943,
    33.942593,
    -118.38951,
    37.61799
  ],
  "geometry": {"type":"MultiPoint","coordinates":[[-118.38951,33.942593],[-122.370943,37.61799]]}
}
