{
  "id": 2048520565,
  "type": "Feature",
  "properties": {
    "geom:area": 0,
    "geom:bbox": "-122.356530,37.491460,-121.260730,37.613370",
    "geom:latitude": 37.54606126833977,
    "geom:longitude": -121.81343801376082,
    "src:alt_label": "swim-approach",
    "src:geom": "swim",
    "swim:elevations": [
      4593,
      4376,
      4127,
      3720,
      3574,
      3357,
      3292,
      3169,
      2930,
      2745,
      2538,
      2388,
      2290,
      2114,
      1922,
      1901,
      1685,
      1344,
      1233,
      1077,
      915,
      722,
      549,
      490,
      373,
      211,
      158,
      15
    ],
    "swim:geom": "approach",
    "swim:timestamps": [
      1791239036,
      1791239057,
      1791239083,
      1791239126,
      1791239140,
      1791239162,
      1791239171,
      1791239204,
      1791239246,
      1791239269,
      1791239306,
      1791239338,
      1791239357,
      1791239381,
      1791239425,
      1791239434,
      1791239470,
      1791239515,
      1791239531,
      1791239554,
      1791239591,
      1791239630,
      1791239659,
      1791239686,
      1791239716,
      1791239756,
      1791239775,
      1791239802
    ],
    "wof:geomhash": "820edde35290ad351c02d12bddfa95f8",
    "wof:id": 2048520565,
    "wof:repo": "sfomuseum-data-flights-2026-10"
  },
  "bbox": [
    -122.35653,
    37.49146,
    -121.26073,
    37.61337
  ],
  "geometry": {"type":"LineString","coordinates":[[-121.26073,37.59302],[-121.30334,37.58759],[-121.35771,37.58159],[-121.44404,37.57165],[-121.47144,37.56844],[-121.51508,37.56345],[-121.53272,37.56142],[-121.59518,37.55406],[-121.66726,37.5402],[-121.70525,37.53124],[-121.76576,37.51689],[-121.81559,37.50492],[-121.84235,37.4986],[-121.87844,37.49146],[-121.94642,37.49288],[-121.95952,37.49318],[-122.01219,37.50266],[-122.07505,37.52298],[-122.09546,37.52959],[-122.12455,37.53893],[-122.16882,37.55321],[-122.20982,37.56635],[-122.23871,37.57574],[-122.26446,37.58407],[-122.28859,37.59127],[-122.32057,37.60045],[-122.33639,37.60525],[-122.35653,37.61337]]}
}
