{
  "id": 2048499391,
  "type": "Feature",
  "properties": {
    "geom:area": 0,
    "geom:bbox": "-122.353390,37.467070,-121.246500,37.612040",
    "geom:latitude": 37.540632470408674,
    "geom:longitude": -121.80341607826291,
    "src:alt_label": "swim-approach",
    "src:geom": "swim",
    "swim:elevations": [
      4632,
      4302,
      3975,
      3884,
      3692,
      3516,
      3235,
      3085,
      3048,
      2927,
      2919,
      2834,
      2607,
      2523,
      2233,
      2134,
      2134,
      1953,
      1876,
      1690,
      1435,
      1395,
      1282,
      1035,
      914,
      875,
      765,
      562,
      496,
      364,
      292,
      209,
      43
    ],
    "swim:geom": "approach",
    "swim:timestamps": [
      1791056782,
      1791056809,
      1791056840,
      1791056853,
      1791056885,
      1791056908,
      1791056936,
      1791056963,
      1791056992,
      1791057026,
      1791057030,
      1791057051,
      1791057082,
      1791057098,
      1791057148,
      1791057178,
      1791057194,
      1791057233,
      1791057253,
      1791057293,
      1791057326,
      1791057332,
      1791057347,
      1791057386,
      1791057417,
      1791057447,
      1791057468,
      1791057505,
      1791057538,
      1791057565,
      1791057588,
      1791057609,
      1791057651
    ],
    "wof:geomhash": "6a7b54938a0ad280d1291e701810dae3",
    "wof:id": 2048499391,
    "wof:repo": "sfomuseum-data-flights-2026-10"
  },
  "bbox": [
    -122.35339,
    37.46707,
    -121.2465,
    37.61204
  ],
  "geometry": {"type":"LineString","coordinates":[[-121.2465,37.59506],[-121.29801,37.5885],[-121.35701,37.58205],[-121.38199,37.5792],[-121.44222,37.57219],[-121.48519,37.56718],[-121.53477,37.56135],[-121.58043,37.55602],[-121.62708,37.55007],[-121.68077,37.53737],[-121.6868,37.53592],[-121.71499,37.52569],[-121.73862,37.49559],[-121.74928,37.47917],[-121.8147,37.46707],[-121.85749,37.47384],[-121.88013,37.47742],[-121.93449,37.48587],[-121.96288,37.49041],[-122.01068,37.50225],[-122.04991,37.51494],[-122.05709,37.51725],[-122.07548,37.52324],[-122.121,37.538],[-122.15555,37.54907],[-122.18416,37.55841],[-122.20262,37.56435],[-122.23521,37.57478],[-122.2623,37.58353],[-122.28642,37.59044],[-122.30511,37.59598],[-122.32182,37.60097],[-122.35339,37.61204]]}
}
