{
  "id": 2048550987,
  "type": "Feature",
  "properties": {
    "geom:area": 0,
    "geom:bbox": "-122.364860,37.630390,-121.245570,37.954520",
    "geom:latitude": 37.80780040919661,
    "geom:longitude": -121.81090619818234,
    "src:alt_label": "swim-takeoff",
    "src:geom": "swim",
    "swim:elevations": [
      91,
      462,
      560,
      756,
      833,
      1006,
      1249,
      1338,
      1786,
      1913,
      2352,
      2641,
      2884,
      3064,
      3293,
      3519,
      3625,
      3992,
      4173,
      4297,
      4800,
      5097,
      5131,
      5346,
      5661
    ],
    "swim:geom": "takeoff",
    "swim:timestamps": [
      1791464128,
      1791464158,
      1791464166,
      1791464190,
      1791464202,
      1791464227,
      1791464274,
      1791464287,
      1791464334,
      1791464347,
      1791464394,
      1791464421,
      1791464444,
      1791464461,
      1791464488,
      1791464518,
      1791464533,
      1791464576,
      1791464599,
      1791464620,
      1791464687,
      1791464727,
      1791464732,
      1791464765,
      1791464808
    ],
    "wof:geomhash": "def412d5bc7638ea2bc241e08131be64",
    "wof:id": 2048550987,
    "wof:repo": "sfomuseum-data-flights-2026-10"
  },
  "bbox": [
    -122.36486,
    37.63039,
    -121.24557,
    37.95452
  ],
  "geometry": {"type":"LineString","coordinates":[[-122.36486,37.63039],[-122.34279,37.64777],[-122.33505,37.65106],[-122.31253,37.65993],[-122.30102,37.66426],[-122.27589,37.67326],[-122.22097,37.69257],[-122.20398,37.69882],[-122.14055,37.72338],[-122.12316,37.73049],[-122.05117,37.75043],[-122.00909,37.76109],[-121.97119,37.77084],[-121.94408,37.77808],[-121.89801,37.78984],[-121.84612,37.80278],[-121.81918,37.80959],[-121.73645,37.8307],[-121.69128,37.84233],[-121.64979,37.85282],[-121.50987,37.88873],[-121.42272,37.91102],[-121.41267,37.91359],[-121.34152,37.93142],[-121.24557,37.95452]]}
}
