{
  "id": 2048554103,
  "type": "Feature",
  "properties": {
    "date:inception_lower": "2026-10-09",
    "date:inception_upper": "2026-10-09",
    "edtf:cessation": "",
    "edtf:inception": "2026-10-09",
    "flysfo:actual_timestamp": -1,
    "flysfo:airline": "CM",
    "flysfo:base_airline": "",
    "flysfo:base_flight_number": "4333",
    "flysfo:date": "2026-10-09",
    "flysfo:estimated_timestamp": 1791578940,
    "flysfo:event": "A",
    "flysfo:flight_number": "CM2445",
    "flysfo:gate": "F7",
    "flysfo:journey": "FAT-SFO",
    "flysfo:scheduled_timestamp": 1791576900,
    "flysfo:timestamp": 1791578940,
    "geom:area": 0,
    "geom:bbox": "-122.370943,36.768728,-119.721272,37.617990",
    "geom:latitude": 37.193359,
    "geom:longitude": -121.0461075,
    "iata:airline": "CM",
    "iata:base_airline": "",
    "icao:airline": "CMP",
    "icao:base_airline": "ACA",
    "lbl:latitude": 37.61799,
    "lbl:longitude": -122.370943,
    "sfomuseum:airline_id": 1159284211,
    "sfomuseum:arrival_id": 102527513,
    "sfomuseum:base_flight_id": "20261009-A-ACA-4333",
    "sfomuseum:departure_id": 102530717,
    "sfomuseum:flight_id": "20261009-A-CMP-2445",
    "sfomuseum:flight_number": [
      "CMP2445",
      "CM2445"
    ],
    "sfomuseum:placetype": "flight",
    "src:geom": "flysfo",
    "wof:belongsto": [
      1947304067,
      102527513,
      1947304451,
      102191575,
      85633793,
      102087579,
      85922583,
      554784711,
      85688637,
      1947304465,
      1947304447,
      102085387
    ],
    "wof:country": "US",
    "wof:created": 1791648282,
    "wof:geomhash": "b157be63e9453882f41d2e530854b6a2",
    "wof:hierarchy": [
      {
        "building_id": 1947304067,
        "campus_id": 102527513,
        "concourse_id": 1947304451,
        "continent_id": 102191575,
        "country_id": 85633793,
        "county_id": 102087579,
        "custom_id": 2048554103,
        "flight_id": 2048554103,
        "locality_id": 85922583,
        "postalcode_id": 554784711,
        "region_id": 85688637,
        "venue_id": 1947304465,
        "wing_id": 1947304447
      },
      {
        "building_id": 1947304067,
        "campus_id": 102527513,
        "concourse_id": 1947304451,
        "continent_id": 102191575,
        "country_id": 85633793,
        "county_id": 102085387,
        "custom_id": 2048554103,
        "flight_id": 2048554103,
        "region_id": 85688637,
        "venue_id": 1947304465,
        "wing_id": 1947304447
      }
    ],
    "wof:id": 2048554103,
    "wof:involves": [
      102527513,
      102530717,
      1159284211,
      1947304465,
      1159283597
    ],
    "wof:lastmodified": 1791648282,
    "wof:name": "CM2445 (FAT-SFO)",
    "wof:parent_id": 1947304465,
    "wof:placetype": "custom",
    "wof:placetype_alt": [
      "flight"
    ],
    "wof:repo": "sfomuseum-data-flights-2026-10",
    "wof:superseded_by": [],
    "wof:supersedes": []
  },
  "bbox": [
    -122.370943,
    36.768728,
    -119.721272,
    37.61799
  ],
  "geometry": {"type":"MultiPoint","coordinates":[[-119.721272,36.768728],[-122.370943,37.61799]]}
}
