{
  "id": 2048499103,
  "type": "Feature",
  "properties": {
    "date:inception_lower": "2026-10-02",
    "date:inception_upper": "2026-10-02",
    "edtf:cessation": "",
    "edtf:inception": "2026-10-02",
    "flysfo:actual_timestamp": -1,
    "flysfo:airline": "VA",
    "flysfo:base_airline": "",
    "flysfo:base_flight_number": "9139",
    "flysfo:date": "2026-10-02",
    "flysfo:estimated_timestamp": 1791010440,
    "flysfo:event": "D",
    "flysfo:flight_number": "VA8255",
    "flysfo:gate": "E10",
    "flysfo:journey": "SFO-BNA",
    "flysfo:scheduled_timestamp": 1791010740,
    "flysfo:timestamp": 1791010740,
    "geom:area": 0,
    "geom:bbox": "-122.370943,36.126387,-86.676652,37.617990",
    "geom:latitude": 36.8721885,
    "geom:longitude": -104.5237975,
    "iata:airline": "VA",
    "iata:base_airline": "",
    "icao:airline": "VOZ",
    "icao:base_airline": "ANZ",
    "lbl:latitude": 37.619451,
    "lbl:longitude": -122.384404,
    "sfomuseum:airline_id": 1159285485,
    "sfomuseum:arrival_id": 102525035,
    "sfomuseum:base_flight_id": "20261002-D-ANZ-9139",
    "sfomuseum:departure_id": 102527513,
    "sfomuseum:flight_id": "20261002-D-VOZ-8255",
    "sfomuseum:flight_number": [
      "VOZ8255",
      "VA8255"
    ],
    "sfomuseum:placetype": "flight",
    "src:geom": "flysfo",
    "wof:belongsto": [
      1947304067,
      102527513,
      1947304511,
      102191575,
      85633793,
      102087579,
      85922583,
      554784711,
      85688637,
      1947304519,
      1947304447,
      102085387
    ],
    "wof:country": "US",
    "wof:created": 1791044238,
    "wof:geomhash": "36f645f844d4838b633d7fed3f06d4a5",
    "wof:hierarchy": [
      {
        "building_id": 1947304067,
        "campus_id": 102527513,
        "concourse_id": 1947304511,
        "continent_id": 102191575,
        "country_id": 85633793,
        "county_id": 102087579,
        "custom_id": 2048499103,
        "flight_id": 2048499103,
        "locality_id": 85922583,
        "postalcode_id": 554784711,
        "region_id": 85688637,
        "venue_id": 1947304519,
        "wing_id": 1947304447
      },
      {
        "building_id": 1947304067,
        "campus_id": 102527513,
        "concourse_id": 1947304511,
        "continent_id": 102191575,
        "country_id": 85633793,
        "county_id": 102085387,
        "custom_id": 2048499103,
        "flight_id": 2048499103,
        "region_id": 85688637,
        "venue_id": 1947304519,
        "wing_id": 1947304447
      }
    ],
    "wof:id": 2048499103,
    "wof:involves": [
      102525035,
      102527513,
      1159285485,
      1947304519,
      1159283697
    ],
    "wof:lastmodified": 1791044238,
    "wof:name": "VA8255 (SFO-BNA)",
    "wof:parent_id": 1947304519,
    "wof:placetype": "custom",
    "wof:placetype_alt": [
      "flight"
    ],
    "wof:repo": "sfomuseum-data-flights-2026-10",
    "wof:superseded_by": [],
    "wof:supersedes": []
  },
  "bbox": [
    -122.370943,
    36.126387,
    -86.676652,
    37.61799
  ],
  "geometry": {"type":"MultiPoint","coordinates":[[-122.370943,37.61799],[-86.676652,36.126387]]}
}
