{
  "id": 2048555535,
  "type": "Feature",
  "properties": {
    "date:inception_lower": "2026-10-09",
    "date:inception_upper": "2026-10-09",
    "edtf:cessation": "",
    "edtf:inception": "2026-10-09",
    "flysfo:actual_timestamp": -1,
    "flysfo:airline": "EK",
    "flysfo:base_airline": "",
    "flysfo:base_flight_number": "6156",
    "flysfo:date": "2026-10-09",
    "flysfo:estimated_timestamp": 1791583440,
    "flysfo:event": "A",
    "flysfo:flight_number": "EK6156",
    "flysfo:gate": "D9",
    "flysfo:journey": "IAH-SFO",
    "flysfo:scheduled_timestamp": 1791582540,
    "flysfo:timestamp": 1791583440,
    "geom:area": 0,
    "geom:bbox": "-122.370943,29.977186,-95.338444,37.617990",
    "geom:latitude": 33.797588,
    "geom:longitude": -108.8546935,
    "iata:airline": "EK",
    "iata:base_airline": "",
    "icao:airline": "UAE",
    "icao:base_airline": "UAE",
    "lbl:latitude": 37.61756,
    "lbl:longitude": -122.381052,
    "sfomuseum:airline_id": 1159284333,
    "sfomuseum:arrival_id": 102527513,
    "sfomuseum:base_flight_id": "20261009-A-UAE-6156",
    "sfomuseum:departure_id": 102534097,
    "sfomuseum:flight_id": "20261009-A-UAE-6156",
    "sfomuseum:flight_number": [
      "UAE6156",
      "EK6156"
    ],
    "sfomuseum:placetype": "flight",
    "src:geom": "flysfo",
    "wof:belongsto": [
      1947304067,
      102527513,
      1947304595,
      102191575,
      85633793,
      102087579,
      85922583,
      554784711,
      85688637,
      1947304609,
      1947304591,
      102085387
    ],
    "wof:country": "US",
    "wof:created": 1791648445,
    "wof:geomhash": "25dc9d98eae1cd54f40654c6c4fb6929",
    "wof:hierarchy": [
      {
        "building_id": 1947304067,
        "campus_id": 102527513,
        "concourse_id": 1947304595,
        "continent_id": 102191575,
        "country_id": 85633793,
        "county_id": 102087579,
        "custom_id": 2048555535,
        "flight_id": 2048555535,
        "locality_id": 85922583,
        "postalcode_id": 554784711,
        "region_id": 85688637,
        "venue_id": 1947304609,
        "wing_id": 1947304591
      },
      {
        "building_id": 1947304067,
        "campus_id": 102527513,
        "concourse_id": 1947304595,
        "continent_id": 102191575,
        "country_id": 85633793,
        "county_id": 102085387,
        "custom_id": 2048555535,
        "flight_id": 2048555535,
        "region_id": 85688637,
        "venue_id": 1947304609,
        "wing_id": 1947304591
      }
    ],
    "wof:id": 2048555535,
    "wof:involves": [
      102527513,
      102534097,
      1159284333,
      1947304609,
      1159284333
    ],
    "wof:lastmodified": 1791648445,
    "wof:name": "EK6156 (IAH-SFO)",
    "wof:parent_id": 1947304609,
    "wof:placetype": "custom",
    "wof:placetype_alt": [
      "flight"
    ],
    "wof:repo": "sfomuseum-data-flights-2026-10",
    "wof:superseded_by": [],
    "wof:supersedes": []
  },
  "bbox": [
    -122.370943,
    29.977186,
    -95.338444,
    37.61799
  ],
  "geometry": {"type":"MultiPoint","coordinates":[[-95.338444,29.977186],[-122.370943,37.61799]]}
}
