{
  "id": 2048546617,
  "type": "Feature",
  "properties": {
    "geom:area": 0,
    "geom:bbox": "-123.504940,37.259330,-122.153920,37.611890",
    "geom:latitude": 37.35442022000001,
    "geom:longitude": -122.71989469228066,
    "src:alt_label": "swim-approach",
    "src:geom": "swim",
    "swim:elevations": [
      5913,
      5678,
      5389,
      5271,
      4879,
      4726,
      4632,
      4325,
      4018,
      3869,
      3728,
      3216,
      3094,
      3049,
      3048,
      3048,
      2987,
      2961,
      2589,
      2438,
      2437,
      2438,
      2438,
      2438,
      2320,
      2081,
      2029,
      1891,
      1840,
      1799,
      1620,
      1536,
      1379,
      1124,
      950,
      820,
      701,
      663,
      517,
      333,
      207,
      191,
      113,
      66,
      51
    ],
    "swim:geom": "approach",
    "swim:timestamps": [
      1791496835,
      1791496861,
      1791496888,
      1791496901,
      1791496943,
      1791496961,
      1791496970,
      1791497006,
      1791497038,
      1791497055,
      1791497070,
      1791497125,
      1791497139,
      1791497155,
      1791497161,
      1791497203,
      1791497246,
      1791497251,
      1791497305,
      1791497337,
      1791497341,
      1791497365,
      1791497374,
      1791497415,
      1791497447,
      1791497484,
      1791497491,
      1791497515,
      1791497524,
      1791497539,
      1791497575,
      1791497587,
      1791497627,
      1791497663,
      1791497685,
      1791497727,
      1791497752,
      1791497762,
      1791497797,
      1791497842,
      1791497877,
      1791497881,
      1791497904,
      1791497916,
      1791497930
    ],
    "wof:geomhash": "11e129480cd2162084ac3c113aad4b6a",
    "wof:id": 2048546617,
    "wof:repo": "sfomuseum-data-flights-2026-10"
  },
  "bbox": [
    -123.50494,
    37.25933,
    -122.15392,
    37.61189
  ],
  "geometry": {"type":"LineString","coordinates":[[-123.50494,37.30522],[-123.44706,37.30123],[-123.38737,37.29687],[-123.35839,37.29468],[-123.27008,37.2883],[-123.23221,37.28545],[-123.21361,37.28407],[-123.13875,37.27857],[-123.07647,37.27386],[-123.04254,37.27142],[-123.01172,37.26911],[-122.90649,37.26086],[-122.88134,37.25933],[-122.85128,37.26159],[-122.84031,37.26342],[-122.76416,37.28078],[-122.68831,37.2983],[-122.68099,37.30005],[-122.59546,37.3201],[-122.54518,37.33169],[-122.53934,37.33305],[-122.50247,37.34165],[-122.48895,37.34465],[-122.427,37.35898],[-122.37968,37.36985],[-122.32387,37.38269],[-122.3133,37.38513],[-122.27869,37.39309],[-122.26542,37.39612],[-122.24391,37.40112],[-122.19764,37.41335],[-122.18597,37.4218],[-122.15532,37.45424],[-122.15392,37.49059],[-122.16204,37.51146],[-122.18872,37.54042],[-122.21249,37.55035],[-122.22223,37.55447],[-122.25464,37.5681],[-122.29207,37.58383],[-122.31816,37.59484],[-122.32087,37.59597],[-122.33859,37.6034],[-122.34826,37.60749],[-122.3588,37.61189]]}
}
