{
  "id": 2048552117,
  "type": "Feature",
  "properties": {
    "date:inception_lower": "2026-10-08",
    "date:inception_upper": "2026-10-08",
    "edtf:cessation": "",
    "edtf:inception": "2026-10-08",
    "flysfo:actual_timestamp": -1,
    "flysfo:airline": "WS",
    "flysfo:base_airline": "",
    "flysfo:base_flight_number": "4531",
    "flysfo:date": "2026-10-08",
    "flysfo:estimated_timestamp": 1791505380,
    "flysfo:event": "D",
    "flysfo:flight_number": "WS7673",
    "flysfo:gate": "C5",
    "flysfo:journey": "SFO-SLC",
    "flysfo:scheduled_timestamp": 1791504780,
    "flysfo:timestamp": 1791505380,
    "geom:area": 0,
    "geom:bbox": "-122.370943,37.617990,-111.980566,40.782170",
    "geom:latitude": 39.20008,
    "geom:longitude": -117.1757545,
    "iata:airline": "WS",
    "iata:base_airline": "",
    "icao:airline": "WJA",
    "icao:base_airline": "VIR",
    "lbl:latitude": 37.615184,
    "lbl:longitude": -122.382965,
    "sfomuseum:airline_id": 1159285523,
    "sfomuseum:arrival_id": 102527363,
    "sfomuseum:base_flight_id": "20261008-D-VIR-4531",
    "sfomuseum:departure_id": 102527513,
    "sfomuseum:flight_id": "20261008-D-WJA-7673",
    "sfomuseum:flight_number": [
      "WJA7673",
      "WS7673"
    ],
    "sfomuseum:placetype": "flight",
    "src:geom": "flysfo",
    "wof:belongsto": [
      1947304067,
      102527513,
      1947304663,
      102191575,
      85633793,
      102087579,
      85922583,
      554784711,
      85688637,
      1947304675,
      1947304591,
      102085387
    ],
    "wof:country": "US",
    "wof:created": 1791562757,
    "wof:geomhash": "b2ae00b77ffd1072a2eb4148779a5d9e",
    "wof:hierarchy": [
      {
        "building_id": 1947304067,
        "campus_id": 102527513,
        "concourse_id": 1947304663,
        "continent_id": 102191575,
        "country_id": 85633793,
        "county_id": 102087579,
        "custom_id": 2048552117,
        "flight_id": 2048552117,
        "locality_id": 85922583,
        "postalcode_id": 554784711,
        "region_id": 85688637,
        "venue_id": 1947304675,
        "wing_id": 1947304591
      },
      {
        "building_id": 1947304067,
        "campus_id": 102527513,
        "concourse_id": 1947304663,
        "continent_id": 102191575,
        "country_id": 85633793,
        "county_id": 102085387,
        "custom_id": 2048552117,
        "flight_id": 2048552117,
        "region_id": 85688637,
        "venue_id": 1947304675,
        "wing_id": 1947304591
      }
    ],
    "wof:id": 2048552117,
    "wof:involves": [
      102527363,
      102527513,
      1159285523,
      1947304675,
      1159285483
    ],
    "wof:lastmodified": 1791562757,
    "wof:name": "WS7673 (SFO-SLC)",
    "wof:parent_id": 1947304675,
    "wof:placetype": "custom",
    "wof:placetype_alt": [
      "flight"
    ],
    "wof:repo": "sfomuseum-data-flights-2026-10",
    "wof:superseded_by": [],
    "wof:supersedes": []
  },
  "bbox": [
    -122.370943,
    37.61799,
    -111.980566,
    40.78217
  ],
  "geometry": {"type":"MultiPoint","coordinates":[[-122.370943,37.61799],[-111.980566,40.78217]]}
}
