{
  "id": 2048520031,
  "type": "Feature",
  "properties": {
    "geom:area": 0,
    "geom:bbox": "-122.361780,37.491350,-121.266080,37.614760",
    "geom:latitude": 37.54627559322006,
    "geom:longitude": -121.81878992327191,
    "src:alt_label": "swim-approach",
    "src:geom": "swim",
    "swim:elevations": [
      4671,
      4422,
      4237,
      4144,
      3693,
      3462,
      3200,
      3139,
      2966,
      2761,
      2645,
      2505,
      2372,
      2196,
      2100,
      1961,
      1889,
      1751,
      1518,
      1495,
      1440,
      1403,
      1152,
      1047,
      871,
      761,
      750,
      495,
      395,
      373,
      138,
      17,
      0
    ],
    "swim:geom": "approach",
    "swim:timestamps": [
      1791240386,
      1791240409,
      1791240427,
      1791240436,
      1791240478,
      1791240502,
      1791240535,
      1791240553,
      1791240595,
      1791240624,
      1791240639,
      1791240666,
      1791240687,
      1791240714,
      1791240732,
      1791240766,
      1791240786,
      1791240812,
      1791240862,
      1791240875,
      1791240892,
      1791240911,
      1791240959,
      1791240970,
      1791240996,
      1791241016,
      1791241022,
      1791241054,
      1791241074,
      1791241083,
      1791241139,
      1791241166,
      1791241172
    ],
    "wof:geomhash": "8e84f7617176af5afdcca84a285e1055",
    "wof:id": 2048520031,
    "wof:repo": "sfomuseum-data-flights-2026-10"
  },
  "bbox": [
    -122.36178,
    37.49135,
    -121.26608,
    37.61476
  ],
  "geometry": {"type":"LineString","coordinates":[[-121.26608,37.59221],[-121.31452,37.58654],[-121.35184,37.5825],[-121.37058,37.5804],[-121.45725,37.57052],[-121.50614,37.56466],[-121.57224,37.55704],[-121.60634,37.55307],[-121.6766,37.53854],[-121.72303,37.52741],[-121.74702,37.52161],[-121.78938,37.5115],[-121.82102,37.50392],[-121.86164,37.49424],[-121.88926,37.49135],[-121.93915,37.49271],[-121.96702,37.49337],[-122.00175,37.49901],[-122.0661,37.5202],[-122.08264,37.5255],[-122.10347,37.53215],[-122.12616,37.5394],[-122.1779,37.55624],[-122.18945,37.56003],[-122.21513,37.56824],[-122.23401,37.5743],[-122.23922,37.57606],[-122.26535,37.58453],[-122.28204,37.58912],[-122.28906,37.59124],[-122.33637,37.6051],[-122.35734,37.61363],[-122.36178,37.61476]]}
}
