{
  "id": 2048502905,
  "type": "Feature",
  "properties": {
    "geom:area": 0,
    "geom:bbox": "-122.343440,37.492470,-121.244560,37.608060",
    "geom:latitude": 37.54619719518652,
    "geom:longitude": -121.79855857526705,
    "src:alt_label": "swim-approach",
    "src:geom": "swim",
    "swim:elevations": [
      4670,
      4441,
      4180,
      3974,
      3626,
      3169,
      3087,
      2941,
      2667,
      2524,
      2168,
      1980,
      1917,
      1714,
      1494,
      1375,
      1239,
      984,
      915,
      761,
      599,
      362,
      328,
      162,
      99
    ],
    "swim:geom": "approach",
    "swim:timestamps": [
      1791030775,
      1791030797,
      1791030825,
      1791030845,
      1791030882,
      1791030940,
      1791030966,
      1791030998,
      1791031037,
      1791031063,
      1791031123,
      1791031167,
      1791031179,
      1791031218,
      1791031254,
      1791031272,
      1791031299,
      1791031344,
      1791031361,
      1791031391,
      1791031420,
      1791031468,
      1791031480,
      1791031519,
      1791031532
    ],
    "wof:geomhash": "cd47b2c344341ab901ffee919459eaad",
    "wof:id": 2048502905,
    "wof:repo": "sfomuseum-data-flights-2026-10"
  },
  "bbox": [
    -122.34344,
    37.49247,
    -121.24456,
    37.60806
  ],
  "geometry": {"type":"LineString","coordinates":[[-121.24456,37.59529],[-121.2921,37.58885],[-121.34837,37.58303],[-121.39077,37.57815],[-121.46464,37.56954],[-121.57745,37.55634],[-121.62539,37.55037],[-121.67791,37.53809],[-121.74038,37.52314],[-121.77888,37.51401],[-121.86879,37.49298],[-121.93608,37.49247],[-121.95447,37.49297],[-122.00943,37.50166],[-122.05687,37.51702],[-122.0798,37.52448],[-122.11348,37.53533],[-122.16373,37.55169],[-122.1823,37.55773],[-122.21432,37.568],[-122.24477,37.57779],[-122.28991,37.5915],[-122.29968,37.5946],[-122.33251,37.60448],[-122.34344,37.60806]]}
}
