{
  "id": 2048560757,
  "type": "Feature",
  "properties": {
    "geom:area": 0,
    "geom:bbox": "-122.362890,37.634000,-122.215490,38.493560",
    "geom:latitude": 38.03170505594828,
    "geom:longitude": -122.23882801397026,
    "src:alt_label": "swim-takeoff",
    "src:geom": "swim",
    "swim:elevations": [
      152,
      635,
      1081,
      1243,
      1379,
      1736,
      2218,
      2348,
      2674,
      3040,
      3259,
      3562,
      3819,
      4155,
      4289,
      4615,
      4788,
      5237,
      5437,
      5666,
      6075,
      6254
    ],
    "swim:geom": "takeoff",
    "swim:timestamps": [
      1791543278,
      1791543312,
      1791543353,
      1791543382,
      1791543404,
      1791543438,
      1791543472,
      1791543482,
      1791543506,
      1791543533,
      1791543549,
      1791543585,
      1791543614,
      1791543657,
      1791543676,
      1791543716,
      1791543730,
      1791543769,
      1791543789,
      1791543810,
      1791543858,
      1791543875
    ],
    "wof:geomhash": "2d21f8d6344e77251924221e1d5df52b",
    "wof:id": 2048560757,
    "wof:repo": "sfomuseum-data-flights-2026-10"
  },
  "bbox": [
    -122.36289,
    37.634,
    -122.21549,
    38.49356
  ],
  "geometry": {"type":"LineString","coordinates":[[-122.36289,37.634],[-122.33764,37.65404],[-122.30126,37.6717],[-122.27302,37.68752],[-122.24684,37.70177],[-122.21549,37.73391],[-122.21621,37.77796],[-122.21662,37.79087],[-122.21762,37.82471],[-122.21891,37.86214],[-122.21931,37.88474],[-122.22058,37.93813],[-122.22201,37.98347],[-122.22407,38.05964],[-122.22455,38.09532],[-122.22646,38.17202],[-122.22752,38.20042],[-122.23099,38.27824],[-122.23198,38.31711],[-122.23397,38.36038],[-122.24871,38.45654],[-122.25432,38.49356]]}
}
