{
  "id": 2048545831,
  "type": "Feature",
  "properties": {
    "geom:area": 0,
    "geom:bbox": "-122.353250,37.437390,-121.269860,37.611900",
    "geom:latitude": 37.53679879965989,
    "geom:longitude": -121.81823445803067,
    "src:alt_label": "swim-approach",
    "src:geom": "swim",
    "swim:elevations": [
      4639,
      4524,
      4255,
      4026,
      3669,
      3599,
      3416,
      3286,
      2745,
      2655,
      2475,
      2414,
      2345,
      2188,
      2082,
      1887,
      1837,
      1341,
      1189,
      1058,
      1005,
      866,
      753,
      692,
      535,
      456,
      332,
      242,
      151,
      77,
      46
    ],
    "swim:geom": "approach",
    "swim:timestamps": [
      1791470095,
      1791470108,
      1791470140,
      1791470168,
      1791470215,
      1791470229,
      1791470264,
      1791470292,
      1791470358,
      1791470375,
      1791470404,
      1791470444,
      1791470469,
      1791470498,
      1791470535,
      1791470574,
      1791470587,
      1791470657,
      1791470683,
      1791470724,
      1791470738,
      1791470782,
      1791470804,
      1791470818,
      1791470845,
      1791470865,
      1791470890,
      1791470913,
      1791470938,
      1791470959,
      1791470972
    ],
    "wof:geomhash": "9e8913566e682f8fe599d4e26e8713cc",
    "wof:id": 2048545831,
    "wof:repo": "sfomuseum-data-flights-2026-10"
  },
  "bbox": [
    -122.35325,
    37.43739,
    -121.26986,
    37.6119
  ],
  "geometry": {"type":"LineString","coordinates":[[-121.26986,37.59178],[-121.29717,37.58859],[-121.36407,37.58116],[-121.4207,37.5746],[-121.50964,37.56431],[-121.53355,37.56145],[-121.59325,37.55446],[-121.63454,37.54802],[-121.72746,37.52616],[-121.75129,37.52052],[-121.78482,37.50319],[-121.82369,37.47122],[-121.84834,37.45099],[-121.88321,37.43739],[-121.93176,37.45172],[-121.96955,37.48079],[-121.98187,37.48995],[-122.05927,37.51769],[-122.08742,37.52677],[-122.12982,37.5406],[-122.14429,37.54526],[-122.18755,37.55929],[-122.20961,37.5665],[-122.22357,37.57104],[-122.25166,37.58005],[-122.27083,37.58586],[-122.29326,37.59236],[-122.31158,37.5978],[-122.33091,37.60343],[-122.34509,37.60845],[-122.35325,37.6119]]}
}
