{
  "id": 2048525465,
  "type": "Feature",
  "properties": {
    "geom:area": 0,
    "geom:bbox": "-122.470930,37.191410,-121.256170,37.716200",
    "geom:latitude": 37.39129686104912,
    "geom:longitude": -121.99519495513981,
    "src:alt_label": "swim-takeoff",
    "src:geom": "swim",
    "swim:elevations": [
      152,
      532,
      871,
      1147,
      1412,
      1700,
      2247,
      2877,
      3235,
      3487,
      3630,
      4052,
      4229,
      4838,
      4891,
      5221,
      5517,
      5845,
      6261,
      6557,
      6881,
      7064,
      7276,
      7691,
      8047,
      8210,
      8230,
      8230,
      8230,
      8230,
      8230
    ],
    "swim:geom": "takeoff",
    "swim:timestamps": [
      1791223479,
      1791223512,
      1791223541,
      1791223574,
      1791223613,
      1791223636,
      1791223667,
      1791223703,
      1791223724,
      1791223751,
      1791223760,
      1791223797,
      1791223811,
      1791223856,
      1791223860,
      1791223882,
      1791223906,
      1791223931,
      1791223972,
      1791224002,
      1791224038,
      1791224060,
      1791224084,
      1791224119,
      1791224153,
      1791224171,
      1791224205,
      1791224237,
      1791224266,
      1791224290,
      1791224316
    ],
    "wof:geomhash": "7dfec0aef4bd3695da6a9b59cd83f56a",
    "wof:id": 2048525465,
    "wof:repo": "sfomuseum-data-flights-2026-10"
  },
  "bbox": [
    -122.47093,
    37.19141,
    -121.25617,
    37.7162
  ],
  "geometry": {"type":"LineString","coordinates":[[-122.36678,37.63225],[-122.36056,37.65553],[-122.36198,37.67792],[-122.37128,37.703],[-122.41923,37.7162],[-122.44781,37.69835],[-122.45734,37.6574],[-122.46206,37.60901],[-122.46516,37.58124],[-122.46942,37.54296],[-122.47093,37.52858],[-122.44879,37.47627],[-122.42621,37.46154],[-122.3488,37.41859],[-122.34098,37.4154],[-122.29488,37.4022],[-122.24487,37.39218],[-122.19088,37.38155],[-122.10081,37.36393],[-122.03385,37.35069],[-121.94846,37.33369],[-121.89716,37.32345],[-121.8375,37.31147],[-121.75363,37.29432],[-121.66937,37.27717],[-121.6254,37.2681],[-121.54202,37.25134],[-121.4631,37.23537],[-121.39095,37.22014],[-121.32715,37.20682],[-121.25617,37.19141]]}
}
