{
  "id": 2048511333,
  "type": "Feature",
  "properties": {
    "geom:area": 0,
    "geom:bbox": "-122.350490,37.491360,-121.283520,37.610710",
    "geom:latitude": 37.54482324656514,
    "geom:longitude": -121.82160525907301,
    "src:alt_label": "swim-approach",
    "src:geom": "swim",
    "swim:elevations": [
      4633,
      4582,
      4274,
      3773,
      3632,
      3438,
      3197,
      3050,
      2994,
      2902,
      2778,
      2479,
      2443,
      2283,
      2190,
      2083,
      1999,
      1885,
      1841,
      1605,
      1375,
      1195,
      1001,
      929,
      829,
      629,
      566,
      330,
      254,
      161,
      58
    ],
    "swim:geom": "approach",
    "swim:timestamps": [
      1791103437,
      1791103443,
      1791103474,
      1791103521,
      1791103537,
      1791103561,
      1791103600,
      1791103627,
      1791103642,
      1791103660,
      1791103680,
      1791103731,
      1791103737,
      1791103767,
      1791103785,
      1791103806,
      1791103826,
      1791103853,
      1791103865,
      1791103902,
      1791103940,
      1791103965,
      1791103997,
      1791104007,
      1791104029,
      1791104060,
      1791104072,
      1791104128,
      1791104143,
      1791104166,
      1791104187
    ],
    "wof:geomhash": "7aa7521e23a4bf1c3dcf168ed5784998",
    "wof:id": 2048511333,
    "wof:repo": "sfomuseum-data-flights-2026-10"
  },
  "bbox": [
    -122.35049,
    37.49136,
    -121.28352,
    37.61071
  ],
  "geometry": {"type":"LineString","coordinates":[[-121.28352,37.59002],[-121.29482,37.58875],[-121.35134,37.58258],[-121.43502,37.57297],[-121.46486,37.56952],[-121.50635,37.56478],[-121.57726,37.55625],[-121.62671,37.55003],[-121.65159,37.54436],[-121.68202,37.53717],[-121.71275,37.52976],[-121.78872,37.51165],[-121.79739,37.50965],[-121.83977,37.49936],[-121.86448,37.49364],[-121.89646,37.49136],[-121.92569,37.49217],[-121.967,37.49333],[-121.98409,37.4949],[-122.03479,37.50989],[-122.08773,37.52709],[-122.12227,37.53811],[-122.16204,37.55111],[-122.17481,37.55525],[-122.20028,37.56355],[-122.23595,37.57509],[-122.24846,37.57905],[-122.30007,37.59438],[-122.31384,37.59857],[-122.33318,37.60443],[-122.35049,37.61071]]}
}
