{
  "id": 2048553681,
  "type": "Feature",
  "properties": {
    "geom:area": 0,
    "geom:bbox": "-122.886680,37.410890,-122.148230,38.465270",
    "geom:latitude": 37.8235853279311,
    "geom:longitude": -122.51102143418515,
    "src:alt_label": "swim-approach",
    "src:geom": "swim",
    "swim:elevations": [
      7051,
      6934,
      6783,
      6731,
      6602,
      6251,
      5926,
      5789,
      5675,
      5514,
      5056,
      4735,
      4653,
      4462,
      4303,
      4065,
      3790,
      3750,
      3616,
      3563,
      3477,
      3384,
      3353,
      3353,
      3101,
      2876,
      2550,
      2439,
      2147,
      1672,
      1522,
      1524,
      1524,
      1524,
      1524,
      1524,
      1462,
      1336,
      1076,
      896,
      789,
      705,
      630,
      449,
      395,
      248,
      68,
      31
    ],
    "swim:geom": "approach",
    "swim:timestamps": [
      1791539158,
      1791539185,
      1791539212,
      1791539223,
      1791539250,
      1791539302,
      1791539334,
      1791539347,
      1791539360,
      1791539372,
      1791539423,
      1791539457,
      1791539465,
      1791539485,
      1791539502,
      1791539526,
      1791539574,
      1791539587,
      1791539630,
      1791539653,
      1791539666,
      1791539689,
      1791539705,
      1791539737,
      1791539780,
      1791539809,
      1791539847,
      1791539858,
      1791539890,
      1791539937,
      1791539960,
      1791539989,
      1791539996,
      1791540026,
      1791540031,
      1791540053,
      1791540072,
      1791540098,
      1791540146,
      1791540178,
      1791540206,
      1791540227,
      1791540245,
      1791540291,
      1791540304,
      1791540338,
      1791540380,
      1791540392
    ],
    "wof:geomhash": "79e9ecca9b5855770eacfa906307fffd",
    "wof:id": 2048553681,
    "wof:repo": "sfomuseum-data-flights-2026-10"
  },
  "bbox": [
    -122.88668,
    37.41089,
    -122.14823,
    38.46527
  ],
  "geometry": {"type":"LineString","coordinates":[[-122.88668,38.46527],[-122.86363,38.41902],[-122.84011,38.37155],[-122.83087,38.35283],[-122.80813,38.30665],[-122.76593,38.2183],[-122.74921,38.1616],[-122.74294,38.14017],[-122.73657,38.11833],[-122.73023,38.09678],[-122.70596,38.01279],[-122.68986,37.95666],[-122.68595,37.94332],[-122.67615,37.91305],[-122.66003,37.88798],[-122.6296,37.85847],[-122.5709,37.8031],[-122.5562,37.78916],[-122.50967,37.745],[-122.48577,37.72264],[-122.47309,37.71087],[-122.45243,37.69125],[-122.4373,37.67732],[-122.40804,37.64942],[-122.3688,37.61245],[-122.35003,37.58548],[-122.33211,37.54873],[-122.32597,37.53867],[-122.30746,37.50845],[-122.2794,37.46167],[-122.26543,37.43887],[-122.24191,37.4137],[-122.23309,37.41089],[-122.19793,37.41895],[-122.19388,37.42132],[-122.1713,37.43497],[-122.16079,37.4504],[-122.14823,37.4742],[-122.15704,37.51643],[-122.17937,37.53611],[-122.20386,37.54686],[-122.22079,37.55394],[-122.23528,37.56002],[-122.2739,37.5762],[-122.2844,37.58061],[-122.31148,37.59206],[-122.34496,37.60603],[-122.35481,37.61023]]}
}
