{
  "id": 2048524853,
  "type": "Feature",
  "properties": {
    "geom:area": 0,
    "geom:bbox": "-122.268160,37.689370,-122.232570,38.517540",
    "geom:latitude": 38.09991198015272,
    "geom:longitude": -122.24104628130041,
    "src:alt_label": "swim-takeoff",
    "src:geom": "swim",
    "swim:elevations": [
      1271,
      1682,
      2090,
      2521,
      2975,
      3199,
      3429,
      3536,
      4097,
      4233,
      4760,
      5262,
      5633,
      5827,
      6398,
      6538,
      7039,
      7325,
      7578,
      7959
    ],
    "swim:geom": "takeoff",
    "swim:timestamps": [
      1791228656,
      1791228688,
      1791228715,
      1791228745,
      1791228776,
      1791228791,
      1791228812,
      1791228827,
      1791228866,
      1791228875,
      1791228917,
      1791228954,
      1791228983,
      1791228998,
      1791229044,
      1791229058,
      1791229105,
      1791229132,
      1791229152,
      1791229174
    ],
    "wof:geomhash": "0cb82e0424f4ad7b1149a934f5cfc61c",
    "wof:id": 2048524853,
    "wof:repo": "sfomuseum-data-flights-2026-10"
  },
  "bbox": [
    -122.26816,
    37.68937,
    -122.23257,
    38.51754
  ],
  "geometry": {"type":"LineString","coordinates":[[-122.26816,37.68937],[-122.24457,37.71973],[-122.24566,37.75288],[-122.2471,37.79127],[-122.24624,37.83177],[-122.24566,37.85304],[-122.24476,37.88315],[-122.24413,37.90489],[-122.24254,37.96735],[-122.24187,37.98186],[-122.24022,38.0508],[-122.23904,38.1156],[-122.23676,38.16566],[-122.23568,38.19243],[-122.23321,38.27468],[-122.23257,38.30029],[-122.2353,38.38831],[-122.24038,38.43759],[-122.24442,38.47628],[-122.24938,38.51754]]}
}
