{
  "id": 2048485165,
  "type": "Feature",
  "properties": {
    "geom:area": 0,
    "geom:bbox": "-122.354120,36.727600,-121.883170,37.609870",
    "geom:latitude": 37.21414948186753,
    "geom:longitude": -122.14878202695047,
    "src:alt_label": "swim-approach",
    "src:geom": "swim",
    "swim:elevations": [
      4692,
      4460,
      4185,
      3992,
      3591,
      3373,
      3209,
      3150,
      2973,
      2742,
      2743,
      2743,
      2743,
      2743,
      2743,
      2743,
      2578,
      2399,
      2263,
      1898,
      1829,
      1829,
      1829,
      1711,
      1575,
      1444,
      1249,
      1161,
      822,
      517,
      428,
      339,
      120,
      35
    ],
    "swim:geom": "approach",
    "swim:timestamps": [
      1790851629,
      1790851657,
      1790851689,
      1790851713,
      1790851761,
      1790851787,
      1790851820,
      1790851836,
      1790851861,
      1790851913,
      1790851926,
      1790851957,
      1790852004,
      1790852033,
      1790852043,
      1790852075,
      1790852112,
      1790852142,
      1790852166,
      1790852227,
      1790852272,
      1790852302,
      1790852325,
      1790852355,
      1790852380,
      1790852407,
      1790852458,
      1790852468,
      1790852499,
      1790852528,
      1790852557,
      1790852581,
      1790852632,
      1790852659
    ],
    "wof:geomhash": "02a194b18d2d93299246191f75ca825e",
    "wof:id": 2048485165,
    "wof:repo": "sfomuseum-data-flights-2026-10"
  },
  "bbox": [
    -122.35412,
    36.7276,
    -121.88317,
    37.60987
  ],
  "geometry": {"type":"LineString","coordinates":[[-121.88317,36.7276],[-121.90252,36.7721],[-121.9169,36.82295],[-121.92771,36.86154],[-121.94932,36.93847],[-121.96498,36.97752],[-122.0098,37.0103],[-122.03398,37.0234],[-122.0696,37.04288],[-122.14238,37.08336],[-122.15642,37.09422],[-122.18288,37.12412],[-122.22193,37.16906],[-122.24585,37.19634],[-122.25391,37.20558],[-122.28153,37.23703],[-122.31152,37.27133],[-122.3344,37.30192],[-122.34394,37.32834],[-122.30244,37.37512],[-122.24051,37.37513],[-122.20774,37.39662],[-122.18614,37.41531],[-122.15697,37.44056],[-122.14195,37.46452],[-122.15007,37.49431],[-122.18526,37.5375],[-122.19508,37.54228],[-122.22414,37.55531],[-122.25225,37.56705],[-122.27962,37.57856],[-122.30067,37.58748],[-122.33635,37.60245],[-122.35412,37.60987]]}
}
