{
  "id": 2048541863,
  "type": "Feature",
  "properties": {
    "geom:area": 0,
    "geom:bbox": "-122.362420,37.634750,-121.252540,38.122240",
    "geom:latitude": 37.893676148421456,
    "geom:longitude": -121.81459513742865,
    "src:alt_label": "swim-takeoff",
    "src:geom": "swim",
    "swim:elevations": [
      213,
      653,
      812,
      1149,
      1363,
      1589,
      1973,
      2532,
      2629,
      3253,
      3711,
      3899,
      4276,
      4506,
      4682,
      5043,
      5443,
      5602,
      5789,
      6014,
      6382,
      6639,
      6993,
      7043,
      7337
    ],
    "swim:geom": "takeoff",
    "swim:timestamps": [
      1791362533,
      1791362576,
      1791362592,
      1791362634,
      1791362667,
      1791362687,
      1791362717,
      1791362756,
      1791362763,
      1791362806,
      1791362839,
      1791362853,
      1791362876,
      1791362895,
      1791362910,
      1791362943,
      1791362981,
      1791363018,
      1791363048,
      1791363073,
      1791363111,
      1791363137,
      1791363177,
      1791363183,
      1791363220
    ],
    "wof:geomhash": "c48276b8913adbda7283f4372ba932c3",
    "wof:id": 2048541863,
    "wof:repo": "sfomuseum-data-flights-2026-10"
  },
  "bbox": [
    -122.36242,
    37.63475,
    -121.25254,
    38.12224
  ],
  "geometry": {"type":"LineString","coordinates":[[-122.36242,37.63475],[-122.32821,37.65658],[-122.31456,37.66448],[-122.27557,37.68619],[-122.23713,37.70642],[-122.21135,37.71979],[-122.17032,37.74116],[-122.1145,37.77],[-122.10406,37.77532],[-122.04015,37.80767],[-121.98866,37.83113],[-121.96736,37.83992],[-121.92934,37.85568],[-121.89965,37.86795],[-121.87477,37.87781],[-121.81976,37.89982],[-121.75348,37.92551],[-121.68598,37.95258],[-121.6241,37.97696],[-121.57237,37.99724],[-121.49092,38.02893],[-121.43571,38.05055],[-121.34936,38.08426],[-121.33599,38.08951],[-121.25254,38.12224]]}
}
