{
  "id": 2048538179,
  "type": "Feature",
  "properties": {
    "date:inception_lower": "2026-10-07",
    "date:inception_upper": "2026-10-07",
    "edtf:cessation": "",
    "edtf:inception": "2026-10-07",
    "flysfo:actual_timestamp": -1,
    "flysfo:airline": "UA",
    "flysfo:base_airline": "",
    "flysfo:base_flight_number": "9728",
    "flysfo:date": "2026-10-07",
    "flysfo:estimated_timestamp": 1791416220,
    "flysfo:event": "A",
    "flysfo:flight_number": "UA9728",
    "flysfo:gate": "G10",
    "flysfo:journey": "ZRH-SFO",
    "flysfo:scheduled_timestamp": 1791414900,
    "flysfo:timestamp": 1791416220,
    "geom:area": 0,
    "geom:bbox": "-122.370943,37.617990,8.559692,47.455793",
    "geom:latitude": 42.536891499999996,
    "geom:longitude": -56.9056255,
    "iata:airline": "UA",
    "iata:base_airline": "",
    "icao:airline": "UAL",
    "icao:base_airline": "UAL",
    "lbl:latitude": 37.618742,
    "lbl:longitude": -122.392935,
    "sfomuseum:airline_id": 1159285413,
    "sfomuseum:arrival_id": 102527513,
    "sfomuseum:base_flight_id": "20261007-A-UAL-9728",
    "sfomuseum:departure_id": 102553957,
    "sfomuseum:flight_id": "20261007-A-UAL-9728",
    "sfomuseum:flight_number": [
      "UAL9728",
      "UA9728"
    ],
    "sfomuseum:placetype": "flight",
    "src:geom": "flysfo",
    "wof:belongsto": [
      1947304067,
      102527513,
      1947304129,
      102191575,
      85633793,
      102087579,
      85922583,
      554784711,
      85688637,
      1947304157,
      1947304069,
      102085387
    ],
    "wof:country": "US",
    "wof:created": 1791475728,
    "wof:geomhash": "59c1b41e582a5fde12da38b49a2c462f",
    "wof:hierarchy": [
      {
        "building_id": 1947304067,
        "campus_id": 102527513,
        "concourse_id": 1947304129,
        "continent_id": 102191575,
        "country_id": 85633793,
        "county_id": 102087579,
        "custom_id": 2048538179,
        "flight_id": 2048538179,
        "locality_id": 85922583,
        "postalcode_id": 554784711,
        "region_id": 85688637,
        "venue_id": 1947304157,
        "wing_id": 1947304069
      },
      {
        "building_id": 1947304067,
        "campus_id": 102527513,
        "concourse_id": 1947304129,
        "continent_id": 102191575,
        "country_id": 85633793,
        "county_id": 102085387,
        "custom_id": 2048538179,
        "flight_id": 2048538179,
        "region_id": 85688637,
        "venue_id": 1947304157,
        "wing_id": 1947304069
      }
    ],
    "wof:id": 2048538179,
    "wof:involves": [
      102527513,
      102553957,
      1159285413,
      1947304157,
      1159285413
    ],
    "wof:lastmodified": 1791475728,
    "wof:name": "UA9728 (ZRH-SFO)",
    "wof:parent_id": 1947304157,
    "wof:placetype": "custom",
    "wof:placetype_alt": [
      "flight"
    ],
    "wof:repo": "sfomuseum-data-flights-2026-10",
    "wof:superseded_by": [],
    "wof:supersedes": []
  },
  "bbox": [
    -122.370943,
    37.61799,
    8.559692,
    47.455793
  ],
  "geometry": {"type":"MultiPoint","coordinates":[[8.559692,47.455793],[-122.370943,37.61799]]}
}
