{
  "id": 2048531861,
  "type": "Feature",
  "properties": {
    "geom:area": 0,
    "geom:bbox": "-122.440610,37.222290,-121.249970,37.709600",
    "geom:latitude": 37.41599709397617,
    "geom:longitude": -121.96087178425154,
    "src:alt_label": "swim-takeoff",
    "src:geom": "swim",
    "swim:elevations": [
      183,
      536,
      925,
      1195,
      1373,
      1649,
      2090,
      2863,
      3006,
      3339,
      3638,
      3842,
      4490,
      4575,
      5169,
      5233,
      5710,
      5976,
      6057,
      6199,
      6371,
      6455,
      6848,
      7074,
      7336,
      7529,
      7672,
      7938,
      8107,
      8172
    ],
    "swim:geom": "takeoff",
    "swim:timestamps": [
      1791314728,
      1791314749,
      1791314772,
      1791314807,
      1791314842,
      1791314869,
      1791314893,
      1791314932,
      1791314944,
      1791314986,
      1791315023,
      1791315038,
      1791315084,
      1791315091,
      1791315148,
      1791315155,
      1791315201,
      1791315226,
      1791315237,
      1791315253,
      1791315273,
      1791315285,
      1791315324,
      1791315355,
      1791315383,
      1791315414,
      1791315436,
      1791315478,
      1791315500,
      1791315515
    ],
    "wof:geomhash": "6154a665cb3ccda162196d1d28c3672e",
    "wof:id": 2048531861,
    "wof:repo": "sfomuseum-data-flights-2026-10"
  },
  "bbox": [
    -122.44061,
    37.22229,
    -121.24997,
    37.7096
  ],
  "geometry": {"type":"LineString","coordinates":[[-122.37047,37.62625],[-122.36512,37.64108],[-122.36423,37.65728],[-122.36257,37.68416],[-122.38928,37.7096],[-122.42672,37.69833],[-122.44061,37.67103],[-122.4353,37.62105],[-122.43333,37.60568],[-122.42562,37.54794],[-122.40417,37.49205],[-122.37876,37.47638],[-122.28496,37.45499],[-122.26994,37.45179],[-122.14877,37.42532],[-122.13397,37.42206],[-122.03141,37.39937],[-121.97411,37.3866],[-121.94908,37.38101],[-121.90968,37.3722],[-121.86448,37.36209],[-121.83605,37.3557],[-121.74117,37.33429],[-121.66329,37.31672],[-121.59522,37.30127],[-121.51425,37.28297],[-121.45828,37.27009],[-121.34799,37.24466],[-121.28994,37.23143],[-121.24997,37.22229]]}
}
