{
  "id": 2048517655,
  "type": "Feature",
  "properties": {
    "geom:area": 0,
    "geom:bbox": "-122.357280,36.763260,-121.899950,37.611270",
    "geom:latitude": 37.235600448027114,
    "geom:longitude": -122.0735225643728,
    "src:alt_label": "swim-approach",
    "src:geom": "swim",
    "swim:elevations": [
      5217,
      4963,
      4678,
      4432,
      4240,
      4010,
      3648,
      3314,
      3128,
      3039,
      3019,
      2896,
      2785,
      2549,
      2385,
      2238,
      1910,
      1829,
      1812,
      1421,
      1311,
      1130,
      1055,
      944,
      902,
      702,
      545,
      429,
      372,
      249,
      122,
      0
    ],
    "swim:geom": "approach",
    "swim:timestamps": [
      1791233007,
      1791233035,
      1791233063,
      1791233089,
      1791233112,
      1791233133,
      1791233174,
      1791233213,
      1791233239,
      1791233278,
      1791233281,
      1791233299,
      1791233317,
      1791233354,
      1791233382,
      1791233404,
      1791233454,
      1791233484,
      1791233490,
      1791233548,
      1791233565,
      1791233600,
      1791233616,
      1791233637,
      1791233646,
      1791233698,
      1791233728,
      1791233751,
      1791233768,
      1791233800,
      1791233838,
      1791233859
    ],
    "wof:geomhash": "8412a20914e60a335d6e86856e8914b5",
    "wof:id": 2048517655,
    "wof:repo": "sfomuseum-data-flights-2026-10"
  },
  "bbox": [
    -122.35728,
    36.76326,
    -121.89995,
    37.61127
  ],
  "geometry": {"type":"LineString","coordinates":[[-121.89995,36.76326],[-121.91275,36.80855],[-121.92522,36.85307],[-121.93698,36.89445],[-121.94663,36.92923],[-121.95726,36.9625],[-121.98119,37.02406],[-122.00313,37.08088],[-122.01743,37.11708],[-122.03714,37.16689],[-122.03859,37.17047],[-122.04688,37.19185],[-122.05529,37.21363],[-122.07151,37.25504],[-122.08362,37.28575],[-122.09272,37.30885],[-122.09001,37.36251],[-122.0869,37.39401],[-122.08792,37.40023],[-122.11029,37.4572],[-122.12373,37.4711],[-122.15148,37.49914],[-122.16321,37.5103],[-122.17767,37.52513],[-122.18365,37.53135],[-122.22801,37.55696],[-122.25461,37.56814],[-122.27316,37.57595],[-122.28617,37.58142],[-122.31043,37.59164],[-122.33997,37.60396],[-122.35728,37.61127]]}
}
