{
  "id": 2048520603,
  "type": "Feature",
  "properties": {
    "geom:area": 0,
    "geom:bbox": "-122.352980,36.736090,-121.886990,37.609450",
    "geom:latitude": 37.22633363769151,
    "geom:longitude": -122.06463804256913,
    "src:alt_label": "swim-approach",
    "src:geom": "swim",
    "swim:elevations": [
      5485,
      5151,
      5009,
      4446,
      4332,
      3998,
      3741,
      3378,
      3048,
      3021,
      2864,
      2736,
      2528,
      2462,
      2211,
      1969,
      1829,
      1829,
      1712,
      1483,
      1449,
      1154,
      1100,
      944,
      701,
      540,
      517,
      383,
      244,
      92,
      52
    ],
    "swim:geom": "approach",
    "swim:timestamps": [
      1791205067,
      1791205098,
      1791205113,
      1791205167,
      1791205177,
      1791205210,
      1791205235,
      1791205271,
      1791205319,
      1791205325,
      1791205368,
      1791205398,
      1791205435,
      1791205448,
      1791205482,
      1791205515,
      1791205545,
      1791205571,
      1791205593,
      1791205625,
      1791205629,
      1791205677,
      1791205686,
      1791205725,
      1791205767,
      1791205797,
      1791205802,
      1791205834,
      1791205874,
      1791205911,
      1791205930
    ],
    "wof:geomhash": "b5b964c32932941c2562166758fbf4ac",
    "wof:id": 2048520603,
    "wof:repo": "sfomuseum-data-flights-2026-10"
  },
  "bbox": [
    -122.35298,
    36.73609,
    -121.88699,
    37.60945
  ],
  "geometry": {"type":"LineString","coordinates":[[-121.88699,36.73609],[-121.90586,36.78486],[-121.91262,36.80887],[-121.9367,36.8946],[-121.94149,36.91145],[-121.95741,36.96301],[-121.97239,37.00059],[-121.99293,37.05452],[-122.02057,37.12432],[-122.02376,37.13235],[-122.0446,37.18684],[-122.05797,37.22109],[-122.07397,37.26181],[-122.0795,37.2755],[-122.09376,37.3121],[-122.08389,37.34685],[-122.071,37.37825],[-122.06392,37.40523],[-122.06982,37.42842],[-122.09143,37.45722],[-122.09482,37.46055],[-122.1334,37.50025],[-122.1405,37.50763],[-122.17594,37.53495],[-122.21948,37.55329],[-122.24835,37.56551],[-122.25297,37.56743],[-122.28051,37.57901],[-122.31201,37.59222],[-122.33916,37.60357],[-122.35298,37.60945]]}
}
