{
  "id": 2048485489,
  "type": "Feature",
  "properties": {
    "date:inception_lower": "2026-10-01",
    "date:inception_upper": "2026-10-01",
    "edtf:cessation": "",
    "edtf:inception": "2026-10-01",
    "flysfo:actual_timestamp": -1,
    "flysfo:airline": "VA",
    "flysfo:base_airline": "",
    "flysfo:base_flight_number": "4541",
    "flysfo:date": "2026-10-01",
    "flysfo:estimated_timestamp": 1790861760,
    "flysfo:event": "A",
    "flysfo:flight_number": "VA8267",
    "flysfo:gate": "E7",
    "flysfo:journey": "SMF-SFO",
    "flysfo:scheduled_timestamp": 1790862720,
    "flysfo:timestamp": 1790862720,
    "geom:area": 0,
    "geom:bbox": "-122.370943,37.617990,-121.589912,38.685533",
    "geom:latitude": 38.1517615,
    "geom:longitude": -121.98042749999999,
    "iata:airline": "VA",
    "iata:base_airline": "",
    "icao:airline": "VOZ",
    "icao:base_airline": "ACA",
    "lbl:latitude": 37.618874,
    "lbl:longitude": -122.38419,
    "sfomuseum:airline_id": 1159285485,
    "sfomuseum:arrival_id": 102527513,
    "sfomuseum:base_flight_id": "20261001-A-ACA-4541",
    "sfomuseum:departure_id": 102530559,
    "sfomuseum:flight_id": "20261001-A-VOZ-8267",
    "sfomuseum:flight_number": [
      "VOZ8267",
      "VA8267"
    ],
    "sfomuseum:placetype": "flight",
    "src:geom": "flysfo",
    "wof:belongsto": [
      1947304067,
      102527513,
      1947304511,
      102191575,
      85633793,
      102087579,
      85922583,
      554784711,
      85688637,
      1947304529,
      1947304447,
      102085387
    ],
    "wof:country": "US",
    "wof:created": 1790957364,
    "wof:geomhash": "f5805f1be1c56ce2a2965880e252c65f",
    "wof:hierarchy": [
      {
        "building_id": 1947304067,
        "campus_id": 102527513,
        "concourse_id": 1947304511,
        "continent_id": 102191575,
        "country_id": 85633793,
        "county_id": 102087579,
        "custom_id": 2048485489,
        "flight_id": 2048485489,
        "locality_id": 85922583,
        "postalcode_id": 554784711,
        "region_id": 85688637,
        "venue_id": 1947304529,
        "wing_id": 1947304447
      },
      {
        "building_id": 1947304067,
        "campus_id": 102527513,
        "concourse_id": 1947304511,
        "continent_id": 102191575,
        "country_id": 85633793,
        "county_id": 102085387,
        "custom_id": 2048485489,
        "flight_id": 2048485489,
        "region_id": 85688637,
        "venue_id": 1947304529,
        "wing_id": 1947304447
      }
    ],
    "wof:id": 2048485489,
    "wof:involves": [
      102527513,
      102530559,
      1159285485,
      1947304529,
      1159283597
    ],
    "wof:lastmodified": 1790957364,
    "wof:name": "VA8267 (SMF-SFO)",
    "wof:parent_id": 1947304529,
    "wof:placetype": "custom",
    "wof:placetype_alt": [
      "flight"
    ],
    "wof:repo": "sfomuseum-data-flights-2026-10",
    "wof:superseded_by": [],
    "wof:supersedes": []
  },
  "bbox": [
    -122.370943,
    37.61799,
    -121.589912,
    38.685533
  ],
  "geometry": {"type":"MultiPoint","coordinates":[[-121.589912,38.685533],[-122.370943,37.61799]]}
}
