{
  "id": 2048483571,
  "type": "Feature",
  "properties": {
    "geom:area": 0,
    "geom:bbox": "-122.349430,36.723190,-121.879430,37.607980",
    "geom:latitude": 37.2237862903905,
    "geom:longitude": -122.08581032762758,
    "src:alt_label": "swim-approach",
    "src:geom": "swim",
    "swim:elevations": [
      5367,
      5052,
      4666,
      4303,
      4022,
      3915,
      3351,
      3256,
      3130,
      2934,
      2693,
      2452,
      2437,
      2347,
      2076,
      1848,
      1829,
      1797,
      1657,
      1444,
      1282,
      1218,
      1219,
      1074,
      937,
      862,
      660,
      488,
      451,
      304,
      191,
      163,
      67
    ],
    "swim:geom": "approach",
    "swim:timestamps": [
      1790848355,
      1790848386,
      1790848424,
      1790848461,
      1790848489,
      1790848500,
      1790848558,
      1790848570,
      1790848594,
      1790848638,
      1790848673,
      1790848707,
      1790848716,
      1790848753,
      1790848793,
      1790848826,
      1790848855,
      1790848883,
      1790848909,
      1790848944,
      1790848971,
      1790849007,
      1790849039,
      1790849067,
      1790849093,
      1790849109,
      1790849149,
      1790849188,
      1790849204,
      1790849248,
      1790849276,
      1790849290,
      1790849312
    ],
    "wof:geomhash": "ae9bd9cac72e578e0ec631188587ffeb",
    "wof:id": 2048483571,
    "wof:repo": "sfomuseum-data-flights-2026-10"
  },
  "bbox": [
    -122.34943,
    36.72319,
    -121.87943,
    37.60798
  ],
  "geometry": {"type":"LineString","coordinates":[[-121.87943,36.72319],[-121.90362,36.7735],[-121.91984,36.83513],[-121.93705,36.89518],[-121.94962,36.94042],[-121.95471,36.95712],[-121.98999,37.04647],[-121.99732,37.06526],[-122.01047,37.09921],[-122.03191,37.15466],[-122.05236,37.19245],[-122.08166,37.22447],[-122.08934,37.23203],[-122.13582,37.25123],[-122.18652,37.26849],[-122.21381,37.29525],[-122.20321,37.32559],[-122.17782,37.3504],[-122.15882,37.37465],[-122.13611,37.40844],[-122.12298,37.43535],[-122.10589,37.46985],[-122.11048,37.5009],[-122.13969,37.51911],[-122.16934,37.53208],[-122.18751,37.53984],[-122.22891,37.55737],[-122.26071,37.57067],[-122.2727,37.5757],[-122.30507,37.58933],[-122.32442,37.59745],[-122.33412,37.60154],[-122.34943,37.60798]]}
}
