{
  "id": 2048514095,
  "type": "Feature",
  "properties": {
    "geom:area": 0,
    "geom:bbox": "-122.470410,36.736260,-121.460440,37.715610",
    "geom:latitude": 37.23175212477583,
    "geom:longitude": -122.07071743358472,
    "src:alt_label": "swim-takeoff",
    "src:geom": "swim",
    "swim:elevations": [
      300,
      491,
      760,
      954,
      1490,
      1893,
      2224,
      3098,
      3226,
      3376,
      3929,
      4101,
      4571,
      5145,
      5275,
      5725,
      5983,
      6496,
      6786,
      7138,
      7380,
      7402,
      7495,
      7834,
      7988,
      8284,
      8495,
      8575,
      8762,
      9070,
      9128,
      9473
    ],
    "swim:geom": "takeoff",
    "swim:timestamps": [
      1791099326,
      1791099345,
      1791099380,
      1791099398,
      1791099441,
      1791099462,
      1791099483,
      1791099537,
      1791099557,
      1791099582,
      1791099625,
      1791099635,
      1791099666,
      1791099716,
      1791099726,
      1791099762,
      1791099783,
      1791099831,
      1791099860,
      1791099898,
      1791099927,
      1791099930,
      1791099938,
      1791099982,
      1791100002,
      1791100041,
      1791100078,
      1791100085,
      1791100108,
      1791100136,
      1791100141,
      1791100183
    ],
    "wof:geomhash": "df25f40e750d23e81ead4648c22475a8",
    "wof:id": 2048514095,
    "wof:repo": "sfomuseum-data-flights-2026-10"
  },
  "bbox": [
    -122.47041,
    36.73626,
    -121.46044,
    37.71561
  ],
  "geometry": {"type":"LineString","coordinates":[[-122.36483,37.63729],[-122.36371,37.65243],[-122.36214,37.68724],[-122.37253,37.70586],[-122.43607,37.71561],[-122.45852,37.69601],[-122.46264,37.67009],[-122.46427,37.60171],[-122.46661,37.57268],[-122.47041,37.53426],[-122.44724,37.46796],[-122.43179,37.45492],[-122.38241,37.42002],[-122.30141,37.36223],[-122.28411,37.34938],[-122.22538,37.30598],[-122.18943,37.27947],[-122.10807,37.2196],[-122.05731,37.18204],[-121.99135,37.13299],[-121.94004,37.09479],[-121.93468,37.09079],[-121.91882,37.07897],[-121.83879,37.01903],[-121.80352,36.99236],[-121.72746,36.93736],[-121.65749,36.88515],[-121.64599,36.87623],[-121.60109,36.84275],[-121.54647,36.80187],[-121.53839,36.79566],[-121.46044,36.73626]]}
}
