{
  "id": 2048498105,
  "type": "Feature",
  "properties": {
    "geom:area": 0,
    "geom:bbox": "-122.366190,37.628560,-122.043050,38.514310",
    "geom:latitude": 38.04149934513926,
    "geom:longitude": -122.16836652301076,
    "src:alt_label": "swim-takeoff",
    "src:geom": "swim",
    "swim:elevations": [
      152,
      482,
      744,
      991,
      1071,
      1330,
      1443,
      1641,
      2094,
      2385,
      2459,
      2816,
      3129,
      3420,
      3636,
      3923,
      4515,
      4636,
      4934,
      5190,
      5353,
      5724,
      6352,
      6703,
      6783,
      7240
    ],
    "swim:geom": "takeoff",
    "swim:timestamps": [
      1790975938,
      1790975967,
      1790975993,
      1790976022,
      1790976037,
      1790976083,
      1790976103,
      1790976130,
      1790976175,
      1790976199,
      1790976205,
      1790976238,
      1790976259,
      1790976288,
      1790976310,
      1790976334,
      1790976382,
      1790976391,
      1790976416,
      1790976437,
      1790976452,
      1790976482,
      1790976536,
      1790976565,
      1790976572,
      1790976619
    ],
    "wof:geomhash": "f7ddcf0428c9d3392750f82c713c6805",
    "wof:id": 2048498105,
    "wof:repo": "sfomuseum-data-flights-2026-10"
  },
  "bbox": [
    -122.36619,
    37.62856,
    -122.04305,
    38.51431
  ],
  "geometry": {"type":"LineString","coordinates":[[-122.36619,37.62856],[-122.34764,37.64584],[-122.32622,37.65639],[-122.30109,37.67061],[-122.28803,37.6783],[-122.23982,37.70475],[-122.21824,37.72101],[-122.20895,37.75351],[-122.19903,37.81245],[-122.19335,37.84486],[-122.19198,37.85297],[-122.18408,37.89882],[-122.17957,37.92853],[-122.17359,37.96849],[-122.16813,38.0023],[-122.16173,38.03893],[-122.14919,38.1133],[-122.14692,38.12771],[-122.14034,38.16825],[-122.13472,38.20269],[-122.13075,38.22764],[-122.1172,38.27819],[-122.08992,38.36941],[-122.07471,38.41982],[-122.07128,38.43065],[-122.04305,38.51431]]}
}
