{
  "id": 2048483247,
  "type": "Feature",
  "properties": {
    "geom:area": 0,
    "geom:bbox": "-122.362350,37.492120,-121.246760,37.614750",
    "geom:latitude": 37.54707986577574,
    "geom:longitude": -121.8094749239888,
    "src:alt_label": "swim-approach",
    "src:geom": "swim",
    "swim:elevations": [
      4764,
      4589,
      4120,
      3820,
      3479,
      3335,
      3109,
      3078,
      2838,
      2585,
      2479,
      2438,
      2228,
      2170,
      2116,
      1958,
      1851,
      1805,
      1555,
      1435,
      1398,
      1344,
      1112,
      912,
      706,
      645,
      464,
      309,
      192,
      29,
      0
    ],
    "swim:geom": "approach",
    "swim:timestamps": [
      1790897814,
      1790897830,
      1790897874,
      1790897905,
      1790897938,
      1790897951,
      1790897992,
      1790898007,
      1790898051,
      1790898085,
      1790898100,
      1790898118,
      1790898145,
      1790898154,
      1790898166,
      1790898207,
      1790898234,
      1790898246,
      1790898290,
      1790898323,
      1790898335,
      1790898344,
      1790898384,
      1790898417,
      1790898441,
      1790898450,
      1790898484,
      1790898525,
      1790898550,
      1790898592,
      1790898600
    ],
    "wof:geomhash": "5182758d41ea95e32483072c3864cb3f",
    "wof:id": 2048483247,
    "wof:repo": "sfomuseum-data-flights-2026-10"
  },
  "bbox": [
    -122.36235,
    37.49212,
    -121.24676,
    37.61475
  ],
  "geometry": {"type":"LineString","coordinates":[[-121.24676,37.59431],[-121.28028,37.58969],[-121.37132,37.57975],[-121.43214,37.57337],[-121.49931,37.56574],[-121.52475,37.56259],[-121.60388,37.55384],[-121.62869,37.55036],[-121.69805,37.53336],[-121.75183,37.52026],[-121.77574,37.51452],[-121.80354,37.50802],[-121.84495,37.49814],[-121.85879,37.49493],[-121.87726,37.49212],[-121.93864,37.4927],[-121.9775,37.4938],[-121.99461,37.49665],[-122.05609,37.51669],[-122.09677,37.52989],[-122.11096,37.53446],[-122.12146,37.53775],[-122.16756,37.55302],[-122.20335,37.5644],[-122.22799,37.5723],[-122.23722,37.5752],[-122.26791,37.5853],[-122.30345,37.59547],[-122.32397,37.60142],[-122.35687,37.6133],[-122.36235,37.61475]]}
}
