{
  "id": 2048493451,
  "type": "Feature",
  "properties": {
    "geom:area": 0,
    "geom:bbox": "-122.357960,36.759980,-121.898020,37.614360",
    "geom:latitude": 37.19524914228499,
    "geom:longitude": -122.11254859631882,
    "src:alt_label": "swim-approach",
    "src:geom": "swim",
    "swim:elevations": [
      5475,
      5255,
      4800,
      4714,
      4391,
      4276,
      4019,
      3655,
      3403,
      3311,
      3232,
      3160,
      3048,
      2990,
      2748,
      2608,
      2440,
      2438,
      2207,
      2132,
      2034,
      1893,
      1744,
      1554,
      1413,
      1391,
      1154,
      915,
      819,
      581,
      557,
      383,
      213,
      168,
      178
    ],
    "swim:geom": "approach",
    "swim:timestamps": [
      1790947955,
      1790947987,
      1790948038,
      1790948050,
      1790948088,
      1790948103,
      1790948134,
      1790948182,
      1790948212,
      1790948228,
      1790948264,
      1790948283,
      1790948327,
      1790948355,
      1790948390,
      1790948418,
      1790948452,
      1790948471,
      1790948506,
      1790948525,
      1790948570,
      1790948602,
      1790948632,
      1790948664,
      1790948699,
      1790948702,
      1790948749,
      1790948816,
      1790948831,
      1790948876,
      1790948883,
      1790948925,
      1790948962,
      1790948976,
      1790949019
    ],
    "wof:geomhash": "3ead700765aaa13bb2e3728455e1463a",
    "wof:id": 2048493451,
    "wof:repo": "sfomuseum-data-flights-2026-10"
  },
  "bbox": [
    -122.35796,
    36.75998,
    -121.89802,
    37.61436
  ],
  "geometry": {"type":"LineString","coordinates":[[-121.89802,36.75998],[-121.92019,36.80767],[-122.00804,36.83477],[-122.03089,36.83712],[-122.08658,36.86887],[-122.093,36.88979],[-122.07124,36.93128],[-122.00098,36.9719],[-121.97956,37.00878],[-121.98409,37.03171],[-122.00152,37.07707],[-122.01726,37.09679],[-122.07019,37.12926],[-122.10338,37.14967],[-122.1446,37.17516],[-122.17816,37.19604],[-122.21666,37.22064],[-122.23823,37.23555],[-122.24591,37.27497],[-122.24214,37.29832],[-122.19179,37.33113],[-122.1509,37.3488],[-122.12918,37.37749],[-122.11001,37.41152],[-122.09649,37.45003],[-122.09736,37.45341],[-122.13082,37.49979],[-122.17975,37.55547],[-122.19568,37.56212],[-122.24308,37.57718],[-122.25097,37.57978],[-122.28848,37.59074],[-122.31831,37.59971],[-122.3287,37.60274],[-122.35796,37.61436]]}
}
