{
  "id": 2048527403,
  "type": "Feature",
  "properties": {
    "geom:area": 0,
    "geom:bbox": "-122.513320,36.732440,-121.885050,37.614290",
    "geom:latitude": 37.22181676435023,
    "geom:longitude": -122.22912611218625,
    "src:alt_label": "swim-approach",
    "src:geom": "swim",
    "swim:elevations": [
      5289,
      5074,
      4771,
      4606,
      4188,
      4021,
      3872,
      3809,
      3756,
      3650,
      3495,
      3195,
      3049,
      3048,
      3048,
      3048,
      3048,
      2974,
      2844,
      2683,
      2504,
      2356,
      2296,
      1986,
      1831,
      1829,
      1829,
      1829,
      1649,
      1593,
      1464,
      1289,
      1250,
      1006,
      969,
      818,
      657,
      564,
      444,
      343,
      212,
      185,
      0
    ],
    "swim:geom": "approach",
    "swim:timestamps": [
      1791297448,
      1791297467,
      1791297497,
      1791297515,
      1791297562,
      1791297579,
      1791297616,
      1791297658,
      1791297676,
      1791297699,
      1791297726,
      1791297778,
      1791297805,
      1791297826,
      1791297865,
      1791297897,
      1791297921,
      1791297953,
      1791297981,
      1791298007,
      1791298042,
      1791298069,
      1791298081,
      1791298136,
      1791298168,
      1791298175,
      1791298221,
      1791298249,
      1791298282,
      1791298298,
      1791298339,
      1791298378,
      1791298386,
      1791298432,
      1791298440,
      1791298486,
      1791298523,
      1791298548,
      1791298583,
      1791298604,
      1791298641,
      1791298650,
      1791298697
    ],
    "wof:geomhash": "a4794cba7a6da8366f60f7074ae4e3bf",
    "wof:id": 2048527403,
    "wof:repo": "sfomuseum-data-flights-2026-10"
  },
  "bbox": [
    -122.51332,
    36.73244,
    -121.88505,
    37.61429
  ],
  "geometry": {"type":"LineString","coordinates":[[-121.88505,36.73244],[-121.89988,36.76378],[-121.91377,36.81212],[-121.9233,36.84112],[-121.9846,36.89638],[-122.00883,36.9151],[-122.05939,36.95418],[-122.11102,36.99421],[-122.13196,37.01033],[-122.15762,37.02992],[-122.18723,37.05223],[-122.24279,37.09563],[-122.2714,37.11894],[-122.29384,37.13686],[-122.3346,37.16985],[-122.36883,37.19783],[-122.39418,37.21873],[-122.4277,37.24643],[-122.45635,37.26955],[-122.48436,37.29177],[-122.51332,37.32403],[-122.50265,37.35171],[-122.48833,37.35951],[-122.41343,37.36773],[-122.36905,37.36609],[-122.35916,37.3656],[-122.29679,37.36245],[-122.25793,37.36288],[-122.22227,37.38469],[-122.20985,37.39902],[-122.17915,37.43401],[-122.15419,37.46365],[-122.14948,37.46926],[-122.1545,37.50581],[-122.16016,37.5117],[-122.19241,37.54012],[-122.22279,37.55598],[-122.24402,37.56665],[-122.27337,37.57841],[-122.29,37.58531],[-122.31748,37.5969],[-122.3243,37.59983],[-122.35902,37.61429]]}
}
