{
  "id": 2048504281,
  "type": "Feature",
  "properties": {
    "date:inception_lower": "2026-10-03",
    "date:inception_upper": "2026-10-03",
    "edtf:cessation": "",
    "edtf:inception": "2026-10-03",
    "flysfo:actual_timestamp": -1,
    "flysfo:airline": "NZ",
    "flysfo:base_airline": "",
    "flysfo:base_flight_number": "9085",
    "flysfo:date": "2026-10-03",
    "flysfo:estimated_timestamp": 1791055440,
    "flysfo:event": "D",
    "flysfo:flight_number": "NZ9085",
    "flysfo:gate": "F6",
    "flysfo:journey": "SFO-MSO",
    "flysfo:scheduled_timestamp": 1791054000,
    "flysfo:timestamp": 1791055440,
    "geom:area": 0,
    "geom:bbox": "-122.370943,37.617990,-114.080763,46.919119",
    "geom:latitude": 42.2685545,
    "geom:longitude": -118.225853,
    "iata:airline": "NZ",
    "iata:base_airline": "",
    "icao:airline": "ANZ",
    "icao:base_airline": "ANZ",
    "lbl:latitude": 37.61799,
    "lbl:longitude": -122.370943,
    "sfomuseum:airline_id": 1159283697,
    "sfomuseum:arrival_id": 102531063,
    "sfomuseum:base_flight_id": "20261003-D-ANZ-9085",
    "sfomuseum:departure_id": 102527513,
    "sfomuseum:flight_id": "20261003-D-ANZ-9085",
    "sfomuseum:flight_number": [
      "ANZ9085",
      "NZ9085"
    ],
    "sfomuseum:placetype": "flight",
    "src:geom": "flysfo",
    "wof:belongsto": [
      1947304067,
      102527513,
      1947304451,
      102191575,
      85633793,
      102087579,
      85922583,
      554784711,
      85688637,
      1947304461,
      1947304447,
      102085387
    ],
    "wof:country": "US",
    "wof:created": 1791130231,
    "wof:geomhash": "98521312a76d8c7ba1b876edbe80e0fc",
    "wof:hierarchy": [
      {
        "building_id": 1947304067,
        "campus_id": 102527513,
        "concourse_id": 1947304451,
        "continent_id": 102191575,
        "country_id": 85633793,
        "county_id": 102087579,
        "custom_id": 2048504281,
        "flight_id": 2048504281,
        "locality_id": 85922583,
        "postalcode_id": 554784711,
        "region_id": 85688637,
        "venue_id": 1947304461,
        "wing_id": 1947304447
      },
      {
        "building_id": 1947304067,
        "campus_id": 102527513,
        "concourse_id": 1947304451,
        "continent_id": 102191575,
        "country_id": 85633793,
        "county_id": 102085387,
        "custom_id": 2048504281,
        "flight_id": 2048504281,
        "region_id": 85688637,
        "venue_id": 1947304461,
        "wing_id": 1947304447
      }
    ],
    "wof:id": 2048504281,
    "wof:involves": [
      102531063,
      102527513,
      1159283697,
      1947304461,
      1159283697
    ],
    "wof:lastmodified": 1791130231,
    "wof:name": "NZ9085 (SFO-MSO)",
    "wof:parent_id": 1947304461,
    "wof:placetype": "custom",
    "wof:placetype_alt": [
      "flight"
    ],
    "wof:repo": "sfomuseum-data-flights-2026-10",
    "wof:superseded_by": [],
    "wof:supersedes": []
  },
  "bbox": [
    -122.370943,
    37.61799,
    -114.080763,
    46.919119
  ],
  "geometry": {"type":"MultiPoint","coordinates":[[-122.370943,37.61799],[-114.080763,46.919119]]}
}
