{
  "id": 2048502777,
  "type": "Feature",
  "properties": {
    "geom:area": 0,
    "geom:bbox": "-122.360270,37.432680,-121.252680,37.614870",
    "geom:latitude": 37.536912309000854,
    "geom:longitude": -121.81331535859601,
    "src:alt_label": "swim-approach",
    "src:geom": "swim",
    "swim:elevations": [
      4431,
      3987,
      3873,
      3437,
      3225,
      3138,
      3047,
      2919,
      2735,
      2519,
      2375,
      2307,
      2225,
      2156,
      2133,
      2052,
      1977,
      1831,
      1830,
      1738,
      1460,
      1277,
      1170,
      1063,
      824,
      782,
      565,
      391,
      279,
      183,
      120,
      0
    ],
    "swim:geom": "approach",
    "swim:timestamps": [
      1791047502,
      1791047548,
      1791047562,
      1791047606,
      1791047632,
      1791047652,
      1791047670,
      1791047720,
      1791047740,
      1791047773,
      1791047814,
      1791047839,
      1791047871,
      1791047901,
      1791047911,
      1791047943,
      1791047967,
      1791047996,
      1791048005,
      1791048040,
      1791048088,
      1791048109,
      1791048129,
      1791048151,
      1791048200,
      1791048210,
      1791048259,
      1791048295,
      1791048322,
      1791048349,
      1791048364,
      1791048397
    ],
    "wof:geomhash": "630749b668f253a6cae6a1b19c2c6b6a",
    "wof:id": 2048502777,
    "wof:repo": "sfomuseum-data-flights-2026-10"
  },
  "bbox": [
    -122.36027,
    37.43268,
    -121.25268,
    37.61487
  ],
  "geometry": {"type":"LineString","coordinates":[[-121.25268,37.59417],[-121.34976,37.58251],[-121.37752,37.57942],[-121.47063,37.5689],[-121.5236,37.56278],[-121.56314,37.55811],[-121.59767,37.55406],[-121.6805,37.53745],[-121.71065,37.53039],[-121.76107,37.51836],[-121.80734,37.49303],[-121.81709,37.46621],[-121.83894,37.43666],[-121.88081,37.43268],[-121.89275,37.43792],[-121.92932,37.45944],[-121.95614,37.47617],[-121.98792,37.49424],[-121.9979,37.49807],[-122.03834,37.51153],[-122.08744,37.52711],[-122.10853,37.53373],[-122.12784,37.53996],[-122.14888,37.54685],[-122.19654,37.56233],[-122.20615,37.56543],[-122.25282,37.58051],[-122.2861,37.59027],[-122.3071,37.59668],[-122.3275,37.60219],[-122.33782,37.6055],[-122.36027,37.61487]]}
}
