{
  "id": 2048535601,
  "type": "Feature",
  "properties": {
    "geom:area": 0,
    "geom:bbox": "-123.475920,36.973390,-122.153570,37.616300",
    "geom:latitude": 37.28617539000491,
    "geom:longitude": -122.70462859071492,
    "src:alt_label": "swim-approach",
    "src:geom": "swim",
    "swim:elevations": [
      6370,
      6222,
      5910,
      5684,
      5506,
      5153,
      4965,
      4642,
      4431,
      4328,
      4044,
      3497,
      3331,
      3105,
      2956,
      2892,
      2833,
      2714,
      2632,
      2437,
      2438,
      2438,
      2438,
      2438,
      2438,
      2438,
      2287,
      2170,
      2052,
      1740,
      1714,
      1418,
      1298,
      1220,
      1061,
      913,
      815,
      709,
      580,
      361,
      260,
      172,
      93,
      31,
      667
    ],
    "swim:geom": "approach",
    "swim:timestamps": [
      1791414131,
      1791414146,
      1791414176,
      1791414201,
      1791414219,
      1791414254,
      1791414272,
      1791414305,
      1791414326,
      1791414335,
      1791414366,
      1791414416,
      1791414432,
      1791414453,
      1791414502,
      1791414534,
      1791414558,
      1791414590,
      1791414604,
      1791414658,
      1791414675,
      1791414715,
      1791414736,
      1791414769,
      1791414790,
      1791414820,
      1791414864,
      1791414880,
      1791414904,
      1791414958,
      1791414962,
      1791415003,
      1791415032,
      1791415068,
      1791415107,
      1791415137,
      1791415155,
      1791415177,
      1791415201,
      1791415257,
      1791415287,
      1791415308,
      1791415332,
      1791415347,
      1791415364
    ],
    "wof:geomhash": "ab16812bd56afcd9e0cc82ef9c919ccd",
    "wof:id": 2048535601,
    "wof:repo": "sfomuseum-data-flights-2026-10"
  },
  "bbox": [
    -123.47592,
    36.97339,
    -122.15357,
    37.6163
  ],
  "geometry": {"type":"LineString","coordinates":[[-123.47592,36.97339],[-123.44631,36.98624],[-123.38596,37.01383],[-123.33736,37.03759],[-123.30189,37.05424],[-123.23541,37.08509],[-123.20168,37.10079],[-123.14073,37.12919],[-123.10302,37.14673],[-123.08555,37.15485],[-123.03118,37.17996],[-122.94348,37.22059],[-122.91598,37.23329],[-122.87971,37.25009],[-122.7925,37.27422],[-122.74254,37.28592],[-122.70669,37.29427],[-122.66114,37.3048],[-122.64205,37.30927],[-122.56661,37.3269],[-122.54281,37.33232],[-122.48812,37.34487],[-122.4604,37.35126],[-122.41513,37.36184],[-122.38631,37.36795],[-122.34899,37.35546],[-122.30531,37.32437],[-122.28524,37.31641],[-122.25297,37.3211],[-122.2156,37.37225],[-122.21356,37.37598],[-122.19064,37.41694],[-122.17406,37.44466],[-122.15357,37.47856],[-122.15451,37.51711],[-122.17858,37.53733],[-122.19676,37.5452],[-122.21782,37.5551],[-122.24007,37.56464],[-122.28609,37.58402],[-122.30879,37.59316],[-122.32541,37.60023],[-122.3434,37.60778],[-122.35388,37.61212],[-122.36098,37.6163]]}
}
