{
  "id": 2048511053,
  "type": "Feature",
  "properties": {
    "date:cessation_lower": "2026-10-05",
    "date:cessation_upper": "2026-10-05",
    "date:inception_lower": "1970-01-01",
    "date:inception_upper": "1970-01-01",
    "edtf:cessation": "2026-10-04T22:41:04-07:00",
    "edtf:inception": "1970-01-01T00:00:00Z",
    "flysfo:actual_timestamp": -1,
    "flysfo:airline": "UA",
    "flysfo:base_airline": "",
    "flysfo:base_flight_number": "3518",
    "flysfo:date": "2026-10-04",
    "flysfo:estimated_timestamp": 1791117960,
    "flysfo:event": "A",
    "flysfo:flight_number": "UA1346",
    "flysfo:gate": "F15",
    "flysfo:journey": "HNL-SFO",
    "flysfo:scheduled_timestamp": 1791118980,
    "flysfo:timestamp": 1791118980,
    "geom:area": 0,
    "geom:bbox": "-157.918416,21.332508,-122.370943,37.617990",
    "geom:latitude": 29.475248999999998,
    "geom:longitude": -140.1446795,
    "iata:airline": "UA",
    "iata:base_airline": "",
    "icao:aircraft": "B77W",
    "icao:airline": "UAL",
    "icao:base_airline": "ACA",
    "lbl:latitude": 37.620818,
    "lbl:longitude": -122.389182,
    "sfomuseum:aircraft_id": 1159289993,
    "sfomuseum:airline_id": 1159285413,
    "sfomuseum:arrival_id": 102527513,
    "sfomuseum:base_flight_id": "20261004-A-ACA-3518",
    "sfomuseum:departure_id": 102533997,
    "sfomuseum:flight_id": "20261004-A-UAL-1346",
    "sfomuseum:flight_number": [
      "UAL1346",
      "UA1346"
    ],
    "sfomuseum:placetype": "flight",
    "src:geom": "flysfo",
    "src:geom_alt": [
      "swim-approach"
    ],
    "swim:tail_number": "N2737U",
    "wof:belongsto": [
      1947304067,
      102527513,
      1947304451,
      102191575,
      85633793,
      102087579,
      85922583,
      554784711,
      85688637,
      1947304455,
      1947304447,
      102085387
    ],
    "wof:country": "US",
    "wof:created": 1791216478,
    "wof:geomhash": "1ad63fa22de9103ed4396c0ca683f63f",
    "wof:hierarchy": [
      {
        "building_id": 1947304067,
        "campus_id": 102527513,
        "concourse_id": 1947304451,
        "continent_id": 102191575,
        "country_id": 85633793,
        "county_id": 102087579,
        "custom_id": 2048511053,
        "flight_id": 2048511053,
        "locality_id": 85922583,
        "postalcode_id": 554784711,
        "region_id": 85688637,
        "venue_id": 1947304455,
        "wing_id": 1947304447
      },
      {
        "building_id": 1947304067,
        "campus_id": 102527513,
        "concourse_id": 1947304451,
        "continent_id": 102191575,
        "country_id": 85633793,
        "county_id": 102085387,
        "custom_id": 2048511053,
        "flight_id": 2048511053,
        "region_id": 85688637,
        "venue_id": 1947304455,
        "wing_id": 1947304447
      }
    ],
    "wof:id": 2048511053,
    "wof:involves": [
      102533997,
      1159285413,
      1947304455,
      1159283597,
      1159289993,
      102527513
    ],
    "wof:lastmodified": 1791217160,
    "wof:name": "UA1346 (HNL-SFO)",
    "wof:parent_id": 1947304455,
    "wof:placetype": "custom",
    "wof:placetype_alt": [
      "flight"
    ],
    "wof:repo": "sfomuseum-data-flights-2026-10",
    "wof:superseded_by": [],
    "wof:supersedes": []
  },
  "bbox": [
    -157.918416,
    21.332508,
    -122.370943,
    37.61799
  ],
  "geometry": {"type":"MultiPoint","coordinates":[[-157.918416,21.332508],[-122.370943,37.61799]]}
}
