{
  "id": 2048546897,
  "type": "Feature",
  "properties": {
    "geom:area": 0,
    "geom:bbox": "-122.355710,37.454060,-121.262970,37.610570",
    "geom:latitude": 37.5177323314172,
    "geom:longitude": -121.8145340061911,
    "src:alt_label": "swim-approach",
    "src:geom": "swim",
    "swim:elevations": [
      4539,
      4272,
      3926,
      3791,
      3640,
      3455,
      3380,
      3355,
      3298,
      2975,
      2909,
      2859,
      2516,
      2493,
      2184,
      2081,
      1861,
      1835,
      1829,
      1830,
      1670,
      1423,
      1279,
      1059,
      973,
      945,
      794,
      719,
      601,
      430,
      395,
      319,
      266,
      93,
      29
    ],
    "swim:geom": "approach",
    "swim:timestamps": [
      1791493288,
      1791493311,
      1791493346,
      1791493361,
      1791493395,
      1791493438,
      1791493461,
      1791493467,
      1791493486,
      1791493526,
      1791493532,
      1791493539,
      1791493587,
      1791493590,
      1791493633,
      1791493653,
      1791493680,
      1791493687,
      1791493731,
      1791493758,
      1791493783,
      1791493826,
      1791493849,
      1791493879,
      1791493894,
      1791493903,
      1791493935,
      1791493963,
      1791493989,
      1791494023,
      1791494038,
      1791494059,
      1791494074,
      1791494112,
      1791494131
    ],
    "wof:geomhash": "358dbf39c64316524261a7d8257b7700",
    "wof:id": 2048546897,
    "wof:repo": "sfomuseum-data-flights-2026-10"
  },
  "bbox": [
    -122.35571,
    37.45406,
    -121.26297,
    37.61057
  ],
  "geometry": {"type":"LineString","coordinates":[[-121.26297,37.5928],[-121.31296,37.58676],[-121.38785,37.57838],[-121.41811,37.56994],[-121.48168,37.54778],[-121.55451,37.52157],[-121.59008,37.5086],[-121.59908,37.50529],[-121.62699,37.49523],[-121.68139,37.47529],[-121.68984,37.47301],[-121.69948,37.47083],[-121.76875,37.46035],[-121.77308,37.45992],[-121.83434,37.45406],[-121.86194,37.45481],[-121.90059,37.45576],[-121.91061,37.45601],[-121.97282,37.45714],[-122.00868,37.46424],[-122.03922,37.47696],[-122.08827,37.49803],[-122.11282,37.5083],[-122.14425,37.52148],[-122.15992,37.52776],[-122.16906,37.53114],[-122.19837,37.54344],[-122.2225,37.55446],[-122.24537,37.56392],[-122.27308,37.57576],[-122.28429,37.58044],[-122.30012,37.58718],[-122.31173,37.59209],[-122.34128,37.6046],[-122.35571,37.61057]]}
}
