{
  "id": 2048492621,
  "type": "Feature",
  "properties": {
    "geom:area": 0,
    "geom:bbox": "-122.351140,37.490470,-121.244070,37.610950",
    "geom:latitude": 37.54631351126038,
    "geom:longitude": -121.80231564294442,
    "src:alt_label": "swim-approach",
    "src:geom": "swim",
    "swim:elevations": [
      4545,
      4313,
      4092,
      3812,
      3720,
      3441,
      3200,
      3077,
      3023,
      2586,
      2488,
      2438,
      2317,
      2093,
      2017,
      1834,
      1654,
      1600,
      1330,
      1097,
      1005,
      930,
      692,
      563,
      388,
      233,
      89,
      45
    ],
    "swim:geom": "approach",
    "swim:timestamps": [
      1790978337,
      1790978364,
      1790978386,
      1790978422,
      1790978434,
      1790978470,
      1790978504,
      1790978545,
      1790978563,
      1790978599,
      1790978612,
      1790978641,
      1790978689,
      1790978728,
      1790978746,
      1790978774,
      1790978818,
      1790978824,
      1790978859,
      1790978903,
      1790978932,
      1790978952,
      1790978994,
      1790979017,
      1790979046,
      1790979082,
      1790979116,
      1790979126
    ],
    "wof:geomhash": "0aa2a7c30bd49b8bc24987b9b16e7119",
    "wof:id": 2048492621,
    "wof:repo": "sfomuseum-data-flights-2026-10"
  },
  "bbox": [
    -122.35114,
    37.49047,
    -121.24407,
    37.61095
  ],
  "geometry": {"type":"LineString","coordinates":[[-121.24407,37.59519],[-121.2963,37.58815],[-121.33708,37.58343],[-121.39965,37.57654],[-121.42078,37.57412],[-121.48257,37.56691],[-121.5388,37.56036],[-121.60635,37.55232],[-121.63485,37.54795],[-121.69157,37.53447],[-121.7107,37.5299],[-121.75606,37.51909],[-121.82483,37.50247],[-121.88235,37.49047],[-121.9101,37.49101],[-121.95193,37.49277],[-122.01245,37.50221],[-122.02136,37.50509],[-122.06579,37.5199],[-122.11965,37.5374],[-122.15602,37.54906],[-122.1797,37.5567],[-122.22915,37.57262],[-122.25367,37.58066],[-122.28352,37.58998],[-122.31608,37.59937],[-122.34324,37.60778],[-122.35114,37.61095]]}
}
