{
  "id": 2048541905,
  "type": "Feature",
  "properties": {
    "geom:area": 0,
    "geom:bbox": "-122.558320,36.731640,-122.362330,37.700980",
    "geom:latitude": 37.244568375233996,
    "geom:longitude": -122.47440834630918,
    "src:alt_label": "swim-takeoff",
    "src:geom": "swim",
    "swim:elevations": [
      183,
      407,
      672,
      965,
      1098,
      1247,
      1558,
      1721,
      2252,
      3095,
      3402,
      3775,
      3969,
      4565,
      4812,
      5087,
      5341,
      5805,
      6042,
      6277,
      6539,
      6743,
      7014,
      7161,
      7427,
      7555,
      7737
    ],
    "swim:geom": "takeoff",
    "swim:timestamps": [
      1791392920,
      1791392941,
      1791392966,
      1791392995,
      1791393014,
      1791393044,
      1791393082,
      1791393095,
      1791393129,
      1791393183,
      1791393225,
      1791393260,
      1791393277,
      1791393328,
      1791393351,
      1791393373,
      1791393400,
      1791393448,
      1791393474,
      1791393498,
      1791393526,
      1791393554,
      1791393589,
      1791393607,
      1791393642,
      1791393661,
      1791393685
    ],
    "wof:geomhash": "c2d381a0d3b084f051f80b287e850dfb",
    "wof:id": 2048541905,
    "wof:repo": "sfomuseum-data-flights-2026-10"
  },
  "bbox": [
    -122.55832,
    36.73164,
    -122.36233,
    37.70098
  ],
  "geometry": {"type":"LineString","coordinates":[[-122.36717,37.63133],[-122.36233,37.64718],[-122.36373,37.66615],[-122.36489,37.68937],[-122.37785,37.70098],[-122.41131,37.69849],[-122.43463,37.65907],[-122.4385,37.64419],[-122.45013,37.60217],[-122.4625,37.53363],[-122.47355,37.47557],[-122.48424,37.42276],[-122.48903,37.39799],[-122.50481,37.31667],[-122.51164,37.28041],[-122.51857,37.24382],[-122.52699,37.20025],[-122.54218,37.12056],[-122.55054,37.07688],[-122.55832,37.03493],[-122.54794,36.98646],[-122.51727,36.94287],[-122.47736,36.88821],[-122.45632,36.85958],[-122.41427,36.80245],[-122.39115,36.77078],[-122.36333,36.73164]]}
}
