{
  "id": 2048511097,
  "type": "Feature",
  "properties": {
    "geom:area": 0,
    "geom:bbox": "-122.355940,37.491130,-121.256750,37.613130",
    "geom:latitude": 37.54620710063892,
    "geom:longitude": -121.81123019280058,
    "src:alt_label": "swim-approach",
    "src:geom": "swim",
    "swim:elevations": [
      4546,
      4426,
      3705,
      3395,
      3160,
      3131,
      2877,
      2627,
      2476,
      2408,
      2273,
      2143,
      1942,
      1829,
      1494,
      1462,
      1162,
      1085,
      894,
      745,
      538,
      362,
      219,
      125,
      0
    ],
    "swim:geom": "approach",
    "swim:timestamps": [
      1791115160,
      1791115173,
      1791115247,
      1791115281,
      1791115311,
      1791115321,
      1791115374,
      1791115407,
      1791115425,
      1791115453,
      1791115481,
      1791115504,
      1791115544,
      1791115577,
      1791115615,
      1791115621,
      1791115676,
      1791115687,
      1791115723,
      1791115745,
      1791115787,
      1791115818,
      1791115855,
      1791115879,
      1791115902
    ],
    "wof:geomhash": "15aa52e87ab520736e9dd89468228342",
    "wof:id": 2048511097,
    "wof:repo": "sfomuseum-data-flights-2026-10"
  },
  "bbox": [
    -122.35594,
    37.49113,
    -121.25675,
    37.61313
  ],
  "geometry": {"type":"LineString","coordinates":[[-121.25675,37.59347],[-121.28421,37.58982],[-121.43844,37.5727],[-121.50705,37.56474],[-121.56681,37.55764],[-121.58421,37.55557],[-121.67434,37.53902],[-121.72868,37.52612],[-121.7573,37.51938],[-121.80252,37.5083],[-121.84872,37.49708],[-121.88626,37.49113],[-121.95239,37.4926],[-122.00256,37.49899],[-122.05467,37.51628],[-122.06236,37.51874],[-122.13265,37.54163],[-122.14605,37.546],[-122.18889,37.55971],[-122.21422,37.56784],[-122.25912,37.58234],[-122.28996,37.59137],[-122.321,37.60049],[-122.33943,37.60619],[-122.35594,37.61313]]}
}
