{
  "id": 2048546153,
  "type": "Feature",
  "properties": {
    "geom:area": 0,
    "geom:bbox": "-122.390910,36.718760,-121.876490,37.612580",
    "geom:latitude": 37.20869533360072,
    "geom:longitude": -122.18162215506567,
    "src:alt_label": "swim-approach",
    "src:geom": "swim",
    "swim:elevations": [
      5634,
      5462,
      5054,
      4957,
      4635,
      4274,
      4131,
      3992,
      3679,
      3590,
      3569,
      3500,
      3355,
      3228,
      3087,
      3031,
      2821,
      2739,
      2444,
      2433,
      2276,
      2119,
      2094,
      1955,
      1889,
      1830,
      1613,
      1566,
      1412,
      1226,
      1146,
      1011,
      953,
      914,
      687,
      625,
      610,
      473,
      376,
      317,
      274,
      156,
      66,
      0
    ],
    "swim:geom": "approach",
    "swim:timestamps": [
      1791491980,
      1791492000,
      1791492052,
      1791492066,
      1791492105,
      1791492148,
      1791492165,
      1791492183,
      1791492221,
      1791492237,
      1791492242,
      1791492293,
      1791492320,
      1791492339,
      1791492361,
      1791492372,
      1791492411,
      1791492424,
      1791492478,
      1791492483,
      1791492517,
      1791492548,
      1791492552,
      1791492574,
      1791492588,
      1791492610,
      1791492656,
      1791492671,
      1791492710,
      1791492740,
      1791492759,
      1791492781,
      1791492794,
      1791492821,
      1791492862,
      1791492891,
      1791492895,
      1791492926,
      1791492948,
      1791492970,
      1791492986,
      1791493015,
      1791493037,
      1791493056
    ],
    "wof:geomhash": "032fd6d2da1ec05c07bd6152719bbd14",
    "wof:id": 2048546153,
    "wof:repo": "sfomuseum-data-flights-2026-10"
  },
  "bbox": [
    -122.39091,
    36.71876,
    -121.87649,
    37.61258
  ],
  "geometry": {"type":"LineString","coordinates":[[-121.87649,36.71876],[-121.89496,36.74884],[-121.93248,36.82333],[-121.94809,36.84104],[-121.98976,36.88761],[-122.03801,36.94032],[-122.05642,36.96011],[-122.07682,36.9822],[-122.11834,37.02616],[-122.13652,37.04562],[-122.14128,37.05082],[-122.19116,37.10476],[-122.21574,37.13142],[-122.23306,37.15007],[-122.25239,37.17106],[-122.2627,37.1821],[-122.29786,37.21997],[-122.30924,37.23225],[-122.35706,37.28303],[-122.36152,37.28779],[-122.39091,37.31958],[-122.38416,37.35096],[-122.38001,37.35325],[-122.35234,37.36322],[-122.33801,37.37158],[-122.31326,37.38589],[-122.26342,37.41447],[-122.24839,37.42306],[-122.2113,37.44456],[-122.18575,37.46159],[-122.17676,37.47668],[-122.16681,37.49311],[-122.16125,37.50336],[-122.1725,37.52241],[-122.20725,37.54206],[-122.23188,37.55566],[-122.23514,37.55749],[-122.26197,37.57087],[-122.27958,37.57853],[-122.29571,37.58519],[-122.30744,37.59024],[-122.33016,37.59982],[-122.34724,37.60704],[-122.36165,37.61258]]}
}
