{
  "id": 2048521911,
  "type": "Feature",
  "properties": {
    "date:inception_lower": "2026-10-05",
    "date:inception_upper": "2026-10-05",
    "edtf:cessation": "",
    "edtf:inception": "2026-10-05",
    "flysfo:actual_timestamp": -1,
    "flysfo:airline": "AC",
    "flysfo:base_airline": "",
    "flysfo:base_flight_number": "4046",
    "flysfo:date": "2026-10-05",
    "flysfo:estimated_timestamp": 1791201180,
    "flysfo:event": "D",
    "flysfo:flight_number": "AC4046",
    "flysfo:gate": "E9",
    "flysfo:journey": "SFO-DEN",
    "flysfo:scheduled_timestamp": 1791201600,
    "flysfo:timestamp": 1791201600,
    "geom:area": 0,
    "geom:bbox": "-122.370943,37.617990,-104.672219,39.864939",
    "geom:latitude": 38.7414645,
    "geom:longitude": -113.521581,
    "iata:airline": "AC",
    "iata:base_airline": "",
    "icao:airline": "ACA",
    "icao:base_airline": "ACA",
    "lbl:latitude": 37.619124,
    "lbl:longitude": -122.383949,
    "sfomuseum:airline_id": 1159283597,
    "sfomuseum:arrival_id": 102531189,
    "sfomuseum:base_flight_id": "20261005-D-ACA-4046",
    "sfomuseum:departure_id": 102527513,
    "sfomuseum:flight_id": "20261005-D-ACA-4046",
    "sfomuseum:flight_number": [
      "ACA4046",
      "AC4046"
    ],
    "sfomuseum:placetype": "flight",
    "src:geom": "flysfo",
    "wof:belongsto": [
      1947304067,
      102527513,
      1947304511,
      102191575,
      85633793,
      102087579,
      85922583,
      554784711,
      85688637,
      1947304523,
      1947304447,
      102085387
    ],
    "wof:country": "US",
    "wof:created": 1791303050,
    "wof:geomhash": "976937653dbac6c9c27dd23670ba89bf",
    "wof:hierarchy": [
      {
        "building_id": 1947304067,
        "campus_id": 102527513,
        "concourse_id": 1947304511,
        "continent_id": 102191575,
        "country_id": 85633793,
        "county_id": 102087579,
        "custom_id": 2048521911,
        "flight_id": 2048521911,
        "locality_id": 85922583,
        "postalcode_id": 554784711,
        "region_id": 85688637,
        "venue_id": 1947304523,
        "wing_id": 1947304447
      },
      {
        "building_id": 1947304067,
        "campus_id": 102527513,
        "concourse_id": 1947304511,
        "continent_id": 102191575,
        "country_id": 85633793,
        "county_id": 102085387,
        "custom_id": 2048521911,
        "flight_id": 2048521911,
        "region_id": 85688637,
        "venue_id": 1947304523,
        "wing_id": 1947304447
      }
    ],
    "wof:id": 2048521911,
    "wof:involves": [
      102531189,
      102527513,
      1159283597,
      1947304523,
      1159283597
    ],
    "wof:lastmodified": 1791303050,
    "wof:name": "AC4046 (SFO-DEN)",
    "wof:parent_id": 1947304523,
    "wof:placetype": "custom",
    "wof:placetype_alt": [
      "flight"
    ],
    "wof:repo": "sfomuseum-data-flights-2026-10",
    "wof:superseded_by": [],
    "wof:supersedes": []
  },
  "bbox": [
    -122.370943,
    37.61799,
    -104.672219,
    39.864939
  ],
  "geometry": {"type":"MultiPoint","coordinates":[[-122.370943,37.61799],[-104.672219,39.864939]]}
}
