{
  "id": 2048508893,
  "type": "Feature",
  "properties": {
    "geom:area": 0,
    "geom:bbox": "-122.379640,37.414450,-122.091440,37.622650",
    "geom:latitude": 37.50606262227909,
    "geom:longitude": -122.23678159944697,
    "src:alt_label": "swim-approach",
    "src:geom": "swim",
    "swim:elevations": [
      3326,
      2933,
      2909,
      2841,
      2590,
      2480,
      2250,
      2162,
      1950,
      1849,
      1828,
      1737,
      1709,
      1557,
      1435,
      1388,
      1237,
      1157,
      959,
      901,
      720,
      580,
      521,
      409,
      343,
      204,
      46
    ],
    "swim:geom": "approach",
    "swim:timestamps": [
      1791141362,
      1791141413,
      1791141417,
      1791141427,
      1791141474,
      1791141495,
      1791141532,
      1791141545,
      1791141580,
      1791141602,
      1791141618,
      1791141655,
      1791141664,
      1791141690,
      1791141725,
      1791141743,
      1791141765,
      1791141794,
      1791141834,
      1791141854,
      1791141886,
      1791141914,
      1791141927,
      1791141957,
      1791141973,
      1791142006,
      1791142048
    ],
    "wof:geomhash": "062ce86e69e93c68c56320e76435ee0b",
    "wof:id": 2048508893,
    "wof:repo": "sfomuseum-data-flights-2026-10"
  },
  "bbox": [
    -122.37964,
    37.41445,
    -122.09144,
    37.62265
  ],
  "geometry": {"type":"LineString","coordinates":[[-122.37964,37.62265],[-122.34556,37.57348],[-122.34372,37.56921],[-122.33819,37.55808],[-122.32155,37.50864],[-122.31812,37.48545],[-122.30519,37.44687],[-122.29126,37.43831],[-122.24459,37.42278],[-122.21645,37.41445],[-122.19313,37.41498],[-122.14166,37.41997],[-122.12835,37.42123],[-122.098,37.43461],[-122.09144,37.47045],[-122.09973,37.48566],[-122.11368,37.50162],[-122.13668,37.52036],[-122.17659,37.5375],[-122.19542,37.54534],[-122.22288,37.55696],[-122.2472,37.56733],[-122.25853,37.57224],[-122.28271,37.58233],[-122.29503,37.58749],[-122.32208,37.59885],[-122.35365,37.61207]]}
}
