{
  "id": 2048481277,
  "type": "Feature",
  "properties": {
    "geom:area": 0,
    "geom:bbox": "-122.354360,37.491110,-121.252910,37.612390",
    "geom:latitude": 37.54630981578085,
    "geom:longitude": -121.8085235577209,
    "src:alt_label": "swim-approach",
    "src:geom": "swim",
    "swim:elevations": [
      4704,
      4496,
      4273,
      4009,
      3805,
      3510,
      3281,
      3188,
      3044,
      2928,
      2801,
      2716,
      2515,
      2266,
      2240,
      2150,
      2100,
      1949,
      1829,
      1610,
      1395,
      1312,
      1110,
      888,
      761,
      674,
      629,
      398,
      250,
      122,
      38
    ],
    "swim:geom": "approach",
    "swim:timestamps": [
      1790884557,
      1790884582,
      1790884609,
      1790884643,
      1790884668,
      1790884705,
      1790884736,
      1790884754,
      1790884772,
      1790884791,
      1790884808,
      1790884817,
      1790884850,
      1790884888,
      1790884891,
      1790884908,
      1790884925,
      1790884961,
      1790884993,
      1790885030,
      1790885063,
      1790885075,
      1790885112,
      1790885149,
      1790885171,
      1790885189,
      1790885194,
      1790885244,
      1790885274,
      1790885308,
      1790885327
    ],
    "wof:geomhash": "060fba276ec3d991a140b342c8db138c",
    "wof:id": 2048481277,
    "wof:repo": "sfomuseum-data-flights-2026-10"
  },
  "bbox": [
    -122.35436,
    37.49111,
    -121.25291,
    37.61239
  ],
  "geometry": {"type":"LineString","coordinates":[[-121.25291,37.59408],[-121.30337,37.58766],[-121.358,37.58171],[-121.42497,37.57422],[-121.47202,37.56879],[-121.54197,37.56066],[-121.59909,37.55407],[-121.63006,37.54963],[-121.66058,37.54225],[-121.69128,37.53492],[-121.71915,37.52832],[-121.73358,37.5249],[-121.78484,37.51264],[-121.84074,37.49922],[-121.84505,37.49817],[-121.86941,37.4927],[-121.89427,37.49111],[-121.94542,37.4923],[-121.98975,37.49554],[-122.03871,37.51107],[-122.08192,37.52478],[-122.0975,37.52987],[-122.14374,37.54532],[-122.1865,37.55909],[-122.20941,37.56633],[-122.22836,37.57248],[-122.23459,37.57453],[-122.28438,37.58966],[-122.31123,37.59706],[-122.33977,37.60608],[-122.35436,37.61239]]}
}
