{
  "id": 2048502713,
  "type": "Feature",
  "properties": {
    "date:inception_lower": "2026-10-03",
    "date:inception_upper": "2026-10-03",
    "edtf:cessation": "",
    "edtf:inception": "2026-10-03",
    "flysfo:actual_timestamp": -1,
    "flysfo:airline": "UA",
    "flysfo:base_airline": "",
    "flysfo:base_flight_number": "7897",
    "flysfo:date": "2026-10-03",
    "flysfo:estimated_timestamp": 1791065460,
    "flysfo:event": "A",
    "flysfo:flight_number": "UA2464",
    "flysfo:gate": "D15",
    "flysfo:journey": "SBP-SFO",
    "flysfo:scheduled_timestamp": 1791065880,
    "flysfo:timestamp": 1791065880,
    "geom:area": 0,
    "geom:bbox": "-122.370943,35.236920,-120.643230,37.617990",
    "geom:latitude": 36.427454999999995,
    "geom:longitude": -121.5070865,
    "iata:airline": "UA",
    "iata:base_airline": "",
    "icao:airline": "UAL",
    "icao:base_airline": "DLH",
    "lbl:latitude": 37.617921,
    "lbl:longitude": -122.38181,
    "sfomuseum:airline_id": 1159285413,
    "sfomuseum:arrival_id": 102527513,
    "sfomuseum:base_flight_id": "20261003-A-DLH-7897",
    "sfomuseum:departure_id": 102527351,
    "sfomuseum:flight_id": "20261003-A-UAL-2464",
    "sfomuseum:flight_number": [
      "UAL2464",
      "UA2464"
    ],
    "sfomuseum:placetype": "flight",
    "src:geom": "flysfo",
    "wof:belongsto": [
      1947304067,
      102527513,
      1947304595,
      102191575,
      85633793,
      102087579,
      85922583,
      554784711,
      85688637,
      1947304623,
      1947304591,
      102085387
    ],
    "wof:country": "US",
    "wof:created": 1791130057,
    "wof:geomhash": "2af895d7dc7816e28cbc6da81f2a802b",
    "wof:hierarchy": [
      {
        "building_id": 1947304067,
        "campus_id": 102527513,
        "concourse_id": 1947304595,
        "continent_id": 102191575,
        "country_id": 85633793,
        "county_id": 102087579,
        "custom_id": 2048502713,
        "flight_id": 2048502713,
        "locality_id": 85922583,
        "postalcode_id": 554784711,
        "region_id": 85688637,
        "venue_id": 1947304623,
        "wing_id": 1947304591
      },
      {
        "building_id": 1947304067,
        "campus_id": 102527513,
        "concourse_id": 1947304595,
        "continent_id": 102191575,
        "country_id": 85633793,
        "county_id": 102085387,
        "custom_id": 2048502713,
        "flight_id": 2048502713,
        "region_id": 85688637,
        "venue_id": 1947304623,
        "wing_id": 1947304591
      }
    ],
    "wof:id": 2048502713,
    "wof:involves": [
      102527513,
      102527351,
      1159285413,
      1947304623,
      1159286015
    ],
    "wof:lastmodified": 1791130057,
    "wof:name": "UA2464 (SBP-SFO)",
    "wof:parent_id": 1947304623,
    "wof:placetype": "custom",
    "wof:placetype_alt": [
      "flight"
    ],
    "wof:repo": "sfomuseum-data-flights-2026-10",
    "wof:superseded_by": [],
    "wof:supersedes": []
  },
  "bbox": [
    -122.370943,
    35.23692,
    -120.64323,
    37.61799
  ],
  "geometry": {"type":"MultiPoint","coordinates":[[-120.64323,35.23692],[-122.370943,37.61799]]}
}
