{
  "id": 2048560707,
  "type": "Feature",
  "properties": {
    "geom:area": 0,
    "geom:bbox": "-123.490110,37.207820,-122.395670,37.662040",
    "geom:latitude": 37.457510091989995,
    "geom:longitude": -122.94474657477681,
    "src:alt_label": "swim-takeoff",
    "src:geom": "swim",
    "swim:elevations": [
      183,
      431,
      702,
      882,
      1012,
      1050,
      1370,
      1495,
      1903,
      2366,
      2486,
      3016,
      3177,
      3269,
      3536,
      3724,
      4145,
      4366,
      4594,
      4779,
      4980,
      5240,
      5394,
      5609,
      5769,
      5908,
      6114
    ],
    "swim:geom": "takeoff",
    "swim:timestamps": [
      1791574362,
      1791574385,
      1791574406,
      1791574418,
      1791574435,
      1791574446,
      1791574493,
      1791574510,
      1791574549,
      1791574587,
      1791574599,
      1791574644,
      1791574662,
      1791574681,
      1791574733,
      1791574751,
      1791574796,
      1791574820,
      1791574850,
      1791574873,
      1791574897,
      1791574929,
      1791574953,
      1791574972,
      1791574997,
      1791575014,
      1791575040
    ],
    "wof:geomhash": "7b7f428a6e811f20195d5271c6a401fb",
    "wof:id": 2048560707,
    "wof:repo": "sfomuseum-data-flights-2026-10"
  },
  "bbox": [
    -123.49011,
    37.20782,
    -122.39567,
    37.66204
  ],
  "geometry": {"type":"LineString","coordinates":[[-122.39567,37.62744],[-122.41632,37.63648],[-122.43702,37.64517],[-122.4483,37.64989],[-122.46506,37.6571],[-122.47569,37.66204],[-122.53156,37.65801],[-122.55146,37.64484],[-122.60269,37.61883],[-122.6565,37.59436],[-122.67272,37.58686],[-122.73876,37.55684],[-122.76546,37.54462],[-122.79565,37.53077],[-122.88581,37.48923],[-122.91744,37.47456],[-123.00235,37.43534],[-123.04825,37.41409],[-123.10546,37.38754],[-123.15028,37.36678],[-123.19852,37.3444],[-123.26157,37.31502],[-123.31022,37.29222],[-123.35056,37.27334],[-123.4007,37.24978],[-123.43689,37.23273],[-123.49011,37.20782]]}
}
