{
  "id": 2048501011,
  "type": "Feature",
  "properties": {
    "geom:area": 0,
    "geom:bbox": "-123.486310,37.261610,-122.124310,37.608870",
    "geom:latitude": 37.38347953161169,
    "geom:longitude": -122.70411937504582,
    "src:alt_label": "swim-approach",
    "src:geom": "swim",
    "swim:elevations": [
      4129,
      3861,
      3782,
      3409,
      3236,
      3130,
      3048,
      3071,
      3048,
      3048,
      3048,
      3048,
      3048,
      3048,
      3056,
      3048,
      2800,
      2653,
      2503,
      2438,
      2438,
      2438,
      2438,
      2438,
      2438,
      2346,
      2152,
      2066,
      1904,
      1643,
      1504,
      1301,
      1219,
      1219,
      1161,
      956,
      723,
      554,
      365,
      304,
      203,
      59
    ],
    "swim:geom": "approach",
    "swim:timestamps": [
      1791014514,
      1791014544,
      1791014552,
      1791014597,
      1791014627,
      1791014648,
      1791014683,
      1791014721,
      1791014753,
      1791014783,
      1791014815,
      1791014824,
      1791014874,
      1791014891,
      1791014910,
      1791014948,
      1791014990,
      1791015018,
      1791015047,
      1791015081,
      1791015095,
      1791015136,
      1791015175,
      1791015191,
      1791015214,
      1791015235,
      1791015263,
      1791015275,
      1791015293,
      1791015322,
      1791015345,
      1791015376,
      1791015401,
      1791015441,
      1791015465,
      1791015489,
      1791015513,
      1791015546,
      1791015594,
      1791015608,
      1791015635,
      1791015672
    ],
    "wof:geomhash": "de024784be83578a1f1674e875f9458d",
    "wof:id": 2048501011,
    "wof:repo": "sfomuseum-data-flights-2026-10"
  },
  "bbox": [
    -123.48631,
    37.26161,
    -122.12431,
    37.60887
  ],
  "geometry": {"type":"LineString","coordinates":[[-123.48631,37.45124],[-123.42868,37.43357],[-123.41503,37.42931],[-123.33165,37.40362],[-123.27988,37.38764],[-123.24583,37.3771],[-123.19047,37.35989],[-123.12905,37.34068],[-123.07771,37.32475],[-123.02967,37.3098],[-122.97978,37.29417],[-122.96482,37.2895],[-122.88478,37.2646],[-122.85628,37.26161],[-122.82357,37.2669],[-122.76026,37.28154],[-122.68865,37.29864],[-122.64198,37.30945],[-122.59463,37.32038],[-122.53892,37.33323],[-122.51633,37.33847],[-122.45455,37.35275],[-122.39535,37.36634],[-122.37189,37.37173],[-122.33713,37.37969],[-122.30606,37.38683],[-122.26508,37.39614],[-122.248,37.40009],[-122.22222,37.40595],[-122.18061,37.41557],[-122.14909,37.42554],[-122.13006,37.45397],[-122.12431,37.47908],[-122.14578,37.51304],[-122.16493,37.52921],[-122.18948,37.54064],[-122.21362,37.55086],[-122.24546,37.56432],[-122.2876,37.58197],[-122.29938,37.58697],[-122.3218,37.5964],[-122.3516,37.60887]]}
}
