{
  "id": 2048483795,
  "type": "Feature",
  "properties": {
    "geom:area": 0,
    "geom:bbox": "-122.361660,37.491670,-121.284600,37.615320",
    "geom:latitude": 37.54537732903576,
    "geom:longitude": -121.82793697419875,
    "src:alt_label": "swim-approach",
    "src:geom": "swim",
    "swim:elevations": [
      4427,
      4333,
      4207,
      3850,
      3755,
      3478,
      3347,
      3085,
      3068,
      2899,
      2468,
      2439,
      2414,
      2285,
      2147,
      2042,
      1861,
      1757,
      1604,
      1537,
      1393,
      1344,
      941,
      727,
      688,
      628,
      372,
      363,
      272,
      170,
      38,
      606
    ],
    "swim:geom": "approach",
    "swim:timestamps": [
      1790893729,
      1790893738,
      1790893752,
      1790893787,
      1790893796,
      1790893825,
      1790893837,
      1790893887,
      1790893898,
      1790893923,
      1790893961,
      1790893981,
      1790894006,
      1790894033,
      1790894055,
      1790894087,
      1790894115,
      1790894151,
      1790894186,
      1790894196,
      1790894217,
      1790894222,
      1790894266,
      1790894308,
      1790894311,
      1790894323,
      1790894368,
      1790894371,
      1790894394,
      1790894423,
      1790894456,
      1790894470
    ],
    "wof:geomhash": "49be27cbbbe39f6e9d858ee8f4b89390",
    "wof:id": 2048483795,
    "wof:repo": "sfomuseum-data-flights-2026-10"
  },
  "bbox": [
    -122.36166,
    37.49167,
    -121.2846,
    37.61532
  ],
  "geometry": {"type":"LineString","coordinates":[[-121.2846,37.58953],[-121.30304,37.58719],[-121.33095,37.58391],[-121.40294,37.57604],[-121.42119,37.57407],[-121.479,37.56747],[-121.50293,37.56474],[-121.59784,37.55345],[-121.61617,37.55134],[-121.65881,37.54242],[-121.72244,37.52702],[-121.75368,37.51986],[-121.79424,37.51026],[-121.83808,37.4997],[-121.8732,37.49167],[-121.92555,37.49234],[-121.97114,37.49339],[-122.02657,37.50751],[-122.07445,37.52291],[-122.08679,37.5269],[-122.11306,37.53533],[-122.11937,37.53737],[-122.17305,37.55479],[-122.22042,37.57007],[-122.22373,37.57114],[-122.2369,37.57535],[-122.28375,37.58973],[-122.28656,37.59055],[-122.3062,37.59624],[-122.32874,37.60304],[-122.35264,37.61163],[-122.36166,37.61532]]}
}
