{
  "id": 2048539985,
  "type": "Feature",
  "properties": {
    "date:inception_lower": "2026-10-07",
    "date:inception_upper": "2026-10-07",
    "edtf:cessation": "",
    "edtf:inception": "2026-10-07",
    "flysfo:actual_timestamp": -1,
    "flysfo:airline": "AS",
    "flysfo:base_airline": "",
    "flysfo:base_flight_number": "9399",
    "flysfo:date": "2026-10-07",
    "flysfo:estimated_timestamp": 1791413040,
    "flysfo:event": "D",
    "flysfo:flight_number": "AS630",
    "flysfo:gate": "B12",
    "flysfo:journey": "SFO-SEA",
    "flysfo:scheduled_timestamp": 1791411660,
    "flysfo:timestamp": 1791413040,
    "geom:area": 0,
    "geom:bbox": "-122.370943,37.617990,-122.304268,47.441823",
    "geom:latitude": 42.529906499999996,
    "geom:longitude": -122.3376055,
    "iata:airline": "AS",
    "iata:base_airline": "",
    "icao:airline": "ASA",
    "icao:base_airline": "AAL",
    "lbl:latitude": 37.61799,
    "lbl:longitude": -122.370943,
    "sfomuseum:airline_id": 1159283813,
    "sfomuseum:arrival_id": 102533269,
    "sfomuseum:base_flight_id": "20261007-D-AAL-9399",
    "sfomuseum:departure_id": 102527513,
    "sfomuseum:flight_id": "20261007-D-ASA-630",
    "sfomuseum:flight_number": [
      "ASA630",
      "AS630"
    ],
    "sfomuseum:placetype": "flight",
    "src:geom": "flysfo",
    "wof:belongsto": [
      1947304067,
      102527513,
      1947304261,
      102191575,
      85633793,
      102087579,
      85922583,
      554784711,
      85688637,
      1947304263,
      1947304259,
      102085387
    ],
    "wof:country": "US",
    "wof:created": 1791475933,
    "wof:geomhash": "4036ee3c983703867dbe0486453848b1",
    "wof:hierarchy": [
      {
        "building_id": 1947304067,
        "campus_id": 102527513,
        "concourse_id": 1947304261,
        "continent_id": 102191575,
        "country_id": 85633793,
        "county_id": 102087579,
        "custom_id": 2048539985,
        "flight_id": 2048539985,
        "locality_id": 85922583,
        "postalcode_id": 554784711,
        "region_id": 85688637,
        "venue_id": 1947304263,
        "wing_id": 1947304259
      },
      {
        "building_id": 1947304067,
        "campus_id": 102527513,
        "concourse_id": 1947304261,
        "continent_id": 102191575,
        "country_id": 85633793,
        "county_id": 102085387,
        "custom_id": 2048539985,
        "flight_id": 2048539985,
        "region_id": 85688637,
        "venue_id": 1947304263,
        "wing_id": 1947304259
      }
    ],
    "wof:id": 2048539985,
    "wof:involves": [
      102533269,
      102527513,
      1159283813,
      1947304263,
      1159283849
    ],
    "wof:lastmodified": 1791475933,
    "wof:name": "AS630 (SFO-SEA)",
    "wof:parent_id": 1947304263,
    "wof:placetype": "custom",
    "wof:placetype_alt": [
      "flight"
    ],
    "wof:repo": "sfomuseum-data-flights-2026-10",
    "wof:superseded_by": [],
    "wof:supersedes": []
  },
  "bbox": [
    -122.370943,
    37.61799,
    -122.304268,
    47.441823
  ],
  "geometry": {"type":"MultiPoint","coordinates":[[-122.370943,37.61799],[-122.304268,47.441823]]}
}
