{
  "id": 2048558725,
  "type": "Feature",
  "properties": {
    "geom:area": 0,
    "geom:bbox": "-122.449530,36.720040,-121.402940,37.705690",
    "geom:latitude": 37.206916523865935,
    "geom:longitude": -122.02554328992808,
    "src:alt_label": "swim-takeoff",
    "src:geom": "swim",
    "swim:elevations": [
      183,
      383,
      575,
      862,
      1127,
      1530,
      1800,
      2028,
      2602,
      3090,
      3420,
      3544,
      3945,
      4406,
      4581,
      5112,
      5370,
      5993,
      6597,
      6835,
      7171,
      7255,
      7682,
      7959,
      8068,
      8340,
      8496,
      8638,
      8865
    ],
    "swim:geom": "takeoff",
    "swim:timestamps": [
      1791570290,
      1791570312,
      1791570345,
      1791570376,
      1791570408,
      1791570437,
      1791570461,
      1791570480,
      1791570523,
      1791570556,
      1791570593,
      1791570615,
      1791570646,
      1791570682,
      1791570697,
      1791570746,
      1791570765,
      1791570810,
      1791570867,
      1791570893,
      1791570928,
      1791570936,
      1791570985,
      1791571017,
      1791571031,
      1791571070,
      1791571094,
      1791571113,
      1791571140
    ],
    "wof:geomhash": "86998506af0efa9b8585e74b17330f0b",
    "wof:id": 2048558725,
    "wof:repo": "sfomuseum-data-flights-2026-10"
  },
  "bbox": [
    -122.44953,
    36.72004,
    -121.40294,
    37.70569
  ],
  "geometry": {"type":"LineString","coordinates":[[-122.36575,37.63344],[-122.36206,37.64995],[-122.36172,37.68011],[-122.38159,37.70569],[-122.42384,37.69433],[-122.44285,37.65952],[-122.44953,37.63025],[-122.44634,37.60524],[-122.43724,37.54606],[-122.43039,37.50184],[-122.41071,37.45247],[-122.37842,37.42829],[-122.33069,37.3935],[-122.27258,37.35077],[-122.24952,37.33376],[-122.16647,37.27175],[-122.13342,37.24649],[-122.05255,37.18847],[-121.94709,37.1136],[-121.898,37.0784],[-121.83055,37.02968],[-121.81481,37.01827],[-121.71987,36.94969],[-121.65494,36.9043],[-121.62756,36.8844],[-121.54775,36.82626],[-121.49951,36.79082],[-121.45857,36.76105],[-121.40294,36.72004]]}
}
