{
  "id": 2048484803,
  "type": "Feature",
  "properties": {
    "geom:area": 0,
    "geom:bbox": "-122.350510,36.726970,-121.882380,37.608410",
    "geom:latitude": 37.229240759682135,
    "geom:longitude": -122.10564907813848,
    "src:alt_label": "swim-approach",
    "src:geom": "swim",
    "swim:elevations": [
      5154,
      4926,
      4693,
      4537,
      4161,
      3843,
      3702,
      3546,
      3233,
      3109,
      3047,
      3048,
      3048,
      3048,
      2807,
      2735,
      2599,
      2313,
      2223,
      2065,
      1975,
      1889,
      1692,
      1617,
      1354,
      1141,
      1063,
      942,
      851,
      728,
      546,
      474,
      421,
      278,
      166,
      39
    ],
    "swim:geom": "approach",
    "swim:timestamps": [
      1790845048,
      1790845076,
      1790845103,
      1790845119,
      1790845162,
      1790845196,
      1790845212,
      1790845231,
      1790845266,
      1790845299,
      1790845337,
      1790845378,
      1790845404,
      1790845418,
      1790845465,
      1790845479,
      1790845502,
      1790845549,
      1790845572,
      1790845598,
      1790845629,
      1790845650,
      1790845694,
      1790845710,
      1790845756,
      1790845792,
      1790845808,
      1790845834,
      1790845878,
      1790845903,
      1790845939,
      1790845956,
      1790845968,
      1790846001,
      1790846028,
      1790846057
    ],
    "wof:geomhash": "231859fca589aaaf60483946a46e93bc",
    "wof:id": 2048484803,
    "wof:repo": "sfomuseum-data-flights-2026-10"
  },
  "bbox": [
    -122.35051,
    36.72697,
    -121.88238,
    37.60841
  ],
  "geometry": {"type":"LineString","coordinates":[[-121.88238,36.72697],[-121.90278,36.77072],[-121.91489,36.81438],[-121.92209,36.84003],[-121.94117,36.90861],[-121.9569,36.9619],[-121.9662,36.98634],[-121.97765,37.01555],[-121.99867,37.06865],[-122.01726,37.11648],[-122.05249,37.15854],[-122.10416,37.187],[-122.13533,37.20427],[-122.15249,37.21383],[-122.20882,37.2453],[-122.22501,37.25429],[-122.25207,37.26921],[-122.27569,37.31452],[-122.25466,37.33348],[-122.22403,37.35107],[-122.19066,37.37083],[-122.16926,37.38375],[-122.12752,37.40984],[-122.11569,37.42183],[-122.0993,37.46067],[-122.11179,37.49262],[-122.11779,37.50621],[-122.14183,37.52036],[-122.18624,37.53938],[-122.21251,37.55035],[-122.24967,37.5661],[-122.26612,37.57301],[-122.27684,37.57752],[-122.30467,37.58905],[-122.32755,37.5988],[-122.35051,37.60841]]}
}
