{
  "id": 2048506671,
  "type": "Feature",
  "properties": {
    "geom:area": 0,
    "geom:bbox": "-122.365970,37.629190,-121.280320,38.096890",
    "geom:latitude": 37.860391634496764,
    "geom:longitude": -121.82422657705696,
    "src:alt_label": "swim-takeoff",
    "src:geom": "swim",
    "swim:elevations": [
      91,
      584,
      935,
      1134,
      1311,
      1446,
      1651,
      2252,
      2732,
      3029,
      3381,
      3534,
      3855,
      4186,
      4530,
      5047,
      5452,
      5727,
      5859,
      6299,
      6415,
      6858,
      7069
    ],
    "swim:geom": "takeoff",
    "swim:timestamps": [
      1791033676,
      1791033708,
      1791033746,
      1791033777,
      1791033804,
      1791033825,
      1791033845,
      1791033890,
      1791033919,
      1791033944,
      1791033974,
      1791034005,
      1791034027,
      1791034064,
      1791034082,
      1791034129,
      1791034158,
      1791034189,
      1791034200,
      1791034248,
      1791034261,
      1791034308,
      1791034334
    ],
    "wof:geomhash": "c86d4df86cb0762802520747d2453f8d",
    "wof:id": 2048506671,
    "wof:repo": "sfomuseum-data-flights-2026-10"
  },
  "bbox": [
    -122.36597,
    37.62919,
    -121.28032,
    38.09689
  ],
  "geometry": {"type":"LineString","coordinates":[[-122.36597,37.62919],[-122.34751,37.65052],[-122.31476,37.66644],[-122.28551,37.68116],[-122.25544,37.69631],[-122.22659,37.70596],[-122.19755,37.71392],[-122.12814,37.73204],[-122.08137,37.7443],[-122.04323,37.75516],[-121.99557,37.77547],[-121.94348,37.79884],[-121.90401,37.81698],[-121.83582,37.84809],[-121.80138,37.8637],[-121.71101,37.90452],[-121.65411,37.93011],[-121.59152,37.95794],[-121.56965,37.96799],[-121.46893,38.01325],[-121.44181,38.02528],[-121.33748,38.07141],[-121.28032,38.09689]]}
}
