{
  "id": 2048555783,
  "type": "Feature",
  "properties": {
    "date:cessation_lower": "2026-10-10",
    "date:cessation_upper": "2026-10-10",
    "date:inception_lower": "1970-01-01",
    "date:inception_upper": "1970-01-01",
    "edtf:cessation": "2026-10-09T22:41:05-07:00",
    "edtf:inception": "1970-01-01T00:00:00Z",
    "flysfo:actual_timestamp": -1,
    "flysfo:airline": "UA",
    "flysfo:date": "2026-10-09",
    "flysfo:estimated_timestamp": 1791548820,
    "flysfo:event": "A",
    "flysfo:flight_number": "UA190",
    "flysfo:gate": "G5",
    "flysfo:journey": "MNL-SFO",
    "flysfo:scheduled_timestamp": 1791552900,
    "flysfo:timestamp": 1791552900,
    "geom:area": 0,
    "geom:bbox": "-122.370943,14.517768,121.015152,37.617990",
    "geom:latitude": 26.067878999999998,
    "geom:longitude": -0.6778954999999982,
    "iata:airline": "UA",
    "icao:aircraft": "B77W",
    "icao:airline": "UAL",
    "lbl:latitude": 37.617906,
    "lbl:longitude": -122.390944,
    "sfomuseum:aircraft_id": 1159289993,
    "sfomuseum:airline_id": 1159285413,
    "sfomuseum:arrival_id": 102527513,
    "sfomuseum:departure_id": 102553219,
    "sfomuseum:flight_id": "20261009-A-UAL-190",
    "sfomuseum:flight_number": [
      "UAL190",
      "UA190"
    ],
    "sfomuseum:placetype": "flight",
    "src:geom": "flysfo",
    "src:geom_alt": [
      "swim-approach"
    ],
    "swim:tail_number": "N2846U",
    "wof:belongsto": [
      1947304067,
      102527513,
      1947304129,
      102191575,
      85633793,
      102087579,
      85922583,
      554784711,
      85688637,
      1947304145,
      1947304069,
      102085387
    ],
    "wof:country": "US",
    "wof:created": 1791648473,
    "wof:geomhash": "5a4fd58c6aeb5f6f6368af3561d0b192",
    "wof:hierarchy": [
      {
        "building_id": 1947304067,
        "campus_id": 102527513,
        "concourse_id": 1947304129,
        "continent_id": 102191575,
        "country_id": 85633793,
        "county_id": 102087579,
        "custom_id": 2048555783,
        "flight_id": 2048555783,
        "locality_id": 85922583,
        "postalcode_id": 554784711,
        "region_id": 85688637,
        "venue_id": 1947304145,
        "wing_id": 1947304069
      },
      {
        "building_id": 1947304067,
        "campus_id": 102527513,
        "concourse_id": 1947304129,
        "continent_id": 102191575,
        "country_id": 85633793,
        "county_id": 102085387,
        "custom_id": 2048555783,
        "flight_id": 2048555783,
        "region_id": 85688637,
        "venue_id": 1947304145,
        "wing_id": 1947304069
      }
    ],
    "wof:id": 2048555783,
    "wof:involves": [
      102527513,
      102553219,
      1159285413,
      1947304145,
      1159289993
    ],
    "wof:lastmodified": 1791649138,
    "wof:name": "UA190 (MNL-SFO)",
    "wof:parent_id": 1947304145,
    "wof:placetype": "custom",
    "wof:placetype_alt": [
      "flight"
    ],
    "wof:repo": "sfomuseum-data-flights-2026-10",
    "wof:superseded_by": [],
    "wof:supersedes": []
  },
  "bbox": [
    -122.370943,
    14.517768,
    121.015152,
    37.61799
  ],
  "geometry": {"type":"MultiPoint","coordinates":[[121.015152,14.517768],[-122.370943,37.61799]]}
}
