{
  "id": 2048502791,
  "type": "Feature",
  "properties": {
    "date:inception_lower": "2026-10-03",
    "date:inception_upper": "2026-10-03",
    "edtf:cessation": "",
    "edtf:inception": "2026-10-03",
    "flysfo:actual_timestamp": -1,
    "flysfo:airline": "UA",
    "flysfo:base_airline": "",
    "flysfo:base_flight_number": "2046",
    "flysfo:date": "2026-10-03",
    "flysfo:estimated_timestamp": 1791072840,
    "flysfo:event": "A",
    "flysfo:flight_number": "UA4632",
    "flysfo:gate": "F6",
    "flysfo:journey": "ACV-SFO",
    "flysfo:scheduled_timestamp": 1791074220,
    "flysfo:timestamp": 1791074220,
    "geom:area": 0,
    "geom:bbox": "-124.108020,37.617990,-122.370943,40.971689",
    "geom:latitude": 39.294839499999995,
    "geom:longitude": -123.2394815,
    "iata:airline": "UA",
    "iata:base_airline": "",
    "icao:airline": "UAL",
    "icao:base_airline": "AVA",
    "lbl:latitude": 37.61799,
    "lbl:longitude": -122.370943,
    "sfomuseum:airline_id": 1159285413,
    "sfomuseum:arrival_id": 102527513,
    "sfomuseum:base_flight_id": "20261003-A-AVA-2046",
    "sfomuseum:departure_id": 102531997,
    "sfomuseum:flight_id": "20261003-A-UAL-4632",
    "sfomuseum:flight_number": [
      "UAL4632",
      "UA4632"
    ],
    "sfomuseum:placetype": "flight",
    "src:geom": "flysfo",
    "wof:belongsto": [
      1947304067,
      102527513,
      1947304451,
      102191575,
      85633793,
      102087579,
      85922583,
      554784711,
      85688637,
      1947304461,
      1947304447,
      102085387
    ],
    "wof:country": "US",
    "wof:created": 1791130065,
    "wof:geomhash": "dcc7d5812c5708e8b42757f5054e75d6",
    "wof:hierarchy": [
      {
        "building_id": 1947304067,
        "campus_id": 102527513,
        "concourse_id": 1947304451,
        "continent_id": 102191575,
        "country_id": 85633793,
        "county_id": 102087579,
        "custom_id": 2048502791,
        "flight_id": 2048502791,
        "locality_id": 85922583,
        "postalcode_id": 554784711,
        "region_id": 85688637,
        "venue_id": 1947304461,
        "wing_id": 1947304447
      },
      {
        "building_id": 1947304067,
        "campus_id": 102527513,
        "concourse_id": 1947304451,
        "continent_id": 102191575,
        "country_id": 85633793,
        "county_id": 102085387,
        "custom_id": 2048502791,
        "flight_id": 2048502791,
        "region_id": 85688637,
        "venue_id": 1947304461,
        "wing_id": 1947304447
      }
    ],
    "wof:id": 2048502791,
    "wof:involves": [
      102527513,
      102531997,
      1159285413,
      1947304461,
      1159285749
    ],
    "wof:lastmodified": 1791130065,
    "wof:name": "UA4632 (ACV-SFO)",
    "wof:parent_id": 1947304461,
    "wof:placetype": "custom",
    "wof:placetype_alt": [
      "flight"
    ],
    "wof:repo": "sfomuseum-data-flights-2026-10",
    "wof:superseded_by": [],
    "wof:supersedes": []
  },
  "bbox": [
    -124.10802,
    37.61799,
    -122.370943,
    40.971689
  ],
  "geometry": {"type":"MultiPoint","coordinates":[[-124.10802,40.971689],[-122.370943,37.61799]]}
}
