{
  "id": 2048542121,
  "type": "Feature",
  "properties": {
    "geom:area": 0,
    "geom:bbox": "-122.362890,37.633750,-121.248950,38.423350",
    "geom:latitude": 38.03848307687241,
    "geom:longitude": -121.81478851407485,
    "src:alt_label": "swim-takeoff",
    "src:geom": "swim",
    "swim:elevations": [
      152,
      183,
      604,
      957,
      1110,
      1196,
      1439,
      1797,
      2110,
      2382,
      2591,
      3094,
      3314,
      4213,
      4491,
      4760,
      4883,
      5102,
      5504,
      5856,
      5887,
      6093,
      6314,
      6534,
      6643,
      7036,
      7129,
      7475
    ],
    "swim:geom": "takeoff",
    "swim:timestamps": [
      1791370918,
      1791370921,
      1791370966,
      1791370999,
      1791371025,
      1791371036,
      1791371064,
      1791371098,
      1791371124,
      1791371144,
      1791371162,
      1791371204,
      1791371230,
      1791371306,
      1791371331,
      1791371360,
      1791371373,
      1791371401,
      1791371446,
      1791371487,
      1791371490,
      1791371511,
      1791371539,
      1791371569,
      1791371585,
      1791371636,
      1791371648,
      1791371697
    ],
    "wof:geomhash": "a3858883f1f5a1f037677f53c23b1293",
    "wof:id": 2048542121,
    "wof:repo": "sfomuseum-data-flights-2026-10"
  },
  "bbox": [
    -122.36289,
    37.63375,
    -121.24895,
    38.42335
  ],
  "geometry": {"type":"LineString","coordinates":[[-122.36289,37.63375],[-122.36194,37.63519],[-122.32388,37.65815],[-122.29341,37.67607],[-122.26641,37.69102],[-122.25387,37.69764],[-122.22092,37.71611],[-122.18537,37.74928],[-122.15901,37.77813],[-122.1392,37.80012],[-122.1211,37.82018],[-122.0763,37.86982],[-122.04226,37.8975],[-121.92522,37.97634],[-121.88613,38.00282],[-121.84142,38.03314],[-121.8206,38.04725],[-121.77521,38.07798],[-121.7002,38.1284],[-121.63154,38.17457],[-121.62581,38.17845],[-121.58985,38.20251],[-121.54095,38.23518],[-121.48942,38.26958],[-121.45987,38.28929],[-121.36762,38.35079],[-121.34498,38.36499],[-121.24895,38.42335]]}
}
