{
  "id": 2048515531,
  "type": "Feature",
  "properties": {
    "geom:area": 0,
    "geom:bbox": "-122.362640,37.633830,-121.255510,38.120920",
    "geom:latitude": 37.89282230005521,
    "geom:longitude": -121.8164720548961,
    "src:alt_label": "swim-takeoff",
    "src:geom": "swim",
    "swim:elevations": [
      183,
      483,
      721,
      799,
      1037,
      1186,
      1280,
      1543,
      1949,
      2303,
      2522,
      3187,
      3326,
      3386,
      3685,
      4269,
      4331,
      4614,
      5101,
      5390,
      5676,
      5849,
      6163,
      6502,
      6678
    ],
    "swim:geom": "takeoff",
    "swim:timestamps": [
      1791103015,
      1791103037,
      1791103062,
      1791103069,
      1791103102,
      1791103135,
      1791103156,
      1791103185,
      1791103217,
      1791103247,
      1791103263,
      1791103315,
      1791103344,
      1791103353,
      1791103390,
      1791103437,
      1791103443,
      1791103474,
      1791103521,
      1791103549,
      1791103576,
      1791103595,
      1791103637,
      1791103671,
      1791103691
    ],
    "wof:geomhash": "117205df58dad26d912f41399e366531",
    "wof:id": 2048515531,
    "wof:repo": "sfomuseum-data-flights-2026-10"
  },
  "bbox": [
    -122.36264,
    37.63383,
    -121.25551,
    38.12092
  ],
  "geometry": {"type":"LineString","coordinates":[[-122.36264,37.63383],[-122.34705,37.64655],[-122.32669,37.65716],[-122.32035,37.66056],[-122.29304,37.67556],[-122.26032,37.69377],[-122.23466,37.70682],[-122.19687,37.72651],[-122.15373,37.74913],[-122.11184,37.77095],[-122.08792,37.78326],[-122.01271,37.82184],[-121.9647,37.8418],[-121.9491,37.84785],[-121.88037,37.87544],[-121.78975,37.91109],[-121.77782,37.9159],[-121.71641,37.94038],[-121.62228,37.97787],[-121.56206,38.00136],[-121.50566,38.02335],[-121.46485,38.03922],[-121.37455,38.07448],[-121.29875,38.10401],[-121.25551,38.12092]]}
}
