{
  "id": 2048515465,
  "type": "Feature",
  "properties": {
    "date:inception_lower": "2026-10-04",
    "date:inception_upper": "2026-10-04",
    "edtf:cessation": "",
    "edtf:inception": "2026-10-04",
    "flysfo:actual_timestamp": -1,
    "flysfo:airline": "EK",
    "flysfo:base_airline": "",
    "flysfo:base_flight_number": "6492",
    "flysfo:date": "2026-10-04",
    "flysfo:estimated_timestamp": 1791156420,
    "flysfo:event": "D",
    "flysfo:flight_number": "EK6492",
    "flysfo:gate": "F18",
    "flysfo:journey": "SFO-RDD",
    "flysfo:scheduled_timestamp": 1791156600,
    "flysfo:timestamp": 1791156600,
    "geom:area": 0,
    "geom:bbox": "-122.370943,37.617990,-122.298220,40.507596",
    "geom:latitude": 39.062793,
    "geom:longitude": -122.3345815,
    "iata:airline": "EK",
    "iata:base_airline": "",
    "icao:airline": "UAE",
    "icao:base_airline": "UAE",
    "lbl:latitude": 37.61799,
    "lbl:longitude": -122.370943,
    "sfomuseum:airline_id": 1159284333,
    "sfomuseum:arrival_id": 102527969,
    "sfomuseum:base_flight_id": "20261004-D-UAE-6492",
    "sfomuseum:departure_id": 102527513,
    "sfomuseum:flight_id": "20261004-D-UAE-6492",
    "sfomuseum:flight_number": [
      "UAE6492",
      "EK6492"
    ],
    "sfomuseum:placetype": "flight",
    "src:geom": "flysfo",
    "wof:belongsto": [
      1947304067,
      102527513,
      1947304451,
      102191575,
      85633793,
      102087579,
      85922583,
      554784711,
      85688637,
      1947304477,
      1947304447,
      102085387
    ],
    "wof:country": "US",
    "wof:created": 1791216982,
    "wof:geomhash": "d81f35c9bd76192177056b7c45b4498c",
    "wof:hierarchy": [
      {
        "building_id": 1947304067,
        "campus_id": 102527513,
        "concourse_id": 1947304451,
        "continent_id": 102191575,
        "country_id": 85633793,
        "county_id": 102087579,
        "custom_id": 2048515465,
        "flight_id": 2048515465,
        "locality_id": 85922583,
        "postalcode_id": 554784711,
        "region_id": 85688637,
        "venue_id": 1947304477,
        "wing_id": 1947304447
      },
      {
        "building_id": 1947304067,
        "campus_id": 102527513,
        "concourse_id": 1947304451,
        "continent_id": 102191575,
        "country_id": 85633793,
        "county_id": 102085387,
        "custom_id": 2048515465,
        "flight_id": 2048515465,
        "region_id": 85688637,
        "venue_id": 1947304477,
        "wing_id": 1947304447
      }
    ],
    "wof:id": 2048515465,
    "wof:involves": [
      102527969,
      102527513,
      1159284333,
      1947304477,
      1159284333
    ],
    "wof:lastmodified": 1791216982,
    "wof:name": "EK6492 (SFO-RDD)",
    "wof:parent_id": 1947304477,
    "wof:placetype": "custom",
    "wof:placetype_alt": [
      "flight"
    ],
    "wof:repo": "sfomuseum-data-flights-2026-10",
    "wof:superseded_by": [],
    "wof:supersedes": []
  },
  "bbox": [
    -122.370943,
    37.61799,
    -122.29822,
    40.507596
  ],
  "geometry": {"type":"MultiPoint","coordinates":[[-122.370943,37.61799],[-122.29822,40.507596]]}
}
