{
  "id": 2048514151,
  "type": "Feature",
  "properties": {
    "geom:area": 0,
    "geom:bbox": "-122.365890,37.629140,-121.464470,38.496560",
    "geom:latitude": 38.05578634507435,
    "geom:longitude": -121.91027632384134,
    "src:alt_label": "swim-takeoff",
    "src:geom": "swim",
    "swim:elevations": [
      183,
      477,
      626,
      790,
      1085,
      1392,
      2077,
      2362,
      2898,
      2992,
      3351,
      3563,
      3972,
      4560,
      4974,
      5202,
      5595,
      6001,
      6359,
      6954,
      7005,
      7313,
      7525,
      7798,
      8158,
      8461
    ],
    "swim:geom": "takeoff",
    "swim:timestamps": [
      1791114168,
      1791114190,
      1791114211,
      1791114230,
      1791114262,
      1791114282,
      1791114320,
      1791114338,
      1791114368,
      1791114374,
      1791114398,
      1791114428,
      1791114461,
      1791114501,
      1791114531,
      1791114549,
      1791114577,
      1791114610,
      1791114637,
      1791114686,
      1791114691,
      1791114717,
      1791114737,
      1791114762,
      1791114797,
      1791114828
    ],
    "wof:geomhash": "133263ff8b06785da54915525d408f02",
    "wof:id": 2048514151,
    "wof:repo": "sfomuseum-data-flights-2026-10"
  },
  "bbox": [
    -122.36589,
    37.62914,
    -121.46447,
    38.49656
  ],
  "geometry": {"type":"LineString","coordinates":[[-122.36589,37.62914],[-122.35288,37.64247],[-122.33488,37.65236],[-122.31676,37.66243],[-122.2799,37.68317],[-122.25315,37.69806],[-122.20511,37.72805],[-122.18799,37.74615],[-122.15831,37.77961],[-122.15279,37.78587],[-122.12831,37.81295],[-122.09285,37.85201],[-122.05105,37.89818],[-121.99783,37.95666],[-121.95566,38.00269],[-121.93019,38.03105],[-121.88937,38.07568],[-121.83994,38.12967],[-121.79814,38.17548],[-121.72091,38.25933],[-121.71421,38.26661],[-121.67156,38.31317],[-121.63912,38.3486],[-121.59711,38.39401],[-121.53365,38.45266],[-121.46447,38.49656]]}
}
