{
  "id": 2048496767,
  "type": "Feature",
  "properties": {
    "geom:area": 0,
    "geom:bbox": "-122.386800,37.634600,-121.267760,38.412390",
    "geom:latitude": 38.08165299632591,
    "geom:longitude": -121.93700800793313,
    "src:alt_label": "swim-takeoff",
    "src:geom": "swim",
    "swim:elevations": [
      348,
      551,
      756,
      776,
      991,
      1406,
      1764,
      1835,
      2152,
      2594,
      2745,
      3025,
      3187,
      3396,
      3569,
      3784,
      4024,
      4318,
      4423,
      4746,
      4915,
      5179,
      5384,
      5608,
      5694,
      5733,
      5901,
      5968,
      6209
    ],
    "swim:geom": "takeoff",
    "swim:timestamps": [
      1790978985,
      1790979005,
      1790979058,
      1790979061,
      1790979107,
      1790979143,
      1790979176,
      1790979182,
      1790979214,
      1790979264,
      1790979282,
      1790979312,
      1790979334,
      1790979388,
      1790979415,
      1790979442,
      1790979469,
      1790979501,
      1790979516,
      1790979564,
      1790979588,
      1790979621,
      1790979650,
      1790979684,
      1790979715,
      1790979739,
      1790979777,
      1790979786,
      1790979826
    ],
    "wof:geomhash": "a5629260cf181a250b53b3638c2d7dea",
    "wof:id": 2048496767,
    "wof:repo": "sfomuseum-data-flights-2026-10"
  },
  "bbox": [
    -122.3868,
    37.6346,
    -121.26776,
    38.41239
  ],
  "geometry": {"type":"LineString","coordinates":[[-122.36099,37.6346],[-122.34894,37.64631],[-122.31037,37.68101],[-122.30892,37.68394],[-122.32828,37.73554],[-122.35253,37.77772],[-122.37296,37.81872],[-122.3767,37.82605],[-122.3868,37.86676],[-122.37749,37.93517],[-122.35586,37.95235],[-122.30816,37.96924],[-122.27329,37.98415],[-122.18035,38.0224],[-122.12944,38.04317],[-122.07763,38.06402],[-122.02559,38.08485],[-121.96158,38.11043],[-121.93218,38.12216],[-121.8343,38.16105],[-121.78449,38.18082],[-121.71571,38.20812],[-121.65511,38.23209],[-121.58159,38.26108],[-121.51273,38.28823],[-121.45886,38.30934],[-121.37085,38.34863],[-121.3521,38.36021],[-121.26776,38.41239]]}
}
