{
  "id": 2048511693,
  "type": "Feature",
  "properties": {
    "geom:area": 0,
    "geom:bbox": "-122.669770,37.481020,-121.793870,38.517450",
    "geom:latitude": 37.79002469004789,
    "geom:longitude": -122.30868701296144,
    "src:alt_label": "swim-approach",
    "src:geom": "swim",
    "swim:elevations": [
      6779,
      6557,
      6337,
      6134,
      5938,
      5640,
      5318,
      5137,
      4795,
      4375,
      4267,
      4267,
      4267,
      4267,
      4226,
      3990,
      3840,
      3584,
      3430,
      3382,
      3353,
      3353,
      3353,
      3353,
      3353,
      3353,
      3353,
      3353,
      3353,
      3353,
      3258,
      3176,
      3049,
      2978,
      2929,
      2899,
      2798,
      2777,
      2686,
      2628,
      2592,
      2560,
      2477,
      2296,
      2234,
      2122,
      2061,
      1980,
      1882,
      1601,
      1395,
      1295,
      1174,
      1095,
      1097,
      876,
      768,
      458,
      350,
      271,
      249,
      167,
      88,
      0
    ],
    "swim:geom": "approach",
    "swim:timestamps": [
      1791143034,
      1791143054,
      1791143077,
      1791143098,
      1791143119,
      1791143146,
      1791143175,
      1791143194,
      1791143227,
      1791143268,
      1791143305,
      1791143337,
      1791143367,
      1791143372,
      1791143404,
      1791143435,
      1791143451,
      1791143479,
      1791143509,
      1791143529,
      1791143578,
      1791143587,
      1791143635,
      1791143641,
      1791143697,
      1791143713,
      1791143732,
      1791143780,
      1791143811,
      1791143843,
      1791143878,
      1791143894,
      1791143932,
      1791143953,
      1791143965,
      1791143974,
      1791144004,
      1791144008,
      1791144045,
      1791144057,
      1791144075,
      1791144102,
      1791144148,
      1791144177,
      1791144191,
      1791144208,
      1791144222,
      1791144237,
      1791144256,
      1791144291,
      1791144324,
      1791144335,
      1791144384,
      1791144405,
      1791144421,
      1791144477,
      1791144500,
      1791144538,
      1791144556,
      1791144585,
      1791144589,
      1791144607,
      1791144627,
      1791144654
    ],
    "wof:geomhash": "3cc688547fe7897e620fbf09f8c7d6c7",
    "wof:id": 2048511693,
    "wof:repo": "sfomuseum-data-flights-2026-10"
  },
  "bbox": [
    -122.66977,
    37.48102,
    -121.79387,
    38.51745
  ],
  "geometry": {"type":"LineString","coordinates":[[-122.62161,38.51745],[-122.62471,38.48115],[-122.6279,38.44057],[-122.63105,38.40385],[-122.63419,38.36716],[-122.63792,38.32077],[-122.64222,38.26957],[-122.64495,38.23767],[-122.6498,38.18164],[-122.65551,38.11191],[-122.66059,38.05052],[-122.6649,37.99819],[-122.66905,37.94899],[-122.66977,37.94052],[-122.6607,37.89189],[-122.62648,37.85509],[-122.60611,37.8358],[-122.57175,37.80372],[-122.5355,37.76972],[-122.51343,37.74884],[-122.46008,37.69836],[-122.45052,37.68939],[-122.37946,37.66761],[-122.36948,37.66724],[-122.28855,37.66694],[-122.26579,37.66688],[-122.23899,37.66683],[-122.17144,37.66633],[-122.12702,37.66595],[-122.08182,37.66554],[-122.03357,37.6596],[-122.01237,37.65636],[-121.96202,37.64755],[-121.93878,37.63522],[-121.92679,37.62678],[-121.918,37.62042],[-121.88705,37.59804],[-121.88244,37.59472],[-121.8444,37.56726],[-121.83144,37.55793],[-121.81345,37.54504],[-121.79387,37.5207],[-121.82706,37.48102],[-121.86819,37.48282],[-121.88772,37.48456],[-121.91091,37.48685],[-121.93075,37.48876],[-121.95118,37.49071],[-121.97734,37.49354],[-122.02192,37.50591],[-122.05929,37.51792],[-122.07052,37.5215],[-122.1222,37.53822],[-122.14335,37.54503],[-122.15928,37.55021],[-122.21578,37.56852],[-122.23836,37.57586],[-122.27195,37.58637],[-122.2875,37.59081],[-122.31081,37.59737],[-122.31467,37.59848],[-122.32791,37.60235],[-122.34295,37.60756],[-122.36253,37.61595]]}
}
