{
  "id": 2048511613,
  "type": "Feature",
  "properties": {
    "date:cessation_lower": "2026-10-04",
    "date:cessation_upper": "2026-10-04",
    "date:inception_lower": "1970-01-01",
    "date:inception_upper": "1970-01-01",
    "edtf:cessation": "2026-10-04T14:25:53-07:00",
    "edtf:inception": "1970-01-01T00:00:00Z",
    "flysfo:actual_timestamp": -1,
    "flysfo:airline": "UA",
    "flysfo:base_airline": "",
    "flysfo:base_flight_number": "2037",
    "flysfo:date": "2026-10-04",
    "flysfo:estimated_timestamp": 1791175620,
    "flysfo:event": "A",
    "flysfo:flight_number": "UA737",
    "flysfo:gate": "E7",
    "flysfo:journey": "SEA-SFO",
    "flysfo:scheduled_timestamp": 1791175620,
    "flysfo:timestamp": 1791175620,
    "geom:area": 0,
    "geom:bbox": "-122.370943,37.617990,-122.304268,47.441823",
    "geom:latitude": 42.529906499999996,
    "geom:longitude": -122.3376055,
    "iata:airline": "UA",
    "iata:base_airline": "",
    "icao:aircraft": "B39M",
    "icao:airline": "UAL",
    "icao:base_airline": "AVA",
    "lbl:latitude": 37.618874,
    "lbl:longitude": -122.38419,
    "sfomuseum:aircraft_id": 1528104577,
    "sfomuseum:airline_id": 1159285413,
    "sfomuseum:arrival_id": 102527513,
    "sfomuseum:base_flight_id": "20261004-A-AVA-2037",
    "sfomuseum:departure_id": 102533269,
    "sfomuseum:flight_id": "20261004-A-UAL-737",
    "sfomuseum:flight_number": [
      "UAL737",
      "UA737"
    ],
    "sfomuseum:placetype": "flight",
    "src:geom": "flysfo",
    "src:geom_alt": [
      "swim-approach"
    ],
    "swim:tail_number": "N47505",
    "wof:belongsto": [
      1947304067,
      102527513,
      1947304511,
      102191575,
      85633793,
      102087579,
      85922583,
      554784711,
      85688637,
      1947304529,
      1947304447,
      102085387
    ],
    "wof:country": "US",
    "wof:created": 1791216543,
    "wof:geomhash": "3123a4aff4021144fa8973299956ba97",
    "wof:hierarchy": [
      {
        "building_id": 1947304067,
        "campus_id": 102527513,
        "concourse_id": 1947304511,
        "continent_id": 102191575,
        "country_id": 85633793,
        "county_id": 102087579,
        "custom_id": 2048511613,
        "flight_id": 2048511613,
        "locality_id": 85922583,
        "postalcode_id": 554784711,
        "region_id": 85688637,
        "venue_id": 1947304529,
        "wing_id": 1947304447
      },
      {
        "building_id": 1947304067,
        "campus_id": 102527513,
        "concourse_id": 1947304511,
        "continent_id": 102191575,
        "country_id": 85633793,
        "county_id": 102085387,
        "custom_id": 2048511613,
        "flight_id": 2048511613,
        "region_id": 85688637,
        "venue_id": 1947304529,
        "wing_id": 1947304447
      }
    ],
    "wof:id": 2048511613,
    "wof:involves": [
      102533269,
      1159285413,
      1947304529,
      1159285749,
      1528104577,
      102527513
    ],
    "wof:lastmodified": 1791217163,
    "wof:name": "UA737 (SEA-SFO)",
    "wof:parent_id": 1947304529,
    "wof:placetype": "custom",
    "wof:placetype_alt": [
      "flight"
    ],
    "wof:repo": "sfomuseum-data-flights-2026-10",
    "wof:superseded_by": [],
    "wof:supersedes": []
  },
  "bbox": [
    -122.370943,
    37.61799,
    -122.304268,
    47.441823
  ],
  "geometry": {"type":"MultiPoint","coordinates":[[-122.304268,47.441823],[-122.370943,37.61799]]}
}
