{
  "id": 2048512793,
  "type": "Feature",
  "properties": {
    "date:inception_lower": "2026-10-04",
    "date:inception_upper": "2026-10-04",
    "edtf:cessation": "",
    "edtf:inception": "2026-10-04",
    "flysfo:actual_timestamp": -1,
    "flysfo:airline": "AC",
    "flysfo:base_airline": "",
    "flysfo:base_flight_number": "5376",
    "flysfo:date": "2026-10-04",
    "flysfo:estimated_timestamp": 1791168060,
    "flysfo:event": "D",
    "flysfo:flight_number": "AC5376",
    "flysfo:gate": "G10",
    "flysfo:journey": "SFO-LHR",
    "flysfo:scheduled_timestamp": 1791168300,
    "flysfo:timestamp": 1791168300,
    "geom:area": 0,
    "geom:bbox": "-122.370943,37.617990,-0.450443,51.470087",
    "geom:latitude": 44.5440385,
    "geom:longitude": -61.410693,
    "iata:airline": "AC",
    "iata:base_airline": "",
    "icao:airline": "ACA",
    "icao:base_airline": "ACA",
    "lbl:latitude": 37.618742,
    "lbl:longitude": -122.392935,
    "sfomuseum:airline_id": 1159283597,
    "sfomuseum:arrival_id": 102556703,
    "sfomuseum:base_flight_id": "20261004-D-ACA-5376",
    "sfomuseum:departure_id": 102527513,
    "sfomuseum:flight_id": "20261004-D-ACA-5376",
    "sfomuseum:flight_number": [
      "ACA5376",
      "AC5376"
    ],
    "sfomuseum:placetype": "flight",
    "src:geom": "flysfo",
    "wof:belongsto": [
      1947304067,
      102527513,
      1947304129,
      102191575,
      85633793,
      102087579,
      85922583,
      554784711,
      85688637,
      1947304157,
      1947304069,
      102085387
    ],
    "wof:country": "US",
    "wof:created": 1791216678,
    "wof:geomhash": "86f41e039827d60bcd1a72801f72cbc2",
    "wof:hierarchy": [
      {
        "building_id": 1947304067,
        "campus_id": 102527513,
        "concourse_id": 1947304129,
        "continent_id": 102191575,
        "country_id": 85633793,
        "county_id": 102087579,
        "custom_id": 2048512793,
        "flight_id": 2048512793,
        "locality_id": 85922583,
        "postalcode_id": 554784711,
        "region_id": 85688637,
        "venue_id": 1947304157,
        "wing_id": 1947304069
      },
      {
        "building_id": 1947304067,
        "campus_id": 102527513,
        "concourse_id": 1947304129,
        "continent_id": 102191575,
        "country_id": 85633793,
        "county_id": 102085387,
        "custom_id": 2048512793,
        "flight_id": 2048512793,
        "region_id": 85688637,
        "venue_id": 1947304157,
        "wing_id": 1947304069
      }
    ],
    "wof:id": 2048512793,
    "wof:involves": [
      102556703,
      102527513,
      1159283597,
      1947304157,
      1159283597
    ],
    "wof:lastmodified": 1791216678,
    "wof:name": "AC5376 (SFO-LHR)",
    "wof:parent_id": 1947304157,
    "wof:placetype": "custom",
    "wof:placetype_alt": [
      "flight"
    ],
    "wof:repo": "sfomuseum-data-flights-2026-10",
    "wof:superseded_by": [],
    "wof:supersedes": []
  },
  "bbox": [
    -122.370943,
    37.61799,
    -0.450443,
    51.470087
  ],
  "geometry": {"type":"MultiPoint","coordinates":[[-122.370943,37.61799],[-0.450443,51.470087]]}
}
