{
  "id": 2048526229,
  "type": "Feature",
  "properties": {
    "geom:area": 0,
    "geom:bbox": "-122.360490,36.728940,-121.883680,37.613080",
    "geom:latitude": 37.21646864235615,
    "geom:longitude": -122.07188338216133,
    "src:alt_label": "swim-approach",
    "src:geom": "swim",
    "swim:elevations": [
      4817,
      4491,
      4282,
      3926,
      3572,
      3444,
      3173,
      3083,
      2925,
      2613,
      2554,
      2438,
      2438,
      2434,
      2196,
      2094,
      1888,
      1695,
      1429,
      1264,
      1252,
      863,
      791,
      664,
      514,
      427,
      360,
      342,
      162,
      143,
      0
    ],
    "swim:geom": "approach",
    "swim:timestamps": [
      1791312706,
      1791312741,
      1791312765,
      1791312797,
      1791312832,
      1791312845,
      1791312887,
      1791312912,
      1791312940,
      1791312988,
      1791312997,
      1791313048,
      1791313065,
      1791313090,
      1791313136,
      1791313154,
      1791313188,
      1791313214,
      1791313247,
      1791313282,
      1791313295,
      1791313342,
      1791313365,
      1791313394,
      1791313429,
      1791313451,
      1791313467,
      1791313471,
      1791313527,
      1791313534,
      1791313579
    ],
    "wof:geomhash": "19a75e2640208a12f01e106ec05998a5",
    "wof:id": 2048526229,
    "wof:repo": "sfomuseum-data-flights-2026-10"
  },
  "bbox": [
    -122.36049,
    36.72894,
    -121.88368,
    37.61308
  ],
  "geometry": {"type":"LineString","coordinates":[[-121.88368,36.72894],[-121.90542,36.78435],[-121.91643,36.82318],[-121.93058,36.87375],[-121.94707,36.93155],[-121.95258,36.95055],[-121.97749,37.01521],[-121.99119,37.05034],[-122.0063,37.08901],[-122.03123,37.15292],[-122.03581,37.16477],[-122.06151,37.23051],[-122.06969,37.25131],[-122.08105,37.28065],[-122.1014,37.33164],[-122.10902,37.35091],[-122.1227,37.38723],[-122.1317,37.41359],[-122.14328,37.44681],[-122.15487,37.48083],[-122.15892,37.49232],[-122.17359,37.53108],[-122.19216,37.54277],[-122.22068,37.55399],[-122.25298,37.56743],[-122.27244,37.57562],[-122.28583,37.58122],[-122.28867,37.58241],[-122.32754,37.59869],[-122.33189,37.60055],[-122.36049,37.61308]]}
}
