{
  "id": 2048520423,
  "type": "Feature",
  "properties": {
    "date:inception_lower": "2026-10-05",
    "date:inception_upper": "2026-10-05",
    "edtf:cessation": "",
    "edtf:inception": "2026-10-05",
    "flysfo:actual_timestamp": -1,
    "flysfo:airline": "UA",
    "flysfo:base_airline": "",
    "flysfo:base_flight_number": "1358",
    "flysfo:date": "2026-10-05",
    "flysfo:estimated_timestamp": 1791239220,
    "flysfo:event": "A",
    "flysfo:flight_number": "UA1434",
    "flysfo:gate": "F13",
    "flysfo:journey": "IAD-SFO",
    "flysfo:scheduled_timestamp": 1791239580,
    "flysfo:timestamp": 1791239580,
    "geom:area": 0,
    "geom:bbox": "-122.370943,37.617990,-77.453702,38.949246",
    "geom:latitude": 38.283618000000004,
    "geom:longitude": -99.9123225,
    "iata:airline": "UA",
    "iata:base_airline": "",
    "icao:airline": "UAL",
    "icao:base_airline": "ETH",
    "lbl:latitude": 37.620534,
    "lbl:longitude": -122.388506,
    "sfomuseum:airline_id": 1159285413,
    "sfomuseum:arrival_id": 102527513,
    "sfomuseum:base_flight_id": "20261005-A-ETH-1358",
    "sfomuseum:departure_id": 102528817,
    "sfomuseum:flight_id": "20261005-A-UAL-1434",
    "sfomuseum:flight_number": [
      "UAL1434",
      "UA1434"
    ],
    "sfomuseum:placetype": "flight",
    "src:geom": "flysfo",
    "wof:belongsto": [
      1947304067,
      102527513,
      1947304451,
      102191575,
      85633793,
      102087579,
      85922583,
      554784711,
      85688637,
      1947304459,
      1947304447,
      102085387
    ],
    "wof:country": "US",
    "wof:created": 1791302878,
    "wof:geomhash": "376248592ab7850cfb9a479529cc5caf",
    "wof:hierarchy": [
      {
        "building_id": 1947304067,
        "campus_id": 102527513,
        "concourse_id": 1947304451,
        "continent_id": 102191575,
        "country_id": 85633793,
        "county_id": 102087579,
        "custom_id": 2048520423,
        "flight_id": 2048520423,
        "locality_id": 85922583,
        "postalcode_id": 554784711,
        "region_id": 85688637,
        "venue_id": 1947304459,
        "wing_id": 1947304447
      },
      {
        "building_id": 1947304067,
        "campus_id": 102527513,
        "concourse_id": 1947304451,
        "continent_id": 102191575,
        "country_id": 85633793,
        "county_id": 102085387,
        "custom_id": 2048520423,
        "flight_id": 2048520423,
        "region_id": 85688637,
        "venue_id": 1947304459,
        "wing_id": 1947304447
      }
    ],
    "wof:id": 2048520423,
    "wof:involves": [
      102527513,
      102528817,
      1159285413,
      1947304459,
      1159284341
    ],
    "wof:lastmodified": 1791302878,
    "wof:name": "UA1434 (IAD-SFO)",
    "wof:parent_id": 1947304459,
    "wof:placetype": "custom",
    "wof:placetype_alt": [
      "flight"
    ],
    "wof:repo": "sfomuseum-data-flights-2026-10",
    "wof:superseded_by": [],
    "wof:supersedes": []
  },
  "bbox": [
    -122.370943,
    37.61799,
    -77.453702,
    38.949246
  ],
  "geometry": {"type":"MultiPoint","coordinates":[[-77.453702,38.949246],[-122.370943,37.61799]]}
}
