{
  "id": 2048506883,
  "type": "Feature",
  "properties": {
    "geom:area": 0,
    "geom:bbox": "-122.504190,36.752820,-121.328020,37.696780",
    "geom:latitude": 37.24146214369475,
    "geom:longitude": -122.00382532294614,
    "src:alt_label": "swim-takeoff",
    "src:geom": "swim",
    "swim:elevations": [
      152,
      610,
      941,
      1126,
      1332,
      1719,
      2194,
      2372,
      3134,
      3443,
      3548,
      4184,
      4474,
      4850,
      5191,
      5564,
      5616,
      6135,
      6327,
      6483,
      6660,
      6710,
      7145,
      7395,
      7479,
      7835,
      8090,
      8231,
      8357,
      8509,
      8705,
      8813
    ],
    "swim:geom": "takeoff",
    "swim:timestamps": [
      1791048215,
      1791048255,
      1791048289,
      1791048318,
      1791048357,
      1791048385,
      1791048415,
      1791048426,
      1791048477,
      1791048502,
      1791048515,
      1791048567,
      1791048589,
      1791048620,
      1791048654,
      1791048688,
      1791048693,
      1791048741,
      1791048775,
      1791048806,
      1791048837,
      1791048845,
      1791048894,
      1791048924,
      1791048936,
      1791048985,
      1791049016,
      1791049039,
      1791049074,
      1791049100,
      1791049131,
      1791049146
    ],
    "wof:geomhash": "a3c26d4bdae76e4cbf79df4a04d91756",
    "wof:id": 2048506883,
    "wof:repo": "sfomuseum-data-flights-2026-10"
  },
  "bbox": [
    -122.50419,
    36.75282,
    -121.32802,
    37.69678
  ],
  "geometry": {"type":"LineString","coordinates":[[-122.36639,37.63244],[-122.36242,37.66191],[-122.37296,37.68599],[-122.4033,37.6951],[-122.457,37.69678],[-122.49266,37.67596],[-122.50419,37.639],[-122.50271,37.62472],[-122.47847,37.56143],[-122.45962,37.53145],[-122.44573,37.51711],[-122.37288,37.46752],[-122.34067,37.44612],[-122.29476,37.41535],[-122.24303,37.38023],[-122.19041,37.34365],[-122.18382,37.33921],[-122.1059,37.28707],[-122.04766,37.24776],[-121.993,37.21073],[-121.93606,37.17175],[-121.92189,37.16211],[-121.82884,37.09857],[-121.771,37.05904],[-121.74866,37.04372],[-121.65356,36.97769],[-121.59413,36.93667],[-121.54871,36.90539],[-121.47665,36.85565],[-121.42446,36.81946],[-121.35945,36.77446],[-121.32802,36.75282]]}
}
