{
  "id": 2048528467,
  "type": "Feature",
  "properties": {
    "geom:area": 0,
    "geom:bbox": "-122.361580,37.490990,-121.275600,37.616470",
    "geom:latitude": 37.54213717412208,
    "geom:longitude": -121.82587906177578,
    "src:alt_label": "swim-approach",
    "src:geom": "swim",
    "swim:elevations": [
      4481,
      4179,
      3875,
      3701,
      3280,
      3174,
      3095,
      2998,
      2658,
      2474,
      2438,
      2364,
      2219,
      2120,
      1948,
      1793,
      1679,
      1449,
      1343,
      1223,
      1156,
      1117,
      873,
      799,
      668,
      470,
      424,
      301,
      127,
      33,
      58
    ],
    "swim:geom": "approach",
    "swim:timestamps": [
      1791333293,
      1791333324,
      1791333353,
      1791333371,
      1791333412,
      1791333427,
      1791333451,
      1791333481,
      1791333508,
      1791333529,
      1791333565,
      1791333595,
      1791333628,
      1791333652,
      1791333685,
      1791333715,
      1791333736,
      1791333778,
      1791333796,
      1791333814,
      1791333829,
      1791333841,
      1791333895,
      1791333910,
      1791333934,
      1791333987,
      1791333996,
      1791334029,
      1791334077,
      1791334098,
      1791334110
    ],
    "wof:geomhash": "5643c6403c8731082a0f25c91c0f943f",
    "wof:id": 2048528467,
    "wof:repo": "sfomuseum-data-flights-2026-10"
  },
  "bbox": [
    -122.36158,
    37.49099,
    -121.2756,
    37.61647
  ],
  "geometry": {"type":"LineString","coordinates":[[-121.2756,37.59157],[-121.33825,37.58397],[-121.39774,37.57763],[-121.43438,37.57344],[-121.5166,37.56385],[-121.54632,37.56032],[-121.59197,37.55499],[-121.64481,37.54659],[-121.68859,37.53607],[-121.72229,37.52786],[-121.77637,37.51476],[-121.81485,37.50541],[-121.85309,37.49627],[-121.88126,37.49099],[-121.92516,37.49281],[-121.96511,37.49598],[-121.99265,37.49788],[-122.0467,37.50111],[-122.06955,37.50242],[-122.09227,37.50384],[-122.10961,37.50929],[-122.12285,37.51495],[-122.18123,37.53947],[-122.19632,37.54582],[-122.21972,37.55574],[-122.26861,37.57633],[-122.27583,37.57935],[-122.30057,37.58979],[-122.33819,37.60556],[-122.35376,37.61211],[-122.36158,37.61647]]}
}
