{
  "id": 2048537645,
  "type": "Feature",
  "properties": {
    "geom:area": 0,
    "geom:bbox": "-122.361940,36.727490,-121.882080,37.613790",
    "geom:latitude": 37.21796039287113,
    "geom:longitude": -122.07011894516069,
    "src:alt_label": "swim-approach",
    "src:geom": "swim",
    "swim:elevations": [
      5668,
      5336,
      5166,
      5082,
      4759,
      4413,
      4384,
      4128,
      3794,
      3599,
      3278,
      3134,
      2941,
      2822,
      2533,
      2438,
      2335,
      2256,
      2051,
      1828,
      1691,
      1582,
      1475,
      1212,
      1125,
      974,
      881,
      762,
      638,
      546,
      352,
      285,
      214,
      58,
      111
    ],
    "swim:geom": "approach",
    "swim:timestamps": [
      1791383629,
      1791383655,
      1791383672,
      1791383680,
      1791383708,
      1791383737,
      1791383741,
      1791383765,
      1791383812,
      1791383840,
      1791383877,
      1791383893,
      1791383923,
      1791383955,
      1791383996,
      1791384025,
      1791384046,
      1791384060,
      1791384093,
      1791384133,
      1791384158,
      1791384182,
      1791384196,
      1791384236,
      1791384250,
      1791384272,
      1791384313,
      1791384332,
      1791384362,
      1791384390,
      1791384441,
      1791384461,
      1791384486,
      1791384530,
      1791384545
    ],
    "wof:geomhash": "306b4f4c4a0bb07f941a5f1061f7c88b",
    "wof:id": 2048537645,
    "wof:repo": "sfomuseum-data-flights-2026-10"
  },
  "bbox": [
    -122.36194,
    36.72749,
    -121.88208,
    37.61379
  ],
  "geometry": {"type":"LineString","coordinates":[[-121.88208,36.72749],[-121.90168,36.76894],[-121.90946,36.79679],[-121.91327,36.81009],[-121.92637,36.85691],[-121.93956,36.90448],[-121.94128,36.91065],[-121.95232,36.94962],[-121.97923,37.01933],[-121.99366,37.0571],[-122.01324,37.10652],[-122.0216,37.12748],[-122.03645,37.16547],[-122.05173,37.20405],[-122.0698,37.25014],[-122.08221,37.28172],[-122.09135,37.30525],[-122.09685,37.31986],[-122.10628,37.35307],[-122.09784,37.39067],[-122.108,37.41294],[-122.11859,37.43302],[-122.12477,37.44469],[-122.14229,37.47658],[-122.14818,37.48749],[-122.15728,37.50414],[-122.17843,37.53437],[-122.19618,37.54351],[-122.22242,37.55451],[-122.24559,37.56439],[-122.28592,37.58128],[-122.30081,37.58757],[-122.31934,37.59531],[-122.35119,37.60875],[-122.36194,37.61379]]}
}
