{
  "id": 2048550983,
  "type": "Feature",
  "properties": {
    "geom:area": 0,
    "geom:bbox": "-122.158080,37.719850,-121.267690,38.106800",
    "geom:latitude": 37.91414073088134,
    "geom:longitude": -121.71324226909702,
    "src:alt_label": "swim-takeoff",
    "src:geom": "swim",
    "swim:elevations": [
      1628,
      1946,
      1973,
      2509,
      2549,
      2878,
      3197,
      3387,
      3673,
      4086,
      4402,
      4611,
      4796,
      4925,
      5115,
      5294,
      5662,
      5721,
      5914,
      6011,
      6090
    ],
    "swim:geom": "takeoff",
    "swim:timestamps": [
      1791479411,
      1791479439,
      1791479443,
      1791479487,
      1791479491,
      1791479521,
      1791479552,
      1791479591,
      1791479622,
      1791479663,
      1791479695,
      1791479723,
      1791479747,
      1791479765,
      1791479784,
      1791479807,
      1791479848,
      1791479856,
      1791479887,
      1791479901,
      1791479913
    ],
    "wof:geomhash": "395e8511de6611ce8b929a1d67b8f891",
    "wof:id": 2048550983,
    "wof:repo": "sfomuseum-data-flights-2026-10"
  },
  "bbox": [
    -122.15808,
    37.71985,
    -121.26769,
    38.1068
  ],
  "geometry": {"type":"LineString","coordinates":[[-122.15808,37.71985],[-122.11752,37.7376],[-122.11215,37.74001],[-122.04883,37.76835],[-122.04305,37.77087],[-121.99861,37.79064],[-121.95134,37.81145],[-121.88703,37.83879],[-121.83139,37.86308],[-121.75719,37.89538],[-121.69895,37.92069],[-121.64701,37.94329],[-121.60066,37.96324],[-121.56506,37.97866],[-121.52869,37.99433],[-121.48214,38.01447],[-121.40023,38.04988],[-121.38417,38.05673],[-121.32151,38.0837],[-121.29147,38.09658],[-121.26769,38.1068]]}
}
