{
  "id": 2048552319,
  "type": "Feature",
  "properties": {
    "geom:area": 0,
    "geom:bbox": "-122.360050,37.491310,-121.243620,37.614530",
    "geom:latitude": 37.54698220031367,
    "geom:longitude": -121.8067756224067,
    "src:alt_label": "swim-approach",
    "src:geom": "swim",
    "swim:elevations": [
      4612,
      4295,
      3961,
      3653,
      3386,
      3334,
      3169,
      3106,
      3019,
      2809,
      2476,
      2438,
      2286,
      2168,
      1962,
      1942,
      1800,
      1607,
      1524,
      1491,
      1354,
      1163,
      974,
      827,
      606,
      540,
      502,
      392,
      295,
      171,
      26,
      0
    ],
    "swim:geom": "approach",
    "swim:timestamps": [
      1791582919,
      1791582952,
      1791582988,
      1791583019,
      1791583048,
      1791583054,
      1791583078,
      1791583096,
      1791583121,
      1791583147,
      1791583189,
      1791583221,
      1791583257,
      1791583284,
      1791583317,
      1791583320,
      1791583353,
      1791583392,
      1791583430,
      1791583444,
      1791583466,
      1791583489,
      1791583517,
      1791583551,
      1791583587,
      1791583614,
      1791583620,
      1791583644,
      1791583668,
      1791583700,
      1791583737,
      1791583743
    ],
    "wof:geomhash": "e2f752e81bec7e6b22f244b0325e3884",
    "wof:id": 2048552319,
    "wof:repo": "sfomuseum-data-flights-2026-10"
  },
  "bbox": [
    -122.36005,
    37.49131,
    -121.24362,
    37.61453
  ],
  "geometry": {"type":"LineString","coordinates":[[-121.24362,37.59544],[-121.30929,37.58698],[-121.3799,37.57928],[-121.43824,37.57259],[-121.49462,37.56602],[-121.50617,37.56467],[-121.55061,37.55766],[-121.58505,37.5556],[-121.62893,37.54956],[-121.67238,37.53922],[-121.74103,37.52286],[-121.79199,37.51063],[-121.84596,37.49777],[-121.88488,37.49131],[-121.93293,37.49236],[-121.93724,37.49247],[-121.98346,37.4943],[-122.03143,37.50871],[-122.07488,37.52272],[-122.08873,37.52721],[-122.11075,37.53437],[-122.13201,37.54119],[-122.15993,37.55035],[-122.19252,37.56087],[-122.22804,37.57228],[-122.25531,37.58101],[-122.26138,37.58297],[-122.28449,37.58967],[-122.30403,37.59543],[-122.32833,37.60256],[-122.35578,37.61298],[-122.36005,37.61453]]}
}
