{
  "id": 2048507285,
  "type": "Feature",
  "properties": {
    "date:inception_lower": "2026-10-03",
    "date:inception_upper": "2026-10-03",
    "edtf:cessation": "",
    "edtf:inception": "2026-10-03",
    "flysfo:actual_timestamp": -1,
    "flysfo:airline": "VA",
    "flysfo:base_airline": "",
    "flysfo:base_flight_number": "5252",
    "flysfo:date": "2026-10-03",
    "flysfo:estimated_timestamp": 1791049260,
    "flysfo:event": "D",
    "flysfo:flight_number": "VA8337",
    "flysfo:gate": "F21",
    "flysfo:journey": "SFO-DEN",
    "flysfo:scheduled_timestamp": 1791049200,
    "flysfo:timestamp": 1791049260,
    "geom:area": 0,
    "geom:bbox": "-122.370943,37.617990,-104.672219,39.864939",
    "geom:latitude": 38.7414645,
    "geom:longitude": -113.521581,
    "iata:airline": "VA",
    "iata:base_airline": "",
    "icao:airline": "VOZ",
    "icao:base_airline": "ACA",
    "lbl:latitude": 37.621173,
    "lbl:longitude": -122.390131,
    "sfomuseum:airline_id": 1159285485,
    "sfomuseum:arrival_id": 102531189,
    "sfomuseum:base_flight_id": "20261003-D-ACA-5252",
    "sfomuseum:departure_id": 102527513,
    "sfomuseum:flight_id": "20261003-D-VOZ-8337",
    "sfomuseum:flight_number": [
      "VOZ8337",
      "VA8337"
    ],
    "sfomuseum:placetype": "flight",
    "src:geom": "flysfo",
    "wof:belongsto": [
      1947304067,
      102527513,
      1947304451,
      102191575,
      85633793,
      102087579,
      85922583,
      554784711,
      85688637,
      1947304491,
      1947304447,
      102085387
    ],
    "wof:country": "US",
    "wof:created": 1791130559,
    "wof:geomhash": "976937653dbac6c9c27dd23670ba89bf",
    "wof:hierarchy": [
      {
        "building_id": 1947304067,
        "campus_id": 102527513,
        "concourse_id": 1947304451,
        "continent_id": 102191575,
        "country_id": 85633793,
        "county_id": 102087579,
        "custom_id": 2048507285,
        "flight_id": 2048507285,
        "locality_id": 85922583,
        "postalcode_id": 554784711,
        "region_id": 85688637,
        "venue_id": 1947304491,
        "wing_id": 1947304447
      },
      {
        "building_id": 1947304067,
        "campus_id": 102527513,
        "concourse_id": 1947304451,
        "continent_id": 102191575,
        "country_id": 85633793,
        "county_id": 102085387,
        "custom_id": 2048507285,
        "flight_id": 2048507285,
        "region_id": 85688637,
        "venue_id": 1947304491,
        "wing_id": 1947304447
      }
    ],
    "wof:id": 2048507285,
    "wof:involves": [
      102531189,
      102527513,
      1159285485,
      1947304491,
      1159283597
    ],
    "wof:lastmodified": 1791130559,
    "wof:name": "VA8337 (SFO-DEN)",
    "wof:parent_id": 1947304491,
    "wof:placetype": "custom",
    "wof:placetype_alt": [
      "flight"
    ],
    "wof:repo": "sfomuseum-data-flights-2026-10",
    "wof:superseded_by": [],
    "wof:supersedes": []
  },
  "bbox": [
    -122.370943,
    37.61799,
    -104.672219,
    39.864939
  ],
  "geometry": {"type":"MultiPoint","coordinates":[[-122.370943,37.61799],[-104.672219,39.864939]]}
}
