{
  "id": 2048560111,
  "type": "Feature",
  "properties": {
    "geom:area": 0,
    "geom:bbox": "-122.362640,37.633890,-121.282930,37.958780",
    "geom:latitude": 37.8356129365087,
    "geom:longitude": -121.83671676461475,
    "src:alt_label": "swim-takeoff",
    "src:geom": "swim",
    "swim:elevations": [
      152,
      618,
      741,
      1103,
      1172,
      1342,
      1473,
      1790,
      2294,
      2651,
      3045,
      3179,
      3614,
      3831,
      4287,
      4459,
      4886,
      5160,
      5531,
      5744,
      6096,
      6223,
      6623,
      6685
    ],
    "swim:geom": "takeoff",
    "swim:timestamps": [
      1791544819,
      1791544858,
      1791544866,
      1791544909,
      1791544924,
      1791544950,
      1791544968,
      1791544995,
      1791545033,
      1791545058,
      1791545090,
      1791545110,
      1791545150,
      1791545172,
      1791545210,
      1791545224,
      1791545266,
      1791545300,
      1791545333,
      1791545354,
      1791545397,
      1791545414,
      1791545456,
      1791545463
    ],
    "wof:geomhash": "db3efc0ee2da50e350b26bf521a88f3a",
    "wof:id": 2048560111,
    "wof:repo": "sfomuseum-data-flights-2026-10"
  },
  "bbox": [
    -122.36264,
    37.63389,
    -121.28293,
    37.95878
  ],
  "geometry": {"type":"LineString","coordinates":[[-122.36264,37.63389],[-122.33219,37.65536],[-122.32437,37.65918],[-122.28658,37.67939],[-122.27147,37.6878],[-122.24083,37.70414],[-122.21712,37.71627],[-122.18199,37.73421],[-122.12813,37.76193],[-122.09428,37.77987],[-122.04734,37.80414],[-122.01712,37.8187],[-121.94496,37.83903],[-121.90253,37.84609],[-121.82836,37.85899],[-121.79973,37.86435],[-121.71493,37.88048],[-121.64484,37.89314],[-121.57492,37.90539],[-121.52842,37.91431],[-121.43475,37.9315],[-121.39491,37.9384],[-121.29859,37.95582],[-121.28293,37.95878]]}
}
