{
  "id": 2048559305,
  "type": "Feature",
  "properties": {
    "date:inception_lower": "2026-10-09",
    "date:inception_upper": "2026-10-09",
    "edtf:cessation": "",
    "edtf:inception": "2026-10-09",
    "flysfo:actual_timestamp": -1,
    "flysfo:airline": "B6",
    "flysfo:base_airline": "",
    "flysfo:base_flight_number": "7834",
    "flysfo:date": "2026-10-09",
    "flysfo:estimated_timestamp": 1791573480,
    "flysfo:event": "D",
    "flysfo:flight_number": "B61034",
    "flysfo:gate": "B20",
    "flysfo:journey": "SFO-BOS",
    "flysfo:scheduled_timestamp": 1791571440,
    "flysfo:timestamp": 1791573480,
    "geom:area": 0,
    "geom:bbox": "-122.370943,37.617990,-71.014750,42.362322",
    "geom:latitude": 39.990156,
    "geom:longitude": -96.6928465,
    "iata:airline": "B6",
    "iata:base_airline": "",
    "icao:airline": "JBU",
    "icao:base_airline": "ICE",
    "lbl:latitude": 37.61799,
    "lbl:longitude": -122.370943,
    "sfomuseum:airline_id": 1159284583,
    "sfomuseum:arrival_id": 102530741,
    "sfomuseum:base_flight_id": "20261009-D-ICE-7834",
    "sfomuseum:departure_id": 102527513,
    "sfomuseum:flight_id": "20261009-D-JBU-1034",
    "sfomuseum:flight_number": [
      "JBU1034",
      "B61034"
    ],
    "sfomuseum:placetype": "flight",
    "src:geom": "flysfo",
    "wof:belongsto": [
      1947304067,
      102527513,
      1947304261,
      102191575,
      85633793,
      102087579,
      85922583,
      554784711,
      85688637,
      1947304281,
      1947304259,
      102085387
    ],
    "wof:country": "US",
    "wof:created": 1791648873,
    "wof:geomhash": "92fb504f17f3373e6b03bb6769f65d8a",
    "wof:hierarchy": [
      {
        "building_id": 1947304067,
        "campus_id": 102527513,
        "concourse_id": 1947304261,
        "continent_id": 102191575,
        "country_id": 85633793,
        "county_id": 102087579,
        "custom_id": 2048559305,
        "flight_id": 2048559305,
        "locality_id": 85922583,
        "postalcode_id": 554784711,
        "region_id": 85688637,
        "venue_id": 1947304281,
        "wing_id": 1947304259
      },
      {
        "building_id": 1947304067,
        "campus_id": 102527513,
        "concourse_id": 1947304261,
        "continent_id": 102191575,
        "country_id": 85633793,
        "county_id": 102085387,
        "custom_id": 2048559305,
        "flight_id": 2048559305,
        "region_id": 85688637,
        "venue_id": 1947304281,
        "wing_id": 1947304259
      }
    ],
    "wof:id": 2048559305,
    "wof:involves": [
      102530741,
      102527513,
      1159284583,
      1947304281,
      1159284513
    ],
    "wof:lastmodified": 1791648873,
    "wof:name": "B61034 (SFO-BOS)",
    "wof:parent_id": 1947304281,
    "wof:placetype": "custom",
    "wof:placetype_alt": [
      "flight"
    ],
    "wof:repo": "sfomuseum-data-flights-2026-10",
    "wof:superseded_by": [],
    "wof:supersedes": []
  },
  "bbox": [
    -122.370943,
    37.61799,
    -71.01475,
    42.362322
  ],
  "geometry": {"type":"MultiPoint","coordinates":[[-122.370943,37.61799],[-71.01475,42.362322]]}
}
