{
  "id": 2048541817,
  "type": "Feature",
  "properties": {
    "geom:area": 0,
    "geom:bbox": "-122.363440,37.633030,-121.429710,38.518480",
    "geom:latitude": 38.07227213850332,
    "geom:longitude": -121.89438452123498,
    "src:alt_label": "swim-takeoff",
    "src:geom": "swim",
    "swim:elevations": [
      183,
      429,
      748,
      993,
      1092,
      1314,
      1756,
      1944,
      2485,
      2745,
      3170,
      3262,
      3746,
      4272,
      4590,
      4784,
      5313,
      5583,
      5855,
      5913,
      6247,
      6650,
      6861,
      6882,
      7029,
      7161,
      7450
    ],
    "swim:geom": "takeoff",
    "swim:timestamps": [
      1791370798,
      1791370819,
      1791370853,
      1791370879,
      1791370893,
      1791370939,
      1791370978,
      1791370994,
      1791371036,
      1791371060,
      1791371098,
      1791371112,
      1791371150,
      1791371187,
      1791371218,
      1791371241,
      1791371299,
      1791371331,
      1791371364,
      1791371370,
      1791371406,
      1791371458,
      1791371487,
      1791371490,
      1791371511,
      1791371530,
      1791371573
    ],
    "wof:geomhash": "e770d2e9c4fe0027c4f1ac00420fd866",
    "wof:id": 2048541817,
    "wof:repo": "sfomuseum-data-flights-2026-10"
  },
  "bbox": [
    -122.36344,
    37.63303,
    -121.42971,
    38.51848
  ],
  "geometry": {"type":"LineString","coordinates":[[-122.36344,37.63303],[-122.34807,37.64485],[-122.31832,37.66113],[-122.29569,37.67402],[-122.28255,37.68161],[-122.23076,37.70965],[-122.18856,37.74688],[-122.17315,37.76398],[-122.13077,37.81061],[-122.10693,37.83743],[-122.0664,37.88267],[-122.05025,37.90049],[-122.00514,37.94953],[-121.96248,37.99693],[-121.92569,38.03697],[-121.89892,38.06672],[-121.82736,38.14505],[-121.78637,38.18917],[-121.74476,38.23474],[-121.73764,38.24265],[-121.69051,38.29405],[-121.62123,38.36881],[-121.58238,38.41069],[-121.57773,38.41563],[-121.54548,38.4446],[-121.51189,38.46794],[-121.42971,38.51848]]}
}
