{
  "id": 2048485853,
  "type": "Feature",
  "properties": {
    "geom:area": 0,
    "geom:bbox": "-122.456630,36.732400,-121.466400,37.715170",
    "geom:latitude": 37.21762726195292,
    "geom:longitude": -122.07113886659731,
    "src:alt_label": "swim-takeoff",
    "src:geom": "swim",
    "swim:elevations": [
      213,
      287,
      540,
      608,
      845,
      1043,
      1651,
      1820,
      2462,
      2783,
      3250,
      3394,
      3745,
      4112,
      4535,
      4885,
      5177,
      5547,
      5793,
      5911,
      6061,
      6279,
      6596,
      6814,
      7010,
      7363,
      7588,
      7854,
      8017,
      8196,
      8444,
      8547
    ],
    "swim:geom": "takeoff",
    "swim:timestamps": [
      1790888413,
      1790888418,
      1790888451,
      1790888466,
      1790888508,
      1790888531,
      1790888576,
      1790888589,
      1790888630,
      1790888652,
      1790888697,
      1790888724,
      1790888757,
      1790888787,
      1790888817,
      1790888844,
      1790888868,
      1790888901,
      1790888930,
      1790888961,
      1790888973,
      1790888993,
      1790889026,
      1790889047,
      1790889067,
      1790889104,
      1790889130,
      1790889165,
      1790889189,
      1790889219,
      1790889262,
      1790889280
    ],
    "wof:geomhash": "6231f35fa638b2a68e4e1abae06af9ca",
    "wof:id": 2048485853,
    "wof:repo": "sfomuseum-data-flights-2026-10"
  },
  "bbox": [
    -122.45663,
    36.7324,
    -121.4664,
    37.71517
  ],
  "geometry": {"type":"LineString","coordinates":[[-122.36411,37.636],[-122.36248,37.64037],[-122.36265,37.66852],[-122.36209,37.68292],[-122.39766,37.71517],[-122.43134,37.70902],[-122.45426,37.65946],[-122.45604,37.6437],[-122.45663,37.59082],[-122.45262,37.56252],[-122.44355,37.50217],[-122.43705,37.46045],[-122.40912,37.41226],[-122.35998,37.37878],[-122.31114,37.34401],[-122.26698,37.31225],[-122.22719,37.28368],[-122.17177,37.24385],[-122.122,37.20809],[-122.06877,37.16968],[-122.04624,37.15349],[-122.01227,37.12884],[-121.95399,37.08662],[-121.9161,37.05911],[-121.87989,37.03287],[-121.81124,36.98302],[-121.76301,36.94781],[-121.69559,36.90045],[-121.64868,36.86637],[-121.59056,36.82424],[-121.50294,36.7596],[-121.4664,36.7324]]}
}
