{
  "id": 2048493623,
  "type": "Feature",
  "properties": {
    "date:inception_lower": "2026-10-02",
    "date:inception_upper": "2026-10-02",
    "edtf:cessation": "",
    "edtf:inception": "2026-10-02",
    "flysfo:actual_timestamp": -1,
    "flysfo:airline": "EK",
    "flysfo:base_airline": "",
    "flysfo:base_flight_number": "4431",
    "flysfo:date": "2026-10-02",
    "flysfo:estimated_timestamp": 1790962800,
    "flysfo:event": "A",
    "flysfo:flight_number": "EK6315",
    "flysfo:gate": "F11",
    "flysfo:journey": "MIA-SFO",
    "flysfo:scheduled_timestamp": 1790964240,
    "flysfo:timestamp": 1790964240,
    "geom:area": 0,
    "geom:bbox": "-122.370943,25.790470,-80.296006,37.617990",
    "geom:latitude": 31.70423,
    "geom:longitude": -101.3334745,
    "iata:airline": "EK",
    "iata:base_airline": "",
    "icao:airline": "UAE",
    "icao:base_airline": "ITY",
    "lbl:latitude": 37.620244,
    "lbl:longitude": -122.387813,
    "sfomuseum:airline_id": 1159284333,
    "sfomuseum:arrival_id": 102527513,
    "sfomuseum:base_flight_id": "20261002-A-ITY-4431",
    "sfomuseum:departure_id": 102531023,
    "sfomuseum:flight_id": "20261002-A-UAE-6315",
    "sfomuseum:flight_number": [
      "UAE6315",
      "EK6315"
    ],
    "sfomuseum:placetype": "flight",
    "src:geom": "flysfo",
    "wof:belongsto": [
      1947304067,
      102527513,
      1947304451,
      102191575,
      85633793,
      102087579,
      85922583,
      554784711,
      85688637,
      1947304463,
      1947304447,
      102085387
    ],
    "wof:country": "US",
    "wof:created": 1791043637,
    "wof:geomhash": "38f88108bbae8bb050c3144d37bdc384",
    "wof:hierarchy": [
      {
        "building_id": 1947304067,
        "campus_id": 102527513,
        "concourse_id": 1947304451,
        "continent_id": 102191575,
        "country_id": 85633793,
        "county_id": 102087579,
        "custom_id": 2048493623,
        "flight_id": 2048493623,
        "locality_id": 85922583,
        "postalcode_id": 554784711,
        "region_id": 85688637,
        "venue_id": 1947304463,
        "wing_id": 1947304447
      },
      {
        "building_id": 1947304067,
        "campus_id": 102527513,
        "concourse_id": 1947304451,
        "continent_id": 102191575,
        "country_id": 85633793,
        "county_id": 102085387,
        "custom_id": 2048493623,
        "flight_id": 2048493623,
        "region_id": 85688637,
        "venue_id": 1947304463,
        "wing_id": 1947304447
      }
    ],
    "wof:id": 2048493623,
    "wof:involves": [
      102527513,
      102531023,
      1159284333,
      1947304463,
      1763699293
    ],
    "wof:lastmodified": 1791043637,
    "wof:name": "EK6315 (MIA-SFO)",
    "wof:parent_id": 1947304463,
    "wof:placetype": "custom",
    "wof:placetype_alt": [
      "flight"
    ],
    "wof:repo": "sfomuseum-data-flights-2026-10",
    "wof:superseded_by": [],
    "wof:supersedes": []
  },
  "bbox": [
    -122.370943,
    25.79047,
    -80.296006,
    37.61799
  ],
  "geometry": {"type":"MultiPoint","coordinates":[[-80.296006,25.79047],[-122.370943,37.61799]]}
}
