{
  "id": 2048515017,
  "type": "Feature",
  "properties": {
    "geom:area": 0,
    "geom:bbox": "-123.504530,37.629170,-122.394390,37.690670",
    "geom:latitude": 37.67864675860511,
    "geom:longitude": -122.94553136372767,
    "src:alt_label": "swim-takeoff",
    "src:geom": "swim",
    "swim:elevations": [
      152,
      441,
      630,
      824,
      947,
      1065,
      1313,
      1546,
      1710,
      1912,
      2024,
      2263,
      2435,
      2660,
      3114,
      3332,
      3578,
      3949,
      4125,
      4564,
      4790,
      4859
    ],
    "swim:geom": "takeoff",
    "swim:timestamps": [
      1791152003,
      1791152027,
      1791152052,
      1791152076,
      1791152116,
      1791152143,
      1791152182,
      1791152211,
      1791152226,
      1791152242,
      1791152251,
      1791152286,
      1791152323,
      1791152347,
      1791152392,
      1791152423,
      1791152450,
      1791152487,
      1791152508,
      1791152548,
      1791152572,
      1791152580
    ],
    "wof:geomhash": "f7fa790102cae20d3997e9a063dd7afe",
    "wof:id": 2048515017,
    "wof:repo": "sfomuseum-data-flights-2026-10"
  },
  "bbox": [
    -123.50453,
    37.62917,
    -122.39439,
    37.69067
  ],
  "geometry": {"type":"LineString","coordinates":[[-122.39439,37.62917],[-122.41786,37.63883],[-122.44359,37.6498],[-122.46783,37.65989],[-122.51556,37.67544],[-122.55622,37.67795],[-122.62097,37.68197],[-122.67366,37.68515],[-122.70188,37.68693],[-122.73273,37.6887],[-122.74958,37.68969],[-122.81717,37.69067],[-122.89428,37.68858],[-122.9473,37.68719],[-123.04906,37.68435],[-123.12087,37.68236],[-123.18531,37.68038],[-123.27561,37.67762],[-123.32599,37.67593],[-123.42574,37.67297],[-123.48341,37.67126],[-123.50453,37.6706]]}
}
