{
  "id": 2048493895,
  "type": "Feature",
  "properties": {
    "geom:area": 0,
    "geom:bbox": "-122.363700,37.466830,-121.254660,37.616180",
    "geom:latitude": 37.53916119021978,
    "geom:longitude": -121.81587569626566,
    "src:alt_label": "swim-approach",
    "src:geom": "swim",
    "swim:elevations": [
      4790,
      4664,
      4413,
      4179,
      3929,
      3866,
      3520,
      3352,
      3355,
      3141,
      3033,
      2901,
      2857,
      2669,
      2442,
      2292,
      2133,
      2050,
      1956,
      1757,
      1648,
      1609,
      1299,
      1116,
      861,
      698,
      632,
      517,
      434,
      275,
      207,
      120,
      568
    ],
    "swim:geom": "approach",
    "swim:timestamps": [
      1790932948,
      1790932961,
      1790932988,
      1790933021,
      1790933065,
      1790933073,
      1790933127,
      1790933158,
      1790933162,
      1790933214,
      1790933244,
      1790933271,
      1790933281,
      1790933319,
      1790933359,
      1790933390,
      1790933425,
      1790933441,
      1790933464,
      1790933514,
      1790933539,
      1790933551,
      1790933608,
      1790933631,
      1790933667,
      1790933697,
      1790933715,
      1790933743,
      1790933760,
      1790933802,
      1790933818,
      1790933842,
      1790933872
    ],
    "wof:geomhash": "eb3c31c8da87ca76893a00388c91a9b7",
    "wof:id": 2048493895,
    "wof:repo": "sfomuseum-data-flights-2026-10"
  },
  "bbox": [
    -122.3637,
    37.46683,
    -121.25466,
    37.61618
  ],
  "geometry": {"type":"LineString","coordinates":[[-121.25466,37.59404],[-121.27995,37.59057],[-121.3314,37.5846],[-121.39026,37.57825],[-121.46549,37.56952],[-121.47863,37.56795],[-121.56194,37.55811],[-121.60807,37.55276],[-121.61469,37.552],[-121.68629,37.56341],[-121.72694,37.57336],[-121.75858,37.55786],[-121.76371,37.54807],[-121.77607,37.50693],[-121.80397,37.47394],[-121.84585,37.47119],[-121.89497,37.46905],[-121.91735,37.46811],[-121.94832,37.46683],[-122.01882,37.47076],[-122.05162,37.48459],[-122.06682,37.49133],[-122.13303,37.51914],[-122.15674,37.52923],[-122.19382,37.54483],[-122.2239,37.55753],[-122.23962,37.5641],[-122.26279,37.57385],[-122.27674,37.57974],[-122.30957,37.59361],[-122.32159,37.59858],[-122.34007,37.60637],[-122.3637,37.61618]]}
}
