{
  "id": 2048493349,
  "type": "Feature",
  "properties": {
    "geom:area": 0,
    "geom:bbox": "-123.012750,37.393060,-122.099110,38.420390",
    "geom:latitude": 37.80814543788382,
    "geom:longitude": -122.50381833201655,
    "src:alt_label": "swim-approach",
    "src:geom": "swim",
    "swim:elevations": [
      7590,
      7461,
      7317,
      7315,
      7034,
      6723,
      6028,
      5745,
      5501,
      5270,
      4999,
      4781,
      4655,
      4221,
      4074,
      3921,
      3628,
      3420,
      3353,
      3353,
      3353,
      3353,
      3291,
      3098,
      2723,
      2409,
      2082,
      1913,
      1830,
      1829,
      1829,
      1829,
      1829,
      1829,
      1677,
      1432,
      1278,
      1104,
      956,
      790,
      639,
      490,
      450,
      356,
      291,
      138,
      89
    ],
    "swim:geom": "approach",
    "swim:timestamps": [
      1790929813,
      1790929839,
      1790929861,
      1790929876,
      1790929905,
      1790929922,
      1790929976,
      1790930000,
      1790930031,
      1790930061,
      1790930094,
      1790930121,
      1790930135,
      1790930188,
      1790930208,
      1790930230,
      1790930271,
      1790930301,
      1790930336,
      1790930366,
      1790930382,
      1790930409,
      1790930436,
      1790930460,
      1790930499,
      1790930529,
      1790930571,
      1790930603,
      1790930637,
      1790930646,
      1790930667,
      1790930673,
      1790930721,
      1790930730,
      1790930773,
      1790930814,
      1790930841,
      1790930872,
      1790930895,
      1790930929,
      1790930959,
      1790930994,
      1790931005,
      1790931027,
      1790931047,
      1790931085,
      1790931094
    ],
    "wof:geomhash": "9cdae427004b39001eecf7450b00f30e",
    "wof:id": 2048493349,
    "wof:repo": "sfomuseum-data-flights-2026-10"
  },
  "bbox": [
    -123.01275,
    37.39306,
    -122.09911,
    38.42039
  ],
  "geometry": {"type":"LineString","coordinates":[[-123.01275,38.42039],[-122.97125,38.38741],[-122.93815,38.36104],[-122.91518,38.34274],[-122.872,38.30817],[-122.84707,38.28827],[-122.76632,38.21631],[-122.75337,38.17597],[-122.73937,38.12499],[-122.72448,38.07636],[-122.70844,38.02194],[-122.69569,37.97725],[-122.68882,37.95363],[-122.6461,37.87359],[-122.61864,37.849],[-122.59246,37.82418],[-122.5447,37.77833],[-122.50989,37.74533],[-122.47008,37.70777],[-122.4389,37.67861],[-122.42273,37.66338],[-122.39684,37.63901],[-122.37016,37.61385],[-122.35032,37.58916],[-122.32976,37.54751],[-122.31164,37.51527],[-122.28636,37.47387],[-122.26722,37.44271],[-122.24241,37.41136],[-122.23221,37.40669],[-122.20496,37.3982],[-122.19716,37.39581],[-122.13315,37.39306],[-122.12413,37.40029],[-122.09911,37.44463],[-122.10633,37.48576],[-122.12079,37.50836],[-122.14995,37.52625],[-122.1738,37.53626],[-122.20847,37.55102],[-122.23689,37.563],[-122.26689,37.57558],[-122.27523,37.5791],[-122.2929,37.58648],[-122.30829,37.59297],[-122.33747,37.60527],[-122.34412,37.60807]]}
}
