{
  "id": 2048536177,
  "type": "Feature",
  "properties": {
    "geom:area": 0,
    "geom:bbox": "-121.825310,37.450610,-121.263370,37.592590",
    "geom:latitude": 37.537451717407286,
    "geom:longitude": -121.55359952124225,
    "src:alt_label": "swim-approach",
    "src:geom": "swim",
    "swim:elevations": [
      4583,
      4541,
      4244,
      3936,
      3705,
      3504,
      3477,
      3386,
      3151,
      3048,
      3048,
      3018,
      2817,
      2704
    ],
    "swim:geom": "approach",
    "swim:timestamps": [
      1791387537,
      1791387541,
      1791387570,
      1791387600,
      1791387637,
      1791387685,
      1791387707,
      1791387726,
      1791387774,
      1791387807,
      1791387833,
      1791387860,
      1791387898,
      1791387917
    ],
    "wof:geomhash": "66d6df8a05f256a8eaf7a8c23d3032ce",
    "wof:id": 2048536177,
    "wof:repo": "sfomuseum-data-flights-2026-10"
  },
  "bbox": [
    -121.82531,
    37.45061,
    -121.26337,
    37.59259
  ],
  "geometry": {"type":"LineString","coordinates":[[-121.26337,37.59259],[-121.27175,37.59143],[-121.33145,37.58448],[-121.39486,37.57772],[-121.4678,37.56967],[-121.55442,37.55924],[-121.59135,37.55448],[-121.61984,37.55123],[-121.66794,37.51745],[-121.69485,37.4881],[-121.71548,37.46567],[-121.74682,37.45061],[-121.80011,37.46287],[-121.82531,37.47228]]}
}
