{
  "id": 2048526235,
  "type": "Feature",
  "properties": {
    "geom:area": 0,
    "geom:bbox": "-122.360440,37.438090,-121.253430,37.614400",
    "geom:latitude": 37.53927620585665,
    "geom:longitude": -121.81398081692765,
    "src:alt_label": "swim-approach",
    "src:geom": "swim",
    "swim:elevations": [
      4468,
      4071,
      3707,
      3449,
      3243,
      3108,
      3020,
      2873,
      2768,
      2590,
      2542,
      2289,
      2201,
      1946,
      1913,
      1829,
      1829,
      1829,
      1697,
      1588,
      1331,
      1226,
      1030,
      816,
      622,
      550,
      510,
      317,
      195,
      60,
      73
    ],
    "swim:geom": "approach",
    "swim:timestamps": [
      1791308705,
      1791308750,
      1791308788,
      1791308816,
      1791308842,
      1791308876,
      1791308898,
      1791308921,
      1791308945,
      1791308991,
      1791309003,
      1791309056,
      1791309069,
      1791309118,
      1791309126,
      1791309164,
      1791309206,
      1791309210,
      1791309240,
      1791309254,
      1791309295,
      1791309324,
      1791309347,
      1791309388,
      1791309417,
      1791309434,
      1791309450,
      1791309500,
      1791309531,
      1791309568,
      1791309582
    ],
    "wof:geomhash": "705780fc533281d896dcd7b958d0cdd7",
    "wof:id": 2048526235,
    "wof:repo": "sfomuseum-data-flights-2026-10"
  },
  "bbox": [
    -122.36044,
    37.43809,
    -121.25343,
    37.6144
  ],
  "geometry": {"type":"LineString","coordinates":[[-121.25343,37.59411],[-121.34096,37.58379],[-121.41723,37.57517],[-121.47128,37.5688],[-121.52077,37.56309],[-121.58439,37.55565],[-121.62346,37.55081],[-121.66242,37.54178],[-121.70062,37.53275],[-121.77062,37.51589],[-121.78756,37.51178],[-121.83708,37.47378],[-121.84117,37.45967],[-121.89352,37.43809],[-121.90317,37.44272],[-121.9438,37.46822],[-121.98913,37.49483],[-121.99408,37.4966],[-122.03142,37.50885],[-122.04944,37.51464],[-122.09919,37.53095],[-122.13172,37.54147],[-122.1557,37.54923],[-122.19603,37.56239],[-122.22453,37.57151],[-122.24145,37.57693],[-122.2569,37.58192],[-122.2995,37.59428],[-122.32358,37.60116],[-122.34927,37.61019],[-122.36044,37.6144]]}
}
