{
  "id": 2048486923,
  "type": "Feature",
  "properties": {
    "date:inception_lower": "2026-10-01",
    "date:inception_upper": "2026-10-01",
    "edtf:cessation": "",
    "edtf:inception": "2026-10-01",
    "flysfo:actual_timestamp": -1,
    "flysfo:airline": "NZ",
    "flysfo:base_airline": "",
    "flysfo:base_flight_number": "4965",
    "flysfo:date": "2026-10-01",
    "flysfo:estimated_timestamp": 1790918940,
    "flysfo:event": "D",
    "flysfo:flight_number": "NZ9399",
    "flysfo:gate": "F6",
    "flysfo:journey": "SFO-BOI",
    "flysfo:scheduled_timestamp": 1790913840,
    "flysfo:timestamp": 1790918940,
    "geom:area": 0,
    "geom:bbox": "-122.370943,37.617990,-116.224634,43.564048",
    "geom:latitude": 40.591019,
    "geom:longitude": -119.2977885,
    "iata:airline": "NZ",
    "iata:base_airline": "",
    "icao:airline": "ANZ",
    "icao:base_airline": "ACA",
    "lbl:latitude": 37.61799,
    "lbl:longitude": -122.370943,
    "sfomuseum:airline_id": 1159283697,
    "sfomuseum:arrival_id": 102527733,
    "sfomuseum:base_flight_id": "20261001-D-ACA-4965",
    "sfomuseum:departure_id": 102527513,
    "sfomuseum:flight_id": "20261001-D-ANZ-9399",
    "sfomuseum:flight_number": [
      "ANZ9399",
      "NZ9399"
    ],
    "sfomuseum:placetype": "flight",
    "src:geom": "flysfo",
    "wof:belongsto": [
      1947304067,
      102527513,
      1947304451,
      102191575,
      85633793,
      102087579,
      85922583,
      554784711,
      85688637,
      1947304461,
      1947304447,
      102085387
    ],
    "wof:country": "US",
    "wof:created": 1790957526,
    "wof:geomhash": "5c4ab4afb4473393075e7e0145a9edb2",
    "wof:hierarchy": [
      {
        "building_id": 1947304067,
        "campus_id": 102527513,
        "concourse_id": 1947304451,
        "continent_id": 102191575,
        "country_id": 85633793,
        "county_id": 102087579,
        "custom_id": 2048486923,
        "flight_id": 2048486923,
        "locality_id": 85922583,
        "postalcode_id": 554784711,
        "region_id": 85688637,
        "venue_id": 1947304461,
        "wing_id": 1947304447
      },
      {
        "building_id": 1947304067,
        "campus_id": 102527513,
        "concourse_id": 1947304451,
        "continent_id": 102191575,
        "country_id": 85633793,
        "county_id": 102085387,
        "custom_id": 2048486923,
        "flight_id": 2048486923,
        "region_id": 85688637,
        "venue_id": 1947304461,
        "wing_id": 1947304447
      }
    ],
    "wof:id": 2048486923,
    "wof:involves": [
      102527733,
      102527513,
      1159283697,
      1947304461,
      1159283597
    ],
    "wof:lastmodified": 1790957526,
    "wof:name": "NZ9399 (SFO-BOI)",
    "wof:parent_id": 1947304461,
    "wof:placetype": "custom",
    "wof:placetype_alt": [
      "flight"
    ],
    "wof:repo": "sfomuseum-data-flights-2026-10",
    "wof:superseded_by": [],
    "wof:supersedes": []
  },
  "bbox": [
    -122.370943,
    37.61799,
    -116.224634,
    43.564048
  ],
  "geometry": {"type":"MultiPoint","coordinates":[[-122.370943,37.61799],[-116.224634,43.564048]]}
}
