{
  "id": 2048533321,
  "type": "Feature",
  "properties": {
    "date:cessation_lower": "1970-01-01",
    "date:cessation_upper": "1970-01-01",
    "date:inception_lower": "2026-10-06",
    "date:inception_upper": "2026-10-06",
    "edtf:cessation": "1970-01-01T00:00:00Z",
    "edtf:inception": "2026-10-06T02:04:01-07:00",
    "flysfo:actual_timestamp": -1,
    "flysfo:airline": "UA",
    "flysfo:base_airline": "",
    "flysfo:base_flight_number": "2159",
    "flysfo:date": "2026-10-06",
    "flysfo:estimated_timestamp": 1791300480,
    "flysfo:event": "D",
    "flysfo:flight_number": "UA2119",
    "flysfo:gate": "E13",
    "flysfo:journey": "SFO-MSY",
    "flysfo:scheduled_timestamp": 1791300600,
    "flysfo:timestamp": 1791300600,
    "geom:area": 0,
    "geom:bbox": "-122.370943,29.982609,-90.261832,37.617990",
    "geom:latitude": 33.8002995,
    "geom:longitude": -106.31638749999999,
    "iata:airline": "UA",
    "iata:base_airline": "",
    "icao:aircraft": "B39M",
    "icao:airline": "UAL",
    "icao:base_airline": "ANZ",
    "lbl:latitude": 37.619425,
    "lbl:longitude": -122.384028,
    "sfomuseum:aircraft_id": 1528104577,
    "sfomuseum:airline_id": 1159285413,
    "sfomuseum:arrival_id": 102530009,
    "sfomuseum:base_flight_id": "20261006-D-ANZ-2159",
    "sfomuseum:departure_id": 102527513,
    "sfomuseum:flight_id": "20261006-D-UAL-2119",
    "sfomuseum:flight_number": [
      "UAL2119",
      "UA2119"
    ],
    "sfomuseum:placetype": "flight",
    "src:geom": "flysfo",
    "src:geom_alt": [
      "swim-takeoff"
    ],
    "swim:tail_number": "N77572",
    "wof:belongsto": [
      1947304067,
      102527513,
      1947304511,
      102191575,
      85633793,
      102087579,
      85922583,
      554784711,
      85688637,
      1947304517,
      1947304447,
      102085387
    ],
    "wof:country": "US",
    "wof:created": 1791389701,
    "wof:geomhash": "8b4edcad4124de1c487808d2d2d1ecd3",
    "wof:hierarchy": [
      {
        "building_id": 1947304067,
        "campus_id": 102527513,
        "concourse_id": 1947304511,
        "continent_id": 102191575,
        "country_id": 85633793,
        "county_id": 102087579,
        "custom_id": 2048533321,
        "flight_id": 2048533321,
        "locality_id": 85922583,
        "postalcode_id": 554784711,
        "region_id": 85688637,
        "venue_id": 1947304517,
        "wing_id": 1947304447
      },
      {
        "building_id": 1947304067,
        "campus_id": 102527513,
        "concourse_id": 1947304511,
        "continent_id": 102191575,
        "country_id": 85633793,
        "county_id": 102085387,
        "custom_id": 2048533321,
        "flight_id": 2048533321,
        "region_id": 85688637,
        "venue_id": 1947304517,
        "wing_id": 1947304447
      }
    ],
    "wof:id": 2048533321,
    "wof:involves": [
      1528104577,
      102530009,
      102527513,
      1159285413,
      1947304517,
      1159283697
    ],
    "wof:lastmodified": 1791389852,
    "wof:name": "UA2119 (SFO-MSY)",
    "wof:parent_id": 1947304517,
    "wof:placetype": "custom",
    "wof:placetype_alt": [
      "flight"
    ],
    "wof:repo": "sfomuseum-data-flights-2026-10",
    "wof:superseded_by": [],
    "wof:supersedes": []
  },
  "bbox": [
    -122.370943,
    29.982609,
    -90.261832,
    37.61799
  ],
  "geometry": {"type":"MultiPoint","coordinates":[[-122.370943,37.61799],[-90.261832,29.982609]]}
}
