{
  "id": 2048554203,
  "type": "Feature",
  "properties": {
    "geom:area": 0,
    "geom:bbox": "-122.355750,36.725630,-121.880960,37.610600",
    "geom:latitude": 37.23358635314704,
    "geom:longitude": -122.11219425700457,
    "src:alt_label": "swim-approach",
    "src:geom": "swim",
    "swim:elevations": [
      5183,
      5013,
      4686,
      4422,
      4189,
      4051,
      3943,
      3640,
      3418,
      3394,
      3295,
      3145,
      3048,
      2791,
      2687,
      2467,
      2410,
      2354,
      2225,
      2097,
      1834,
      1829,
      1829,
      1810,
      1621,
      1553,
      1524,
      1428,
      1277,
      1072,
      1034,
      824,
      793,
      575,
      405,
      315,
      231,
      46,
      26
    ],
    "swim:geom": "approach",
    "swim:timestamps": [
      1791544730,
      1791544748,
      1791544789,
      1791544820,
      1791544854,
      1791544874,
      1791544890,
      1791544929,
      1791544964,
      1791544972,
      1791544995,
      1791545033,
      1791545049,
      1791545090,
      1791545110,
      1791545147,
      1791545162,
      1791545172,
      1791545197,
      1791545224,
      1791545266,
      1791545300,
      1791545333,
      1791545361,
      1791545397,
      1791545414,
      1791545456,
      1791545486,
      1791545504,
      1791545548,
      1791545552,
      1791545585,
      1791545595,
      1791545630,
      1791545668,
      1791545690,
      1791545714,
      1791545754,
      1791545765
    ],
    "wof:geomhash": "00aee45ce452ed49be7efb57281f0e14",
    "wof:id": 2048554203,
    "wof:repo": "sfomuseum-data-flights-2026-10"
  },
  "bbox": [
    -122.35575,
    36.72563,
    -121.88096,
    37.6106
  ],
  "geometry": {"type":"LineString","coordinates":[[-121.88096,36.72563],[-121.8965,36.75462],[-121.91606,36.82044],[-121.93032,36.87023],[-121.94456,36.92158],[-121.95277,36.95069],[-121.96144,36.97324],[-121.98248,37.02781],[-122.00087,37.07465],[-122.00528,37.08563],[-122.01607,37.11301],[-122.04694,37.15269],[-122.06395,37.16554],[-122.10846,37.19838],[-122.12945,37.21402],[-122.16862,37.24313],[-122.18472,37.255],[-122.19513,37.26268],[-122.22064,37.28134],[-122.24916,37.30216],[-122.29088,37.3338],[-122.28394,37.36584],[-122.24495,37.38188],[-122.21006,37.39545],[-122.16747,37.41193],[-122.14644,37.41998],[-122.11298,37.4539],[-122.12036,37.48166],[-122.13477,37.49657],[-122.16568,37.52809],[-122.1699,37.53112],[-122.20234,37.54611],[-122.21247,37.55031],[-122.24549,37.56437],[-122.27864,37.57818],[-122.29641,37.58569],[-122.31539,37.59363],[-122.34694,37.60689],[-122.35575,37.6106]]}
}
