{
  "id": 2048493745,
  "type": "Feature",
  "properties": {
    "geom:area": 0,
    "geom:bbox": "-122.360500,37.491410,-121.272750,37.614920",
    "geom:latitude": 37.546009226795675,
    "geom:longitude": -121.82147280535891,
    "src:alt_label": "swim-approach",
    "src:geom": "swim",
    "swim:elevations": [
      4551,
      4406,
      4078,
      3729,
      3626,
      3406,
      3263,
      3174,
      3149,
      3006,
      2859,
      2740,
      2553,
      2340,
      2240,
      2089,
      1902,
      1613,
      1453,
      1282,
      1110,
      1005,
      878,
      582,
      405,
      327,
      122,
      170
    ],
    "swim:geom": "approach",
    "swim:timestamps": [
      1790961264,
      1790961278,
      1790961310,
      1790961347,
      1790961366,
      1790961404,
      1790961430,
      1790961459,
      1790961467,
      1790961494,
      1790961520,
      1790961543,
      1790961577,
      1790961616,
      1790961639,
      1790961665,
      1790961701,
      1790961748,
      1790961775,
      1790961804,
      1790961831,
      1790961850,
      1790961872,
      1790961917,
      1790961951,
      1790961970,
      1790962015,
      1790962045
    ],
    "wof:geomhash": "ddf4a0a11c641230f4c6db7bc9baf041",
    "wof:id": 2048493745,
    "wof:repo": "sfomuseum-data-flights-2026-10"
  },
  "bbox": [
    -122.3605,
    37.49141,
    -121.27275,
    37.61492
  ],
  "geometry": {"type":"LineString","coordinates":[[-121.27275,37.59156],[-121.30095,37.58819],[-121.36636,37.5809],[-121.43971,37.57245],[-121.47793,37.56796],[-121.54709,37.5597],[-121.59042,37.5548],[-121.63672,37.54787],[-121.64768,37.54523],[-121.68603,37.53633],[-121.72159,37.52782],[-121.75343,37.52017],[-121.80038,37.50871],[-121.85281,37.49628],[-121.88387,37.49141],[-121.91883,37.49201],[-121.96815,37.49329],[-122.0307,37.50843],[-122.06547,37.51988],[-122.10269,37.5317],[-122.13813,37.54347],[-122.16261,37.55137],[-122.1914,37.5608],[-122.24624,37.57853],[-122.28343,37.58967],[-122.30155,37.59503],[-122.33858,37.60599],[-122.3605,37.61492]]}
}
