{
  "id": 2048525067,
  "type": "Feature",
  "properties": {
    "geom:area": 0,
    "geom:bbox": "-122.560670,36.726840,-122.360390,37.693780",
    "geom:latitude": 37.24058921424588,
    "geom:longitude": -122.48926892791492,
    "src:alt_label": "swim-takeoff",
    "src:geom": "swim",
    "swim:elevations": [
      152,
      341,
      602,
      1046,
      1169,
      1591,
      1989,
      2660,
      2995,
      3284,
      3741,
      4000,
      4462,
      4897,
      5181,
      5702,
      5864,
      6527,
      6624,
      7054,
      7212,
      7530,
      7907,
      8149,
      8251
    ],
    "swim:geom": "takeoff",
    "swim:timestamps": [
      1791200123,
      1791200143,
      1791200161,
      1791200200,
      1791200221,
      1791200258,
      1791200283,
      1791200325,
      1791200348,
      1791200379,
      1791200417,
      1791200435,
      1791200464,
      1791200500,
      1791200523,
      1791200567,
      1791200580,
      1791200635,
      1791200645,
      1791200690,
      1791200707,
      1791200740,
      1791200785,
      1791200818,
      1791200827
    ],
    "wof:geomhash": "03b30084fa134b34c9d130ee88c18863",
    "wof:id": 2048525067,
    "wof:repo": "sfomuseum-data-flights-2026-10"
  },
  "bbox": [
    -122.56067,
    36.72684,
    -122.36039,
    37.69378
  ],
  "geometry": {"type":"LineString","coordinates":[[-122.36733,37.63139],[-122.36243,37.64699],[-122.36264,37.66267],[-122.37679,37.69182],[-122.4035,37.69378],[-122.43318,37.65887],[-122.43632,37.62711],[-122.46046,37.57702],[-122.48274,37.55092],[-122.51298,37.51332],[-122.53101,37.45646],[-122.53382,37.42713],[-122.53736,37.3785],[-122.54221,37.31715],[-122.54506,37.27705],[-122.55035,37.19932],[-122.55206,37.17458],[-122.5593,37.07268],[-122.56067,37.05405],[-122.53756,36.97056],[-122.51636,36.94175],[-122.4731,36.88236],[-122.41593,36.80291],[-122.37241,36.74311],[-122.36039,36.72684]]}
}
