{
  "id": 2048496231,
  "type": "Feature",
  "properties": {
    "date:cessation_lower": "1970-01-01",
    "date:cessation_upper": "1970-01-01",
    "date:inception_lower": "2026-10-02",
    "date:inception_upper": "2026-10-02",
    "edtf:cessation": "1970-01-01T00:00:00Z",
    "edtf:inception": "2026-10-02T00:25:15-07:00",
    "flysfo:actual_timestamp": -1,
    "flysfo:airline": "AS",
    "flysfo:base_airline": "",
    "flysfo:base_flight_number": "9379",
    "flysfo:date": "2026-10-02",
    "flysfo:estimated_timestamp": 1790949600,
    "flysfo:event": "D",
    "flysfo:flight_number": "AS1344",
    "flysfo:gate": "B7",
    "flysfo:journey": "SFO-SJD",
    "flysfo:scheduled_timestamp": 1790949600,
    "flysfo:timestamp": 1790949600,
    "geom:area": 0,
    "geom:bbox": "-122.370943,23.160962,-109.717461,37.617990",
    "geom:latitude": 30.389476000000002,
    "geom:longitude": -116.044202,
    "iata:airline": "AS",
    "iata:base_airline": "",
    "icao:aircraft": "B738",
    "icao:airline": "ASA",
    "icao:base_airline": "AAL",
    "lbl:latitude": 37.61799,
    "lbl:longitude": -122.370943,
    "sfomuseum:aircraft_id": 1159289871,
    "sfomuseum:airline_id": 1159283813,
    "sfomuseum:arrival_id": 102536441,
    "sfomuseum:base_flight_id": "20261002-D-AAL-9379",
    "sfomuseum:departure_id": 102527513,
    "sfomuseum:flight_id": "20261002-D-ASA-1344",
    "sfomuseum:flight_number": [
      "ASA1344",
      "AS1344"
    ],
    "sfomuseum:placetype": "flight",
    "src:geom": "flysfo",
    "src:geom_alt": [
      "swim-takeoff"
    ],
    "swim:tail_number": "N597AS",
    "wof:belongsto": [
      1947304067,
      102527513,
      1947304261,
      102191575,
      85633793,
      102087579,
      85922583,
      554784711,
      85688637,
      1947304293,
      1947304259,
      102085387
    ],
    "wof:country": "US",
    "wof:created": 1791043923,
    "wof:geomhash": "7babf6b9ba279da48525185e0724d212",
    "wof:hierarchy": [
      {
        "building_id": 1947304067,
        "campus_id": 102527513,
        "concourse_id": 1947304261,
        "continent_id": 102191575,
        "country_id": 85633793,
        "county_id": 102087579,
        "custom_id": 2048496231,
        "flight_id": 2048496231,
        "locality_id": 85922583,
        "postalcode_id": 554784711,
        "region_id": 85688637,
        "venue_id": 1947304293,
        "wing_id": 1947304259
      },
      {
        "building_id": 1947304067,
        "campus_id": 102527513,
        "concourse_id": 1947304261,
        "continent_id": 102191575,
        "country_id": 85633793,
        "county_id": 102085387,
        "custom_id": 2048496231,
        "flight_id": 2048496231,
        "region_id": 85688637,
        "venue_id": 1947304293,
        "wing_id": 1947304259
      }
    ],
    "wof:id": 2048496231,
    "wof:involves": [
      1159289871,
      102536441,
      102527513,
      1159283813,
      1947304293,
      1159283849
    ],
    "wof:lastmodified": 1791044309,
    "wof:name": "AS1344 (SFO-SJD)",
    "wof:parent_id": 1947304293,
    "wof:placetype": "custom",
    "wof:placetype_alt": [
      "flight"
    ],
    "wof:repo": "sfomuseum-data-flights-2026-10",
    "wof:superseded_by": [],
    "wof:supersedes": []
  },
  "bbox": [
    -122.370943,
    23.160962,
    -109.717461,
    37.61799
  ],
  "geometry": {"type":"MultiPoint","coordinates":[[-122.370943,37.61799],[-109.717461,23.160962]]}
}
