{
  "id": 2048502909,
  "type": "Feature",
  "properties": {
    "geom:area": 0,
    "geom:bbox": "-122.359120,37.491700,-121.247150,37.613970",
    "geom:latitude": 37.54669559578582,
    "geom:longitude": -121.80808947673229,
    "src:alt_label": "swim-approach",
    "src:geom": "swim",
    "swim:elevations": [
      4353,
      4088,
      4059,
      3846,
      3580,
      3308,
      3205,
      3093,
      2899,
      2654,
      2597,
      2349,
      2135,
      2009,
      1830,
      1829,
      1611,
      1544,
      1278,
      1153,
      850,
      598,
      486,
      357,
      205,
      90,
      0
    ],
    "swim:geom": "approach",
    "swim:timestamps": [
      1791049883,
      1791049917,
      1791049921,
      1791049950,
      1791049989,
      1791050035,
      1791050063,
      1791050082,
      1791050124,
      1791050155,
      1791050163,
      1791050198,
      1791050232,
      1791050256,
      1791050294,
      1791050311,
      1791050361,
      1791050380,
      1791050420,
      1791050432,
      1791050475,
      1791050516,
      1791050542,
      1791050571,
      1791050606,
      1791050638,
      1791050661
    ],
    "wof:geomhash": "e4185251e23146d15247535761d44133",
    "wof:id": 2048502909,
    "wof:repo": "sfomuseum-data-flights-2026-10"
  },
  "bbox": [
    -122.35912,
    37.4917,
    -121.24715,
    37.61397
  ],
  "geometry": {"type":"LineString","coordinates":[[-121.24715,37.59477],[-121.31672,37.58584],[-121.3252,37.58494],[-121.38697,37.57817],[-121.46713,37.56888],[-121.55998,37.5581],[-121.61063,37.55209],[-121.64466,37.54566],[-121.71422,37.52938],[-121.76219,37.51782],[-121.77378,37.51501],[-121.82843,37.50283],[-121.87908,37.49171],[-121.91662,37.4917],[-121.97329,37.49334],[-121.99866,37.49798],[-122.06673,37.51941],[-122.0897,37.52739],[-122.13459,37.54218],[-122.14892,37.54664],[-122.19483,37.56156],[-122.24012,37.57618],[-122.26758,37.58508],[-122.29528,37.59248],[-122.32224,37.60047],[-122.34427,37.60807],[-122.35912,37.61397]]}
}
