{
  "id": 2048484301,
  "type": "Feature",
  "properties": {
    "geom:area": 0,
    "geom:bbox": "-122.362140,37.493690,-121.246260,37.616570",
    "geom:latitude": 37.54359368975325,
    "geom:longitude": -121.81154940978487,
    "src:alt_label": "swim-approach",
    "src:geom": "swim",
    "swim:elevations": [
      5126,
      4686,
      4423,
      3889,
      3537,
      3136,
      3093,
      3049,
      3049,
      3025,
      2737,
      2667,
      2354,
      2261,
      1973,
      1954,
      1773,
      1553,
      1302,
      1189,
      1025,
      929,
      725,
      582,
      460,
      361,
      201,
      120,
      277
    ],
    "swim:geom": "approach",
    "swim:timestamps": [
      1790902438,
      1790902468,
      1790902486,
      1790902522,
      1790902547,
      1790902577,
      1790902604,
      1790902622,
      1790902631,
      1790902646,
      1790902676,
      1790902682,
      1790902730,
      1790902748,
      1790902797,
      1790902800,
      1790902833,
      1790902870,
      1790902918,
      1790902936,
      1790902967,
      1790902985,
      1790903022,
      1790903059,
      1790903089,
      1790903113,
      1790903154,
      1790903175,
      1790903213
    ],
    "wof:geomhash": "eedd0277916ce694375aa7b662f0a76d",
    "wof:id": 2048484301,
    "wof:repo": "sfomuseum-data-flights-2026-10"
  },
  "bbox": [
    -122.36214,
    37.49369,
    -121.24626,
    37.61657
  ],
  "geometry": {"type":"LineString","coordinates":[[-121.24626,37.59497],[-121.31487,37.58633],[-121.35573,37.58184],[-121.43607,37.57306],[-121.48991,37.56681],[-121.55443,37.55924],[-121.6095,37.55283],[-121.64392,37.5465],[-121.66027,37.54251],[-121.68584,37.53629],[-121.73422,37.52458],[-121.74397,37.52229],[-121.81983,37.50415],[-121.84657,37.4978],[-121.9201,37.49369],[-121.9246,37.49396],[-121.97383,37.49668],[-122.02686,37.49965],[-122.09531,37.50432],[-122.11918,37.51301],[-122.15685,37.52897],[-122.17769,37.53785],[-122.21612,37.5541],[-122.24945,37.56812],[-122.2733,37.57834],[-122.29168,37.58602],[-122.32176,37.59868],[-122.33637,37.60484],[-122.36214,37.61657]]}
}
