{
  "id": 2048500677,
  "type": "Feature",
  "properties": {
    "date:inception_lower": "2026-10-03",
    "date:inception_upper": "2026-10-03",
    "edtf:cessation": "",
    "edtf:inception": "2026-10-03",
    "flysfo:actual_timestamp": -1,
    "flysfo:airline": "AS",
    "flysfo:base_airline": "",
    "flysfo:base_flight_number": "5805",
    "flysfo:date": "2026-10-03",
    "flysfo:estimated_timestamp": 1791089880,
    "flysfo:event": "A",
    "flysfo:flight_number": "AS7",
    "flysfo:gate": "B12",
    "flysfo:journey": "DCA-SFO",
    "flysfo:scheduled_timestamp": 1791089700,
    "flysfo:timestamp": 1791089880,
    "geom:area": 0,
    "geom:bbox": "-122.370943,37.617990,-77.041643,38.850639",
    "geom:latitude": 38.234314499999996,
    "geom:longitude": -99.70629299999999,
    "iata:airline": "AS",
    "iata:base_airline": "",
    "icao:airline": "ASA",
    "icao:base_airline": "FJI",
    "lbl:latitude": 37.61799,
    "lbl:longitude": -122.370943,
    "sfomuseum:airline_id": 1159283813,
    "sfomuseum:arrival_id": 102527513,
    "sfomuseum:base_flight_id": "20261003-A-FJI-5805",
    "sfomuseum:departure_id": 1746879047,
    "sfomuseum:flight_id": "20261003-A-ASA-7",
    "sfomuseum:flight_number": [
      "ASA7",
      "AS7"
    ],
    "sfomuseum:placetype": "flight",
    "src:geom": "flysfo",
    "wof:belongsto": [
      1947304067,
      102527513,
      1947304261,
      102191575,
      85633793,
      102087579,
      85922583,
      554784711,
      85688637,
      1947304263,
      1947304259,
      102085387
    ],
    "wof:country": "US",
    "wof:created": 1791129820,
    "wof:geomhash": "cfff966b0a5de3ca50080923c4337cfe",
    "wof:hierarchy": [
      {
        "building_id": 1947304067,
        "campus_id": 102527513,
        "concourse_id": 1947304261,
        "continent_id": 102191575,
        "country_id": 85633793,
        "county_id": 102087579,
        "custom_id": 2048500677,
        "flight_id": 2048500677,
        "locality_id": 85922583,
        "postalcode_id": 554784711,
        "region_id": 85688637,
        "venue_id": 1947304263,
        "wing_id": 1947304259
      },
      {
        "building_id": 1947304067,
        "campus_id": 102527513,
        "concourse_id": 1947304261,
        "continent_id": 102191575,
        "country_id": 85633793,
        "county_id": 102085387,
        "custom_id": 2048500677,
        "flight_id": 2048500677,
        "region_id": 85688637,
        "venue_id": 1947304263,
        "wing_id": 1947304259
      }
    ],
    "wof:id": 2048500677,
    "wof:involves": [
      102527513,
      1746879047,
      1159283813,
      1947304263,
      1159283717
    ],
    "wof:lastmodified": 1791129820,
    "wof:name": "AS7 (DCA-SFO)",
    "wof:parent_id": 1947304263,
    "wof:placetype": "custom",
    "wof:placetype_alt": [
      "flight"
    ],
    "wof:repo": "sfomuseum-data-flights-2026-10",
    "wof:superseded_by": [],
    "wof:supersedes": []
  },
  "bbox": [
    -122.370943,
    37.61799,
    -77.041643,
    38.850639
  ],
  "geometry": {"type":"MultiPoint","coordinates":[[-77.041643,38.850639],[-122.370943,37.61799]]}
}
