{
  "id": 2048525015,
  "type": "Feature",
  "properties": {
    "geom:area": 0,
    "geom:bbox": "-122.363670,37.632250,-121.245590,38.208910",
    "geom:latitude": 37.9592381377123,
    "geom:longitude": -121.86117160694079,
    "src:alt_label": "swim-takeoff",
    "src:geom": "swim",
    "swim:elevations": [
      122,
      408,
      762,
      1056,
      1207,
      1340,
      1861,
      2043,
      2244,
      2695,
      3081,
      3714,
      3994,
      4059,
      4583,
      4743,
      4940,
      5392,
      5537,
      5926,
      6162,
      6296,
      6673,
      6893,
      7120,
      7154,
      7395
    ],
    "swim:geom": "takeoff",
    "swim:timestamps": [
      1791188871,
      1791188896,
      1791188923,
      1791188957,
      1791188988,
      1791189007,
      1791189058,
      1791189074,
      1791189091,
      1791189127,
      1791189158,
      1791189207,
      1791189236,
      1791189249,
      1791189298,
      1791189314,
      1791189339,
      1791189387,
      1791189402,
      1791189443,
      1791189470,
      1791189486,
      1791189536,
      1791189566,
      1791189598,
      1791189603,
      1791189645
    ],
    "wof:geomhash": "01d57c13c6114d495f70631ed3492b8f",
    "wof:id": 2048525015,
    "wof:repo": "sfomuseum-data-flights-2026-10"
  },
  "bbox": [
    -122.36367,
    37.63225,
    -121.24559,
    38.20891
  ],
  "geometry": {"type":"LineString","coordinates":[[-122.36367,37.63225],[-122.34689,37.64816],[-122.32132,37.66039],[-122.29103,37.67672],[-122.2595,37.69458],[-122.24227,37.71219],[-122.26232,37.76955],[-122.26949,37.78985],[-122.26482,37.8122],[-122.24918,37.85821],[-122.20613,37.88006],[-122.12479,37.90225],[-122.07667,37.91639],[-122.0538,37.92305],[-121.96334,37.94874],[-121.93251,37.95738],[-121.88338,37.97101],[-121.78573,37.99846],[-121.75392,38.00742],[-121.66854,38.03138],[-121.61118,38.04741],[-121.5781,38.0608],[-121.48181,38.1118],[-121.42238,38.14268],[-121.35686,38.17697],[-121.34697,38.18215],[-121.24559,38.20891]]}
}
