{
  "id": 2048547867,
  "type": "Feature",
  "properties": {
    "geom:area": 0,
    "geom:bbox": "-123.323920,37.633410,-122.409970,38.501030",
    "geom:latitude": 38.027372083155775,
    "geom:longitude": -122.89908867533882,
    "src:alt_label": "swim-takeoff",
    "src:geom": "swim",
    "swim:elevations": [
      390,
      675,
      871,
      1013,
      1111,
      1153,
      1403,
      1794,
      2075,
      2293,
      2660,
      2782,
      3044,
      3173,
      3276,
      3548,
      3821,
      4162,
      4524,
      4708,
      5018,
      5122,
      5279,
      5415,
      5599,
      5849,
      6126,
      6218
    ],
    "swim:geom": "takeoff",
    "swim:timestamps": [
      1791503606,
      1791503634,
      1791503657,
      1791503697,
      1791503724,
      1791503730,
      1791503771,
      1791503813,
      1791503841,
      1791503863,
      1791503901,
      1791503916,
      1791503943,
      1791503964,
      1791503989,
      1791504019,
      1791504045,
      1791504085,
      1791504115,
      1791504130,
      1791504178,
      1791504208,
      1791504238,
      1791504257,
      1791504282,
      1791504318,
      1791504355,
      1791504367
    ],
    "wof:geomhash": "ac507667e11549e3ebf54d214a25e3cb",
    "wof:id": 2048547867,
    "wof:repo": "sfomuseum-data-flights-2026-10"
  },
  "bbox": [
    -123.32392,
    37.63341,
    -122.40997,
    38.50103
  ],
  "geometry": {"type":"LineString","coordinates":[[-122.40997,37.63341],[-122.43407,37.64406],[-122.45376,37.65295],[-122.49167,37.66988],[-122.52082,37.68517],[-122.52743,37.68915],[-122.57789,37.71907],[-122.63284,37.75107],[-122.67066,37.77325],[-122.70103,37.79109],[-122.75339,37.82228],[-122.77016,37.83863],[-122.79593,37.8715],[-122.81759,37.8976],[-122.84544,37.93074],[-122.88009,37.97221],[-122.90988,38.00807],[-122.9568,38.06454],[-122.99317,38.10809],[-123.01092,38.12939],[-123.06925,38.19895],[-123.10738,38.24439],[-123.14698,38.29158],[-123.17204,38.3214],[-123.20602,38.36179],[-123.256,38.41947],[-123.3075,38.48072],[-123.32392,38.50103]]}
}
