{
  "id": 2048536231,
  "type": "Feature",
  "properties": {
    "geom:area": 0,
    "geom:bbox": "-122.357700,37.491640,-121.245790,37.613810",
    "geom:latitude": 37.547015982241305,
    "geom:longitude": -121.80667985190078,
    "src:alt_label": "swim-approach",
    "src:geom": "swim",
    "swim:elevations": [
      4668,
      4459,
      4089,
      3751,
      3433,
      3173,
      3111,
      3003,
      2767,
      2551,
      2403,
      2324,
      2041,
      1946,
      1839,
      1614,
      1531,
      1246,
      1195,
      1096,
      896,
      820,
      587,
      486,
      418,
      265,
      88,
      41
    ],
    "swim:geom": "approach",
    "swim:timestamps": [
      1791380743,
      1791380762,
      1791380800,
      1791380832,
      1791380861,
      1791380902,
      1791380925,
      1791380956,
      1791380989,
      1791381023,
      1791381052,
      1791381068,
      1791381115,
      1791381137,
      1791381163,
      1791381197,
      1791381216,
      1791381263,
      1791381271,
      1791381288,
      1791381326,
      1791381342,
      1791381383,
      1791381403,
      1791381420,
      1791381457,
      1791381503,
      1791381516
    ],
    "wof:geomhash": "8caed72d82f51eced1a0ab91915be379",
    "wof:id": 2048536231,
    "wof:repo": "sfomuseum-data-flights-2026-10"
  },
  "bbox": [
    -122.3577,
    37.49164,
    -121.24579,
    37.61381
  ],
  "geometry": {"type":"LineString","coordinates":[[-121.24579,37.59501],[-121.28411,37.58981],[-121.36536,37.58133],[-121.4306,37.57363],[-121.48955,37.5667],[-121.56951,37.5573],[-121.61195,37.55237],[-121.66305,37.54157],[-121.71511,37.52905],[-121.76785,37.51663],[-121.8133,37.50585],[-121.83615,37.50034],[-121.90752,37.49164],[-121.94023,37.49257],[-121.97905,37.49401],[-122.02639,37.50713],[-122.05008,37.51486],[-122.10922,37.53384],[-122.11815,37.53672],[-122.1385,37.54346],[-122.18305,37.55815],[-122.20007,37.56357],[-122.24445,37.57733],[-122.26353,37.58362],[-122.27872,37.58787],[-122.31009,37.59727],[-122.34742,37.6093],[-122.3577,37.61381]]}
}
