{
  "id": 2048484961,
  "type": "Feature",
  "properties": {
    "geom:area": 0,
    "geom:bbox": "-122.357230,37.461900,-121.243740,37.613620",
    "geom:latitude": 37.54044213779962,
    "geom:longitude": -121.80434564304377,
    "src:alt_label": "swim-approach",
    "src:geom": "swim",
    "swim:elevations": [
      4662,
      4316,
      4196,
      3772,
      3479,
      3164,
      3108,
      3066,
      2809,
      2676,
      2580,
      2475,
      2471,
      2387,
      2325,
      2159,
      2041,
      1977,
      1857,
      1631,
      1353,
      1217,
      1086,
      1005,
      968,
      780,
      614,
      598,
      520,
      307,
      178,
      120,
      20
    ],
    "swim:geom": "approach",
    "swim:timestamps": [
      1790877410,
      1790877443,
      1790877455,
      1790877496,
      1790877525,
      1790877568,
      1790877588,
      1790877605,
      1790877648,
      1790877670,
      1790877688,
      1790877713,
      1790877723,
      1790877746,
      1790877759,
      1790877801,
      1790877829,
      1790877846,
      1790877878,
      1790877916,
      1790877952,
      1790877974,
      1790878017,
      1790878043,
      1790878053,
      1790878090,
      1790878122,
      1790878129,
      1790878146,
      1790878197,
      1790878225,
      1790878241,
      1790878271
    ],
    "wof:geomhash": "457b1e122d59d64b8f6eeee25d618a70",
    "wof:id": 2048484961,
    "wof:repo": "sfomuseum-data-flights-2026-10"
  },
  "bbox": [
    -122.35723,
    37.4619,
    -121.24374,
    37.61362
  ],
  "geometry": {"type":"LineString","coordinates":[[-121.24374,37.59531],[-121.31539,37.58649],[-121.33902,37.58377],[-121.4244,37.57414],[-121.48466,37.56718],[-121.56976,37.55721],[-121.60526,37.5531],[-121.63409,37.54837],[-121.70066,37.53235],[-121.72605,37.51543],[-121.74128,37.49843],[-121.76253,37.47525],[-121.77277,37.46883],[-121.80336,37.4619],[-121.82047,37.46442],[-121.87918,37.4745],[-121.91584,37.48129],[-121.93689,37.48513],[-121.97655,37.49242],[-122.02093,37.50546],[-122.06075,37.51826],[-122.08491,37.52611],[-122.12884,37.54032],[-122.15602,37.54915],[-122.16637,37.55251],[-122.20462,37.56501],[-122.23744,37.57549],[-122.24382,37.57751],[-122.2597,37.58255],[-122.30279,37.59528],[-122.3261,37.60212],[-122.33756,37.60556],[-122.35723,37.61362]]}
}
