{
  "id": 2048498463,
  "type": "Feature",
  "properties": {
    "geom:area": 0,
    "geom:bbox": "-123.494950,37.414650,-122.391670,37.670170",
    "geom:latitude": 37.55616768705118,
    "geom:longitude": -122.94143328793324,
    "src:alt_label": "swim-takeoff",
    "src:geom": "swim",
    "swim:elevations": [
      122,
      391,
      704,
      782,
      1132,
      1354,
      1483,
      2440,
      2584,
      3028,
      3136,
      3577,
      3796,
      4039,
      4296,
      4486,
      4666,
      5098,
      5141,
      5608,
      5797,
      6075
    ],
    "swim:geom": "takeoff",
    "swim:timestamps": [
      1790951276,
      1790951304,
      1790951333,
      1790951341,
      1790951380,
      1790951417,
      1790951438,
      1790951518,
      1790951532,
      1790951573,
      1790951584,
      1790951631,
      1790951659,
      1790951694,
      1790951725,
      1790951753,
      1790951773,
      1790951818,
      1790951824,
      1790951877,
      1790951898,
      1790951933
    ],
    "wof:geomhash": "9f6dcd966d5db0335952a008b39cc0e1",
    "wof:id": 2048498463,
    "wof:repo": "sfomuseum-data-flights-2026-10"
  },
  "bbox": [
    -123.49495,
    37.41465,
    -122.39167,
    37.67017
  ],
  "geometry": {"type":"LineString","coordinates":[[-122.39167,37.62556],[-122.41816,37.63726],[-122.44681,37.65076],[-122.45552,37.65463],[-122.4965,37.67017],[-122.54316,37.66429],[-122.57329,37.65658],[-122.69248,37.62553],[-122.71388,37.62013],[-122.78001,37.60276],[-122.79713,37.59807],[-122.87834,37.5773],[-122.92906,37.56437],[-122.99432,37.54711],[-123.05597,37.53065],[-123.11251,37.51584],[-123.15467,37.50496],[-123.24833,37.48048],[-123.26186,37.47693],[-123.37323,37.44719],[-123.41956,37.43479],[-123.49495,37.41465]]}
}
