{
  "id": 2048511111,
  "type": "Feature",
  "properties": {
    "geom:area": 0,
    "geom:bbox": "-122.356460,37.491280,-121.283750,37.613150",
    "geom:latitude": 37.54525150802922,
    "geom:longitude": -121.82484917580582,
    "src:alt_label": "swim-approach",
    "src:geom": "swim",
    "swim:elevations": [
      4490,
      4260,
      4079,
      3833,
      3599,
      3549,
      3153,
      3039,
      2728,
      2706,
      2457,
      2367,
      2133,
      2134,
      2035,
      1783,
      1562,
      1394,
      1255,
      1187,
      984,
      828,
      588,
      484,
      334,
      184,
      34
    ],
    "swim:geom": "approach",
    "swim:timestamps": [
      1791108264,
      1791108295,
      1791108319,
      1791108350,
      1791108383,
      1791108390,
      1791108441,
      1791108463,
      1791108507,
      1791108510,
      1791108568,
      1791108583,
      1791108628,
      1791108643,
      1791108679,
      1791108711,
      1791108741,
      1791108774,
      1791108805,
      1791108812,
      1791108850,
      1791108881,
      1791108926,
      1791108946,
      1791108973,
      1791109010,
      1791109046
    ],
    "wof:geomhash": "7cf9caa516e3497b5a4335f881a56215",
    "wof:id": 2048511111,
    "wof:repo": "sfomuseum-data-flights-2026-10"
  },
  "bbox": [
    -122.35646,
    37.49128,
    -121.28375,
    37.61315
  ],
  "geometry": {"type":"LineString","coordinates":[[-121.28375,37.58979],[-121.34022,37.58393],[-121.38514,37.57878],[-121.44047,37.57226],[-121.49922,37.56543],[-121.51177,37.56401],[-121.6026,37.55335],[-121.63947,37.5472],[-121.7104,37.53034],[-121.71524,37.5292],[-121.80368,37.50804],[-121.82426,37.503],[-121.88926,37.49128],[-121.90966,37.49183],[-121.9594,37.49306],[-122.00163,37.49894],[-122.04,37.51143],[-122.07974,37.52439],[-122.11417,37.53563],[-122.12248,37.53828],[-122.16499,37.55202],[-122.19961,37.56324],[-122.24812,37.57891],[-122.26959,37.58527],[-122.29494,37.59292],[-122.32688,37.60231],[-122.35646,37.61315]]}
}
