{
  "id": 2048493787,
  "type": "Feature",
  "properties": {
    "date:cessation_lower": "2026-10-02",
    "date:cessation_upper": "2026-10-02",
    "date:inception_lower": "1970-01-01",
    "date:inception_upper": "1970-01-01",
    "edtf:cessation": "2026-10-02T15:10:21-07:00",
    "edtf:inception": "1970-01-01T00:00:00Z",
    "flysfo:actual_timestamp": -1,
    "flysfo:airline": "UA",
    "flysfo:base_airline": "",
    "flysfo:base_flight_number": "9366",
    "flysfo:date": "2026-10-02",
    "flysfo:estimated_timestamp": 1791004740,
    "flysfo:event": "A",
    "flysfo:flight_number": "UA1575",
    "flysfo:gate": "F16",
    "flysfo:journey": "PHL-SFO",
    "flysfo:scheduled_timestamp": 1791001980,
    "flysfo:timestamp": 1791004740,
    "geom:area": 0,
    "geom:bbox": "-122.370943,37.617990,-75.247885,39.880952",
    "geom:latitude": 38.749471,
    "geom:longitude": -98.809414,
    "iata:airline": "UA",
    "iata:base_airline": "",
    "icao:aircraft": "B39M",
    "icao:airline": "UAL",
    "icao:base_airline": "ANZ",
    "lbl:latitude": 37.620533,
    "lbl:longitude": -122.389374,
    "sfomuseum:aircraft_id": 1528104577,
    "sfomuseum:airline_id": 1159285413,
    "sfomuseum:arrival_id": 102527513,
    "sfomuseum:base_flight_id": "20261002-A-ANZ-9366",
    "sfomuseum:departure_id": 102529403,
    "sfomuseum:flight_id": "20261002-A-UAL-1575",
    "sfomuseum:flight_number": [
      "UAL1575",
      "UA1575"
    ],
    "sfomuseum:placetype": "flight",
    "src:geom": "flysfo",
    "src:geom_alt": [
      "swim-approach"
    ],
    "swim:tail_number": "N17593",
    "wof:belongsto": [
      1947304067,
      102527513,
      1947304451,
      102191575,
      85633793,
      102087579,
      85922583,
      554784711,
      85688637,
      1947304457,
      1947304447,
      102085387
    ],
    "wof:country": "US",
    "wof:created": 1791043655,
    "wof:geomhash": "70ecaf1bff2da3af9ba52c9bde5534af",
    "wof:hierarchy": [
      {
        "building_id": 1947304067,
        "campus_id": 102527513,
        "concourse_id": 1947304451,
        "continent_id": 102191575,
        "country_id": 85633793,
        "county_id": 102087579,
        "custom_id": 2048493787,
        "flight_id": 2048493787,
        "locality_id": 85922583,
        "postalcode_id": 554784711,
        "region_id": 85688637,
        "venue_id": 1947304457,
        "wing_id": 1947304447
      },
      {
        "building_id": 1947304067,
        "campus_id": 102527513,
        "concourse_id": 1947304451,
        "continent_id": 102191575,
        "country_id": 85633793,
        "county_id": 102085387,
        "custom_id": 2048493787,
        "flight_id": 2048493787,
        "region_id": 85688637,
        "venue_id": 1947304457,
        "wing_id": 1947304447
      }
    ],
    "wof:id": 2048493787,
    "wof:involves": [
      102529403,
      1159285413,
      1947304457,
      1159283697,
      1528104577,
      102527513
    ],
    "wof:lastmodified": 1791044297,
    "wof:name": "UA1575 (PHL-SFO)",
    "wof:parent_id": 1947304457,
    "wof:placetype": "custom",
    "wof:placetype_alt": [
      "flight"
    ],
    "wof:repo": "sfomuseum-data-flights-2026-10",
    "wof:superseded_by": [],
    "wof:supersedes": []
  },
  "bbox": [
    -122.370943,
    37.61799,
    -75.247885,
    39.880952
  ],
  "geometry": {"type":"MultiPoint","coordinates":[[-75.247885,39.880952],[-122.370943,37.61799]]}
}
