{
  "id": 2048488693,
  "type": "Feature",
  "properties": {
    "geom:area": 0,
    "geom:bbox": "-122.467960,36.732820,-121.314690,37.715590",
    "geom:latitude": 37.21973454359393,
    "geom:longitude": -122.00026538790614,
    "src:alt_label": "swim-takeoff",
    "src:geom": "swim",
    "swim:elevations": [
      183,
      568,
      827,
      1294,
      1350,
      1599,
      1866,
      2084,
      2453,
      2832,
      3118,
      3292,
      3492,
      3663,
      4189,
      4512,
      4905,
      5034,
      5649,
      5871,
      6195,
      6347,
      6635,
      6798,
      7238,
      7477,
      7612,
      7914,
      8112,
      8433,
      8667,
      8728,
      8934,
      9055
    ],
    "swim:geom": "takeoff",
    "swim:timestamps": [
      1790868338,
      1790868387,
      1790868414,
      1790868447,
      1790868451,
      1790868468,
      1790868498,
      1790868519,
      1790868548,
      1790868577,
      1790868602,
      1790868628,
      1790868653,
      1790868669,
      1790868711,
      1790868736,
      1790868774,
      1790868784,
      1790868837,
      1790868856,
      1790868892,
      1790868908,
      1790868940,
      1790868960,
      1790869010,
      1790869037,
      1790869054,
      1790869093,
      1790869120,
      1790869164,
      1790869197,
      1790869213,
      1790869245,
      1790869272
    ],
    "wof:geomhash": "1287e320132864f79987180c6f3cf187",
    "wof:id": 2048488693,
    "wof:repo": "sfomuseum-data-flights-2026-10"
  },
  "bbox": [
    -122.46796,
    36.73282,
    -121.31469,
    37.71559
  ],
  "geometry": {"type":"LineString","coordinates":[[-122.36742,37.63106],[-122.36318,37.6719],[-122.36918,37.69935],[-122.40727,37.71559],[-122.41281,37.71497],[-122.43257,37.70626],[-122.44832,37.67623],[-122.45152,37.65074],[-122.45695,37.61378],[-122.46296,37.57535],[-122.46748,37.54262],[-122.46796,37.50482],[-122.44141,37.4725],[-122.41659,37.45699],[-122.35107,37.41384],[-122.30943,37.38691],[-122.24766,37.34701],[-122.23151,37.33652],[-122.14161,37.27828],[-122.10944,37.25728],[-122.04785,37.21717],[-122.01878,37.19825],[-121.96163,37.16103],[-121.92513,37.13713],[-121.83282,37.07656],[-121.78157,37.04273],[-121.75045,37.02231],[-121.67428,36.97167],[-121.62173,36.93673],[-121.53407,36.87868],[-121.46776,36.83478],[-121.436,36.81381],[-121.3697,36.76985],[-121.31469,36.73282]]}
}
