{
  "id": 2048489373,
  "type": "Feature",
  "properties": {
    "geom:area": 0,
    "geom:bbox": "-122.359780,37.638250,-121.277500,37.959740",
    "geom:latitude": 37.83699895764085,
    "geom:longitude": -121.83188726556352,
    "src:alt_label": "swim-takeoff",
    "src:geom": "swim",
    "swim:elevations": [
      259,
      417,
      707,
      1109,
      1279,
      1304,
      1434,
      1884,
      1923,
      2676,
      2938,
      3445,
      3613,
      3953,
      4155,
      4373,
      4486,
      4626,
      4698,
      4923,
      4962,
      5268,
      5446
    ],
    "swim:geom": "takeoff",
    "swim:timestamps": [
      1790843391,
      1790843406,
      1790843432,
      1790843488,
      1790843517,
      1790843520,
      1790843538,
      1790843576,
      1790843582,
      1790843650,
      1790843677,
      1790843722,
      1790843739,
      1790843776,
      1790843799,
      1790843843,
      1790843865,
      1790843907,
      1790843921,
      1790843965,
      1790843971,
      1790844015,
      1790844040
    ],
    "wof:geomhash": "56354b6b202373d4d394b53d7fbb140b",
    "wof:id": 2048489373,
    "wof:repo": "sfomuseum-data-flights-2026-10"
  },
  "bbox": [
    -122.35978,
    37.63825,
    -121.2775,
    37.95974
  ],
  "geometry": {"type":"LineString","coordinates":[[-122.35978,37.63825],[-122.34878,37.64652],[-122.32573,37.65841],[-122.27484,37.68597],[-122.24259,37.70374],[-122.23897,37.70558],[-122.21739,37.71652],[-122.16699,37.74268],[-122.15962,37.74665],[-122.06338,37.7968],[-122.02132,37.81647],[-121.94627,37.83722],[-121.91756,37.84255],[-121.85087,37.85418],[-121.80923,37.86212],[-121.72644,37.87764],[-121.68,37.88623],[-121.59046,37.90326],[-121.55755,37.90927],[-121.45498,37.92777],[-121.44073,37.93039],[-121.33602,37.94923],[-121.2775,37.95974]]}
}
