{
  "id": 2048509897,
  "type": "Feature",
  "properties": {
    "geom:area": 0,
    "geom:bbox": "-122.360990,36.725730,-121.881440,37.612690",
    "geom:latitude": 37.22891938134102,
    "geom:longitude": -122.06549976330977,
    "src:alt_label": "swim-approach",
    "src:geom": "swim",
    "swim:elevations": [
      5024,
      4884,
      4537,
      4211,
      3853,
      3568,
      3366,
      3121,
      3008,
      2885,
      2567,
      2463,
      2438,
      2364,
      2311,
      2002,
      1853,
      1809,
      1647,
      1528,
      1441,
      1332,
      1036,
      798,
      632,
      454,
      336,
      200,
      107,
      29,
      76
    ],
    "swim:geom": "approach",
    "swim:timestamps": [
      1791113358,
      1791113370,
      1791113407,
      1791113440,
      1791113479,
      1791113508,
      1791113531,
      1791113569,
      1791113599,
      1791113616,
      1791113661,
      1791113676,
      1791113718,
      1791113737,
      1791113745,
      1791113788,
      1791113814,
      1791113857,
      1791113885,
      1791113916,
      1791113958,
      1791113977,
      1791114018,
      1791114045,
      1791114065,
      1791114102,
      1791114142,
      1791114170,
      1791114200,
      1791114222,
      1791114230
    ],
    "wof:geomhash": "cdd755d0b2fc4290b605c91a6a3263da",
    "wof:id": 2048509897,
    "wof:repo": "sfomuseum-data-flights-2026-10"
  },
  "bbox": [
    -122.36099,
    36.72573,
    -121.88144,
    37.61269
  ],
  "geometry": {"type":"LineString","coordinates":[[-121.88144,36.72573],[-121.89464,36.74633],[-121.91313,36.81106],[-121.92922,36.86858],[-121.94766,36.93316],[-121.96316,36.97864],[-121.97736,37.01472],[-122.00059,37.07365],[-122.01662,37.11495],[-122.02551,37.13787],[-122.0486,37.19747],[-122.05564,37.21532],[-122.07501,37.26441],[-122.08364,37.28628],[-122.08705,37.29492],[-122.10398,37.34426],[-122.09492,37.37209],[-122.07319,37.41706],[-122.06743,37.44778],[-122.08014,37.48074],[-122.11424,37.50847],[-122.13419,37.51729],[-122.17705,37.53558],[-122.206,37.54766],[-122.22633,37.55619],[-122.26557,37.57274],[-122.30027,37.58727],[-122.32046,37.59579],[-122.3417,37.60471],[-122.35644,37.6109],[-122.36099,37.61269]]}
}
