{
  "id": 2048527365,
  "type": "Feature",
  "properties": {
    "geom:area": 0,
    "geom:bbox": "-122.846360,37.428120,-122.111950,38.493610",
    "geom:latitude": 37.824083743950155,
    "geom:longitude": -122.49957174555404,
    "src:alt_label": "swim-approach",
    "src:geom": "swim",
    "swim:elevations": [
      7620,
      7559,
      7067,
      6715,
      6618,
      6187,
      5840,
      5672,
      5304,
      5224,
      4856,
      4663,
      4252,
      3921,
      3802,
      3464,
      3393,
      3353,
      3353,
      3353,
      3353,
      3276,
      3201,
      3061,
      2883,
      2749,
      2417,
      2085,
      1890,
      1549,
      1458,
      1322,
      1134,
      1027,
      871,
      725,
      695,
      645,
      425,
      285,
      210,
      89,
      0
    ],
    "swim:geom": "approach",
    "swim:timestamps": [
      1791289285,
      1791289290,
      1791289339,
      1791289375,
      1791289384,
      1791289428,
      1791289465,
      1791289484,
      1791289523,
      1791289531,
      1791289571,
      1791289593,
      1791289637,
      1791289677,
      1791289691,
      1791289733,
      1791289741,
      1791289793,
      1791289816,
      1791289848,
      1791289883,
      1791289903,
      1791289915,
      1791289942,
      1791289973,
      1791289996,
      1791290053,
      1791290096,
      1791290117,
      1791290156,
      1791290168,
      1791290200,
      1791290240,
      1791290263,
      1791290294,
      1791290336,
      1791290350,
      1791290363,
      1791290417,
      1791290453,
      1791290478,
      1791290509,
      1791290535
    ],
    "wof:geomhash": "0001c7494477486349e636ba7170fad5",
    "wof:id": 2048527365,
    "wof:repo": "sfomuseum-data-flights-2026-10"
  },
  "bbox": [
    -122.84636,
    37.42812,
    -122.11195,
    38.49361
  ],
  "geometry": {"type":"LineString","coordinates":[[-122.84636,38.49361],[-122.84411,38.48578],[-122.81706,38.39349],[-122.79816,38.32912],[-122.79336,38.31277],[-122.77113,38.23661],[-122.7525,38.17274],[-122.74326,38.14138],[-122.72485,38.07726],[-122.7211,38.0642],[-122.70182,37.99864],[-122.69223,37.96512],[-122.66672,37.89736],[-122.61858,37.84802],[-122.6015,37.83179],[-122.5507,37.78374],[-122.54139,37.77499],[-122.48354,37.7205],[-122.46105,37.69934],[-122.43017,37.67012],[-122.3978,37.63963],[-122.37854,37.62157],[-122.36766,37.61105],[-122.35007,37.58489],[-122.33432,37.55194],[-122.31966,37.52834],[-122.2822,37.47278],[-122.22977,37.45297],[-122.20312,37.44387],[-122.15234,37.42812],[-122.13666,37.42973],[-122.11195,37.45333],[-122.13069,37.48625],[-122.14647,37.50221],[-122.16642,37.52223],[-122.19939,37.54487],[-122.21135,37.54993],[-122.22345,37.55505],[-122.27229,37.57539],[-122.301,37.58758],[-122.32054,37.59587],[-122.34446,37.60584],[-122.3637,37.61324]]}
}
