{
  "id": 2048547117,
  "type": "Feature",
  "properties": {
    "date:inception_lower": "2026-10-08",
    "date:inception_upper": "2026-10-08",
    "edtf:cessation": "",
    "edtf:inception": "2026-10-08",
    "flysfo:actual_timestamp": -1,
    "flysfo:airline": "UA",
    "flysfo:base_airline": "",
    "flysfo:base_flight_number": "4626",
    "flysfo:date": "2026-10-08",
    "flysfo:estimated_timestamp": 1791509340,
    "flysfo:event": "A",
    "flysfo:flight_number": "UA8635",
    "flysfo:gate": "D11",
    "flysfo:journey": "YVR-SFO",
    "flysfo:scheduled_timestamp": 1791509460,
    "flysfo:timestamp": 1791509460,
    "geom:area": 0,
    "geom:bbox": "-123.179200,37.617990,-122.370943,49.193330",
    "geom:latitude": 43.40566,
    "geom:longitude": -122.7750715,
    "iata:airline": "UA",
    "iata:base_airline": "",
    "icao:airline": "UAL",
    "icao:base_airline": "SWR",
    "lbl:latitude": 37.618139,
    "lbl:longitude": -122.381258,
    "sfomuseum:airline_id": 1159285413,
    "sfomuseum:arrival_id": 102527513,
    "sfomuseum:base_flight_id": "20261008-A-SWR-4626",
    "sfomuseum:departure_id": 102555307,
    "sfomuseum:flight_id": "20261008-A-UAL-8635",
    "sfomuseum:flight_number": [
      "UAL8635",
      "UA8635"
    ],
    "sfomuseum:placetype": "flight",
    "src:geom": "flysfo",
    "wof:belongsto": [
      1947304067,
      102527513,
      1947304595,
      102191575,
      85633793,
      102087579,
      85922583,
      554784711,
      85688637,
      1947304627,
      1947304591,
      102085387
    ],
    "wof:country": "US",
    "wof:created": 1791562191,
    "wof:geomhash": "e68490b7b9257816408c117e0e15f8ec",
    "wof:hierarchy": [
      {
        "building_id": 1947304067,
        "campus_id": 102527513,
        "concourse_id": 1947304595,
        "continent_id": 102191575,
        "country_id": 85633793,
        "county_id": 102087579,
        "custom_id": 2048547117,
        "flight_id": 2048547117,
        "locality_id": 85922583,
        "postalcode_id": 554784711,
        "region_id": 85688637,
        "venue_id": 1947304627,
        "wing_id": 1947304591
      },
      {
        "building_id": 1947304067,
        "campus_id": 102527513,
        "concourse_id": 1947304595,
        "continent_id": 102191575,
        "country_id": 85633793,
        "county_id": 102085387,
        "custom_id": 2048547117,
        "flight_id": 2048547117,
        "region_id": 85688637,
        "venue_id": 1947304627,
        "wing_id": 1947304591
      }
    ],
    "wof:id": 2048547117,
    "wof:involves": [
      102527513,
      102555307,
      1159285413,
      1947304627,
      1159286475
    ],
    "wof:lastmodified": 1791562191,
    "wof:name": "UA8635 (YVR-SFO)",
    "wof:parent_id": 1947304627,
    "wof:placetype": "custom",
    "wof:placetype_alt": [
      "flight"
    ],
    "wof:repo": "sfomuseum-data-flights-2026-10",
    "wof:superseded_by": [],
    "wof:supersedes": []
  },
  "bbox": [
    -123.1792,
    37.61799,
    -122.370943,
    49.19333
  ],
  "geometry": {"type":"MultiPoint","coordinates":[[-123.1792,49.19333],[-122.370943,37.61799]]}
}
