{
  "id": 2048555113,
  "type": "Feature",
  "properties": {
    "date:inception_lower": "2026-10-09",
    "date:inception_upper": "2026-10-09",
    "edtf:cessation": "",
    "edtf:inception": "2026-10-09",
    "flysfo:actual_timestamp": -1,
    "flysfo:airline": "QF",
    "flysfo:base_airline": "",
    "flysfo:base_flight_number": "7549",
    "flysfo:date": "2026-10-09",
    "flysfo:estimated_timestamp": 1791591900,
    "flysfo:event": "A",
    "flysfo:flight_number": "QF4756",
    "flysfo:gate": "B27",
    "flysfo:journey": "ORD-SFO",
    "flysfo:scheduled_timestamp": 1791588120,
    "flysfo:timestamp": 1791591900,
    "geom:area": 0,
    "geom:bbox": "-122.370943,37.617990,-87.894364,41.983038",
    "geom:latitude": 39.800514,
    "geom:longitude": -105.1326535,
    "iata:airline": "QF",
    "iata:base_airline": "",
    "icao:airline": "QFA",
    "icao:base_airline": "JAL",
    "lbl:latitude": 37.61799,
    "lbl:longitude": -122.370943,
    "sfomuseum:airline_id": 1159285043,
    "sfomuseum:arrival_id": 102527513,
    "sfomuseum:base_flight_id": "20261009-A-JAL-7549",
    "sfomuseum:departure_id": 102533631,
    "sfomuseum:flight_id": "20261009-A-QFA-4756",
    "sfomuseum:flight_number": [
      "QFA4756",
      "QF4756"
    ],
    "sfomuseum:placetype": "flight",
    "src:geom": "flysfo",
    "wof:belongsto": [
      1947304067,
      102527513,
      1947304261,
      102191575,
      85633793,
      102087579,
      85922583,
      554784711,
      85688637,
      1947304291,
      1947304259,
      102085387
    ],
    "wof:country": "US",
    "wof:created": 1791648397,
    "wof:geomhash": "81d390dcf2582f737869c573200abb8f",
    "wof:hierarchy": [
      {
        "building_id": 1947304067,
        "campus_id": 102527513,
        "concourse_id": 1947304261,
        "continent_id": 102191575,
        "country_id": 85633793,
        "county_id": 102087579,
        "custom_id": 2048555113,
        "flight_id": 2048555113,
        "locality_id": 85922583,
        "postalcode_id": 554784711,
        "region_id": 85688637,
        "venue_id": 1947304291,
        "wing_id": 1947304259
      },
      {
        "building_id": 1947304067,
        "campus_id": 102527513,
        "concourse_id": 1947304261,
        "continent_id": 102191575,
        "country_id": 85633793,
        "county_id": 102085387,
        "custom_id": 2048555113,
        "flight_id": 2048555113,
        "region_id": 85688637,
        "venue_id": 1947304291,
        "wing_id": 1947304259
      }
    ],
    "wof:id": 2048555113,
    "wof:involves": [
      102527513,
      102533631,
      1159285043,
      1947304291,
      1159284563
    ],
    "wof:lastmodified": 1791648397,
    "wof:name": "QF4756 (ORD-SFO)",
    "wof:parent_id": 1947304291,
    "wof:placetype": "custom",
    "wof:placetype_alt": [
      "flight"
    ],
    "wof:repo": "sfomuseum-data-flights-2026-10",
    "wof:superseded_by": [],
    "wof:supersedes": []
  },
  "bbox": [
    -122.370943,
    37.61799,
    -87.894364,
    41.983038
  ],
  "geometry": {"type":"MultiPoint","coordinates":[[-87.894364,41.983038],[-122.370943,37.61799]]}
}
