{
  "id": 2048516167,
  "type": "Feature",
  "properties": {
    "date:cessation_lower": "1970-01-01",
    "date:cessation_upper": "1970-01-01",
    "date:inception_lower": "2026-10-04",
    "date:inception_upper": "2026-10-04",
    "edtf:cessation": "1970-01-01T00:00:00Z",
    "edtf:inception": "2026-10-04T08:16:00-07:00",
    "flysfo:actual_timestamp": -1,
    "flysfo:airline": "UA",
    "flysfo:date": "2026-10-04",
    "flysfo:estimated_timestamp": 1791150300,
    "flysfo:event": "D",
    "flysfo:flight_number": "UA8152",
    "flysfo:gate": "",
    "flysfo:journey": "SFO-LAS",
    "flysfo:scheduled_timestamp": 1791150300,
    "flysfo:timestamp": 1791150300,
    "geom:area": 0,
    "geom:bbox": "-122.370943,36.081003,-115.156440,37.617990",
    "geom:latitude": 36.8494965,
    "geom:longitude": -118.7636915,
    "iata:airline": "UA",
    "icao:aircraft": "B38M",
    "icao:airline": "UAL",
    "lbl:latitude": 37.61799,
    "lbl:longitude": -122.370943,
    "sfomuseum:aircraft_id": 1528104575,
    "sfomuseum:airline_id": 1159285413,
    "sfomuseum:arrival_id": 102527209,
    "sfomuseum:departure_id": 102527513,
    "sfomuseum:flight_id": "20261004-D-UAL-8152",
    "sfomuseum:flight_number": [
      "UAL8152",
      "UA8152"
    ],
    "sfomuseum:placetype": "flight",
    "src:geom": "flysfo",
    "src:geom_alt": [
      "swim-takeoff"
    ],
    "swim:tail_number": "N17359",
    "wof:belongsto": [],
    "wof:country": "US",
    "wof:created": 1791217062,
    "wof:geomhash": "ccf694144ef1f7a2823fe9bc7c6018ea",
    "wof:hierarchy": [
      {
        "custom_id": 2048516167,
        "flight_id": 2048516167
      }
    ],
    "wof:id": 2048516167,
    "wof:involves": [
      1159285413,
      1528104575,
      102527209,
      102527513
    ],
    "wof:lastmodified": 1791217186,
    "wof:name": "UA8152 (SFO-LAS)",
    "wof:parent_id": -1,
    "wof:placetype": "custom",
    "wof:placetype_alt": [
      "flight"
    ],
    "wof:repo": "sfomuseum-data-flights-2026-10",
    "wof:superseded_by": [],
    "wof:supersedes": []
  },
  "bbox": [
    -122.370943,
    36.081003,
    -115.15644,
    37.61799
  ],
  "geometry": {"type":"MultiPoint","coordinates":[[-122.370943,37.61799],[-115.15644,36.081003]]}
}
