{
  "id": 2048549559,
  "type": "Feature",
  "properties": {
    "geom:area": 0,
    "geom:bbox": "-123.485690,37.635710,-122.409850,37.731310",
    "geom:latitude": 37.69911025015218,
    "geom:longitude": -122.94455791124848,
    "src:alt_label": "swim-takeoff",
    "src:geom": "swim",
    "swim:elevations": [
      355,
      670,
      912,
      956,
      1098,
      1150,
      1432,
      1663,
      1837,
      2217,
      2569,
      2862,
      3167,
      3329,
      3511,
      3652,
      4056,
      4394,
      4684,
      4996,
      5230
    ],
    "swim:geom": "takeoff",
    "swim:timestamps": [
      1791506425,
      1791506445,
      1791506483,
      1791506518,
      1791506537,
      1791506543,
      1791506573,
      1791506594,
      1791506612,
      1791506649,
      1791506685,
      1791506710,
      1791506744,
      1791506780,
      1791506816,
      1791506831,
      1791506869,
      1791506903,
      1791506932,
      1791506965,
      1791506990
    ],
    "wof:geomhash": "e8b240502a493bde5b4f2599e6365420",
    "wof:id": 2048549559,
    "wof:repo": "sfomuseum-data-flights-2026-10"
  },
  "bbox": [
    -123.48569,
    37.63571,
    -122.40985,
    37.73131
  ],
  "geometry": {"type":"LineString","coordinates":[[-122.40985,37.63571],[-122.43018,37.64383],[-122.47409,37.6623],[-122.52235,37.6761],[-122.55181,37.67793],[-122.5615,37.67863],[-122.61125,37.68159],[-122.647,37.6836],[-122.67806,37.68532],[-122.74341,37.68921],[-122.80983,37.69325],[-122.8564,37.69605],[-122.9197,37.6997],[-122.99264,37.70379],[-123.07196,37.7085],[-123.10647,37.71047],[-123.19485,37.71552],[-123.27559,37.71989],[-123.34455,37.72376],[-123.42416,37.72801],[-123.48569,37.73131]]}
}
