{
  "id": 2048506165,
  "type": "Feature",
  "properties": {
    "geom:area": 0,
    "geom:bbox": "-122.558880,36.744520,-122.363950,37.704200",
    "geom:latitude": 37.28134191726128,
    "geom:longitude": -122.49645800439492,
    "src:alt_label": "swim-takeoff",
    "src:geom": "swim",
    "swim:elevations": [
      91,
      362,
      517,
      754,
      998,
      1547,
      1943,
      2449,
      2551,
      3197,
      3368,
      3716,
      4101,
      4662,
      4784,
      5321,
      5442,
      5757,
      6124,
      6515,
      6801,
      7218,
      7698,
      7791,
      7970,
      8108,
      8303,
      8461
    ],
    "swim:geom": "takeoff",
    "swim:timestamps": [
      1791035249,
      1791035275,
      1791035299,
      1791035325,
      1791035344,
      1791035387,
      1791035411,
      1791035444,
      1791035464,
      1791035505,
      1791035536,
      1791035570,
      1791035594,
      1791035635,
      1791035644,
      1791035686,
      1791035695,
      1791035718,
      1791035746,
      1791035777,
      1791035799,
      1791035831,
      1791035871,
      1791035883,
      1791035908,
      1791035924,
      1791035952,
      1791035975
    ],
    "wof:geomhash": "fd0f2f0401a24f7ddda2a57129a5bf6d",
    "wof:id": 2048506165,
    "wof:repo": "sfomuseum-data-flights-2026-10"
  },
  "bbox": [
    -122.55888,
    36.74452,
    -122.36395,
    37.7042
  ],
  "geometry": {"type":"LineString","coordinates":[[-122.36956,37.62822],[-122.36395,37.64678],[-122.3641,37.6668],[-122.36619,37.69219],[-122.38248,37.7042],[-122.44065,37.70245],[-122.47244,37.70013],[-122.5077,37.68235],[-122.51242,37.65959],[-122.51545,37.60621],[-122.51944,37.55883],[-122.52447,37.50077],[-122.52791,37.45877],[-122.53403,37.38605],[-122.53518,37.36913],[-122.5414,37.29019],[-122.54269,37.27337],[-122.5462,37.22885],[-122.55057,37.17505],[-122.55553,37.11433],[-122.55888,37.07133],[-122.55512,37.00701],[-122.51097,36.93485],[-122.49565,36.91317],[-122.46372,36.86873],[-122.44239,36.83965],[-122.40532,36.78928],[-122.37267,36.74452]]}
}
