{
  "id": 2048506989,
  "type": "Feature",
  "properties": {
    "geom:area": 0,
    "geom:bbox": "-123.306110,37.629080,-122.399890,38.479440",
    "geom:latitude": 38.013589678259834,
    "geom:longitude": -122.88568135671171,
    "src:alt_label": "swim-takeoff",
    "src:geom": "swim",
    "swim:elevations": [
      183,
      501,
      658,
      1097,
      1195,
      1310,
      1525,
      2122,
      2485,
      2611,
      3006,
      3289,
      3449,
      3625,
      3852,
      4062,
      4457,
      4980,
      5068,
      5543,
      5854,
      6117,
      6370,
      6534,
      6736,
      6828
    ],
    "swim:geom": "takeoff",
    "swim:timestamps": [
      1791031316,
      1791031344,
      1791031361,
      1791031407,
      1791031436,
      1791031453,
      1791031476,
      1791031524,
      1791031555,
      1791031565,
      1791031600,
      1791031631,
      1791031659,
      1791031695,
      1791031725,
      1791031746,
      1791031779,
      1791031828,
      1791031838,
      1791031884,
      1791031915,
      1791031943,
      1791031970,
      1791031983,
      1791032007,
      1791032019
    ],
    "wof:geomhash": "945a70e4f26c97c440c84d344d71e7dc",
    "wof:id": 2048506989,
    "wof:repo": "sfomuseum-data-flights-2026-10"
  },
  "bbox": [
    -123.30611,
    37.62908,
    -122.39989,
    38.47944
  ],
  "geometry": {"type":"LineString","coordinates":[[-122.39989,37.62908],[-122.42802,37.64129],[-122.44611,37.64967],[-122.4946,37.67094],[-122.52821,37.68923],[-122.54964,37.70191],[-122.57974,37.71981],[-122.64474,37.75773],[-122.68762,37.78279],[-122.70157,37.79093],[-122.74944,37.82003],[-122.78482,37.85631],[-122.8153,37.89334],[-122.85734,37.9441],[-122.89612,37.9912],[-122.92349,38.02415],[-122.96748,38.0767],[-123.03307,38.15557],[-123.04706,38.17235],[-123.11088,38.2485],[-123.15454,38.30056],[-123.19431,38.34762],[-123.23389,38.39431],[-123.25296,38.41664],[-123.28836,38.45844],[-123.30611,38.47944]]}
}
