{
  "id": 2048537767,
  "type": "Feature",
  "properties": {
    "geom:area": 0,
    "geom:bbox": "-122.356860,36.733180,-121.885780,37.610990",
    "geom:latitude": 37.21673594712498,
    "geom:longitude": -122.07180258519244,
    "src:alt_label": "swim-approach",
    "src:geom": "swim",
    "swim:elevations": [
      5280,
      5155,
      4758,
      4431,
      4270,
      3892,
      3497,
      3334,
      3195,
      3092,
      2895,
      2799,
      2519,
      2454,
      2179,
      1965,
      1766,
      1732,
      1579,
      1398,
      1278,
      1192,
      972,
      833,
      689,
      512,
      368,
      274,
      181,
      63,
      29
    ],
    "swim:geom": "approach",
    "swim:timestamps": [
      1791398305,
      1791398318,
      1791398357,
      1791398389,
      1791398406,
      1791398443,
      1791398485,
      1791398507,
      1791398534,
      1791398570,
      1791398606,
      1791398624,
      1791398663,
      1791398677,
      1791398718,
      1791398750,
      1791398778,
      1791398781,
      1791398805,
      1791398838,
      1791398857,
      1791398897,
      1791398934,
      1791398960,
      1791398991,
      1791399021,
      1791399053,
      1791399085,
      1791399108,
      1791399141,
      1791399155
    ],
    "wof:geomhash": "53ebe26a11100a755569db05549c35a2",
    "wof:id": 2048537767,
    "wof:repo": "sfomuseum-data-flights-2026-10"
  },
  "bbox": [
    -122.35686,
    36.73318,
    -121.88578,
    37.61099
  ],
  "geometry": {"type":"LineString","coordinates":[[-121.88578,36.73318],[-121.89648,36.75453],[-121.91562,36.81842],[-121.93063,36.87225],[-121.93786,36.89855],[-121.95567,36.9588],[-121.98114,37.0241],[-121.99368,37.05616],[-122.00862,37.09442],[-122.02702,37.14157],[-122.04414,37.18561],[-122.05297,37.20811],[-122.07188,37.25589],[-122.07828,37.27145],[-122.09653,37.31859],[-122.11053,37.354],[-122.12197,37.38357],[-122.12313,37.38678],[-122.13161,37.41137],[-122.14254,37.44455],[-122.14837,37.46205],[-122.16146,37.49921],[-122.17331,37.53024],[-122.19645,37.54346],[-122.22484,37.55564],[-122.25212,37.56701],[-122.27816,37.57803],[-122.30241,37.58817],[-122.32108,37.596],[-122.34635,37.60661],[-122.35686,37.61099]]}
}
