{
  "id": 2048512933,
  "type": "Feature",
  "properties": {
    "date:inception_lower": "2026-10-04",
    "date:inception_upper": "2026-10-04",
    "edtf:cessation": "",
    "edtf:inception": "2026-10-04",
    "flysfo:actual_timestamp": -1,
    "flysfo:airline": "NH",
    "flysfo:base_airline": "",
    "flysfo:base_flight_number": "7071",
    "flysfo:date": "2026-10-04",
    "flysfo:estimated_timestamp": 1791137160,
    "flysfo:event": "D",
    "flysfo:flight_number": "NH7071",
    "flysfo:gate": "G3",
    "flysfo:journey": "SFO-KIX",
    "flysfo:scheduled_timestamp": 1791136200,
    "flysfo:timestamp": 1791137160,
    "geom:area": 0,
    "geom:bbox": "-122.370943,34.432475,135.242008,37.617990",
    "geom:latitude": 36.0252325,
    "geom:longitude": 6.435532500000001,
    "iata:airline": "NH",
    "iata:base_airline": "",
    "icao:airline": "ANA",
    "icao:base_airline": "ANA",
    "lbl:latitude": 37.617458,
    "lbl:longitude": -122.391079,
    "sfomuseum:airline_id": 1159283875,
    "sfomuseum:arrival_id": 102541661,
    "sfomuseum:base_flight_id": "20261004-D-ANA-7071",
    "sfomuseum:departure_id": 102527513,
    "sfomuseum:flight_id": "20261004-D-ANA-7071",
    "sfomuseum:flight_number": [
      "ANA7071",
      "NH7071"
    ],
    "sfomuseum:placetype": "flight",
    "src:geom": "flysfo",
    "wof:belongsto": [
      1947304067,
      102527513,
      1947304129,
      102191575,
      85633793,
      102087579,
      85922583,
      554784711,
      85688637,
      1947304131,
      1947304069,
      102085387
    ],
    "wof:country": "US",
    "wof:created": 1791216694,
    "wof:geomhash": "1f86cc41c51819fe374d86de27276a46",
    "wof:hierarchy": [
      {
        "building_id": 1947304067,
        "campus_id": 102527513,
        "concourse_id": 1947304129,
        "continent_id": 102191575,
        "country_id": 85633793,
        "county_id": 102087579,
        "custom_id": 2048512933,
        "flight_id": 2048512933,
        "locality_id": 85922583,
        "postalcode_id": 554784711,
        "region_id": 85688637,
        "venue_id": 1947304131,
        "wing_id": 1947304069
      },
      {
        "building_id": 1947304067,
        "campus_id": 102527513,
        "concourse_id": 1947304129,
        "continent_id": 102191575,
        "country_id": 85633793,
        "county_id": 102085387,
        "custom_id": 2048512933,
        "flight_id": 2048512933,
        "region_id": 85688637,
        "venue_id": 1947304131,
        "wing_id": 1947304069
      }
    ],
    "wof:id": 2048512933,
    "wof:involves": [
      102541661,
      102527513,
      1159283875,
      1947304131,
      1159283875
    ],
    "wof:lastmodified": 1791216694,
    "wof:name": "NH7071 (SFO-KIX)",
    "wof:parent_id": 1947304131,
    "wof:placetype": "custom",
    "wof:placetype_alt": [
      "flight"
    ],
    "wof:repo": "sfomuseum-data-flights-2026-10",
    "wof:superseded_by": [],
    "wof:supersedes": []
  },
  "bbox": [
    -122.370943,
    34.432475,
    135.242008,
    37.61799
  ],
  "geometry": {"type":"MultiPoint","coordinates":[[-122.370943,37.61799],[135.242008,34.432475]]}
}
