{
  "id": 2048550297,
  "type": "Feature",
  "properties": {
    "geom:area": 0,
    "geom:bbox": "-122.581570,37.625250,-121.422670,38.519510",
    "geom:latitude": 38.09274229471531,
    "geom:longitude": -122.10123445478148,
    "src:alt_label": "swim-takeoff",
    "src:geom": "swim",
    "swim:elevations": [
      122,
      222,
      616,
      809,
      1061,
      1100,
      1289,
      1327,
      1622,
      1817,
      2071,
      2398,
      2516,
      2875,
      2967,
      3160,
      3319,
      3376,
      3839,
      4123,
      4375,
      4795,
      5029,
      5154,
      5410,
      5713,
      5932,
      6218,
      6373,
      6461,
      6554,
      6665,
      6919,
      7127,
      7169
    ],
    "swim:geom": "takeoff",
    "swim:timestamps": [
      1791479539,
      1791479552,
      1791479603,
      1791479622,
      1791479668,
      1791479680,
      1791479727,
      1791479733,
      1791479765,
      1791479784,
      1791479811,
      1791479844,
      1791479852,
      1791479887,
      1791479896,
      1791479931,
      1791479964,
      1791479973,
      1791480014,
      1791480043,
      1791480067,
      1791480114,
      1791480143,
      1791480160,
      1791480192,
      1791480226,
      1791480257,
      1791480296,
      1791480322,
      1791480349,
      1791480379,
      1791480404,
      1791480444,
      1791480475,
      1791480483
    ],
    "wof:geomhash": "e66870e2be338af8efd7cf4fed947a95",
    "wof:id": 2048550297,
    "wof:repo": "sfomuseum-data-flights-2026-10"
  },
  "bbox": [
    -122.58157,
    37.62525,
    -121.42267,
    38.51951
  ],
  "geometry": {"type":"LineString","coordinates":[[-122.39061,37.62525],[-122.40174,37.62995],[-122.44748,37.65015],[-122.46571,37.65785],[-122.50934,37.67641],[-122.52217,37.6818],[-122.56923,37.71722],[-122.57113,37.72509],[-122.57771,37.76529],[-122.58157,37.78923],[-122.57363,37.82327],[-122.53744,37.85645],[-122.52727,37.86515],[-122.48763,37.90033],[-122.47691,37.9098],[-122.43002,37.94062],[-122.37668,37.9715],[-122.36261,37.97961],[-122.29625,38.01803],[-122.24714,38.04622],[-122.20663,38.06977],[-122.12793,38.11524],[-122.07851,38.14352],[-122.04955,38.16],[-121.99202,38.19311],[-121.93182,38.22753],[-121.87467,38.26018],[-121.80153,38.30181],[-121.75314,38.32944],[-121.69982,38.35973],[-121.63957,38.39385],[-121.58885,38.42257],[-121.50587,38.47032],[-121.44053,38.50898],[-121.42267,38.51951]]}
}
