{
  "id": 2048550297,
  "type": "Feature",
  "properties": {
    "date:inception_lower": "2026-10-08",
    "date:inception_upper": "2026-10-08",
    "edtf:cessation": "",
    "edtf:inception": "2026-10-08",
    "flysfo:actual_timestamp": -1,
    "flysfo:airline": "LO",
    "flysfo:date": "2026-10-08",
    "flysfo:estimated_timestamp": 1791502500,
    "flysfo:event": "D",
    "flysfo:flight_number": "LO36",
    "flysfo:gate": "A9",
    "flysfo:journey": "SFO-WAW",
    "flysfo:scheduled_timestamp": 1791501000,
    "flysfo:timestamp": 1791502500,
    "geom:area": 0,
    "geom:bbox": "-122.370943,37.617990,20.974379,52.171214",
    "geom:latitude": 44.894602,
    "geom:longitude": -50.698282,
    "iata:airline": "LO",
    "icao:airline": "LOT",
    "lbl:latitude": 37.612893,
    "lbl:longitude": -122.389652,
    "sfomuseum:airline_id": 1159284705,
    "sfomuseum:arrival_id": 102542051,
    "sfomuseum:departure_id": 102527513,
    "sfomuseum:flight_id": "20261008-D-LOT-36",
    "sfomuseum:flight_number": [
      "LOT36",
      "LO36"
    ],
    "sfomuseum:placetype": "flight",
    "src:geom": "flysfo",
    "wof:belongsto": [
      1947304067,
      102527513,
      1947304073,
      102191575,
      85633793,
      102087579,
      85922583,
      554784711,
      85688637,
      1947304077,
      1947304069,
      102085387
    ],
    "wof:country": "US",
    "wof:created": 1791562551,
    "wof:geomhash": "d4a923af30a85ee5be1e32ce465ff335",
    "wof:hierarchy": [
      {
        "building_id": 1947304067,
        "campus_id": 102527513,
        "concourse_id": 1947304073,
        "continent_id": 102191575,
        "country_id": 85633793,
        "county_id": 102087579,
        "custom_id": 2048550297,
        "flight_id": 2048550297,
        "locality_id": 85922583,
        "postalcode_id": 554784711,
        "region_id": 85688637,
        "venue_id": 1947304077,
        "wing_id": 1947304069
      },
      {
        "building_id": 1947304067,
        "campus_id": 102527513,
        "concourse_id": 1947304073,
        "continent_id": 102191575,
        "country_id": 85633793,
        "county_id": 102085387,
        "custom_id": 2048550297,
        "flight_id": 2048550297,
        "region_id": 85688637,
        "venue_id": 1947304077,
        "wing_id": 1947304069
      }
    ],
    "wof:id": 2048550297,
    "wof:involves": [
      102542051,
      102527513,
      1159284705,
      1947304077
    ],
    "wof:lastmodified": 1791562551,
    "wof:name": "LO36 (SFO-WAW)",
    "wof:parent_id": 1947304077,
    "wof:placetype": "custom",
    "wof:placetype_alt": [
      "flight"
    ],
    "wof:repo": "sfomuseum-data-flights-2026-10",
    "wof:superseded_by": [],
    "wof:supersedes": []
  },
  "bbox": [
    -122.370943,
    37.61799,
    20.974379,
    52.171214
  ],
  "geometry": {"type":"MultiPoint","coordinates":[[-122.370943,37.61799],[20.974379,52.171214]]}
}
