{
  "id": 2048525063,
  "type": "Feature",
  "properties": {
    "geom:area": 0,
    "geom:bbox": "-122.364140,37.631640,-122.105300,38.509190",
    "geom:latitude": 38.03639986417745,
    "geom:longitude": -122.17658830038982,
    "src:alt_label": "swim-takeoff",
    "src:geom": "swim",
    "swim:elevations": [
      213,
      795,
      1072,
      1146,
      1599,
      1915,
      2572,
      2738,
      3208,
      3681,
      3900,
      4508,
      4705,
      5472,
      5847,
      6321,
      6627,
      6793,
      7010,
      7010,
      7051,
      7467
    ],
    "swim:geom": "takeoff",
    "swim:timestamps": [
      1791195190,
      1791195238,
      1791195265,
      1791195276,
      1791195319,
      1791195347,
      1791195387,
      1791195398,
      1791195428,
      1791195476,
      1791195488,
      1791195533,
      1791195547,
      1791195595,
      1791195620,
      1791195655,
      1791195681,
      1791195696,
      1791195723,
      1791195759,
      1791195782,
      1791195825
    ],
    "wof:geomhash": "e30a24958a1900de5d1824a3b0117df3",
    "wof:id": 2048525063,
    "wof:repo": "sfomuseum-data-flights-2026-10"
  },
  "bbox": [
    -122.36414,
    37.63164,
    -122.1053,
    38.50919
  ],
  "geometry": {"type":"LineString","coordinates":[[-122.36414,37.63164],[-122.32872,37.65413],[-122.30644,37.66754],[-122.29651,37.67337],[-122.25036,37.69979],[-122.21802,37.72039],[-122.2064,37.77103],[-122.20388,37.78557],[-122.1968,37.82549],[-122.18521,37.89649],[-122.18201,37.91656],[-122.16983,37.99058],[-122.16591,38.01415],[-122.15223,38.09753],[-122.14523,38.13969],[-122.13495,38.2016],[-122.12754,38.24697],[-122.12298,38.27445],[-122.11503,38.32315],[-122.11101,38.38807],[-122.10908,38.43041],[-122.1053,38.50919]]}
}
