{
  "id": 2048493849,
  "type": "Feature",
  "properties": {
    "geom:area": 0,
    "geom:bbox": "-122.801110,37.553020,-122.104390,38.510830",
    "geom:latitude": 37.951697251152474,
    "geom:longitude": -122.53419209450657,
    "src:alt_label": "swim-approach",
    "src:geom": "swim",
    "swim:elevations": [
      92,
      64,
      1,
      8181,
      8058,
      7457,
      7122,
      6866,
      6703,
      6334,
      5896,
      5529,
      5263,
      4850,
      4675,
      4303,
      3953,
      3751,
      3527,
      3421,
      3353,
      3353,
      3303,
      3220,
      3028,
      2777,
      2608,
      2301,
      2181,
      1830,
      1557,
      1391,
      1241,
      1080,
      851,
      787,
      578,
      429,
      398,
      389,
      196,
      84,
      144
    ],
    "swim:geom": "approach",
    "swim:timestamps": [
      1790924426,
      1790924434,
      1790924447,
      1791009475,
      1791009485,
      1791009538,
      1791009567,
      1791009591,
      1791009606,
      1791009641,
      1791009680,
      1791009712,
      1791009737,
      1791009776,
      1791009793,
      1791009828,
      1791009863,
      1791009884,
      1791009913,
      1791009938,
      1791009973,
      1791010003,
      1791010024,
      1791010043,
      1791010066,
      1791010099,
      1791010122,
      1791010157,
      1791010174,
      1791010220,
      1791010251,
      1791010278,
      1791010296,
      1791010320,
      1791010353,
      1791010368,
      1791010406,
      1791010436,
      1791010442,
      1791010447,
      1791010497,
      1791010525,
      1791010548
    ],
    "wof:geomhash": "4175188bb3b82e2ea671904d2f4dd44d",
    "wof:id": 2048493849,
    "wof:repo": "sfomuseum-data-flights-2026-10"
  },
  "bbox": [
    -122.80111,
    37.55302,
    -122.10439,
    38.51083
  ],
  "geometry": {"type":"LineString","coordinates":[[-122.34075,37.60672],[-122.34697,37.60927],[-122.35655,37.61327],[-122.80111,38.51083],[-122.79889,38.49164],[-122.78622,38.38877],[-122.77975,38.33377],[-122.77451,38.28916],[-122.7713,38.26168],[-122.75982,38.20029],[-122.74018,38.13279],[-122.72434,38.07836],[-122.71218,38.03645],[-122.69351,37.9717],[-122.68573,37.94492],[-122.66193,37.89057],[-122.61757,37.84798],[-122.59099,37.82283],[-122.55357,37.78744],[-122.52451,37.75981],[-122.48401,37.72338],[-122.43741,37.70523],[-122.40635,37.69514],[-122.38003,37.68671],[-122.34845,37.67694],[-122.30339,37.66365],[-122.27332,37.6546],[-122.22714,37.64024],[-122.20496,37.63314],[-122.14813,37.61477],[-122.11155,37.59856],[-122.10439,37.5723],[-122.1186,37.55709],[-122.14959,37.55302],[-122.1911,37.56088],[-122.20736,37.56615],[-122.24703,37.57883],[-122.27553,37.58741],[-122.28064,37.58883],[-122.28416,37.58979],[-122.32361,37.60148],[-122.34362,37.60785],[-122.36032,37.61448]]}
}
