{
  "id": 2048529639,
  "type": "Feature",
  "properties": {
    "geom:area": 0,
    "geom:bbox": "-122.760130,37.289180,-122.133960,38.506680",
    "geom:latitude": 37.73136451767356,
    "geom:longitude": -122.46029321693807,
    "src:alt_label": "swim-approach",
    "src:geom": "swim",
    "swim:elevations": [
      7406,
      7101,
      6825,
      6556,
      6249,
      6074,
      5754,
      5645,
      5407,
      5061,
      4810,
      4432,
      4150,
      3841,
      3812,
      3420,
      3405,
      3353,
      3293,
      3354,
      3353,
      3135,
      3047,
      3048,
      3048,
      3048,
      2879,
      2632,
      2474,
      2163,
      2134,
      2102,
      2078,
      1839,
      1829,
      1829,
      1829,
      1803,
      1600,
      1465,
      1369,
      1204,
      1099,
      821,
      791,
      792,
      792,
      709,
      479,
      394,
      243,
      229,
      91,
      48
    ],
    "swim:geom": "approach",
    "swim:timestamps": [
      1791298460,
      1791298494,
      1791298523,
      1791298552,
      1791298586,
      1791298604,
      1791298641,
      1791298653,
      1791298681,
      1791298719,
      1791298751,
      1791298793,
      1791298823,
      1791298858,
      1791298861,
      1791298918,
      1791298928,
      1791298978,
      1791299002,
      1791299013,
      1791299056,
      1791299097,
      1791299117,
      1791299154,
      1791299162,
      1791299206,
      1791299256,
      1791299288,
      1791299312,
      1791299368,
      1791299395,
      1791299428,
      1791299433,
      1791299481,
      1791299508,
      1791299524,
      1791299557,
      1791299591,
      1791299628,
      1791299665,
      1791299689,
      1791299721,
      1791299737,
      1791299788,
      1791299814,
      1791299838,
      1791299863,
      1791299887,
      1791299934,
      1791299954,
      1791299997,
      1791300002,
      1791300041,
      1791300064
    ],
    "wof:geomhash": "87c41d137bb6a718682eb7008b4f132e",
    "wof:id": 2048529639,
    "wof:repo": "sfomuseum-data-flights-2026-10"
  },
  "bbox": [
    -122.76013,
    37.28918,
    -122.13396,
    38.50668
  ],
  "geometry": {"type":"LineString","coordinates":[[-122.68836,38.50668],[-122.70576,38.44531],[-122.72018,38.39405],[-122.73509,38.34072],[-122.75152,38.28207],[-122.76013,38.24958],[-122.7558,38.18385],[-122.74969,38.163],[-122.73599,38.11566],[-122.71689,38.05085],[-122.70144,37.99755],[-122.68156,37.92887],[-122.65578,37.8842],[-122.60959,37.83937],[-122.60562,37.83559],[-122.53099,37.76536],[-122.51922,37.75427],[-122.46068,37.69899],[-122.4347,37.67473],[-122.42298,37.66353],[-122.38162,37.62463],[-122.3521,37.58489],[-122.34153,37.56377],[-122.3203,37.52675],[-122.31506,37.51819],[-122.28734,37.47464],[-122.29517,37.42567],[-122.33937,37.41744],[-122.37467,37.41364],[-122.41013,37.36185],[-122.4184,37.33247],[-122.40315,37.30033],[-122.39748,37.29678],[-122.3355,37.28918],[-122.30293,37.30225],[-122.28245,37.3106],[-122.24254,37.32708],[-122.2016,37.34573],[-122.16545,37.3741],[-122.15321,37.41127],[-122.14647,37.43337],[-122.13792,37.46186],[-122.13396,37.47508],[-122.14265,37.51691],[-122.16402,37.52992],[-122.1844,37.53847],[-122.20558,37.54746],[-122.22581,37.5556],[-122.26491,37.57229],[-122.28006,37.57859],[-122.31147,37.59202],[-122.31494,37.59347],[-122.34262,37.60512],[-122.35915,37.6118]]}
}
