{
  "id": 2048551649,
  "type": "Feature",
  "properties": {
    "geom:area": 0,
    "geom:bbox": "-123.506730,37.138330,-122.410890,37.670470",
    "geom:latitude": 37.42089098665271,
    "geom:longitude": -122.95871747691571,
    "src:alt_label": "swim-takeoff",
    "src:geom": "swim",
    "swim:elevations": [
      427,
      616,
      775,
      1038,
      1120,
      1305,
      1352,
      1567,
      1696,
      2048,
      2493,
      2848,
      3108,
      3254,
      3335,
      3428,
      3569,
      3864,
      4116,
      4234,
      4383,
      4737,
      4938,
      5150,
      5447,
      5551
    ],
    "swim:geom": "takeoff",
    "swim:timestamps": [
      1791503213,
      1791503233,
      1791503257,
      1791503307,
      1791503327,
      1791503366,
      1791503377,
      1791503398,
      1791503410,
      1791503445,
      1791503489,
      1791503518,
      1791503548,
      1791503564,
      1791503585,
      1791503613,
      1791503652,
      1791503691,
      1791503721,
      1791503746,
      1791503763,
      1791503807,
      1791503835,
      1791503866,
      1791503907,
      1791503916
    ],
    "wof:geomhash": "607c392d84b3c3480c3291fbff0292e8",
    "wof:id": 2048551649,
    "wof:repo": "sfomuseum-data-flights-2026-10"
  },
  "bbox": [
    -123.50673,
    37.13833,
    -122.41089,
    37.67047
  ],
  "geometry": {"type":"LineString","coordinates":[[-122.41089,37.63349],[-122.42946,37.6411],[-122.45188,37.65122],[-122.50374,37.67047],[-122.52704,37.66171],[-122.57112,37.63166],[-122.58444,37.62276],[-122.61121,37.60606],[-122.62598,37.59686],[-122.67165,37.56692],[-122.72832,37.5302],[-122.76762,37.5049],[-122.80899,37.48022],[-122.83318,37.46947],[-122.86624,37.45516],[-122.91354,37.43481],[-122.98497,37.4033],[-123.06147,37.36952],[-123.12113,37.34368],[-123.17111,37.32149],[-123.20711,37.30513],[-123.29687,37.26344],[-123.35174,37.23236],[-123.41143,37.19637],[-123.48936,37.1489],[-123.50673,37.13833]]}
}
