{
  "id": 2048489213,
  "type": "Feature",
  "properties": {
    "geom:area": 0,
    "geom:bbox": "-122.435270,37.194380,-121.249670,37.710030",
    "geom:latitude": 37.387251791327245,
    "geom:longitude": -121.97189706307522,
    "src:alt_label": "swim-takeoff",
    "src:geom": "swim",
    "swim:elevations": [
      152,
      692,
      924,
      1153,
      1287,
      1374,
      1927,
      2099,
      2338,
      2702,
      2985,
      3203,
      3579,
      3802,
      3851,
      4154,
      4561,
      4818,
      5075,
      5255,
      5553,
      5919,
      6132,
      6350,
      6531,
      6606,
      6749,
      6987,
      7056,
      7325,
      7617
    ],
    "swim:geom": "takeoff",
    "swim:timestamps": [
      1790881715,
      1790881765,
      1790881789,
      1790881826,
      1790881846,
      1790881862,
      1790881908,
      1790881922,
      1790881939,
      1790881969,
      1790881994,
      1790882012,
      1790882061,
      1790882096,
      1790882108,
      1790882138,
      1790882182,
      1790882212,
      1790882243,
      1790882264,
      1790882296,
      1790882338,
      1790882368,
      1790882398,
      1790882423,
      1790882433,
      1790882453,
      1790882481,
      1790882492,
      1790882525,
      1790882568
    ],
    "wof:geomhash": "a6758ed4c697bdb59691b90075a47486",
    "wof:id": 2048489213,
    "wof:repo": "sfomuseum-data-flights-2026-10"
  },
  "bbox": [
    -122.43527,
    37.19438,
    -121.24967,
    37.71003
  ],
  "geometry": {"type":"LineString","coordinates":[[-122.36781,37.63028],[-122.36294,37.67026],[-122.36523,37.69011],[-122.39622,37.71003],[-122.4214,37.70484],[-122.43527,37.6915],[-122.43305,37.63514],[-122.43024,37.61799],[-122.42643,37.5959],[-122.41994,37.5577],[-122.41419,37.52362],[-122.41021,37.49992],[-122.3879,37.43199],[-122.32731,37.40696],[-122.30324,37.4043],[-122.23916,37.397],[-122.14657,37.37942],[-122.08159,37.36589],[-122.01245,37.35164],[-121.96576,37.34218],[-121.89471,37.32778],[-121.79974,37.30826],[-121.73162,37.29434],[-121.66131,37.27988],[-121.60205,37.26771],[-121.57811,37.26276],[-121.52923,37.25259],[-121.46096,37.23851],[-121.43556,37.23328],[-121.35505,37.21647],[-121.24967,37.19438]]}
}
