{
  "id": 2048493899,
  "type": "Feature",
  "properties": {
    "geom:area": 0,
    "geom:bbox": "-122.342060,36.724510,-121.893450,37.604870",
    "geom:latitude": 37.23139380587322,
    "geom:longitude": -122.1067276629321,
    "src:alt_label": "swim-approach",
    "src:geom": "swim",
    "swim:elevations": [
      5264,
      5203,
      4867,
      4546,
      4213,
      4140,
      3950,
      3722,
      3597,
      3414,
      3257,
      2993,
      2816,
      2762,
      2544,
      2522,
      2373,
      2134,
      2135,
      2009,
      1831,
      1718,
      1639,
      1531,
      1524,
      1469,
      1249,
      1215,
      1098,
      724,
      638,
      615,
      442,
      306,
      199,
      91
    ],
    "swim:geom": "approach",
    "swim:timestamps": [
      1790939248,
      1790939255,
      1790939300,
      1790939346,
      1790939392,
      1790939403,
      1790939430,
      1790939467,
      1790939490,
      1790939521,
      1790939561,
      1790939604,
      1790939632,
      1790939640,
      1790939667,
      1790939670,
      1790939700,
      1790939753,
      1790939766,
      1790939801,
      1790939837,
      1790939871,
      1790939892,
      1790939912,
      1790939948,
      1790939972,
      1790940016,
      1790940030,
      1790940066,
      1790940110,
      1790940118,
      1790940121,
      1790940156,
      1790940190,
      1790940216,
      1790940242
    ],
    "wof:geomhash": "713f2baac1c454ccba455908263f7215",
    "wof:id": 2048493899,
    "wof:repo": "sfomuseum-data-flights-2026-10"
  },
  "bbox": [
    -122.34206,
    36.72451,
    -121.89345,
    37.60487
  ],
  "geometry": {"type":"LineString","coordinates":[[-121.89345,36.72451],[-121.89425,36.73518],[-121.91074,36.80088],[-121.92886,36.86617],[-121.94715,36.93089],[-121.95135,36.94559],[-121.96509,36.98251],[-121.98406,37.03155],[-121.99583,37.06158],[-122.01332,37.09998],[-122.04931,37.14185],[-122.08626,37.1845],[-122.10915,37.2115],[-122.11546,37.21915],[-122.13774,37.24663],[-122.1404,37.2499],[-122.16807,37.27699],[-122.2338,37.30514],[-122.25009,37.31211],[-122.28386,37.34013],[-122.26347,37.37619],[-122.21739,37.39018],[-122.18939,37.39815],[-122.16381,37.40545],[-122.13514,37.43679],[-122.12197,37.46218],[-122.12635,37.50802],[-122.13915,37.51801],[-122.17651,37.53532],[-122.22312,37.55487],[-122.23244,37.55876],[-122.2355,37.56005],[-122.27041,37.57472],[-122.30039,37.58735],[-122.32156,37.59636],[-122.34206,37.60487]]}
}
