{
  "id": 2048554849,
  "type": "Feature",
  "properties": {
    "geom:area": 0,
    "geom:bbox": "-122.360410,37.491110,-121.275600,37.615090",
    "geom:latitude": 37.54583775952403,
    "geom:longitude": -121.82287407622665,
    "src:alt_label": "swim-approach",
    "src:geom": "swim",
    "swim:elevations": [
      4386,
      4272,
      3881,
      3537,
      3388,
      3128,
      3046,
      2970,
      2499,
      2436,
      2343,
      2285,
      2197,
      2128,
      1975,
      1834,
      1826,
      1647,
      1459,
      1436,
      1328,
      1245,
      977,
      952,
      824,
      632,
      523,
      369,
      295,
      84,
      254
    ],
    "swim:geom": "approach",
    "swim:timestamps": [
      1791574644,
      1791574656,
      1791574697,
      1791574733,
      1791574751,
      1791574796,
      1791574823,
      1791574835,
      1791574876,
      1791574897,
      1791574948,
      1791574959,
      1791574976,
      1791574993,
      1791575028,
      1791575064,
      1791575094,
      1791575123,
      1791575158,
      1791575163,
      1791575180,
      1791575196,
      1791575245,
      1791575251,
      1791575290,
      1791575330,
      1791575351,
      1791575384,
      1791575402,
      1791575458,
      1791575476
    ],
    "wof:geomhash": "3fe52364c3f04c98775c2b770a80e8e2",
    "wof:id": 2048554849,
    "wof:repo": "sfomuseum-data-flights-2026-10"
  },
  "bbox": [
    -122.36041,
    37.49111,
    -121.2756,
    37.61509
  ],
  "geometry": {"type":"LineString","coordinates":[[-121.2756,37.5912],[-121.30024,37.58794],[-121.38306,37.5787],[-121.4553,37.57066],[-121.48918,37.56672],[-121.57723,37.55649],[-121.62583,37.55053],[-121.64523,37.54628],[-121.71555,37.52885],[-121.74913,37.52093],[-121.8226,37.50347],[-121.8365,37.50016],[-121.86033,37.49443],[-121.88324,37.49111],[-121.93076,37.49245],[-121.97198,37.49353],[-122.00454,37.50016],[-122.03417,37.50985],[-122.07006,37.52141],[-122.07407,37.52273],[-122.09153,37.52832],[-122.107,37.53344],[-122.15409,37.54866],[-122.15979,37.55048],[-122.19759,37.56285],[-122.23679,37.5753],[-122.25817,37.58231],[-122.28959,37.59147],[-122.30444,37.59595],[-122.3475,37.60958],[-122.36041,37.61509]]}
}
