{
  "id": 2048555685,
  "type": "Feature",
  "properties": {
    "geom:area": 0,
    "geom:bbox": "-122.350630,36.723620,-121.880100,37.608410",
    "geom:latitude": 37.21922080803353,
    "geom:longitude": -122.09084546589412,
    "src:alt_label": "swim-approach",
    "src:geom": "swim",
    "swim:elevations": [
      5282,
      5197,
      4889,
      4678,
      4521,
      4286,
      3943,
      3740,
      3639,
      3499,
      3405,
      3095,
      2914,
      2724,
      2639,
      2449,
      2246,
      2139,
      1982,
      1744,
      1555,
      1482,
      1401,
      1247,
      1220,
      1213,
      1132,
      1081,
      1023,
      973,
      794,
      597,
      428,
      432,
      200,
      186,
      59
    ],
    "swim:geom": "approach",
    "swim:timestamps": [
      1791537775,
      1791537785,
      1791537824,
      1791537851,
      1791537871,
      1791537904,
      1791537950,
      1791537977,
      1791537995,
      1791538039,
      1791538058,
      1791538105,
      1791538131,
      1791538162,
      1791538181,
      1791538215,
      1791538251,
      1791538268,
      1791538299,
      1791538333,
      1791538377,
      1791538397,
      1791538417,
      1791538446,
      1791538460,
      1791538474,
      1791538500,
      1791538519,
      1791538544,
      1791538560,
      1791538596,
      1791538640,
      1791538677,
      1791538681,
      1791538738,
      1791538742,
      1791538770
    ],
    "wof:geomhash": "c14c6f499e41739101773085b6fb3cf7",
    "wof:id": 2048555685,
    "wof:repo": "sfomuseum-data-flights-2026-10"
  },
  "bbox": [
    -122.35063,
    36.72362,
    -121.8801,
    37.60841
  ],
  "geometry": {"type":"LineString","coordinates":[[-121.8801,36.72362],[-121.88884,36.73763],[-121.90988,36.79806],[-121.92133,36.83903],[-121.92949,36.86859],[-121.94375,36.91819],[-121.96626,36.98515],[-121.98151,37.02472],[-121.9907,37.04881],[-122.01318,37.106],[-122.0251,37.12832],[-122.08224,37.16186],[-122.11488,37.17872],[-122.15306,37.19841],[-122.17481,37.21099],[-122.19887,37.24449],[-122.2159,37.28251],[-122.20731,37.29935],[-122.18353,37.32862],[-122.15792,37.36019],[-122.12732,37.39845],[-122.11385,37.41513],[-122.10346,37.43128],[-122.09172,37.4549],[-122.09297,37.4661],[-122.10169,37.47629],[-122.12033,37.49428],[-122.13362,37.50716],[-122.15117,37.52279],[-122.16565,37.53026],[-122.19965,37.54507],[-122.24034,37.56206],[-122.27376,37.57612],[-122.2774,37.57775],[-122.3238,37.59693],[-122.32678,37.5982],[-122.35063,37.60841]]}
}
