{
  "id": 2048520999,
  "type": "Feature",
  "properties": {
    "date:inception_lower": "2026-10-05",
    "date:inception_upper": "2026-10-05",
    "edtf:cessation": "",
    "edtf:inception": "2026-10-05",
    "flysfo:actual_timestamp": -1,
    "flysfo:airline": "UA",
    "flysfo:base_airline": "",
    "flysfo:base_flight_number": "4514",
    "flysfo:date": "2026-10-05",
    "flysfo:estimated_timestamp": 1791228240,
    "flysfo:event": "A",
    "flysfo:flight_number": "UA8175",
    "flysfo:gate": "D5",
    "flysfo:journey": "YYZ-SFO",
    "flysfo:scheduled_timestamp": 1791228840,
    "flysfo:timestamp": 1791228840,
    "geom:area": 0,
    "geom:bbox": "-122.370943,37.617990,-79.628342,43.676352",
    "geom:latitude": 40.647171,
    "geom:longitude": -100.9996425,
    "iata:airline": "UA",
    "iata:base_airline": "",
    "icao:airline": "UAL",
    "icao:base_airline": "ANZ",
    "lbl:latitude": 37.616825,
    "lbl:longitude": -122.381021,
    "sfomuseum:airline_id": 1159285413,
    "sfomuseum:arrival_id": 102527513,
    "sfomuseum:base_flight_id": "20261005-A-ANZ-4514",
    "sfomuseum:departure_id": 102555091,
    "sfomuseum:flight_id": "20261005-A-UAL-8175",
    "sfomuseum:flight_number": [
      "UAL8175",
      "UA8175"
    ],
    "sfomuseum:placetype": "flight",
    "src:geom": "flysfo",
    "wof:belongsto": [
      1947304067,
      102527513,
      1947304595,
      102191575,
      85633793,
      102087579,
      85922583,
      554784711,
      85688637,
      1947304607,
      1947304591,
      102085387
    ],
    "wof:country": "US",
    "wof:created": 1791302944,
    "wof:geomhash": "c362a07ec1dacdc6f288623946bd8d01",
    "wof:hierarchy": [
      {
        "building_id": 1947304067,
        "campus_id": 102527513,
        "concourse_id": 1947304595,
        "continent_id": 102191575,
        "country_id": 85633793,
        "county_id": 102087579,
        "custom_id": 2048520999,
        "flight_id": 2048520999,
        "locality_id": 85922583,
        "postalcode_id": 554784711,
        "region_id": 85688637,
        "venue_id": 1947304607,
        "wing_id": 1947304591
      },
      {
        "building_id": 1947304067,
        "campus_id": 102527513,
        "concourse_id": 1947304595,
        "continent_id": 102191575,
        "country_id": 85633793,
        "county_id": 102085387,
        "custom_id": 2048520999,
        "flight_id": 2048520999,
        "region_id": 85688637,
        "venue_id": 1947304607,
        "wing_id": 1947304591
      }
    ],
    "wof:id": 2048520999,
    "wof:involves": [
      102527513,
      102555091,
      1159285413,
      1947304607,
      1159283697
    ],
    "wof:lastmodified": 1791302944,
    "wof:name": "UA8175 (YYZ-SFO)",
    "wof:parent_id": 1947304607,
    "wof:placetype": "custom",
    "wof:placetype_alt": [
      "flight"
    ],
    "wof:repo": "sfomuseum-data-flights-2026-10",
    "wof:superseded_by": [],
    "wof:supersedes": []
  },
  "bbox": [
    -122.370943,
    37.61799,
    -79.628342,
    43.676352
  ],
  "geometry": {"type":"MultiPoint","coordinates":[[-79.628342,43.676352],[-122.370943,37.61799]]}
}
