{
  "id": 2048560917,
  "type": "Feature",
  "properties": {
    "date:inception_lower": "2026-10-09",
    "date:inception_upper": "2026-10-09",
    "edtf:cessation": "",
    "edtf:inception": "2026-10-09",
    "flysfo:actual_timestamp": -1,
    "flysfo:airline": "Y4",
    "flysfo:base_airline": "",
    "flysfo:base_flight_number": "2898",
    "flysfo:date": "2026-10-09",
    "flysfo:estimated_timestamp": 1791598380,
    "flysfo:event": "D",
    "flysfo:flight_number": "Y42898",
    "flysfo:gate": "",
    "flysfo:journey": "SFO-DEN",
    "flysfo:scheduled_timestamp": 1791598380,
    "flysfo:timestamp": 1791598380,
    "geom:area": 0,
    "geom:bbox": "-122.370943,37.617990,-104.672219,39.864939",
    "geom:latitude": 38.7414645,
    "geom:longitude": -113.521581,
    "iata:airline": "Y4",
    "iata:base_airline": "",
    "icao:airline": "VOI",
    "icao:base_airline": "VOI",
    "lbl:latitude": 37.61799,
    "lbl:longitude": -122.370943,
    "sfomuseum:airline_id": 1360700749,
    "sfomuseum:arrival_id": 102531189,
    "sfomuseum:base_flight_id": "20261009-D-VOI-2898",
    "sfomuseum:departure_id": 102527513,
    "sfomuseum:flight_id": "20261009-D-VOI-2898",
    "sfomuseum:flight_number": [
      "VOI2898",
      "Y42898"
    ],
    "sfomuseum:placetype": "flight",
    "src:geom": "flysfo",
    "wof:belongsto": [],
    "wof:country": "US",
    "wof:created": 1791649056,
    "wof:geomhash": "976937653dbac6c9c27dd23670ba89bf",
    "wof:hierarchy": [
      {
        "custom_id": 2048560917,
        "flight_id": 2048560917
      }
    ],
    "wof:id": 2048560917,
    "wof:involves": [
      102531189,
      102527513,
      1360700749,
      -1,
      1360700749
    ],
    "wof:lastmodified": 1791649056,
    "wof:name": "Y42898 (SFO-DEN)",
    "wof:parent_id": -1,
    "wof:placetype": "custom",
    "wof:placetype_alt": [
      "flight"
    ],
    "wof:repo": "sfomuseum-data-flights-2026-10",
    "wof:superseded_by": [],
    "wof:supersedes": []
  },
  "bbox": [
    -122.370943,
    37.61799,
    -104.672219,
    39.864939
  ],
  "geometry": {"type":"MultiPoint","coordinates":[[-122.370943,37.61799],[-104.672219,39.864939]]}
}
