{
  "id": 2048494015,
  "type": "Feature",
  "properties": {
    "geom:area": 0,
    "geom:bbox": "-122.361990,36.719200,-121.875380,37.613180",
    "geom:latitude": 37.14810334804135,
    "geom:longitude": -122.09633902878282,
    "src:alt_label": "swim-approach",
    "src:geom": "swim",
    "swim:elevations": [
      5801,
      5789,
      5665,
      5231,
      5112,
      4886,
      4699,
      4574,
      4572,
      4566,
      4430,
      4281,
      4078,
      3882,
      3634,
      3521,
      3309,
      2885,
      2732,
      2504,
      2362,
      2167,
      2014,
      1895,
      1828,
      1829,
      1829,
      1784,
      1595,
      1353,
      1262,
      1031,
      838,
      602,
      536,
      366,
      308,
      97,
      0
    ],
    "swim:geom": "approach",
    "swim:timestamps": [
      1790947258,
      1790947262,
      1790947294,
      1790947346,
      1790947378,
      1790947404,
      1790947432,
      1790947467,
      1790947486,
      1790947513,
      1790947558,
      1790947579,
      1790947607,
      1790947635,
      1790947666,
      1790947681,
      1790947713,
      1790947768,
      1790947786,
      1790947822,
      1790947846,
      1790947878,
      1790947900,
      1790947912,
      1790947927,
      1790947955,
      1790947987,
      1790948018,
      1790948050,
      1790948088,
      1790948103,
      1790948134,
      1790948169,
      1790948208,
      1790948222,
      1790948264,
      1790948280,
      1790948331,
      1790948355
    ],
    "wof:geomhash": "712504d35aae846cb1cd28db794fbeb8",
    "wof:id": 2048494015,
    "wof:repo": "sfomuseum-data-flights-2026-10"
  },
  "bbox": [
    -122.36199,
    36.7192,
    -121.87538,
    37.61318
  ],
  "geometry": {"type":"LineString","coordinates":[[-121.87538,36.7192],[-121.87986,36.72536],[-121.92119,36.76216],[-122.02137,36.76512],[-122.08278,36.76309],[-122.12466,36.7812],[-122.14585,36.82121],[-122.12102,36.8663],[-122.09212,36.88475],[-122.05542,36.90744],[-121.99844,36.94461],[-121.98644,36.96913],[-121.99826,37.00234],[-122.00947,37.03563],[-122.02075,37.0726],[-122.02572,37.08928],[-122.03784,37.12717],[-122.05864,37.19095],[-122.06558,37.21241],[-122.09028,37.25032],[-122.11864,37.26679],[-122.15542,37.28855],[-122.17729,37.30653],[-122.1833,37.31999],[-122.18387,37.33717],[-122.1623,37.36455],[-122.13228,37.39206],[-122.10451,37.42016],[-122.0874,37.45456],[-122.10374,37.49553],[-122.11703,37.5088],[-122.15591,37.52525],[-122.19346,37.54197],[-122.23289,37.55898],[-122.24803,37.56529],[-122.28923,37.58256],[-122.30281,37.58812],[-122.34332,37.60525],[-122.36199,37.61318]]}
}
