{
  "id": 2048553841,
  "type": "Feature",
  "properties": {
    "date:inception_lower": "2026-10-09",
    "date:inception_upper": "2026-10-09",
    "edtf:cessation": "",
    "edtf:inception": "2026-10-09",
    "flysfo:actual_timestamp": -1,
    "flysfo:airline": "AD",
    "flysfo:base_airline": "",
    "flysfo:base_flight_number": "7911",
    "flysfo:date": "2026-10-09",
    "flysfo:estimated_timestamp": 1791568200,
    "flysfo:event": "A",
    "flysfo:flight_number": "AD7911",
    "flysfo:gate": "E4",
    "flysfo:journey": "FLL-SFO",
    "flysfo:scheduled_timestamp": 1791569100,
    "flysfo:timestamp": 1791569100,
    "geom:area": 0,
    "geom:bbox": "-122.370943,26.074860,-80.138518,37.617990",
    "geom:latitude": 31.846425,
    "geom:longitude": -101.2547305,
    "iata:airline": "AD",
    "iata:base_airline": "",
    "icao:airline": "AZU",
    "icao:base_airline": "AZU",
    "lbl:latitude": 37.618161,
    "lbl:longitude": -122.384735,
    "sfomuseum:airline_id": 1779770723,
    "sfomuseum:arrival_id": 102527513,
    "sfomuseum:base_flight_id": "20261009-A-AZU-7911",
    "sfomuseum:departure_id": 102530841,
    "sfomuseum:flight_id": "20261009-A-AZU-7911",
    "sfomuseum:flight_number": [
      "AZU7911",
      "AD7911"
    ],
    "sfomuseum:placetype": "flight",
    "src:geom": "flysfo",
    "wof:belongsto": [
      1763588121,
      102527513,
      1763588335,
      102191575,
      85633793,
      102087579,
      85922583,
      554784711,
      85688637,
      1763588337,
      1763588269,
      102085387
    ],
    "wof:country": "US",
    "wof:created": 1791648251,
    "wof:geomhash": "d17d7e3187ba5afa3de1a7310fca2526",
    "wof:hierarchy": [
      {
        "building_id": 1763588121,
        "campus_id": 102527513,
        "concourse_id": 1763588335,
        "continent_id": 102191575,
        "country_id": 85633793,
        "county_id": 102087579,
        "custom_id": 2048553841,
        "flight_id": 2048553841,
        "locality_id": 85922583,
        "postalcode_id": 554784711,
        "region_id": 85688637,
        "venue_id": 1763588337,
        "wing_id": 1763588269
      },
      {
        "building_id": 1763588121,
        "campus_id": 102527513,
        "concourse_id": 1763588335,
        "continent_id": 102191575,
        "country_id": 85633793,
        "county_id": 102085387,
        "custom_id": 2048553841,
        "flight_id": 2048553841,
        "region_id": 85688637,
        "venue_id": 1763588337,
        "wing_id": 1763588269
      }
    ],
    "wof:id": 2048553841,
    "wof:involves": [
      102527513,
      102530841,
      1779770723,
      1763588337,
      1779770723
    ],
    "wof:lastmodified": 1791648251,
    "wof:name": "AD7911 (FLL-SFO)",
    "wof:parent_id": 1763588337,
    "wof:placetype": "custom",
    "wof:placetype_alt": [
      "flight"
    ],
    "wof:repo": "sfomuseum-data-flights-2026-10",
    "wof:superseded_by": [],
    "wof:supersedes": []
  },
  "bbox": [
    -122.370943,
    26.07486,
    -80.138518,
    37.61799
  ],
  "geometry": {"type":"MultiPoint","coordinates":[[-80.138518,26.07486],[-122.370943,37.61799]]}
}
