{
  "id": 2048554595,
  "type": "Feature",
  "properties": {
    "date:inception_lower": "2026-10-09",
    "date:inception_upper": "2026-10-09",
    "edtf:cessation": "",
    "edtf:inception": "2026-10-09",
    "flysfo:actual_timestamp": -1,
    "flysfo:airline": "FJ",
    "flysfo:base_airline": "",
    "flysfo:base_flight_number": "7464",
    "flysfo:date": "2026-10-09",
    "flysfo:estimated_timestamp": 1791606000,
    "flysfo:event": "A",
    "flysfo:flight_number": "FJ5817",
    "flysfo:gate": "B12",
    "flysfo:journey": "PDX-SFO",
    "flysfo:scheduled_timestamp": 1791606420,
    "flysfo:timestamp": 1791606420,
    "geom:area": 0,
    "geom:bbox": "-122.597389,37.617990,-122.370943,45.586144",
    "geom:latitude": 41.602067,
    "geom:longitude": -122.484166,
    "iata:airline": "FJ",
    "iata:base_airline": "",
    "icao:airline": "FJI",
    "icao:base_airline": "AAL",
    "lbl:latitude": 37.61799,
    "lbl:longitude": -122.370943,
    "sfomuseum:airline_id": 1159283717,
    "sfomuseum:arrival_id": 102527513,
    "sfomuseum:base_flight_id": "20261009-A-AAL-7464",
    "sfomuseum:departure_id": 102532251,
    "sfomuseum:flight_id": "20261009-A-FJI-5817",
    "sfomuseum:flight_number": [
      "FJI5817",
      "FJ5817"
    ],
    "sfomuseum:placetype": "flight",
    "src:geom": "flysfo",
    "wof:belongsto": [
      1947304067,
      102527513,
      1947304261,
      102191575,
      85633793,
      102087579,
      85922583,
      554784711,
      85688637,
      1947304263,
      1947304259,
      102085387
    ],
    "wof:country": "US",
    "wof:created": 1791648338,
    "wof:geomhash": "3af422147b92e6fa9912d38a57ea404a",
    "wof:hierarchy": [
      {
        "building_id": 1947304067,
        "campus_id": 102527513,
        "concourse_id": 1947304261,
        "continent_id": 102191575,
        "country_id": 85633793,
        "county_id": 102087579,
        "custom_id": 2048554595,
        "flight_id": 2048554595,
        "locality_id": 85922583,
        "postalcode_id": 554784711,
        "region_id": 85688637,
        "venue_id": 1947304263,
        "wing_id": 1947304259
      },
      {
        "building_id": 1947304067,
        "campus_id": 102527513,
        "concourse_id": 1947304261,
        "continent_id": 102191575,
        "country_id": 85633793,
        "county_id": 102085387,
        "custom_id": 2048554595,
        "flight_id": 2048554595,
        "region_id": 85688637,
        "venue_id": 1947304263,
        "wing_id": 1947304259
      }
    ],
    "wof:id": 2048554595,
    "wof:involves": [
      102527513,
      102532251,
      1159283717,
      1947304263,
      1159283849
    ],
    "wof:lastmodified": 1791648338,
    "wof:name": "FJ5817 (PDX-SFO)",
    "wof:parent_id": 1947304263,
    "wof:placetype": "custom",
    "wof:placetype_alt": [
      "flight"
    ],
    "wof:repo": "sfomuseum-data-flights-2026-10",
    "wof:superseded_by": [],
    "wof:supersedes": []
  },
  "bbox": [
    -122.597389,
    37.61799,
    -122.370943,
    45.586144
  ],
  "geometry": {"type":"MultiPoint","coordinates":[[-122.597389,45.586144],[-122.370943,37.61799]]}
}
