{
  "id": 2048551627,
  "type": "Feature",
  "properties": {
    "geom:area": 0,
    "geom:bbox": "-123.495100,37.627000,-122.394920,37.738560",
    "geom:latitude": 37.704707934890486,
    "geom:longitude": -122.94049693201768,
    "src:alt_label": "swim-takeoff",
    "src:geom": "swim",
    "swim:elevations": [
      183,
      292,
      630,
      983,
      1020,
      1112,
      1166,
      1297,
      1586,
      1737,
      2122,
      2496,
      2749,
      3022,
      3050,
      3325,
      3674,
      3988,
      4097,
      4444,
      4821,
      4970,
      5013,
      5136
    ],
    "swim:geom": "takeoff",
    "swim:timestamps": [
      1791467756,
      1791467767,
      1791467795,
      1791467846,
      1791467856,
      1791467877,
      1791467889,
      1791467911,
      1791467959,
      1791467979,
      1791468014,
      1791468046,
      1791468069,
      1791468105,
      1791468127,
      1791468164,
      1791468205,
      1791468233,
      1791468242,
      1791468278,
      1791468321,
      1791468343,
      1791468349,
      1791468364
    ],
    "wof:geomhash": "ee3fa38f0a22f5df1f57eb090d69cfbb",
    "wof:id": 2048551627,
    "wof:repo": "sfomuseum-data-flights-2026-10"
  },
  "bbox": [
    -123.4951,
    37.627,
    -122.39492,
    37.73856
  ],
  "geometry": {"type":"LineString","coordinates":[[-122.39492,37.627],[-122.4057,37.63155],[-122.43414,37.64386],[-122.48771,37.66363],[-122.49822,37.66738],[-122.52308,37.67662],[-122.53765,37.68193],[-122.56752,37.68654],[-122.64395,37.69198],[-122.67929,37.69417],[-122.74055,37.69775],[-122.79713,37.70093],[-122.83779,37.7033],[-122.903,37.70684],[-122.94857,37.7089],[-123.02801,37.71326],[-123.11949,37.7187],[-123.18531,37.72209],[-123.20612,37.72325],[-123.28826,37.72783],[-123.39257,37.73325],[-123.44377,37.73587],[-123.45998,37.73672],[-123.4951,37.73856]]}
}
