{
  "id": 2048558183,
  "type": "Feature",
  "properties": {
    "geom:area": 0,
    "geom:bbox": "-122.363420,37.632440,-121.261110,38.416080",
    "geom:latitude": 38.034077047360164,
    "geom:longitude": -121.8212204554319,
    "src:alt_label": "swim-takeoff",
    "src:geom": "swim",
    "swim:elevations": [
      183,
      244,
      518,
      700,
      723,
      917,
      1340,
      1723,
      2071,
      2217,
      2447,
      2761,
      2881,
      3002,
      3343,
      3487,
      3622,
      3898,
      4261,
      4617,
      4821,
      5087,
      5154,
      5413,
      5639,
      5905,
      5975,
      6129,
      6387,
      6626,
      6686,
      7034
    ],
    "swim:geom": "takeoff",
    "swim:timestamps": [
      1791532467,
      1791532472,
      1791532511,
      1791532549,
      1791532552,
      1791532567,
      1791532600,
      1791532634,
      1791532665,
      1791532676,
      1791532698,
      1791532724,
      1791532736,
      1791532745,
      1791532794,
      1791532817,
      1791532835,
      1791532864,
      1791532894,
      1791532922,
      1791532942,
      1791532974,
      1791532983,
      1791533010,
      1791533028,
      1791533058,
      1791533065,
      1791533088,
      1791533128,
      1791533157,
      1791533166,
      1791533207
    ],
    "wof:geomhash": "8e391a109ecef40d71b1088529d8a60e",
    "wof:id": 2048558183,
    "wof:repo": "sfomuseum-data-flights-2026-10"
  },
  "bbox": [
    -122.36342,
    37.63244,
    -121.26111,
    38.41608
  ],
  "geometry": {"type":"LineString","coordinates":[[-122.36342,37.63244],[-122.36131,37.63547],[-122.32753,37.6559],[-122.28581,37.6796],[-122.28221,37.68172],[-122.26366,37.69245],[-122.22192,37.71443],[-122.18729,37.74595],[-122.15844,37.77909],[-122.14759,37.7915],[-122.12572,37.81586],[-122.09927,37.84486],[-122.0873,37.85814],[-122.07768,37.8686],[-122.01222,37.91759],[-121.97628,37.94183],[-121.94609,37.96219],[-121.89867,37.99443],[-121.84758,38.02945],[-121.79971,38.06218],[-121.76447,38.08597],[-121.70783,38.12366],[-121.69153,38.13452],[-121.64318,38.16691],[-121.61042,38.18887],[-121.55524,38.22585],[-121.54097,38.23533],[-121.49856,38.26362],[-121.42207,38.31466],[-121.36432,38.35286],[-121.346,38.36431],[-121.26111,38.41608]]}
}
