{
  "id": 2048491059,
  "type": "Feature",
  "properties": {
    "geom:area": 0,
    "geom:bbox": "-122.537310,36.788760,-121.871370,37.814920",
    "geom:latitude": 37.48231515685349,
    "geom:longitude": -122.16253115606133,
    "src:alt_label": "swim-approach",
    "src:geom": "swim",
    "swim:elevations": [
      4933,
      4835,
      4590,
      4217,
      3792,
      3525,
      3376,
      3109,
      3109,
      2846,
      2677,
      2378,
      2181,
      1993,
      1772,
      1745,
      1647,
      1526,
      1322,
      983,
      914,
      914,
      821,
      580,
      260,
      156,
      368,
      568,
      914,
      914,
      1033,
      1249,
      1524,
      1625,
      1831,
      1829,
      1829,
      1829,
      1829,
      1859,
      2153,
      2351,
      2438,
      2438,
      2438,
      2438,
      2438,
      2438,
      2438,
      2438,
      2438,
      2438,
      2379,
      2269,
      2164,
      2134,
      1974,
      1830,
      1829,
      1647,
      1511,
      1309,
      1086,
      913,
      914,
      881,
      743,
      654,
      485,
      339,
      132,
      0
    ],
    "swim:geom": "approach",
    "swim:timestamps": [
      1790944587,
      1790944598,
      1790944624,
      1790944659,
      1790944705,
      1790944735,
      1790944751,
      1790944796,
      1790944806,
      1790944848,
      1790944872,
      1790944914,
      1790944940,
      1790944960,
      1790945005,
      1790945023,
      1790945058,
      1790945074,
      1790945104,
      1790945148,
      1790945183,
      1790945208,
      1790945227,
      1790945259,
      1790945298,
      1790945331,
      1790945356,
      1790945374,
      1790945428,
      1790945455,
      1790945480,
      1790945499,
      1790945547,
      1790945564,
      1790945594,
      1790945638,
      1790945648,
      1790945687,
      1790945728,
      1790945754,
      1790945785,
      1790945801,
      1790945838,
      1790945848,
      1790945861,
      1790945880,
      1790945926,
      1790945938,
      1790945957,
      1790945998,
      1790946022,
      1790946041,
      1790946084,
      1790946105,
      1790946125,
      1790946159,
      1790946187,
      1790946221,
      1790946243,
      1790946282,
      1790946308,
      1790946345,
      1790946377,
      1790946411,
      1790946430,
      1790946450,
      1790946478,
      1790946490,
      1790946522,
      1790946546,
      1790946591,
      1790946617
    ],
    "wof:geomhash": "f1b278f5dd6704ad8a7dcfef238b03e1",
    "wof:id": 2048491059,
    "wof:repo": "sfomuseum-data-flights-2026-10"
  },
  "bbox": [
    -122.53731,
    36.78876,
    -121.87137,
    37.81492
  ],
  "geometry": {"type":"LineString","coordinates":[[-121.90699,36.78876],[-121.91236,36.80765],[-121.92409,36.85003],[-121.94058,36.90805],[-121.96539,36.98285],[-121.98374,37.03031],[-121.99297,37.05427],[-122.01988,37.12346],[-122.02554,37.13779],[-122.0485,37.19605],[-122.06098,37.22826],[-122.08305,37.2843],[-122.09704,37.31961],[-122.10758,37.34655],[-122.12917,37.4041],[-122.13597,37.42476],[-122.14861,37.4617],[-122.15404,37.47779],[-122.16307,37.50588],[-122.18248,37.54483],[-122.21862,37.55509],[-122.23946,37.57174],[-122.25761,37.58219],[-122.29087,37.59139],[-122.32685,37.60157],[-122.35453,37.61257],[-122.37702,37.62187],[-122.39383,37.63419],[-122.43645,37.68328],[-122.45722,37.70796],[-122.47673,37.73106],[-122.49181,37.74762],[-122.53731,37.78389],[-122.53135,37.80184],[-122.4957,37.81492],[-122.45615,37.78298],[-122.44965,37.77486],[-122.41019,37.74715],[-122.36835,37.71864],[-122.34225,37.70102],[-122.30988,37.67934],[-122.29197,37.66984],[-122.24041,37.66147],[-122.226,37.65938],[-122.20771,37.65683],[-122.18063,37.65304],[-122.1155,37.64396],[-122.09946,37.64137],[-122.07373,37.63414],[-122.02003,37.61863],[-121.98757,37.60913],[-121.96416,37.59911],[-121.91428,37.57602],[-121.89089,37.56521],[-121.87186,37.55433],[-121.87137,37.52392],[-121.88662,37.50239],[-121.92781,37.50566],[-121.95555,37.50952],[-122.00403,37.51499],[-122.03589,37.51892],[-122.08156,37.52561],[-122.11793,37.53693],[-122.15633,37.54918],[-122.17733,37.55601],[-122.20004,37.56339],[-122.23058,37.57332],[-122.24324,37.57741],[-122.27846,37.58665],[-122.30266,37.59287],[-122.34014,37.6065],[-122.36121,37.61556]]}
}
