{
  "id": 2048512909,
  "type": "Feature",
  "properties": {
    "geom:area": 0,
    "geom:bbox": "-122.467540,36.720290,-121.344090,37.704950",
    "geom:latitude": 37.213170781491584,
    "geom:longitude": -122.00012227251793,
    "src:alt_label": "swim-takeoff",
    "src:geom": "swim",
    "swim:elevations": [
      122,
      564,
      634,
      671,
      851,
      929,
      1098,
      1353,
      1397,
      1523,
      1751,
      2066,
      2266,
      2627,
      2950,
      3127,
      3700,
      3907,
      4084,
      4395,
      4770,
      4864,
      4963,
      5438,
      5629,
      6006,
      6254,
      6398,
      6482,
      6748,
      7128,
      7232,
      7497,
      7802,
      7932,
      8063,
      8410,
      8519,
      8743,
      8871
    ],
    "swim:geom": "takeoff",
    "swim:timestamps": [
      1791126512,
      1791126563,
      1791126577,
      1791126583,
      1791126624,
      1791126636,
      1791126668,
      1791126715,
      1791126726,
      1791126740,
      1791126763,
      1791126797,
      1791126821,
      1791126854,
      1791126887,
      1791126905,
      1791126955,
      1791126973,
      1791126988,
      1791127015,
      1791127046,
      1791127063,
      1791127085,
      1791127135,
      1791127151,
      1791127186,
      1791127213,
      1791127228,
      1791127238,
      1791127270,
      1791127315,
      1791127326,
      1791127361,
      1791127407,
      1791127423,
      1791127444,
      1791127495,
      1791127511,
      1791127544,
      1791127562
    ],
    "wof:geomhash": "80dc48b97b09b799c56a266e50b9911a",
    "wof:id": 2048512909,
    "wof:repo": "sfomuseum-data-flights-2026-10"
  },
  "bbox": [
    -122.46754,
    36.72029,
    -121.34409,
    37.70495
  ],
  "geometry": {"type":"LineString","coordinates":[[-122.36544,37.63383],[-122.36154,37.67213],[-122.36284,37.68429],[-122.36438,37.68892],[-122.40202,37.70495],[-122.41479,37.70043],[-122.43061,37.6724],[-122.44254,37.62025],[-122.44571,37.60794],[-122.45027,37.5908],[-122.45747,37.56249],[-122.46754,37.51994],[-122.46512,37.49057],[-122.42778,37.46039],[-122.38697,37.43418],[-122.36437,37.4191],[-122.29835,37.37599],[-122.27427,37.36077],[-122.25366,37.34764],[-122.21719,37.32424],[-122.17464,37.29662],[-122.15125,37.2814],[-122.12044,37.2613],[-122.0413,37.21023],[-122.0162,37.19383],[-121.96062,37.15767],[-121.91797,37.12978],[-121.89348,37.11378],[-121.87775,37.10346],[-121.82648,37.0701],[-121.75169,37.02103],[-121.73363,37.00915],[-121.67372,36.9699],[-121.59559,36.91807],[-121.56848,36.90027],[-121.53099,36.87536],[-121.44278,36.81443],[-121.41933,36.79151],[-121.37102,36.74592],[-121.34409,36.72029]]}
}
