{
  "id": 2048484257,
  "type": "Feature",
  "properties": {
    "geom:area": 0,
    "geom:bbox": "-122.324170,37.513200,-121.245470,37.601570",
    "geom:latitude": 37.55253339087603,
    "geom:longitude": -121.78737645902085,
    "src:alt_label": "swim-approach",
    "src:geom": "swim",
    "swim:elevations": [
      4667,
      4423,
      4064,
      3901,
      3606,
      3367,
      3155,
      2923,
      2723,
      2601,
      2440,
      1078,
      676,
      324,
      199
    ],
    "swim:geom": "approach",
    "swim:timestamps": [
      1790899490,
      1790899516,
      1790899552,
      1790899568,
      1790899597,
      1790899621,
      1790899651,
      1790899703,
      1790899729,
      1790899747,
      1790899780,
      1790900027,
      1790900095,
      1790900172,
      1790900199
    ],
    "wof:geomhash": "47889a38e2ad58dc755f9d62ae16dd70",
    "wof:id": 2048484257,
    "wof:repo": "sfomuseum-data-flights-2026-10"
  },
  "bbox": [
    -122.32417,
    37.5132,
    -121.24547,
    37.60157
  ],
  "geometry": {"type":"LineString","coordinates":[[-121.24547,37.59503],[-121.29825,37.58812],[-121.37186,37.58024],[-121.40318,37.57683],[-121.46069,37.57015],[-121.50811,37.56465],[-121.56619,37.55772],[-121.65763,37.54294],[-121.69981,37.53286],[-121.72902,37.52578],[-121.78206,37.5132],[-122.14777,37.54637],[-122.22797,37.57236],[-122.30189,37.59446],[-122.32417,37.60157]]}
}
