{
  "id": 2048542039,
  "type": "Feature",
  "properties": {
    "geom:area": 0,
    "geom:bbox": "-122.355580,37.642310,-121.271730,38.258690",
    "geom:latitude": 38.071062475833244,
    "geom:longitude": -122.00237759866543,
    "src:alt_label": "swim-takeoff",
    "src:geom": "swim",
    "swim:elevations": [
      332,
      669,
      1043,
      1200,
      1259,
      1502,
      1904,
      2073,
      2357,
      2854,
      2956,
      3492,
      3633,
      4095,
      4253,
      4659,
      4902,
      5183,
      5534,
      5989,
      6254,
      6554,
      6814,
      7060,
      7303,
      7425,
      7584,
      7884,
      8094,
      8286,
      8450,
      8592,
      8869,
      8969,
      9023,
      9051,
      9240
    ],
    "swim:geom": "takeoff",
    "swim:timestamps": [
      1791385789,
      1791385821,
      1791385857,
      1791385886,
      1791385894,
      1791385928,
      1791385958,
      1791385971,
      1791385992,
      1791386033,
      1791386040,
      1791386097,
      1791386114,
      1791386152,
      1791386165,
      1791386198,
      1791386222,
      1791386251,
      1791386286,
      1791386330,
      1791386356,
      1791386393,
      1791386426,
      1791386457,
      1791386486,
      1791386507,
      1791386530,
      1791386570,
      1791386596,
      1791386628,
      1791386653,
      1791386674,
      1791386723,
      1791386742,
      1791386750,
      1791386755,
      1791386785
    ],
    "wof:geomhash": "3044cb1428c5e409a821246aa0b108fe",
    "wof:id": 2048542039,
    "wof:repo": "sfomuseum-data-flights-2026-10"
  },
  "bbox": [
    -122.35558,
    37.64231,
    -121.27173,
    38.25869
  ],
  "geometry": {"type":"LineString","coordinates":[[-122.35558,37.64231],[-122.32849,37.6584],[-122.2956,37.67602],[-122.26449,37.69183],[-122.25586,37.69703],[-122.23768,37.73435],[-122.23472,37.77353],[-122.23392,37.79069],[-122.23176,37.81951],[-122.22626,37.87566],[-122.22521,37.88631],[-122.2195,37.9725],[-122.21792,38.00135],[-122.18687,38.0595],[-122.17105,38.07881],[-122.1313,38.12648],[-122.11898,38.16608],[-122.13198,38.21524],[-122.18915,38.25869],[-122.28426,38.24918],[-122.31818,38.2095],[-122.3159,38.14253],[-122.26142,38.09415],[-122.18613,38.08134],[-122.11342,38.09206],[-122.05719,38.09878],[-121.99633,38.10504],[-121.88918,38.11666],[-121.81853,38.12394],[-121.73025,38.13334],[-121.6598,38.14092],[-121.60105,38.14672],[-121.45493,38.16147],[-121.40075,38.16741],[-121.37627,38.17008],[-121.36176,38.17154],[-121.27173,38.18105]]}
}
