{
  "id": 2048490959,
  "type": "Feature",
  "properties": {
    "geom:area": 0,
    "geom:bbox": "-122.846310,37.559960,-122.077470,38.494330",
    "geom:latitude": 37.87612531776285,
    "geom:longitude": -122.49922678803642,
    "src:alt_label": "swim-approach",
    "src:geom": "swim",
    "swim:elevations": [
      7529,
      7214,
      7017,
      6718,
      6436,
      6213,
      5986,
      5670,
      5351,
      5128,
      5069,
      4707,
      4392,
      4276,
      3905,
      3737,
      3596,
      3353,
      3353,
      3210,
      2943,
      2814,
      2596,
      2273,
      2089,
      1829,
      1829,
      1694,
      1592,
      1386,
      1155,
      1097,
      997,
      751,
      572,
      512,
      327,
      249,
      31,
      242
    ],
    "swim:geom": "approach",
    "swim:timestamps": [
      1790963996,
      1790964028,
      1790964051,
      1790964084,
      1790964115,
      1790964141,
      1790964168,
      1790964202,
      1790964236,
      1790964263,
      1790964272,
      1790964314,
      1790964350,
      1790964367,
      1790964411,
      1790964438,
      1790964458,
      1790964497,
      1790964521,
      1790964547,
      1790964579,
      1790964594,
      1790964620,
      1790964653,
      1790964671,
      1790964709,
      1790964740,
      1790964775,
      1790964789,
      1790964815,
      1790964865,
      1790964879,
      1790964903,
      1790964951,
      1790964982,
      1790964995,
      1790965034,
      1790965054,
      1790965108,
      1790965117
    ],
    "wof:geomhash": "186ac2c5b2e787654b357dce6d9e6858",
    "wof:id": 2048490959,
    "wof:repo": "sfomuseum-data-flights-2026-10"
  },
  "bbox": [
    -122.84631,
    37.55996,
    -122.07747,
    38.49433
  ],
  "geometry": {"type":"LineString","coordinates":[[-122.84631,38.49433],[-122.82942,38.43638],[-122.81747,38.39541],[-122.80056,38.33754],[-122.78479,38.28356],[-122.77216,38.24034],[-122.75891,38.19477],[-122.74167,38.13539],[-122.72501,38.07807],[-122.7123,38.03412],[-122.70776,38.01868],[-122.68777,37.94965],[-122.66455,37.89398],[-122.6444,37.87244],[-122.5876,37.81876],[-122.5557,37.78852],[-122.53323,37.7673],[-122.48883,37.72542],[-122.45808,37.70586],[-122.42079,37.69609],[-122.37603,37.6851],[-122.3553,37.68012],[-122.32023,37.67219],[-122.27609,37.66212],[-122.25214,37.65671],[-122.20162,37.64572],[-122.16005,37.63642],[-122.1131,37.62601],[-122.09503,37.62173],[-122.07747,37.6008],[-122.11568,37.56764],[-122.13201,37.56467],[-122.16026,37.55996],[-122.21474,37.56805],[-122.24781,37.57881],[-122.26085,37.58298],[-122.29725,37.59357],[-122.31367,37.59822],[-122.35382,37.61209],[-122.36191,37.6143]]}
}
