{
  "id": 2048498447,
  "type": "Feature",
  "properties": {
    "geom:area": 0,
    "geom:bbox": "-122.384790,36.718690,-121.303280,37.405960",
    "geom:latitude": 37.06302366353996,
    "geom:longitude": -121.84359153287052,
    "src:alt_label": "swim-takeoff",
    "src:geom": "swim",
    "swim:elevations": [
      4528,
      4879,
      5291,
      5700,
      5977,
      6147,
      6515,
      6819,
      6975,
      7351,
      7459,
      7889,
      7965,
      8317,
      8381,
      8445,
      8538,
      8659,
      8756,
      8814,
      9042,
      9147,
      9390,
      9586
    ],
    "swim:geom": "takeoff",
    "swim:timestamps": [
      1790969175,
      1790969203,
      1790969239,
      1790969276,
      1790969300,
      1790969313,
      1790969350,
      1790969394,
      1790969412,
      1790969452,
      1790969467,
      1790969514,
      1790969523,
      1790969572,
      1790969588,
      1790969598,
      1790969619,
      1790969644,
      1790969664,
      1790969677,
      1790969723,
      1790969745,
      1790969769,
      1790969794
    ],
    "wof:geomhash": "d58ee2d88966d948ca6e4e2dc3d32ee1",
    "wof:id": 2048498447,
    "wof:repo": "sfomuseum-data-flights-2026-10"
  },
  "bbox": [
    -122.38479,
    36.71869,
    -121.30328,
    37.40596
  ],
  "geometry": {"type":"LineString","coordinates":[[-122.38479,37.40596],[-122.34615,37.38199],[-122.29474,37.34992],[-122.24016,37.31522],[-122.20411,37.29225],[-122.18444,37.2798],[-122.12689,37.24353],[-122.05593,37.19864],[-122.02629,37.17993],[-121.95854,37.13703],[-121.93224,37.12042],[-121.84985,37.0676],[-121.83391,37.05766],[-121.74527,37.00109],[-121.71578,36.98244],[-121.69748,36.97048],[-121.65761,36.94501],[-121.60901,36.91372],[-121.57096,36.8893],[-121.54499,36.87248],[-121.44996,36.81161],[-121.40499,36.78285],[-121.35505,36.75103],[-121.30328,36.71869]]}
}
