{
  "id": 2048498503,
  "type": "Feature",
  "properties": {
    "geom:area": 0,
    "geom:bbox": "-122.364310,37.631970,-121.264100,38.019030",
    "geom:latitude": 37.923300657686134,
    "geom:longitude": -121.90275250836164,
    "src:alt_label": "swim-takeoff",
    "src:geom": "swim",
    "swim:elevations": [
      152,
      486,
      919,
      1066,
      1318,
      1347,
      1720,
      2292,
      2483,
      2780,
      3318,
      3349,
      3681,
      3943,
      4292,
      4686,
      4827,
      5185,
      5420,
      5526,
      5989,
      6206,
      6297,
      6522,
      6733,
      6954
    ],
    "swim:geom": "takeoff",
    "swim:timestamps": [
      1790937874,
      1790937904,
      1790937950,
      1790937971,
      1790938018,
      1790938022,
      1790938059,
      1790938103,
      1790938118,
      1790938146,
      1790938198,
      1790938202,
      1790938246,
      1790938275,
      1790938310,
      1790938347,
      1790938362,
      1790938407,
      1790938433,
      1790938445,
      1790938498,
      1790938525,
      1790938540,
      1790938574,
      1790938598,
      1790938627
    ],
    "wof:geomhash": "fe20c3ad9babe4a1d1c8dc1b1bf7b450",
    "wof:id": 2048498503,
    "wof:repo": "sfomuseum-data-flights-2026-10"
  },
  "bbox": [
    -122.36431,
    37.63197,
    -121.2641,
    38.01903
  ],
  "geometry": {"type":"LineString","coordinates":[[-122.36431,37.63197],[-122.34265,37.64778],[-122.30335,37.67053],[-122.28331,37.68194],[-122.25255,37.72345],[-122.25379,37.72834],[-122.27094,37.77468],[-122.28889,37.83354],[-122.28392,37.85439],[-122.27303,37.89275],[-122.22716,37.95515],[-122.22006,37.95751],[-122.1308,37.96222],[-122.07027,37.96444],[-121.99546,37.96644],[-121.91536,37.96892],[-121.88359,37.96983],[-121.78322,37.97362],[-121.72311,37.97901],[-121.6963,37.98136],[-121.57323,37.9923],[-121.50926,37.99799],[-121.47374,38.00106],[-121.39359,38.00787],[-121.33305,38.0132],[-121.2641,38.01903]]}
}
