{
  "id": 2048520659,
  "type": "Feature",
  "properties": {
    "geom:area": 0,
    "geom:bbox": "-122.078070,36.718570,-121.875900,37.271460",
    "geom:latitude": 36.99535226850357,
    "geom:longitude": -121.97500553352297,
    "src:alt_label": "swim-approach",
    "src:geom": "swim",
    "swim:elevations": [
      4968,
      4680,
      4504,
      4072,
      3982,
      3621,
      3199,
      3169,
      2962,
      2871,
      2617,
      2546,
      2438,
      2438,
      2460,
      2434
    ],
    "swim:geom": "approach",
    "swim:timestamps": [
      1791214734,
      1791214761,
      1791214779,
      1791214821,
      1791214830,
      1791214866,
      1791214913,
      1791214922,
      1791214971,
      1791214983,
      1791215024,
      1791215033,
      1791215059,
      1791215094,
      1791215121,
      1791215131
    ],
    "wof:geomhash": "f43a4692ef61437b2d40b8e1e2ccbb28",
    "wof:id": 2048520659,
    "wof:repo": "sfomuseum-data-flights-2026-10"
  },
  "bbox": [
    -122.07807,
    36.71857,
    -121.8759,
    37.27146
  ],
  "geometry": {"type":"LineString","coordinates":[[-121.8759,36.71857],[-121.89863,36.75978],[-121.90644,36.78707],[-121.92501,36.85255],[-121.92919,36.86762],[-121.94472,36.92204],[-121.96866,36.99246],[-121.9739,37.00604],[-121.99931,37.07059],[-122.00537,37.08602],[-122.02604,37.13872],[-122.03042,37.14996],[-122.04345,37.18337],[-122.06032,37.22632],[-122.07355,37.26003],[-122.07807,37.27146]]}
}
