{
  "id": 2048539965,
  "type": "Feature",
  "properties": {
    "geom:area": 0,
    "geom:bbox": "-122.539000,36.730860,-122.187340,37.700650",
    "geom:latitude": 37.23084740121782,
    "geom:longitude": -122.42552284734934,
    "src:alt_label": "swim-takeoff",
    "src:geom": "swim",
    "swim:elevations": [
      122,
      772,
      1277,
      1581,
      1796,
      2043,
      2426,
      2704,
      3202,
      3380,
      3556,
      3848,
      3962,
      4000,
      4203,
      4519,
      4970,
      5218,
      5800,
      6014,
      6127,
      6640,
      6789,
      7172,
      7329,
      7581,
      7800
    ],
    "swim:geom": "takeoff",
    "swim:timestamps": [
      1791357506,
      1791357592,
      1791357644,
      1791357673,
      1791357692,
      1791357715,
      1791357744,
      1791357764,
      1791357808,
      1791357832,
      1791357848,
      1791357890,
      1791357927,
      1791357949,
      1791357977,
      1791358004,
      1791358036,
      1791358054,
      1791358108,
      1791358127,
      1791358140,
      1791358197,
      1791358212,
      1791358254,
      1791358273,
      1791358299,
      1791358322
    ],
    "wof:geomhash": "dae5fd6c46214ebd95c0fbc2a5ff83a1",
    "wof:id": 2048539965,
    "wof:repo": "sfomuseum-data-flights-2026-10"
  },
  "bbox": [
    -122.539,
    36.73086,
    -122.18734,
    37.70065
  ],
  "geometry": {"type":"LineString","coordinates":[[-122.36906,37.62864],[-122.37015,37.70065],[-122.42953,37.69203],[-122.4395,37.6585],[-122.44397,37.6365],[-122.44922,37.60809],[-122.45606,37.57234],[-122.46198,37.54723],[-122.47358,37.49181],[-122.47963,37.45828],[-122.48377,37.43577],[-122.4957,37.37255],[-122.50617,37.31568],[-122.51268,37.28192],[-122.52068,37.23943],[-122.52853,37.19679],[-122.53752,37.14607],[-122.539,37.11714],[-122.48062,37.04209],[-122.45525,37.01566],[-122.43909,36.99885],[-122.36117,36.917],[-122.34058,36.89517],[-122.2824,36.83344],[-122.25575,36.80507],[-122.21903,36.76596],[-122.18734,36.73086]]}
}
