{
  "id": 2048529183,
  "type": "Feature",
  "properties": {
    "geom:area": 0,
    "geom:bbox": "-122.353030,37.491720,-121.261730,37.611760",
    "geom:latitude": 37.545970910625336,
    "geom:longitude": -121.81210518840936,
    "src:alt_label": "swim-approach",
    "src:geom": "swim",
    "swim:elevations": [
      4545,
      4066,
      3966,
      3620,
      3467,
      3107,
      3090,
      2953,
      2785,
      2540,
      2465,
      2137,
      2054,
      1879,
      1829,
      1772,
      1605,
      1417,
      1110,
      893,
      884,
      713,
      523,
      455,
      254,
      42
    ],
    "swim:geom": "approach",
    "swim:timestamps": [
      1791282969,
      1791283018,
      1791283028,
      1791283064,
      1791283081,
      1791283138,
      1791283145,
      1791283177,
      1791283203,
      1791283237,
      1791283262,
      1791283313,
      1791283340,
      1791283378,
      1791283408,
      1791283427,
      1791283450,
      1791283476,
      1791283519,
      1791283558,
      1791283562,
      1791283594,
      1791283633,
      1791283651,
      1791283693,
      1791283741
    ],
    "wof:geomhash": "977dd2ddf0fd2b46a7600759d961a2e0",
    "wof:id": 2048529183,
    "wof:repo": "sfomuseum-data-flights-2026-10"
  },
  "bbox": [
    -122.35303,
    37.49172,
    -121.26173,
    37.61176
  ],
  "geometry": {"type":"LineString","coordinates":[[-121.26173,37.59292],[-121.36273,37.58139],[-121.38367,37.57898],[-121.4553,37.57067],[-121.48951,37.56666],[-121.60093,37.55351],[-121.61432,37.55195],[-121.66855,37.54027],[-121.7115,37.53004],[-121.76621,37.51697],[-121.80553,37.50762],[-121.8788,37.49172],[-121.91575,37.49187],[-121.96852,37.4933],[-122.00727,37.5009],[-122.03084,37.50852],[-122.05909,37.51762],[-122.08932,37.52747],[-122.14053,37.54418],[-122.18253,37.55784],[-122.18664,37.55915],[-122.22005,37.57005],[-122.26001,37.58272],[-122.27664,37.58742],[-122.31356,37.59863],[-122.35303,37.61176]]}
}
