{
  "id": 2048527927,
  "type": "Feature",
  "properties": {
    "date:cessation_lower": "2026-10-06",
    "date:cessation_upper": "2026-10-06",
    "date:inception_lower": "1970-01-01",
    "date:inception_upper": "1970-01-01",
    "edtf:cessation": "2026-10-06T04:18:06-07:00",
    "edtf:inception": "1970-01-01T00:00:00Z",
    "flysfo:actual_timestamp": -1,
    "flysfo:airline": "DL",
    "flysfo:base_airline": "",
    "flysfo:base_flight_number": "9119",
    "flysfo:date": "2026-10-06",
    "flysfo:estimated_timestamp": 1791311040,
    "flysfo:event": "A",
    "flysfo:flight_number": "DL1920",
    "flysfo:gate": "C6",
    "flysfo:journey": "LAX-SFO",
    "flysfo:scheduled_timestamp": 1791309900,
    "flysfo:timestamp": 1791311040,
    "geom:area": 0,
    "geom:bbox": "-122.370943,33.942593,-118.389510,37.617990",
    "geom:latitude": 35.780291500000004,
    "geom:longitude": -120.38022649999999,
    "iata:airline": "DL",
    "iata:base_airline": "",
    "icao:aircraft": "B738",
    "icao:airline": "DAL",
    "icao:base_airline": "CAL",
    "lbl:latitude": 37.614759,
    "lbl:longitude": -122.382707,
    "sfomuseum:aircraft_id": 1159289871,
    "sfomuseum:airline_id": 1159284261,
    "sfomuseum:arrival_id": 102527513,
    "sfomuseum:base_flight_id": "20261006-A-CAL-9119",
    "sfomuseum:departure_id": 102533795,
    "sfomuseum:flight_id": "20261006-A-DAL-1920",
    "sfomuseum:flight_number": [
      "DAL1920",
      "DL1920"
    ],
    "sfomuseum:placetype": "flight",
    "src:geom": "flysfo",
    "src:geom_alt": [
      "swim-approach"
    ],
    "swim:tail_number": "N3753",
    "wof:belongsto": [
      1947304067,
      102527513,
      1947304663,
      102191575,
      85633793,
      102087579,
      85922583,
      554784711,
      85688637,
      1947304679,
      1947304591,
      102085387
    ],
    "wof:country": "US",
    "wof:created": 1791389082,
    "wof:geomhash": "f16008bc2ad68c6d1bc593247c6c74a9",
    "wof:hierarchy": [
      {
        "building_id": 1947304067,
        "campus_id": 102527513,
        "concourse_id": 1947304663,
        "continent_id": 102191575,
        "country_id": 85633793,
        "county_id": 102087579,
        "custom_id": 2048527927,
        "flight_id": 2048527927,
        "locality_id": 85922583,
        "postalcode_id": 554784711,
        "region_id": 85688637,
        "venue_id": 1947304679,
        "wing_id": 1947304591
      },
      {
        "building_id": 1947304067,
        "campus_id": 102527513,
        "concourse_id": 1947304663,
        "continent_id": 102191575,
        "country_id": 85633793,
        "county_id": 102085387,
        "custom_id": 2048527927,
        "flight_id": 2048527927,
        "region_id": 85688637,
        "venue_id": 1947304679,
        "wing_id": 1947304591
      }
    ],
    "wof:id": 2048527927,
    "wof:involves": [
      1159284261,
      1947304679,
      1159284153,
      1159289871,
      102527513,
      102533795
    ],
    "wof:lastmodified": 1791389818,
    "wof:name": "DL1920 (LAX-SFO)",
    "wof:parent_id": 1947304679,
    "wof:placetype": "custom",
    "wof:placetype_alt": [
      "flight"
    ],
    "wof:repo": "sfomuseum-data-flights-2026-10",
    "wof:superseded_by": [],
    "wof:supersedes": []
  },
  "bbox": [
    -122.370943,
    33.942593,
    -118.38951,
    37.61799
  ],
  "geometry": {"type":"MultiPoint","coordinates":[[-118.38951,33.942593],[-122.370943,37.61799]]}
}
