{
  "id": 2048531177,
  "type": "Feature",
  "properties": {
    "date:inception_lower": "2026-10-06",
    "date:inception_upper": "2026-10-06",
    "edtf:cessation": "",
    "edtf:inception": "2026-10-06",
    "flysfo:actual_timestamp": -1,
    "flysfo:airline": "NZ",
    "flysfo:base_airline": "",
    "flysfo:base_flight_number": "5196",
    "flysfo:date": "2026-10-06",
    "flysfo:estimated_timestamp": 1791319620,
    "flysfo:event": "D",
    "flysfo:flight_number": "NZ9302",
    "flysfo:gate": "F19",
    "flysfo:journey": "SFO-ORD",
    "flysfo:scheduled_timestamp": 1791319800,
    "flysfo:timestamp": 1791319800,
    "geom:area": 0,
    "geom:bbox": "-122.370943,37.617990,-87.894364,41.983038",
    "geom:latitude": 39.800514,
    "geom:longitude": -105.1326535,
    "iata:airline": "NZ",
    "iata:base_airline": "",
    "icao:airline": "ANZ",
    "icao:base_airline": "ACA",
    "lbl:latitude": 37.620929,
    "lbl:longitude": -122.390272,
    "sfomuseum:airline_id": 1159283697,
    "sfomuseum:arrival_id": 102533631,
    "sfomuseum:base_flight_id": "20261006-D-ACA-5196",
    "sfomuseum:departure_id": 102527513,
    "sfomuseum:flight_id": "20261006-D-ANZ-9302",
    "sfomuseum:flight_number": [
      "ANZ9302",
      "NZ9302"
    ],
    "sfomuseum:placetype": "flight",
    "src:geom": "flysfo",
    "wof:belongsto": [
      1947304067,
      102527513,
      1947304451,
      102191575,
      85633793,
      102087579,
      85922583,
      554784711,
      85688637,
      1947304487,
      1947304447,
      102085387
    ],
    "wof:country": "US",
    "wof:created": 1791389455,
    "wof:geomhash": "7a75cc81bf790964b92a4927d3978f50",
    "wof:hierarchy": [
      {
        "building_id": 1947304067,
        "campus_id": 102527513,
        "concourse_id": 1947304451,
        "continent_id": 102191575,
        "country_id": 85633793,
        "county_id": 102087579,
        "custom_id": 2048531177,
        "flight_id": 2048531177,
        "locality_id": 85922583,
        "postalcode_id": 554784711,
        "region_id": 85688637,
        "venue_id": 1947304487,
        "wing_id": 1947304447
      },
      {
        "building_id": 1947304067,
        "campus_id": 102527513,
        "concourse_id": 1947304451,
        "continent_id": 102191575,
        "country_id": 85633793,
        "county_id": 102085387,
        "custom_id": 2048531177,
        "flight_id": 2048531177,
        "region_id": 85688637,
        "venue_id": 1947304487,
        "wing_id": 1947304447
      }
    ],
    "wof:id": 2048531177,
    "wof:involves": [
      102533631,
      102527513,
      1159283697,
      1947304487,
      1159283597
    ],
    "wof:lastmodified": 1791389455,
    "wof:name": "NZ9302 (SFO-ORD)",
    "wof:parent_id": 1947304487,
    "wof:placetype": "custom",
    "wof:placetype_alt": [
      "flight"
    ],
    "wof:repo": "sfomuseum-data-flights-2026-10",
    "wof:superseded_by": [],
    "wof:supersedes": []
  },
  "bbox": [
    -122.370943,
    37.61799,
    -87.894364,
    41.983038
  ],
  "geometry": {"type":"MultiPoint","coordinates":[[-122.370943,37.61799],[-87.894364,41.983038]]}
}
