{
  "id": 2048511071,
  "type": "Feature",
  "properties": {
    "geom:area": 0,
    "geom:bbox": "-122.353870,36.737340,-121.888980,37.609860",
    "geom:latitude": 37.22285306143611,
    "geom:longitude": -122.07124393562427,
    "src:alt_label": "swim-approach",
    "src:geom": "swim",
    "swim:elevations": [
      5318,
      4882,
      4660,
      4515,
      4094,
      3722,
      3343,
      3303,
      3170,
      3106,
      2954,
      2795,
      2560,
      2438,
      2258,
      2205,
      2007,
      1959,
      1765,
      1657,
      1580,
      1529,
      1536,
      1303,
      1193,
      788,
      576,
      514,
      414,
      212,
      168,
      46
    ],
    "swim:geom": "approach",
    "swim:timestamps": [
      1791124899,
      1791124945,
      1791124969,
      1791124983,
      1791125026,
      1791125056,
      1791125097,
      1791125103,
      1791125128,
      1791125142,
      1791125173,
      1791125202,
      1791125237,
      1791125274,
      1791125301,
      1791125308,
      1791125336,
      1791125343,
      1791125370,
      1791125394,
      1791125405,
      1791125437,
      1791125465,
      1791125509,
      1791125523,
      1791125571,
      1791125608,
      1791125619,
      1791125641,
      1791125690,
      1791125703,
      1791125737
    ],
    "wof:geomhash": "7dd4264ec91f65e39207a2a0f823ed13",
    "wof:id": 2048511071,
    "wof:repo": "sfomuseum-data-flights-2026-10"
  },
  "bbox": [
    -122.35387,
    36.73734,
    -121.88898,
    37.60986
  ],
  "geometry": {"type":"LineString","coordinates":[[-121.88898,36.73734],[-121.91554,36.81814],[-121.92726,36.86008],[-121.93367,36.88287],[-121.95497,36.95649],[-121.97275,37.00214],[-121.99769,37.06604],[-122.00078,37.07402],[-122.01481,37.11],[-122.02187,37.12804],[-122.03701,37.16667],[-122.04997,37.19997],[-122.06586,37.24043],[-122.08189,37.28178],[-122.09427,37.31252],[-122.09724,37.3203],[-122.1091,37.35075],[-122.11232,37.35878],[-122.12356,37.38858],[-122.13238,37.41528],[-122.13332,37.42807],[-122.13037,37.46345],[-122.12769,37.49141],[-122.15393,37.52342],[-122.16703,37.52986],[-122.21417,37.55068],[-122.25154,37.56674],[-122.26294,37.57164],[-122.28274,37.58015],[-122.32108,37.59609],[-122.32985,37.59961],[-122.35387,37.60986]]}
}
