{
  "id": 2048502629,
  "type": "Feature",
  "properties": {
    "geom:area": 0,
    "geom:bbox": "-122.349200,36.718550,-121.875840,37.607870",
    "geom:latitude": 37.205182970928725,
    "geom:longitude": -122.06654247649057,
    "src:alt_label": "swim-approach",
    "src:geom": "swim",
    "swim:elevations": [
      5488,
      5158,
      4688,
      4397,
      4040,
      3758,
      3419,
      3385,
      3145,
      3081,
      2997,
      2865,
      2615,
      2422,
      2279,
      2259,
      1980,
      1856,
      1742,
      1623,
      1512,
      1321,
      1021,
      913,
      825,
      734,
      486,
      451,
      216,
      110,
      65
    ],
    "swim:geom": "approach",
    "swim:timestamps": [
      1791054455,
      1791054485,
      1791054533,
      1791054560,
      1791054596,
      1791054624,
      1791054656,
      1791054660,
      1791054693,
      1791054717,
      1791054741,
      1791054759,
      1791054794,
      1791054822,
      1791054837,
      1791054840,
      1791054875,
      1791054895,
      1791054917,
      1791054942,
      1791054975,
      1791054999,
      1791055041,
      1791055052,
      1791055080,
      1791055095,
      1791055137,
      1791055150,
      1791055196,
      1791055228,
      1791055239
    ],
    "wof:geomhash": "333d8c626ca8272b5ab8861be1486dfc",
    "wof:id": 2048502629,
    "wof:repo": "sfomuseum-data-flights-2026-10"
  },
  "bbox": [
    -122.3492,
    36.71855,
    -121.87584,
    37.60787
  ],
  "geometry": {"type":"LineString","coordinates":[[-121.87584,36.71855],[-121.9011,36.76786],[-121.92411,36.84883],[-121.93681,36.89465],[-121.9543,36.95464],[-121.97096,36.99796],[-121.99123,37.04963],[-121.99317,37.05469],[-122.01341,37.10682],[-122.0274,37.14221],[-122.03967,37.17391],[-122.04892,37.19777],[-122.06745,37.24442],[-122.08167,37.2806],[-122.08961,37.30096],[-122.09113,37.30484],[-122.1084,37.34873],[-122.11814,37.37327],[-122.12785,37.40014],[-122.1385,37.4291],[-122.15133,37.46417],[-122.16024,37.48801],[-122.17524,37.52724],[-122.18226,37.53735],[-122.21209,37.54989],[-122.22809,37.55662],[-122.27009,37.57467],[-122.28165,37.57941],[-122.31837,37.59463],[-122.34112,37.60449],[-122.3492,37.60787]]}
}
