{
  "id": 2048535075,
  "type": "Feature",
  "properties": {
    "date:inception_lower": "2026-10-07",
    "date:inception_upper": "2026-10-07",
    "edtf:cessation": "",
    "edtf:inception": "2026-10-07",
    "flysfo:actual_timestamp": -1,
    "flysfo:airline": "NZ",
    "flysfo:base_airline": "",
    "flysfo:base_flight_number": "4431",
    "flysfo:date": "2026-10-07",
    "flysfo:estimated_timestamp": 1791396180,
    "flysfo:event": "A",
    "flysfo:flight_number": "NZ2924",
    "flysfo:gate": "E8",
    "flysfo:journey": "MIA-SFO",
    "flysfo:scheduled_timestamp": 1791396240,
    "flysfo:timestamp": 1791396240,
    "geom:area": 0,
    "geom:bbox": "-122.370943,25.790470,-80.296006,37.617990",
    "geom:latitude": 31.70423,
    "geom:longitude": -101.3334745,
    "iata:airline": "NZ",
    "iata:base_airline": "",
    "icao:airline": "ANZ",
    "icao:base_airline": "ITY",
    "lbl:latitude": 37.619197,
    "lbl:longitude": -122.384496,
    "sfomuseum:airline_id": 1159283697,
    "sfomuseum:arrival_id": 102527513,
    "sfomuseum:base_flight_id": "20261007-A-ITY-4431",
    "sfomuseum:departure_id": 102531023,
    "sfomuseum:flight_id": "20261007-A-ANZ-2924",
    "sfomuseum:flight_number": [
      "ANZ2924",
      "NZ2924"
    ],
    "sfomuseum:placetype": "flight",
    "src:geom": "flysfo",
    "wof:belongsto": [
      1947304067,
      102527513,
      1947304511,
      102191575,
      85633793,
      102087579,
      85922583,
      554784711,
      85688637,
      1947304515,
      1947304447,
      102085387
    ],
    "wof:country": "US",
    "wof:created": 1791475367,
    "wof:geomhash": "38f88108bbae8bb050c3144d37bdc384",
    "wof:hierarchy": [
      {
        "building_id": 1947304067,
        "campus_id": 102527513,
        "concourse_id": 1947304511,
        "continent_id": 102191575,
        "country_id": 85633793,
        "county_id": 102087579,
        "custom_id": 2048535075,
        "flight_id": 2048535075,
        "locality_id": 85922583,
        "postalcode_id": 554784711,
        "region_id": 85688637,
        "venue_id": 1947304515,
        "wing_id": 1947304447
      },
      {
        "building_id": 1947304067,
        "campus_id": 102527513,
        "concourse_id": 1947304511,
        "continent_id": 102191575,
        "country_id": 85633793,
        "county_id": 102085387,
        "custom_id": 2048535075,
        "flight_id": 2048535075,
        "region_id": 85688637,
        "venue_id": 1947304515,
        "wing_id": 1947304447
      }
    ],
    "wof:id": 2048535075,
    "wof:involves": [
      102527513,
      102531023,
      1159283697,
      1947304515,
      1763699293
    ],
    "wof:lastmodified": 1791475367,
    "wof:name": "NZ2924 (MIA-SFO)",
    "wof:parent_id": 1947304515,
    "wof:placetype": "custom",
    "wof:placetype_alt": [
      "flight"
    ],
    "wof:repo": "sfomuseum-data-flights-2026-10",
    "wof:superseded_by": [],
    "wof:supersedes": []
  },
  "bbox": [
    -122.370943,
    25.79047,
    -80.296006,
    37.61799
  ],
  "geometry": {"type":"MultiPoint","coordinates":[[-80.296006,25.79047],[-122.370943,37.61799]]}
}
