{
  "id": 2048547131,
  "type": "Feature",
  "properties": {
    "geom:area": 0,
    "geom:bbox": "-122.527050,37.437830,-122.076770,37.761650",
    "geom:latitude": 37.55687562012207,
    "geom:longitude": -122.27786242227367,
    "src:alt_label": "swim-approach",
    "src:geom": "swim",
    "swim:elevations": [
      3410,
      3351,
      3353,
      3353,
      3353,
      3353,
      3017,
      2891,
      2694,
      2235,
      1916,
      1696,
      1646,
      1495,
      1418,
      1249,
      1220,
      1219,
      1218,
      1219,
      1140,
      1047,
      1033,
      850,
      779,
      695,
      669,
      504,
      319,
      259,
      180,
      89,
      27
    ],
    "swim:geom": "approach",
    "swim:timestamps": [
      1791486290,
      1791486319,
      1791486334,
      1791486385,
      1791486405,
      1791486429,
      1791486477,
      1791486493,
      1791486511,
      1791486552,
      1791486580,
      1791486598,
      1791486607,
      1791486657,
      1791486671,
      1791486703,
      1791486727,
      1791486742,
      1791486770,
      1791486790,
      1791486830,
      1791486851,
      1791486854,
      1791486895,
      1791486909,
      1791486925,
      1791486931,
      1791486967,
      1791487019,
      1791487039,
      1791487064,
      1791487092,
      1791487106
    ],
    "wof:geomhash": "c84d3a96e8444b1ed0fa2f8ff52c06a2",
    "wof:id": 2048547131,
    "wof:repo": "sfomuseum-data-flights-2026-10"
  },
  "bbox": [
    -122.52705,
    37.43783,
    -122.07677,
    37.76165
  ],
  "geometry": {"type":"LineString","coordinates":[[-122.52705,37.76165],[-122.49521,37.73161],[-122.47934,37.71643],[-122.42471,37.66511],[-122.40362,37.64532],[-122.37771,37.62083],[-122.34218,37.56677],[-122.33328,37.54926],[-122.32233,37.52958],[-122.29369,37.49003],[-122.25903,37.47589],[-122.23456,37.46756],[-122.22257,37.46342],[-122.16218,37.44231],[-122.14677,37.43783],[-122.1104,37.43861],[-122.08608,37.4465],[-122.07677,37.45753],[-122.08271,37.48012],[-122.09708,37.49434],[-122.13215,37.51508],[-122.15199,37.52409],[-122.15486,37.52535],[-122.19398,37.54179],[-122.20639,37.54762],[-122.21991,37.5533],[-122.22462,37.55519],[-122.25561,37.56846],[-122.29474,37.58491],[-122.30958,37.59112],[-122.32694,37.59849],[-122.34753,37.60713],[-122.35855,37.61191]]}
}
