{
  "id": 2048506741,
  "type": "Feature",
  "properties": {
    "geom:area": 0,
    "geom:bbox": "-122.386480,37.637910,-121.248530,38.424240",
    "geom:latitude": 38.0882859799846,
    "geom:longitude": -121.92522105864391,
    "src:alt_label": "swim-takeoff",
    "src:geom": "swim",
    "swim:elevations": [
      401,
      706,
      937,
      1212,
      1232,
      1389,
      1563,
      1982,
      2140,
      2352,
      2639,
      2892,
      3218,
      3300,
      3420,
      3475,
      3629,
      3858,
      4156,
      4341,
      4684,
      4918,
      5232,
      5475,
      5650,
      5773,
      5937,
      6128,
      6353,
      6533,
      6677,
      6768,
      6978,
      7107
    ],
    "swim:geom": "takeoff",
    "swim:timestamps": [
      1791070858,
      1791070882,
      1791070903,
      1791070947,
      1791070950,
      1791070981,
      1791071014,
      1791071060,
      1791071074,
      1791071092,
      1791071116,
      1791071147,
      1791071180,
      1791071190,
      1791071207,
      1791071215,
      1791071241,
      1791071271,
      1791071299,
      1791071325,
      1791071367,
      1791071396,
      1791071423,
      1791071458,
      1791071475,
      1791071491,
      1791071515,
      1791071542,
      1791071576,
      1791071606,
      1791071633,
      1791071650,
      1791071689,
      1791071716
    ],
    "wof:geomhash": "de4507c5e17d6b5652e300d5752b36b6",
    "wof:id": 2048506741,
    "wof:repo": "sfomuseum-data-flights-2026-10"
  },
  "bbox": [
    -122.38648,
    37.63791,
    -121.24853,
    38.42424
  ],
  "geometry": {"type":"LineString","coordinates":[[-122.35787,37.63791],[-122.34127,37.65221],[-122.32703,37.66441],[-122.30929,37.69625],[-122.31045,37.69886],[-122.32647,37.72704],[-122.34541,37.76184],[-122.37233,37.81613],[-122.38128,37.83434],[-122.38648,37.85798],[-122.38404,37.88998],[-122.37797,37.93196],[-122.33369,37.9603],[-122.31887,37.96611],[-122.29132,37.97746],[-122.27666,37.98365],[-122.2317,38.002],[-122.17656,38.02442],[-122.12448,38.0452],[-122.07416,38.06511],[-121.99101,38.09848],[-121.93181,38.12217],[-121.87656,38.1442],[-121.8042,38.17306],[-121.7698,38.18672],[-121.73557,38.20033],[-121.68466,38.22047],[-121.62559,38.24381],[-121.55142,38.27305],[-121.48447,38.29938],[-121.42341,38.32325],[-121.38578,38.34029],[-121.30509,38.38936],[-121.24853,38.42424]]}
}
