{
  "id": 2048515559,
  "type": "Feature",
  "properties": {
    "date:inception_lower": "2026-10-04",
    "date:inception_upper": "2026-10-04",
    "edtf:cessation": "",
    "edtf:inception": "2026-10-04",
    "flysfo:actual_timestamp": -1,
    "flysfo:airline": "UA",
    "flysfo:base_airline": "",
    "flysfo:base_flight_number": "8264",
    "flysfo:date": "2026-10-04",
    "flysfo:estimated_timestamp": 1791137040,
    "flysfo:event": "D",
    "flysfo:flight_number": "UA1484",
    "flysfo:gate": "D15",
    "flysfo:journey": "SFO-TPA",
    "flysfo:scheduled_timestamp": 1791137400,
    "flysfo:timestamp": 1791137400,
    "geom:area": 0,
    "geom:bbox": "-122.370943,27.972892,-82.530928,37.617990",
    "geom:latitude": 32.795441,
    "geom:longitude": -102.4509355,
    "iata:airline": "UA",
    "iata:base_airline": "",
    "icao:airline": "UAL",
    "icao:base_airline": "VOZ",
    "lbl:latitude": 37.617921,
    "lbl:longitude": -122.38181,
    "sfomuseum:airline_id": 1159285413,
    "sfomuseum:arrival_id": 102533243,
    "sfomuseum:base_flight_id": "20261004-D-VOZ-8264",
    "sfomuseum:departure_id": 102527513,
    "sfomuseum:flight_id": "20261004-D-UAL-1484",
    "sfomuseum:flight_number": [
      "UAL1484",
      "UA1484"
    ],
    "sfomuseum:placetype": "flight",
    "src:geom": "flysfo",
    "wof:belongsto": [
      1947304067,
      102527513,
      1947304595,
      102191575,
      85633793,
      102087579,
      85922583,
      554784711,
      85688637,
      1947304623,
      1947304591,
      102085387
    ],
    "wof:country": "US",
    "wof:created": 1791216993,
    "wof:geomhash": "eed3ad030b4c80153105b635669626b5",
    "wof:hierarchy": [
      {
        "building_id": 1947304067,
        "campus_id": 102527513,
        "concourse_id": 1947304595,
        "continent_id": 102191575,
        "country_id": 85633793,
        "county_id": 102087579,
        "custom_id": 2048515559,
        "flight_id": 2048515559,
        "locality_id": 85922583,
        "postalcode_id": 554784711,
        "region_id": 85688637,
        "venue_id": 1947304623,
        "wing_id": 1947304591
      },
      {
        "building_id": 1947304067,
        "campus_id": 102527513,
        "concourse_id": 1947304595,
        "continent_id": 102191575,
        "country_id": 85633793,
        "county_id": 102085387,
        "custom_id": 2048515559,
        "flight_id": 2048515559,
        "region_id": 85688637,
        "venue_id": 1947304623,
        "wing_id": 1947304591
      }
    ],
    "wof:id": 2048515559,
    "wof:involves": [
      102533243,
      102527513,
      1159285413,
      1947304623,
      1159285485
    ],
    "wof:lastmodified": 1791216993,
    "wof:name": "UA1484 (SFO-TPA)",
    "wof:parent_id": 1947304623,
    "wof:placetype": "custom",
    "wof:placetype_alt": [
      "flight"
    ],
    "wof:repo": "sfomuseum-data-flights-2026-10",
    "wof:superseded_by": [],
    "wof:supersedes": []
  },
  "bbox": [
    -122.370943,
    27.972892,
    -82.530928,
    37.61799
  ],
  "geometry": {"type":"MultiPoint","coordinates":[[-122.370943,37.61799],[-82.530928,27.972892]]}
}
