{
  "id": 2048515629,
  "type": "Feature",
  "properties": {
    "geom:area": 0,
    "geom:bbox": "-122.472550,36.733950,-121.457290,37.715410",
    "geom:latitude": 37.22011659666564,
    "geom:longitude": -122.06158611035237,
    "src:alt_label": "swim-takeoff",
    "src:geom": "swim",
    "swim:elevations": [
      692,
      1127,
      1344,
      1625,
      1877,
      2240,
      2657,
      2739,
      3238,
      3432,
      4162,
      4254,
      4866,
      5109,
      5197,
      5523,
      5824,
      6305,
      6645,
      6787,
      7274,
      7414,
      7821,
      8046,
      8429,
      8539,
      8723,
      8875,
      8897,
      8956,
      9100,
      9171,
      9322,
      9358,
      9453
    ],
    "swim:geom": "takeoff",
    "swim:timestamps": [
      1791133862,
      1791133912,
      1791133947,
      1791133972,
      1791133990,
      1791134012,
      1791134038,
      1791134043,
      1791134086,
      1791134108,
      1791134156,
      1791134164,
      1791134209,
      1791134229,
      1791134236,
      1791134261,
      1791134286,
      1791134330,
      1791134362,
      1791134378,
      1791134426,
      1791134440,
      1791134477,
      1791134503,
      1791134548,
      1791134566,
      1791134598,
      1791134636,
      1791134644,
      1791134657,
      1791134698,
      1791134712,
      1791134749,
      1791134757,
      1791134773
    ],
    "wof:geomhash": "2f1ddf67ad68a968ca38ace33df6bf0c",
    "wof:id": 2048515629,
    "wof:repo": "sfomuseum-data-flights-2026-10"
  },
  "bbox": [
    -122.47255,
    36.73395,
    -121.45729,
    37.71541
  ],
  "geometry": {"type":"LineString","coordinates":[[-122.36003,37.66766],[-122.37941,37.70795],[-122.42532,37.71541],[-122.45378,37.69552],[-122.46076,37.67308],[-122.46211,37.64597],[-122.46449,37.61195],[-122.46504,37.60611],[-122.46988,37.54924],[-122.47255,37.51836],[-122.43182,37.4592],[-122.42065,37.45186],[-122.35978,37.40598],[-122.33281,37.38596],[-122.32214,37.37797],[-122.2872,37.35189],[-122.25193,37.3259],[-122.18879,37.27937],[-122.14115,37.24432],[-122.11737,37.22661],[-122.04304,37.17135],[-122.02142,37.15536],[-121.96461,37.11246],[-121.92426,37.08242],[-121.85353,37.02979],[-121.82588,37.00912],[-121.77235,36.9698],[-121.70791,36.9227],[-121.69382,36.91213],[-121.67132,36.89566],[-121.59686,36.84009],[-121.57205,36.82155],[-121.5029,36.76888],[-121.48784,36.75739],[-121.45729,36.73395]]}
}
