{
  "id": 2048511563,
  "type": "Feature",
  "properties": {
    "date:cessation_lower": "2026-10-04",
    "date:cessation_upper": "2026-10-04",
    "date:inception_lower": "1970-01-01",
    "date:inception_upper": "1970-01-01",
    "edtf:cessation": "2026-10-04T08:32:09-07:00",
    "edtf:inception": "1970-01-01T00:00:00Z",
    "flysfo:actual_timestamp": -1,
    "flysfo:airline": "UA",
    "flysfo:base_airline": "",
    "flysfo:base_flight_number": "3783",
    "flysfo:date": "2026-10-04",
    "flysfo:estimated_timestamp": 1791153600,
    "flysfo:event": "A",
    "flysfo:flight_number": "UA59",
    "flysfo:gate": "G8",
    "flysfo:journey": "FRA-SFO",
    "flysfo:scheduled_timestamp": 1791152400,
    "flysfo:timestamp": 1791153600,
    "geom:area": 0,
    "geom:bbox": "-122.370943,37.617990,7.267284,49.945918",
    "geom:latitude": 43.781954,
    "geom:longitude": -57.5518295,
    "iata:airline": "UA",
    "iata:base_airline": "",
    "icao:aircraft": "B772",
    "icao:airline": "UAL",
    "icao:base_airline": "ACA",
    "lbl:latitude": 37.61836,
    "lbl:longitude": -122.393229,
    "sfomuseum:aircraft_id": 1159289985,
    "sfomuseum:airline_id": 1159285413,
    "sfomuseum:arrival_id": 102527513,
    "sfomuseum:base_flight_id": "20261004-A-ACA-3783",
    "sfomuseum:departure_id": 102549057,
    "sfomuseum:flight_id": "20261004-A-UAL-59",
    "sfomuseum:flight_number": [
      "UAL59",
      "UA59"
    ],
    "sfomuseum:placetype": "flight",
    "src:geom": "flysfo",
    "src:geom_alt": [
      "swim-approach"
    ],
    "swim:tail_number": "N77014",
    "wof:belongsto": [
      1947304067,
      102527513,
      1947304129,
      102191575,
      85633793,
      102087579,
      85922583,
      554784711,
      85688637,
      1947304133,
      1947304069,
      102085387
    ],
    "wof:country": "US",
    "wof:created": 1791216538,
    "wof:geomhash": "ec6660f1f317e7fe021c7c410168f722",
    "wof:hierarchy": [
      {
        "building_id": 1947304067,
        "campus_id": 102527513,
        "concourse_id": 1947304129,
        "continent_id": 102191575,
        "country_id": 85633793,
        "county_id": 102087579,
        "custom_id": 2048511563,
        "flight_id": 2048511563,
        "locality_id": 85922583,
        "postalcode_id": 554784711,
        "region_id": 85688637,
        "venue_id": 1947304133,
        "wing_id": 1947304069
      },
      {
        "building_id": 1947304067,
        "campus_id": 102527513,
        "concourse_id": 1947304129,
        "continent_id": 102191575,
        "country_id": 85633793,
        "county_id": 102085387,
        "custom_id": 2048511563,
        "flight_id": 2048511563,
        "region_id": 85688637,
        "venue_id": 1947304133,
        "wing_id": 1947304069
      }
    ],
    "wof:id": 2048511563,
    "wof:involves": [
      1159285413,
      1947304133,
      1159283597,
      1159289985,
      102527513,
      102549057
    ],
    "wof:lastmodified": 1791217162,
    "wof:name": "UA59 (FRA-SFO)",
    "wof:parent_id": 1947304133,
    "wof:placetype": "custom",
    "wof:placetype_alt": [
      "flight"
    ],
    "wof:repo": "sfomuseum-data-flights-2026-10",
    "wof:superseded_by": [],
    "wof:supersedes": []
  },
  "bbox": [
    -122.370943,
    37.61799,
    7.267284,
    49.945918
  ],
  "geometry": {"type":"MultiPoint","coordinates":[[7.267284,49.945918],[-122.370943,37.61799]]}
}
