{
  "id": 2048560207,
  "type": "Feature",
  "properties": {
    "geom:area": 0,
    "geom:bbox": "-122.437970,37.241680,-121.288910,37.702280",
    "geom:latitude": 37.42767105197681,
    "geom:longitude": -121.97040647847022,
    "src:alt_label": "swim-takeoff",
    "src:geom": "swim",
    "swim:elevations": [
      246,
      458,
      670,
      928,
      1186,
      1222,
      1337,
      1561,
      2025,
      2204,
      2853,
      3387,
      3427,
      3622,
      3808,
      4373,
      4865,
      5257,
      5469,
      5711,
      6145,
      6229,
      6678,
      6910,
      7024,
      7251,
      7517,
      7547,
      7627,
      7864,
      8219,
      8236,
      8507
    ],
    "swim:geom": "takeoff",
    "swim:timestamps": [
      1791530157,
      1791530178,
      1791530190,
      1791530210,
      1791530247,
      1791530252,
      1791530273,
      1791530301,
      1791530330,
      1791530341,
      1791530380,
      1791530429,
      1791530433,
      1791530448,
      1791530464,
      1791530501,
      1791530536,
      1791530578,
      1791530599,
      1791530622,
      1791530668,
      1791530675,
      1791530722,
      1791530748,
      1791530763,
      1791530788,
      1791530817,
      1791530820,
      1791530831,
      1791530858,
      1791530907,
      1791530911,
      1791530950
    ],
    "wof:geomhash": "61a7127e295c5c0390049758b8e18168",
    "wof:id": 2048560207,
    "wof:repo": "sfomuseum-data-flights-2026-10"
  },
  "bbox": [
    -122.43797,
    37.24168,
    -121.28891,
    37.70228
  ],
  "geometry": {"type":"LineString","coordinates":[[-122.36478,37.63506],[-122.36164,37.65129],[-122.36172,37.66048],[-122.36229,37.67498],[-122.37705,37.70033],[-122.38218,37.70228],[-122.41044,37.70005],[-122.43719,37.67418],[-122.43797,37.6355],[-122.43616,37.62139],[-122.43011,37.57022],[-122.41104,37.50587],[-122.40629,37.50123],[-122.38235,37.48742],[-122.35372,37.48091],[-122.28087,37.47144],[-122.21537,37.4579],[-122.13173,37.43854],[-122.08882,37.42862],[-122.04141,37.41779],[-121.94286,37.39527],[-121.9273,37.39169],[-121.82559,37.36804],[-121.76733,37.35458],[-121.73318,37.34663],[-121.67511,37.33308],[-121.60704,37.3172],[-121.60006,37.31556],[-121.57493,37.30962],[-121.5115,37.29456],[-121.39515,37.26659],[-121.38629,37.26449],[-121.28891,37.24168]]}
}
