{
  "id": 2048532949,
  "type": "Feature",
  "properties": {
    "date:inception_lower": "2026-10-06",
    "date:inception_upper": "2026-10-06",
    "edtf:cessation": "",
    "edtf:inception": "2026-10-06",
    "flysfo:actual_timestamp": -1,
    "flysfo:airline": "LX",
    "flysfo:base_airline": "",
    "flysfo:base_flight_number": "4064",
    "flysfo:date": "2026-10-06",
    "flysfo:estimated_timestamp": 1791326280,
    "flysfo:event": "D",
    "flysfo:flight_number": "LX3209",
    "flysfo:gate": "F13",
    "flysfo:journey": "SFO-ZRH",
    "flysfo:scheduled_timestamp": 1791321900,
    "flysfo:timestamp": 1791326280,
    "geom:area": 0,
    "geom:bbox": "-122.370943,37.617990,8.559692,47.455793",
    "geom:latitude": 42.536891499999996,
    "geom:longitude": -56.9056255,
    "iata:airline": "LX",
    "iata:base_airline": "",
    "icao:airline": "SWR",
    "icao:base_airline": "ACA",
    "lbl:latitude": 37.620534,
    "lbl:longitude": -122.388506,
    "sfomuseum:airline_id": 1159286475,
    "sfomuseum:arrival_id": 102553957,
    "sfomuseum:base_flight_id": "20261006-D-ACA-4064",
    "sfomuseum:departure_id": 102527513,
    "sfomuseum:flight_id": "20261006-D-SWR-3209",
    "sfomuseum:flight_number": [
      "SWR3209",
      "LX3209"
    ],
    "sfomuseum:placetype": "flight",
    "src:geom": "flysfo",
    "wof:belongsto": [
      1947304067,
      102527513,
      1947304451,
      102191575,
      85633793,
      102087579,
      85922583,
      554784711,
      85688637,
      1947304459,
      1947304447,
      102085387
    ],
    "wof:country": "US",
    "wof:created": 1791389660,
    "wof:geomhash": "75c5706ba72cddd7f95f840531183522",
    "wof:hierarchy": [
      {
        "building_id": 1947304067,
        "campus_id": 102527513,
        "concourse_id": 1947304451,
        "continent_id": 102191575,
        "country_id": 85633793,
        "county_id": 102087579,
        "custom_id": 2048532949,
        "flight_id": 2048532949,
        "locality_id": 85922583,
        "postalcode_id": 554784711,
        "region_id": 85688637,
        "venue_id": 1947304459,
        "wing_id": 1947304447
      },
      {
        "building_id": 1947304067,
        "campus_id": 102527513,
        "concourse_id": 1947304451,
        "continent_id": 102191575,
        "country_id": 85633793,
        "county_id": 102085387,
        "custom_id": 2048532949,
        "flight_id": 2048532949,
        "region_id": 85688637,
        "venue_id": 1947304459,
        "wing_id": 1947304447
      }
    ],
    "wof:id": 2048532949,
    "wof:involves": [
      102553957,
      102527513,
      1159286475,
      1947304459,
      1159283597
    ],
    "wof:lastmodified": 1791389660,
    "wof:name": "LX3209 (SFO-ZRH)",
    "wof:parent_id": 1947304459,
    "wof:placetype": "custom",
    "wof:placetype_alt": [
      "flight"
    ],
    "wof:repo": "sfomuseum-data-flights-2026-10",
    "wof:superseded_by": [],
    "wof:supersedes": []
  },
  "bbox": [
    -122.370943,
    37.61799,
    8.559692,
    47.455793
  ],
  "geometry": {"type":"MultiPoint","coordinates":[[-122.370943,37.61799],[8.559692,47.455793]]}
}
