{
  "id": 2048529475,
  "type": "Feature",
  "properties": {
    "geom:area": 0,
    "geom:bbox": "-122.352690,37.491900,-121.257010,37.611630",
    "geom:latitude": 37.54607155120907,
    "geom:longitude": -121.80959281576438,
    "src:alt_label": "swim-approach",
    "src:geom": "swim",
    "swim:elevations": [
      4676,
      4513,
      4127,
      3664,
      3492,
      3192,
      3167,
      3022,
      2816,
      2646,
      2568,
      2379,
      2009,
      1922,
      1848,
      1703,
      1503,
      1366,
      1171,
      1028,
      826,
      757,
      518,
      424,
      241,
      162,
      48
    ],
    "swim:geom": "approach",
    "swim:timestamps": [
      1791318945,
      1791318962,
      1791318999,
      1791319045,
      1791319060,
      1791319103,
      1791319112,
      1791319153,
      1791319196,
      1791319223,
      1791319244,
      1791319274,
      1791319315,
      1791319336,
      1791319353,
      1791319381,
      1791319408,
      1791319433,
      1791319464,
      1791319489,
      1791319528,
      1791319542,
      1791319588,
      1791319606,
      1791319644,
      1791319671,
      1791319699
    ],
    "wof:geomhash": "e3daa511b236df34d8258ed232dd2875",
    "wof:id": 2048529475,
    "wof:repo": "sfomuseum-data-flights-2026-10"
  },
  "bbox": [
    -122.35269,
    37.4919,
    -121.25701,
    37.61163
  ],
  "geometry": {"type":"LineString","coordinates":[[-121.25701,37.5936],[-121.29445,37.58875],[-121.37029,37.58048],[-121.46414,37.56963],[-121.49628,37.56586],[-121.58319,37.55565],[-121.60015,37.55368],[-121.67427,37.53887],[-121.74408,37.52225],[-121.78719,37.51191],[-121.81931,37.50431],[-121.8622,37.49405],[-121.92417,37.4919],[-121.95571,37.49296],[-121.98054,37.49423],[-122.01944,37.50493],[-122.05502,37.51631],[-122.08795,37.52717],[-122.12656,37.53965],[-122.15635,37.54931],[-122.1997,37.56334],[-122.21429,37.56801],[-122.26182,37.58332],[-122.2788,37.58812],[-122.31125,37.59793],[-122.33186,37.60406],[-122.35269,37.61163]]}
}
