{
  "id": 2048485245,
  "type": "Feature",
  "properties": {
    "geom:area": 0,
    "geom:bbox": "-123.463100,37.267470,-122.136920,37.614810",
    "geom:latitude": 37.39066490977063,
    "geom:longitude": -122.68933839271628,
    "src:alt_label": "swim-approach",
    "src:geom": "swim",
    "swim:elevations": [
      5660,
      5521,
      5397,
      5070,
      4778,
      4617,
      4413,
      4258,
      4094,
      3884,
      3584,
      3500,
      3435,
      3230,
      3088,
      3048,
      3048,
      3048,
      3048,
      2867,
      2742,
      2689,
      2591,
      2264,
      2245,
      2134,
      2134,
      2079,
      1876,
      1831,
      1679,
      1597,
      1219,
      1052,
      953,
      854,
      791,
      703,
      569,
      306,
      244,
      129,
      155
    ],
    "swim:geom": "approach",
    "swim:timestamps": [
      1790844356,
      1790844373,
      1790844390,
      1790844436,
      1790844476,
      1790844501,
      1790844529,
      1790844553,
      1790844574,
      1790844604,
      1790844648,
      1790844660,
      1790844669,
      1790844701,
      1790844724,
      1790844770,
      1790844800,
      1790844816,
      1790844855,
      1790844898,
      1790844926,
      1790844941,
      1790844961,
      1790845017,
      1790845024,
      1790845076,
      1790845097,
      1790845123,
      1790845162,
      1790845183,
      1790845212,
      1790845231,
      1790845287,
      1790845310,
      1790845328,
      1790845372,
      1790845392,
      1790845418,
      1790845445,
      1790845498,
      1790845518,
      1790845545,
      1790845576
    ],
    "wof:geomhash": "24a2bda0c006ff9167afb9c94bc1ab07",
    "wof:id": 2048485245,
    "wof:repo": "sfomuseum-data-flights-2026-10"
  },
  "bbox": [
    -123.4631,
    37.26747,
    -122.13692,
    37.61481
  ],
  "geometry": {"type":"LineString","coordinates":[[-123.4631,37.54525],[-123.43408,37.53151],[-123.40536,37.51785],[-123.32917,37.48154],[-123.26362,37.45016],[-123.22395,37.43123],[-123.17996,37.41012],[-123.1422,37.39208],[-123.11014,37.3767],[-123.06355,37.35424],[-122.99634,37.3219],[-122.97861,37.31332],[-122.96414,37.30628],[-122.91639,37.28326],[-122.88151,37.26747],[-122.80172,37.27174],[-122.75217,37.28334],[-122.72426,37.29007],[-122.65899,37.30559],[-122.59326,37.3208],[-122.55175,37.32371],[-122.53028,37.31769],[-122.50018,37.31719],[-122.41467,37.3256],[-122.40493,37.32648],[-122.32799,37.33342],[-122.29703,37.33611],[-122.25881,37.3394],[-122.20228,37.34461],[-122.17182,37.34809],[-122.14045,37.36749],[-122.13692,37.38904],[-122.14619,37.45294],[-122.14957,37.47626],[-122.15714,37.49483],[-122.18733,37.52841],[-122.2011,37.54324],[-122.22482,37.5577],[-122.25249,37.56944],[-122.30125,37.59003],[-122.31623,37.59635],[-122.3369,37.60501],[-122.35948,37.61481]]}
}
