{
  "id": 2048525535,
  "type": "Feature",
  "properties": {
    "date:inception_lower": "2026-10-05",
    "date:inception_upper": "2026-10-05",
    "edtf:cessation": "",
    "edtf:inception": "2026-10-05",
    "flysfo:actual_timestamp": -1,
    "flysfo:airline": "UA",
    "flysfo:base_airline": "",
    "flysfo:base_flight_number": "4223",
    "flysfo:date": "2026-10-05",
    "flysfo:estimated_timestamp": 1791259500,
    "flysfo:event": "D",
    "flysfo:flight_number": "UA8882",
    "flysfo:gate": "G9",
    "flysfo:journey": "SFO-MUC",
    "flysfo:scheduled_timestamp": 1791259500,
    "flysfo:timestamp": 1791259500,
    "geom:area": 0,
    "geom:bbox": "-122.370943,37.617990,11.776808,48.352681",
    "geom:latitude": 42.9853355,
    "geom:longitude": -55.2970675,
    "iata:airline": "UA",
    "iata:base_airline": "",
    "icao:airline": "UAL",
    "icao:base_airline": "ANZ",
    "lbl:latitude": 37.61844,
    "lbl:longitude": -122.392214,
    "sfomuseum:airline_id": 1159285413,
    "sfomuseum:arrival_id": 102549067,
    "sfomuseum:base_flight_id": "20261005-D-ANZ-4223",
    "sfomuseum:departure_id": 102527513,
    "sfomuseum:flight_id": "20261005-D-UAL-8882",
    "sfomuseum:flight_number": [
      "UAL8882",
      "UA8882"
    ],
    "sfomuseum:placetype": "flight",
    "src:geom": "flysfo",
    "wof:belongsto": [
      1947304067,
      102527513,
      1947304129,
      102191575,
      85633793,
      102087579,
      85922583,
      554784711,
      85688637,
      1947304153,
      1947304069,
      102085387
    ],
    "wof:country": "US",
    "wof:created": 1791303464,
    "wof:geomhash": "d9a5d9d800d6bc92413ff3768040f8da",
    "wof:hierarchy": [
      {
        "building_id": 1947304067,
        "campus_id": 102527513,
        "concourse_id": 1947304129,
        "continent_id": 102191575,
        "country_id": 85633793,
        "county_id": 102087579,
        "custom_id": 2048525535,
        "flight_id": 2048525535,
        "locality_id": 85922583,
        "postalcode_id": 554784711,
        "region_id": 85688637,
        "venue_id": 1947304153,
        "wing_id": 1947304069
      },
      {
        "building_id": 1947304067,
        "campus_id": 102527513,
        "concourse_id": 1947304129,
        "continent_id": 102191575,
        "country_id": 85633793,
        "county_id": 102085387,
        "custom_id": 2048525535,
        "flight_id": 2048525535,
        "region_id": 85688637,
        "venue_id": 1947304153,
        "wing_id": 1947304069
      }
    ],
    "wof:id": 2048525535,
    "wof:involves": [
      102549067,
      102527513,
      1159285413,
      1947304153,
      1159283697
    ],
    "wof:lastmodified": 1791303464,
    "wof:name": "UA8882 (SFO-MUC)",
    "wof:parent_id": 1947304153,
    "wof:placetype": "custom",
    "wof:placetype_alt": [
      "flight"
    ],
    "wof:repo": "sfomuseum-data-flights-2026-10",
    "wof:superseded_by": [],
    "wof:supersedes": []
  },
  "bbox": [
    -122.370943,
    37.61799,
    11.776808,
    48.352681
  ],
  "geometry": {"type":"MultiPoint","coordinates":[[-122.370943,37.61799],[11.776808,48.352681]]}
}
