{
  "id": 2048557555,
  "type": "Feature",
  "properties": {
    "geom:area": 0,
    "geom:bbox": "-123.328590,37.627890,-122.396920,38.505940",
    "geom:latitude": 38.02568791485918,
    "geom:longitude": -122.89589085285326,
    "src:alt_label": "swim-takeoff",
    "src:geom": "swim",
    "swim:elevations": [
      152,
      409,
      804,
      1026,
      1203,
      1343,
      1556,
      1871,
      2285,
      2741,
      2843,
      3244,
      3417,
      3608,
      3930,
      4285,
      4556,
      4913,
      5153,
      5444,
      5847,
      5980,
      6312,
      6614,
      6764,
      6792,
      7122
    ],
    "swim:geom": "takeoff",
    "swim:timestamps": [
      1791595284,
      1791595302,
      1791595333,
      1791595363,
      1791595393,
      1791595411,
      1791595441,
      1791595474,
      1791595513,
      1791595555,
      1791595564,
      1791595612,
      1791595642,
      1791595663,
      1791595696,
      1791595730,
      1791595759,
      1791595794,
      1791595816,
      1791595846,
      1791595881,
      1791595896,
      1791595935,
      1791595968,
      1791595983,
      1791595986,
      1791596031
    ],
    "wof:geomhash": "03a0e3834eed94fde3810704b6925193",
    "wof:id": 2048557555,
    "wof:repo": "sfomuseum-data-flights-2026-10"
  },
  "bbox": [
    -123.32859,
    37.62789,
    -122.39692,
    38.50594
  ],
  "geometry": {"type":"LineString","coordinates":[[-122.39692,37.62789],[-122.41625,37.63629],[-122.44617,37.64935],[-122.4771,37.66325],[-122.51137,37.6795],[-122.53229,37.69181],[-122.56993,37.71399],[-122.61329,37.73964],[-122.66705,37.77098],[-122.72621,37.8058],[-122.73903,37.81341],[-122.79395,37.86828],[-122.82735,37.90862],[-122.85163,37.9382],[-122.89068,37.98532],[-122.93245,38.0355],[-122.96826,38.07832],[-123.01309,38.13182],[-123.04031,38.16429],[-123.07875,38.21017],[-123.12382,38.2639],[-123.14363,38.28749],[-123.19591,38.34952],[-123.24135,38.40289],[-123.26202,38.42716],[-123.26608,38.43209],[-123.32859,38.50594]]}
}
