{
  "id": 2048497091,
  "type": "Feature",
  "properties": {
    "geom:area": 0,
    "geom:bbox": "-122.385890,37.631720,-121.247510,37.991230",
    "geom:latitude": 37.93614659730408,
    "geom:longitude": -121.93943441821172,
    "src:alt_label": "swim-takeoff",
    "src:geom": "swim",
    "swim:elevations": [
      183,
      521,
      674,
      794,
      1063,
      1454,
      1563,
      1727,
      1957,
      2439,
      2761,
      2881,
      3287,
      3425,
      3488,
      3786,
      3819,
      3961,
      4168,
      4631,
      4808,
      5091,
      5166,
      5646,
      5889,
      6077,
      6174,
      6450,
      6679,
      6798
    ],
    "swim:geom": "takeoff",
    "swim:timestamps": [
      1790985423,
      1790985456,
      1790985490,
      1790985517,
      1790985562,
      1790985595,
      1790985604,
      1790985619,
      1790985640,
      1790985685,
      1790985715,
      1790985727,
      1790985777,
      1790985801,
      1790985814,
      1790985860,
      1790985865,
      1790985879,
      1790985900,
      1790985957,
      1790985982,
      1790986012,
      1790986020,
      1790986074,
      1790986104,
      1790986131,
      1790986144,
      1790986179,
      1790986207,
      1790986232
    ],
    "wof:geomhash": "cc591948389347ce368b0807cb629fe0",
    "wof:id": 2048497091,
    "wof:repo": "sfomuseum-data-flights-2026-10"
  },
  "bbox": [
    -122.38589,
    37.63172,
    -121.24751,
    37.99123
  ],
  "geometry": {"type":"LineString","coordinates":[[-122.36406,37.63172],[-122.34451,37.65181],[-122.31905,37.67323],[-122.30952,37.69814],[-122.33431,37.74838],[-122.35732,37.78732],[-122.36307,37.79821],[-122.3725,37.81633],[-122.38506,37.84194],[-122.38589,37.90291],[-122.36555,37.93936],[-122.34849,37.94925],[-122.26492,37.96779],[-122.22102,37.97451],[-122.19598,37.97896],[-122.10324,37.989],[-122.09286,37.98894],[-122.06328,37.98902],[-122.0186,37.98914],[-121.8942,37.98967],[-121.83907,37.98992],[-121.76911,37.99033],[-121.75138,37.99037],[-121.62676,37.99077],[-121.55627,37.99093],[-121.49237,37.99106],[-121.46127,37.99108],[-121.37619,37.99121],[-121.30781,37.99123],[-121.24751,37.99117]]}
}
