{
  "id": 2048534345,
  "type": "Feature",
  "properties": {
    "geom:area": 0,
    "geom:bbox": "-122.360580,37.491510,-121.253420,37.614940",
    "geom:latitude": 37.546662877687716,
    "geom:longitude": -121.8119778782261,
    "src:alt_label": "swim-approach",
    "src:geom": "swim",
    "swim:elevations": [
      4603,
      4374,
      4196,
      4106,
      3850,
      3646,
      3508,
      3491,
      3438,
      3282,
      2767,
      2537,
      2366,
      2212,
      2069,
      1861,
      1829,
      1703,
      1605,
      1337,
      1202,
      1097,
      915,
      914,
      798,
      690,
      579,
      485,
      427,
      304,
      190,
      58,
      102
    ],
    "swim:geom": "approach",
    "swim:timestamps": [
      1791413006,
      1791413030,
      1791413054,
      1791413066,
      1791413099,
      1791413127,
      1791413157,
      1791413174,
      1791413202,
      1791413221,
      1791413272,
      1791413297,
      1791413338,
      1791413365,
      1791413397,
      1791413429,
      1791413459,
      1791413480,
      1791413492,
      1791413522,
      1791413540,
      1791413558,
      1791413607,
      1791413617,
      1791413654,
      1791413671,
      1791413687,
      1791413726,
      1791413741,
      1791413777,
      1791413801,
      1791413836,
      1791413851
    ],
    "wof:geomhash": "3ece401d05bc07847b50454fdc7b7137",
    "wof:id": 2048534345,
    "wof:repo": "sfomuseum-data-flights-2026-10"
  },
  "bbox": [
    -122.36058,
    37.49151,
    -121.25342,
    37.61494
  ],
  "geometry": {"type":"LineString","coordinates":[[-121.25342,37.5942],[-121.29811,37.58831],[-121.34276,37.58331],[-121.36572,37.58068],[-121.42776,37.57375],[-121.48098,37.56753],[-121.53571,37.56121],[-121.56433,37.55787],[-121.61172,37.55234],[-121.64159,37.54696],[-121.71713,37.5287],[-121.75252,37.52013],[-121.81052,37.50605],[-121.85004,37.49666],[-121.89591,37.49151],[-121.94022,37.49253],[-121.98159,37.49402],[-122.00907,37.50123],[-122.02463,37.50624],[-122.06307,37.519],[-122.0854,37.52621],[-122.10436,37.53214],[-122.15244,37.54771],[-122.16269,37.55105],[-122.19741,37.5623],[-122.21344,37.56745],[-122.22806,37.57222],[-122.26278,37.58348],[-122.27453,37.58694],[-122.30374,37.5955],[-122.32328,37.60116],[-122.35033,37.61063],[-122.36058,37.61494]]}
}
