{
  "id": 2048555609,
  "type": "Feature",
  "properties": {
    "geom:area": 0,
    "geom:bbox": "-122.357110,37.491260,-121.317220,37.613340",
    "geom:latitude": 37.54394214069828,
    "geom:longitude": -121.84172732526896,
    "src:alt_label": "swim-approach",
    "src:geom": "swim",
    "swim:elevations": [
      4289,
      4077,
      4009,
      3703,
      3490,
      3236,
      3109,
      3045,
      2870,
      2647,
      2542,
      2413,
      2286,
      2106,
      1939,
      1857,
      1675,
      1553,
      1361,
      1286,
      1094,
      881,
      851,
      733,
      514,
      449,
      271,
      114,
      15
    ],
    "swim:geom": "approach",
    "swim:timestamps": [
      1791546350,
      1791546382,
      1791546394,
      1791546428,
      1791546454,
      1791546488,
      1791546525,
      1791546561,
      1791546592,
      1791546628,
      1791546646,
      1791546682,
      1791546704,
      1791546738,
      1791546777,
      1791546800,
      1791546837,
      1791546860,
      1791546893,
      1791546908,
      1791546948,
      1791546988,
      1791546997,
      1791547023,
      1791547072,
      1791547088,
      1791547130,
      1791547168,
      1791547189
    ],
    "wof:geomhash": "5f1a8ac9ff445fb3c53ae841278318d2",
    "wof:id": 2048555609,
    "wof:repo": "sfomuseum-data-flights-2026-10"
  },
  "bbox": [
    -122.35711,
    37.49126,
    -121.31722,
    37.61334
  ],
  "geometry": {"type":"LineString","coordinates":[[-121.31722,37.58622],[-121.37537,37.58003],[-121.39593,37.57781],[-121.45079,37.57121],[-121.49022,37.56637],[-121.54048,37.5606],[-121.59294,37.55442],[-121.64407,37.54611],[-121.68777,37.53577],[-121.7364,37.52412],[-121.76125,37.51824],[-121.81085,37.50633],[-121.84158,37.49888],[-121.88916,37.49126],[-121.94412,37.49275],[-121.97392,37.49366],[-122.01763,37.50442],[-122.04369,37.51279],[-122.08078,37.52485],[-122.09796,37.53035],[-122.14182,37.5446],[-122.1834,37.55821],[-122.19202,37.56098],[-122.21629,37.56849],[-122.25934,37.5828],[-122.27196,37.58629],[-122.30752,37.59669],[-122.33986,37.60639],[-122.35711,37.61334]]}
}
