{
  "id": 2048533741,
  "type": "Feature",
  "properties": {
    "geom:area": 0,
    "geom:bbox": "-123.505710,37.024430,-122.392170,37.669180",
    "geom:latitude": 37.377150014571036,
    "geom:longitude": -122.95532217692053,
    "src:alt_label": "swim-takeoff",
    "src:geom": "swim",
    "swim:elevations": [
      122,
      448,
      721,
      947,
      975,
      1184,
      1204,
      1386,
      1868,
      2078,
      2469,
      2800,
      3113,
      3135,
      3199,
      3296,
      3363,
      3506,
      3662,
      3689,
      3948,
      4094,
      4226,
      4525,
      4634,
      4978,
      5105,
      5340,
      5485
    ],
    "swim:geom": "takeoff",
    "swim:timestamps": [
      1791330056,
      1791330082,
      1791330115,
      1791330147,
      1791330160,
      1791330207,
      1791330210,
      1791330240,
      1791330291,
      1791330309,
      1791330345,
      1791330379,
      1791330412,
      1791330438,
      1791330458,
      1791330497,
      1791330517,
      1791330540,
      1791330568,
      1791330572,
      1791330600,
      1791330622,
      1791330637,
      1791330679,
      1791330694,
      1791330742,
      1791330760,
      1791330799,
      1791330822
    ],
    "wof:geomhash": "794eca50a6474818e37dad14005d39f5",
    "wof:id": 2048533741,
    "wof:repo": "sfomuseum-data-flights-2026-10"
  },
  "bbox": [
    -123.50571,
    37.02443,
    -122.39217,
    37.66918
  ],
  "geometry": {"type":"LineString","coordinates":[[-122.39217,37.62581],[-122.41692,37.63603],[-122.44703,37.64982],[-122.47767,37.66365],[-122.49115,37.66918],[-122.54397,37.65087],[-122.54711,37.6486],[-122.58085,37.62563],[-122.64276,37.58587],[-122.66525,37.57142],[-122.70992,37.54246],[-122.75319,37.51455],[-122.7955,37.48704],[-122.83078,37.46445],[-122.85922,37.44593],[-122.92088,37.40588],[-122.95452,37.38417],[-122.99364,37.35883],[-123.04258,37.32722],[-123.05009,37.32235],[-123.09968,37.29028],[-123.13834,37.2651],[-123.16527,37.24736],[-123.24156,37.19737],[-123.26968,37.17895],[-123.35739,37.12154],[-123.39062,37.09971],[-123.46233,37.0527],[-123.50571,37.02443]]}
}
