{
  "id": 2048549639,
  "type": "Feature",
  "properties": {
    "geom:area": 0,
    "geom:bbox": "-122.365810,37.629470,-121.464910,38.494640",
    "geom:latitude": 38.05564740384968,
    "geom:longitude": -121.91098799267318,
    "src:alt_label": "swim-takeoff",
    "src:geom": "swim",
    "swim:elevations": [
      183,
      531,
      666,
      896,
      1025,
      1521,
      1985,
      2469,
      2915,
      3327,
      3505,
      3537,
      4152,
      4473,
      4659,
      5037,
      5366,
      5934,
      6061,
      6420,
      6616,
      6879,
      7055,
      7207
    ],
    "swim:geom": "takeoff",
    "swim:timestamps": [
      1791452300,
      1791452327,
      1791452352,
      1791452388,
      1791452400,
      1791452437,
      1791452467,
      1791452504,
      1791452538,
      1791452571,
      1791452606,
      1791452616,
      1791452664,
      1791452688,
      1791452718,
      1791452754,
      1791452784,
      1791452843,
      1791452858,
      1791452903,
      1791452924,
      1791452957,
      1791452983,
      1791453003
    ],
    "wof:geomhash": "7cee6bef71c722868426f109905d518b",
    "wof:id": 2048549639,
    "wof:repo": "sfomuseum-data-flights-2026-10"
  },
  "bbox": [
    -122.36581,
    37.62947,
    -121.46491,
    38.49464
  ],
  "geometry": {"type":"LineString","coordinates":[[-122.36581,37.62947],[-122.34957,37.64537],[-122.32743,37.65675],[-122.28868,37.67918],[-122.27378,37.68742],[-122.22426,37.71371],[-122.19219,37.74213],[-122.15659,37.78233],[-122.12241,37.82007],[-122.08912,37.85662],[-122.04944,37.90059],[-122.0365,37.91486],[-121.97659,37.98117],[-121.94534,38.01552],[-121.90522,38.06023],[-121.85519,38.11436],[-121.81455,38.15823],[-121.72858,38.25086],[-121.7071,38.27454],[-121.64136,38.34687],[-121.60925,38.38138],[-121.55797,38.43298],[-121.50863,38.46866],[-121.46491,38.49464]]}
}
