{
  "id": 2048533637,
  "type": "Feature",
  "properties": {
    "geom:area": 0,
    "geom:bbox": "-122.464260,37.191720,-121.253870,37.701570",
    "geom:latitude": 37.37967856150406,
    "geom:longitude": -121.97608455861402,
    "src:alt_label": "swim-takeoff",
    "src:geom": "swim",
    "swim:elevations": [
      237,
      490,
      889,
      1020,
      1224,
      1399,
      1584,
      1743,
      2251,
      2716,
      2919,
      3305,
      3515,
      3606,
      4105,
      4388,
      4617,
      4939,
      5092,
      5507,
      5703,
      6183,
      6442,
      6603,
      6845,
      7067,
      7201,
      7483,
      7675
    ],
    "swim:geom": "takeoff",
    "swim:timestamps": [
      1791334464,
      1791334485,
      1791334527,
      1791334542,
      1791334572,
      1791334593,
      1791334635,
      1791334655,
      1791334700,
      1791334733,
      1791334751,
      1791334786,
      1791334817,
      1791334838,
      1791334883,
      1791334913,
      1791334937,
      1791334967,
      1791334982,
      1791335027,
      1791335045,
      1791335096,
      1791335127,
      1791335145,
      1791335175,
      1791335205,
      1791335223,
      1791335257,
      1791335292
    ],
    "wof:geomhash": "96322bd30a6d943c8bf20c0eb6fe2fd3",
    "wof:id": 2048533637,
    "wof:repo": "sfomuseum-data-flights-2026-10"
  },
  "bbox": [
    -122.46426,
    37.19172,
    -121.25387,
    37.70157
  ],
  "geometry": {"type":"LineString","coordinates":[[-122.36556,37.63388],[-122.36106,37.64855],[-122.3619,37.67854],[-122.36307,37.68933],[-122.38364,37.70157],[-122.40073,37.69389],[-122.41535,37.65607],[-122.42255,37.63429],[-122.44183,37.58024],[-122.45636,37.54037],[-122.46426,37.51797],[-122.4493,37.47471],[-122.40585,37.44874],[-122.37131,37.42996],[-122.28412,37.39959],[-122.21876,37.38738],[-122.16486,37.37707],[-122.0952,37.36333],[-122.05993,37.35634],[-121.95154,37.33467],[-121.90729,37.32572],[-121.78017,37.29992],[-121.70035,37.28378],[-121.65423,37.27435],[-121.57579,37.25831],[-121.49586,37.24189],[-121.447,37.23186],[-121.35139,37.21221],[-121.25387,37.19172]]}
}
