{
  "id": 2048537881,
  "type": "Feature",
  "properties": {
    "date:inception_lower": "2026-10-07",
    "date:inception_upper": "2026-10-07",
    "edtf:cessation": "",
    "edtf:inception": "2026-10-07",
    "flysfo:actual_timestamp": -1,
    "flysfo:airline": "UA",
    "flysfo:date": "2026-10-07",
    "flysfo:estimated_timestamp": 1791401760,
    "flysfo:event": "A",
    "flysfo:flight_number": "UA3901",
    "flysfo:gate": "",
    "flysfo:journey": "EWR-SFO",
    "flysfo:scheduled_timestamp": 1791401760,
    "flysfo:timestamp": 1791401760,
    "geom:area": 0,
    "geom:bbox": "-122.370943,37.617990,-74.177526,40.691243",
    "geom:latitude": 39.1546165,
    "geom:longitude": -98.2742345,
    "iata:airline": "UA",
    "icao:airline": "UAL",
    "lbl:latitude": 37.61799,
    "lbl:longitude": -122.370943,
    "sfomuseum:airline_id": 1159285413,
    "sfomuseum:arrival_id": 102527513,
    "sfomuseum:departure_id": 102530049,
    "sfomuseum:flight_id": "20261007-A-UAL-3901",
    "sfomuseum:flight_number": [
      "UAL3901",
      "UA3901"
    ],
    "sfomuseum:placetype": "flight",
    "src:geom": "flysfo",
    "wof:belongsto": [],
    "wof:country": "US",
    "wof:created": 1791475693,
    "wof:geomhash": "5afbf99c4360a00cfc0890f48cccf304",
    "wof:hierarchy": [
      {
        "custom_id": 2048537881,
        "flight_id": 2048537881
      }
    ],
    "wof:id": 2048537881,
    "wof:involves": [
      102527513,
      102530049,
      1159285413,
      -1
    ],
    "wof:lastmodified": 1791475693,
    "wof:name": "UA3901 (EWR-SFO)",
    "wof:parent_id": -1,
    "wof:placetype": "custom",
    "wof:placetype_alt": [
      "flight"
    ],
    "wof:repo": "sfomuseum-data-flights-2026-10",
    "wof:superseded_by": [],
    "wof:supersedes": []
  },
  "bbox": [
    -122.370943,
    37.61799,
    -74.177526,
    40.691243
  ],
  "geometry": {"type":"MultiPoint","coordinates":[[-74.177526,40.691243],[-122.370943,37.61799]]}
}
