{
  "id": 2048515689,
  "type": "Feature",
  "properties": {
    "geom:area": 0,
    "geom:bbox": "-123.486780,37.416720,-122.400060,37.671020",
    "geom:latitude": 37.556578402464595,
    "geom:longitude": -122.94170218127786,
    "src:alt_label": "swim-takeoff",
    "src:geom": "swim",
    "swim:elevations": [
      183,
      563,
      924,
      1024,
      1087,
      1229,
      1579,
      1830,
      2164,
      2427,
      3061,
      3089,
      3387,
      3444,
      3651,
      3990,
      4171,
      4465,
      4660,
      4992,
      5274,
      5397,
      5703,
      5826
    ],
    "swim:geom": "takeoff",
    "swim:timestamps": [
      1791102975,
      1791103012,
      1791103047,
      1791103062,
      1791103075,
      1791103098,
      1791103135,
      1791103156,
      1791103185,
      1791103209,
      1791103257,
      1791103260,
      1791103312,
      1791103321,
      1791103353,
      1791103390,
      1791103410,
      1791103437,
      1791103457,
      1791103491,
      1791103521,
      1791103537,
      1791103576,
      1791103590
    ],
    "wof:geomhash": "f485a7db232287c0ed07827a7e49c05e",
    "wof:id": 2048515689,
    "wof:repo": "sfomuseum-data-flights-2026-10"
  },
  "bbox": [
    -123.48678,
    37.41672,
    -122.40006,
    37.67102
  ],
  "geometry": {"type":"LineString","coordinates":[[-122.40006,37.62925],[-122.43852,37.64555],[-122.47604,37.66214],[-122.49208,37.66854],[-122.50896,37.67102],[-122.5412,37.66548],[-122.59581,37.65026],[-122.62832,37.64115],[-122.67341,37.62961],[-122.71218,37.6202],[-122.79109,37.59986],[-122.79612,37.59858],[-122.88708,37.57518],[-122.90478,37.57056],[-122.96951,37.55365],[-123.0472,37.53333],[-123.08862,37.52234],[-123.14823,37.50663],[-123.19168,37.49521],[-123.26424,37.47608],[-123.33016,37.45861],[-123.36662,37.44883],[-123.45449,37.42539],[-123.48678,37.41672]]}
}
