{
  "id": 2048543629,
  "type": "Feature",
  "properties": {
    "date:inception_lower": "2026-10-08",
    "date:inception_upper": "2026-10-08",
    "edtf:cessation": "",
    "edtf:inception": "2026-10-08",
    "flysfo:actual_timestamp": -1,
    "flysfo:airline": "AC",
    "flysfo:base_airline": "",
    "flysfo:base_flight_number": "5031",
    "flysfo:date": "2026-10-08",
    "flysfo:estimated_timestamp": 1791515580,
    "flysfo:event": "A",
    "flysfo:flight_number": "AC5031",
    "flysfo:gate": "G1",
    "flysfo:journey": "FRA-SFO",
    "flysfo:scheduled_timestamp": 1791514200,
    "flysfo:timestamp": 1791515580,
    "geom:area": 0,
    "geom:bbox": "-122.370943,37.617990,7.267284,49.945918",
    "geom:latitude": 43.781954,
    "geom:longitude": -57.5518295,
    "iata:airline": "AC",
    "iata:base_airline": "",
    "icao:airline": "ACA",
    "icao:base_airline": "ACA",
    "lbl:latitude": 37.617321,
    "lbl:longitude": -122.389477,
    "sfomuseum:airline_id": 1159283597,
    "sfomuseum:arrival_id": 102527513,
    "sfomuseum:base_flight_id": "20261008-A-ACA-5031",
    "sfomuseum:departure_id": 102549057,
    "sfomuseum:flight_id": "20261008-A-ACA-5031",
    "sfomuseum:flight_number": [
      "ACA5031",
      "AC5031"
    ],
    "sfomuseum:placetype": "flight",
    "src:geom": "flysfo",
    "wof:belongsto": [
      1947304067,
      102527513,
      1947304129,
      102191575,
      85633793,
      102087579,
      85922583,
      554784711,
      85688637,
      1947304155,
      1947304069,
      102085387
    ],
    "wof:country": "US",
    "wof:created": 1791561771,
    "wof:geomhash": "ec6660f1f317e7fe021c7c410168f722",
    "wof:hierarchy": [
      {
        "building_id": 1947304067,
        "campus_id": 102527513,
        "concourse_id": 1947304129,
        "continent_id": 102191575,
        "country_id": 85633793,
        "county_id": 102087579,
        "custom_id": 2048543629,
        "flight_id": 2048543629,
        "locality_id": 85922583,
        "postalcode_id": 554784711,
        "region_id": 85688637,
        "venue_id": 1947304155,
        "wing_id": 1947304069
      },
      {
        "building_id": 1947304067,
        "campus_id": 102527513,
        "concourse_id": 1947304129,
        "continent_id": 102191575,
        "country_id": 85633793,
        "county_id": 102085387,
        "custom_id": 2048543629,
        "flight_id": 2048543629,
        "region_id": 85688637,
        "venue_id": 1947304155,
        "wing_id": 1947304069
      }
    ],
    "wof:id": 2048543629,
    "wof:involves": [
      102527513,
      102549057,
      1159283597,
      1947304155,
      1159283597
    ],
    "wof:lastmodified": 1791561771,
    "wof:name": "AC5031 (FRA-SFO)",
    "wof:parent_id": 1947304155,
    "wof:placetype": "custom",
    "wof:placetype_alt": [
      "flight"
    ],
    "wof:repo": "sfomuseum-data-flights-2026-10",
    "wof:superseded_by": [],
    "wof:supersedes": []
  },
  "bbox": [
    -122.370943,
    37.61799,
    7.267284,
    49.945918
  ],
  "geometry": {"type":"MultiPoint","coordinates":[[7.267284,49.945918],[-122.370943,37.61799]]}
}
