{
  "id": 2048502403,
  "type": "Feature",
  "properties": {
    "geom:area": 0,
    "geom:bbox": "-122.364760,37.491330,-121.300370,37.616740",
    "geom:latitude": 37.54508644293311,
    "geom:longitude": -121.83745341830524,
    "src:alt_label": "swim-approach",
    "src:geom": "swim",
    "swim:elevations": [
      4387,
      4154,
      3770,
      3583,
      3190,
      3130,
      3050,
      2857,
      2715,
      2575,
      2515,
      2231,
      2104,
      1962,
      1829,
      1635,
      1452,
      1143,
      1059,
      964,
      692,
      608,
      459,
      352,
      181,
      59,
      0
    ],
    "swim:geom": "approach",
    "swim:timestamps": [
      1791037970,
      1791037995,
      1791038032,
      1791038053,
      1791038094,
      1791038122,
      1791038147,
      1791038177,
      1791038214,
      1791038245,
      1791038253,
      1791038286,
      1791038312,
      1791038343,
      1791038378,
      1791038409,
      1791038438,
      1791038487,
      1791038507,
      1791038525,
      1791038577,
      1791038599,
      1791038632,
      1791038655,
      1791038696,
      1791038725,
      1791038744
    ],
    "wof:geomhash": "a84d6e358cd9f3a813ddee3a694539ab",
    "wof:id": 2048502403,
    "wof:repo": "sfomuseum-data-flights-2026-10"
  },
  "bbox": [
    -122.36476,
    37.49133,
    -121.30037,
    37.61674
  ],
  "geometry": {"type":"LineString","coordinates":[[-121.30037,37.58791],[-121.35177,37.58223],[-121.42954,37.57374],[-121.47261,37.56868],[-121.55472,37.55908],[-121.60885,37.55252],[-121.65188,37.54424],[-121.70026,37.53289],[-121.76001,37.51857],[-121.80431,37.50792],[-121.81619,37.50504],[-121.86101,37.49423],[-121.89725,37.49133],[-121.94097,37.4926],[-121.99053,37.49591],[-122.0306,37.50852],[-122.06945,37.52107],[-122.13016,37.54065],[-122.15307,37.54813],[-122.17114,37.55395],[-122.22042,37.56985],[-122.24054,37.57621],[-122.27096,37.58599],[-122.29192,37.59206],[-122.32629,37.60229],[-122.34941,37.61026],[-122.36476,37.61674]]}
}
