{
  "id": 2048560331,
  "type": "Feature",
  "properties": {
    "date:cessation_lower": "1970-01-01",
    "date:cessation_upper": "1970-01-01",
    "date:inception_lower": "2026-10-09",
    "date:inception_upper": "2026-10-09",
    "edtf:cessation": "1970-01-01T00:00:00Z",
    "edtf:inception": "2026-10-09T11:17:24-07:00",
    "flysfo:actual_timestamp": -1,
    "flysfo:airline": "UA",
    "flysfo:base_airline": "",
    "flysfo:base_flight_number": "7320",
    "flysfo:date": "2026-10-09",
    "flysfo:estimated_timestamp": 1791592860,
    "flysfo:event": "D",
    "flysfo:flight_number": "UA2282",
    "flysfo:gate": "E4",
    "flysfo:journey": "SFO-LAX",
    "flysfo:scheduled_timestamp": 1791592860,
    "flysfo:timestamp": 1791592860,
    "geom:area": 0,
    "geom:bbox": "-122.370943,33.942593,-118.389510,37.617990",
    "geom:latitude": 35.780291500000004,
    "geom:longitude": -120.38022649999999,
    "iata:airline": "UA",
    "iata:base_airline": "",
    "icao:aircraft": "B738",
    "icao:airline": "UAL",
    "icao:base_airline": "CCA",
    "lbl:latitude": 37.618161,
    "lbl:longitude": -122.384735,
    "sfomuseum:aircraft_id": 1159289871,
    "sfomuseum:airline_id": 1159285413,
    "sfomuseum:arrival_id": 102533795,
    "sfomuseum:base_flight_id": "20261009-D-CCA-7320",
    "sfomuseum:departure_id": 102527513,
    "sfomuseum:flight_id": "20261009-D-UAL-2282",
    "sfomuseum:flight_number": [
      "UAL2282",
      "UA2282"
    ],
    "sfomuseum:placetype": "flight",
    "src:geom": "flysfo",
    "src:geom_alt": [
      "swim-takeoff"
    ],
    "swim:tail_number": "N26210",
    "wof:belongsto": [
      1763588121,
      102527513,
      1763588335,
      102191575,
      85633793,
      102087579,
      85922583,
      554784711,
      85688637,
      1763588337,
      1763588269,
      102085387
    ],
    "wof:country": "US",
    "wof:created": 1791648989,
    "wof:geomhash": "602be2a828e3460cadf44be5b1c2e36b",
    "wof:hierarchy": [
      {
        "building_id": 1763588121,
        "campus_id": 102527513,
        "concourse_id": 1763588335,
        "continent_id": 102191575,
        "country_id": 85633793,
        "county_id": 102087579,
        "custom_id": 2048560331,
        "flight_id": 2048560331,
        "locality_id": 85922583,
        "postalcode_id": 554784711,
        "region_id": 85688637,
        "venue_id": 1763588337,
        "wing_id": 1763588269
      },
      {
        "building_id": 1763588121,
        "campus_id": 102527513,
        "concourse_id": 1763588335,
        "continent_id": 102191575,
        "country_id": 85633793,
        "county_id": 102085387,
        "custom_id": 2048560331,
        "flight_id": 2048560331,
        "region_id": 85688637,
        "venue_id": 1763588337,
        "wing_id": 1763588269
      }
    ],
    "wof:id": 2048560331,
    "wof:involves": [
      1159285413,
      1763588337,
      1159283605,
      1159289871,
      102533795,
      102527513
    ],
    "wof:lastmodified": 1791649165,
    "wof:name": "UA2282 (SFO-LAX)",
    "wof:parent_id": 1763588337,
    "wof:placetype": "custom",
    "wof:placetype_alt": [
      "flight"
    ],
    "wof:repo": "sfomuseum-data-flights-2026-10",
    "wof:superseded_by": [],
    "wof:supersedes": []
  },
  "bbox": [
    -122.370943,
    33.942593,
    -118.38951,
    37.61799
  ],
  "geometry": {"type":"MultiPoint","coordinates":[[-122.370943,37.61799],[-118.38951,33.942593]]}
}
