{
  "id": 2048498537,
  "type": "Feature",
  "properties": {
    "date:inception_lower": "2026-10-02",
    "date:inception_upper": "2026-10-02",
    "edtf:cessation": "",
    "edtf:inception": "2026-10-02",
    "flysfo:actual_timestamp": -1,
    "flysfo:airline": "UA",
    "flysfo:date": "2026-10-02",
    "flysfo:estimated_timestamp": 1790979360,
    "flysfo:event": "D",
    "flysfo:flight_number": "UA3881",
    "flysfo:gate": "F17",
    "flysfo:journey": "SFO-HNL",
    "flysfo:scheduled_timestamp": 1790976600,
    "flysfo:timestamp": 1790979360,
    "geom:area": 0,
    "geom:bbox": "-157.918416,21.332508,-122.370943,37.617990",
    "geom:latitude": 29.475248999999998,
    "geom:longitude": -140.1446795,
    "iata:airline": "UA",
    "icao:airline": "UAL",
    "lbl:latitude": 37.620791,
    "lbl:longitude": -122.390014,
    "sfomuseum:airline_id": 1159285413,
    "sfomuseum:arrival_id": 102533997,
    "sfomuseum:departure_id": 102527513,
    "sfomuseum:flight_id": "20261002-D-UAL-3881",
    "sfomuseum:flight_number": [
      "UAL3881",
      "UA3881"
    ],
    "sfomuseum:placetype": "flight",
    "src:geom": "flysfo",
    "wof:belongsto": [
      1947304067,
      102527513,
      1947304451,
      102191575,
      85633793,
      102087579,
      85922583,
      554784711,
      85688637,
      1947304473,
      1947304447,
      102085387
    ],
    "wof:country": "US",
    "wof:created": 1791044177,
    "wof:geomhash": "ff961493fc59fc665836e174da62aa8e",
    "wof:hierarchy": [
      {
        "building_id": 1947304067,
        "campus_id": 102527513,
        "concourse_id": 1947304451,
        "continent_id": 102191575,
        "country_id": 85633793,
        "county_id": 102087579,
        "custom_id": 2048498537,
        "flight_id": 2048498537,
        "locality_id": 85922583,
        "postalcode_id": 554784711,
        "region_id": 85688637,
        "venue_id": 1947304473,
        "wing_id": 1947304447
      },
      {
        "building_id": 1947304067,
        "campus_id": 102527513,
        "concourse_id": 1947304451,
        "continent_id": 102191575,
        "country_id": 85633793,
        "county_id": 102085387,
        "custom_id": 2048498537,
        "flight_id": 2048498537,
        "region_id": 85688637,
        "venue_id": 1947304473,
        "wing_id": 1947304447
      }
    ],
    "wof:id": 2048498537,
    "wof:involves": [
      102533997,
      102527513,
      1159285413,
      1947304473
    ],
    "wof:lastmodified": 1791044177,
    "wof:name": "UA3881 (SFO-HNL)",
    "wof:parent_id": 1947304473,
    "wof:placetype": "custom",
    "wof:placetype_alt": [
      "flight"
    ],
    "wof:repo": "sfomuseum-data-flights-2026-10",
    "wof:superseded_by": [],
    "wof:supersedes": []
  },
  "bbox": [
    -157.918416,
    21.332508,
    -122.370943,
    37.61799
  ],
  "geometry": {"type":"MultiPoint","coordinates":[[-122.370943,37.61799],[-157.918416,21.332508]]}
}
