{
  "id": 2048529695,
  "type": "Feature",
  "properties": {
    "date:cessation_lower": "2026-10-06",
    "date:cessation_upper": "2026-10-06",
    "date:inception_lower": "1970-01-01",
    "date:inception_upper": "1970-01-01",
    "edtf:cessation": "2026-10-06T11:41:32-07:00",
    "edtf:inception": "1970-01-01T00:00:00Z",
    "flysfo:actual_timestamp": -1,
    "flysfo:airline": "UA",
    "flysfo:base_airline": "",
    "flysfo:base_flight_number": "4418",
    "flysfo:date": "2026-10-06",
    "flysfo:estimated_timestamp": 1791337980,
    "flysfo:event": "A",
    "flysfo:flight_number": "UA796",
    "flysfo:gate": "E9",
    "flysfo:journey": "IAD-SFO",
    "flysfo:scheduled_timestamp": 1791338880,
    "flysfo:timestamp": 1791338880,
    "geom:area": 0,
    "geom:bbox": "-122.370943,37.617990,-77.453702,38.949246",
    "geom:latitude": 38.283618000000004,
    "geom:longitude": -99.9123225,
    "iata:airline": "UA",
    "iata:base_airline": "",
    "icao:aircraft": "B39M",
    "icao:airline": "UAL",
    "icao:base_airline": "ITY",
    "lbl:latitude": 37.619124,
    "lbl:longitude": -122.383949,
    "sfomuseum:aircraft_id": 1528104577,
    "sfomuseum:airline_id": 1159285413,
    "sfomuseum:arrival_id": 102527513,
    "sfomuseum:base_flight_id": "20261006-A-ITY-4418",
    "sfomuseum:departure_id": 102528817,
    "sfomuseum:flight_id": "20261006-A-UAL-796",
    "sfomuseum:flight_number": [
      "UAL796",
      "UA796"
    ],
    "sfomuseum:placetype": "flight",
    "src:geom": "flysfo",
    "src:geom_alt": [
      "swim-approach"
    ],
    "swim:tail_number": "N57466",
    "wof:belongsto": [
      1947304067,
      102527513,
      1947304511,
      102191575,
      85633793,
      102087579,
      85922583,
      554784711,
      85688637,
      1947304523,
      1947304447,
      102085387
    ],
    "wof:country": "US",
    "wof:created": 1791389287,
    "wof:geomhash": "376248592ab7850cfb9a479529cc5caf",
    "wof:hierarchy": [
      {
        "building_id": 1947304067,
        "campus_id": 102527513,
        "concourse_id": 1947304511,
        "continent_id": 102191575,
        "country_id": 85633793,
        "county_id": 102087579,
        "custom_id": 2048529695,
        "flight_id": 2048529695,
        "locality_id": 85922583,
        "postalcode_id": 554784711,
        "region_id": 85688637,
        "venue_id": 1947304523,
        "wing_id": 1947304447
      },
      {
        "building_id": 1947304067,
        "campus_id": 102527513,
        "concourse_id": 1947304511,
        "continent_id": 102191575,
        "country_id": 85633793,
        "county_id": 102085387,
        "custom_id": 2048529695,
        "flight_id": 2048529695,
        "region_id": 85688637,
        "venue_id": 1947304523,
        "wing_id": 1947304447
      }
    ],
    "wof:id": 2048529695,
    "wof:involves": [
      1528104577,
      102527513,
      102528817,
      1159285413,
      1947304523,
      1763699293
    ],
    "wof:lastmodified": 1791389833,
    "wof:name": "UA796 (IAD-SFO)",
    "wof:parent_id": 1947304523,
    "wof:placetype": "custom",
    "wof:placetype_alt": [
      "flight"
    ],
    "wof:repo": "sfomuseum-data-flights-2026-10",
    "wof:superseded_by": [],
    "wof:supersedes": []
  },
  "bbox": [
    -122.370943,
    37.61799,
    -77.453702,
    38.949246
  ],
  "geometry": {"type":"MultiPoint","coordinates":[[-77.453702,38.949246],[-122.370943,37.61799]]}
}
