{
  "id": 2048496889,
  "type": "Feature",
  "properties": {
    "date:inception_lower": "2026-10-02",
    "date:inception_upper": "2026-10-02",
    "edtf:cessation": "",
    "edtf:inception": "2026-10-02",
    "flysfo:actual_timestamp": -1,
    "flysfo:airline": "LH",
    "flysfo:base_airline": "",
    "flysfo:base_flight_number": "7531",
    "flysfo:date": "2026-10-02",
    "flysfo:estimated_timestamp": 1790953620,
    "flysfo:event": "D",
    "flysfo:flight_number": "LH7531",
    "flysfo:gate": "E12",
    "flysfo:journey": "SFO-IAD",
    "flysfo:scheduled_timestamp": 1790953800,
    "flysfo:timestamp": 1790953800,
    "geom:area": 0,
    "geom:bbox": "-122.370943,37.617990,-77.453702,38.949246",
    "geom:latitude": 38.283618000000004,
    "geom:longitude": -99.9123225,
    "iata:airline": "LH",
    "iata:base_airline": "",
    "icao:airline": "DLH",
    "icao:base_airline": "DLH",
    "lbl:latitude": 37.619531,
    "lbl:longitude": -122.384262,
    "sfomuseum:airline_id": 1159286015,
    "sfomuseum:arrival_id": 102528817,
    "sfomuseum:base_flight_id": "20261002-D-DLH-7531",
    "sfomuseum:departure_id": 102527513,
    "sfomuseum:flight_id": "20261002-D-DLH-7531",
    "sfomuseum:flight_number": [
      "DLH7531",
      "LH7531"
    ],
    "sfomuseum:placetype": "flight",
    "src:geom": "flysfo",
    "wof:belongsto": [
      1947304067,
      102527513,
      1947304511,
      102191575,
      85633793,
      102087579,
      85922583,
      554784711,
      85688637,
      1947304531,
      1947304447,
      102085387
    ],
    "wof:country": "US",
    "wof:created": 1791043996,
    "wof:geomhash": "1c4ce661f6692034a082b31062a17f5e",
    "wof:hierarchy": [
      {
        "building_id": 1947304067,
        "campus_id": 102527513,
        "concourse_id": 1947304511,
        "continent_id": 102191575,
        "country_id": 85633793,
        "county_id": 102087579,
        "custom_id": 2048496889,
        "flight_id": 2048496889,
        "locality_id": 85922583,
        "postalcode_id": 554784711,
        "region_id": 85688637,
        "venue_id": 1947304531,
        "wing_id": 1947304447
      },
      {
        "building_id": 1947304067,
        "campus_id": 102527513,
        "concourse_id": 1947304511,
        "continent_id": 102191575,
        "country_id": 85633793,
        "county_id": 102085387,
        "custom_id": 2048496889,
        "flight_id": 2048496889,
        "region_id": 85688637,
        "venue_id": 1947304531,
        "wing_id": 1947304447
      }
    ],
    "wof:id": 2048496889,
    "wof:involves": [
      102528817,
      102527513,
      1159286015,
      1947304531,
      1159286015
    ],
    "wof:lastmodified": 1791043996,
    "wof:name": "LH7531 (SFO-IAD)",
    "wof:parent_id": 1947304531,
    "wof:placetype": "custom",
    "wof:placetype_alt": [
      "flight"
    ],
    "wof:repo": "sfomuseum-data-flights-2026-10",
    "wof:superseded_by": [],
    "wof:supersedes": []
  },
  "bbox": [
    -122.370943,
    37.61799,
    -77.453702,
    38.949246
  ],
  "geometry": {"type":"MultiPoint","coordinates":[[-122.370943,37.61799],[-77.453702,38.949246]]}
}
