{
  "id": 2048487073,
  "type": "Feature",
  "properties": {
    "geom:area": 0,
    "geom:bbox": "-122.461440,37.162760,-121.261680,37.717180",
    "geom:latitude": 37.35989136328081,
    "geom:longitude": -121.99607636918424,
    "src:alt_label": "swim-takeoff",
    "src:geom": "swim",
    "swim:elevations": [
      291,
      477,
      551,
      1150,
      1436,
      1784,
      2353,
      2717,
      2852,
      3345,
      3661,
      3797,
      4208,
      4715,
      5068,
      5239,
      5668,
      6014,
      6364,
      6566,
      6871,
      7130,
      7520,
      7972,
      8221,
      8331,
      8465,
      8746
    ],
    "swim:geom": "takeoff",
    "swim:timestamps": [
      1790876276,
      1790876296,
      1790876310,
      1790876367,
      1790876387,
      1790876415,
      1790876453,
      1790876479,
      1790876490,
      1790876533,
      1790876573,
      1790876585,
      1790876619,
      1790876660,
      1790876691,
      1790876709,
      1790876745,
      1790876776,
      1790876815,
      1790876836,
      1790876868,
      1790876895,
      1790876937,
      1790876992,
      1790877026,
      1790877043,
      1790877062,
      1790877112
    ],
    "wof:geomhash": "acae5f0700adff90c101092c2e90ae3c",
    "wof:id": 2048487073,
    "wof:repo": "sfomuseum-data-flights-2026-10"
  },
  "bbox": [
    -122.46144,
    37.16276,
    -121.26168,
    37.71718
  ],
  "geometry": {"type":"LineString","coordinates":[[-122.36248,37.63913],[-122.36169,37.65591],[-122.36222,37.66795],[-122.402,37.71718],[-122.43124,37.71256],[-122.45138,37.68432],[-122.45519,37.63599],[-122.4595,37.60281],[-122.46144,37.58816],[-122.45057,37.53081],[-122.4167,37.47754],[-122.40555,37.46005],[-122.37352,37.41046],[-122.32431,37.35625],[-122.26008,37.34386],[-122.22255,37.33785],[-122.14359,37.32401],[-122.07739,37.31196],[-121.98843,37.296],[-121.9405,37.2874],[-121.86693,37.2742],[-121.8018,37.26244],[-121.7013,37.24432],[-121.56713,37.21902],[-121.48151,37.20361],[-121.43934,37.19567],[-121.38996,37.18653],[-121.26168,37.16276]]}
}
