{
  "id": 2048536199,
  "type": "Feature",
  "properties": {
    "geom:area": 0,
    "geom:bbox": "-122.345710,36.733500,-121.886140,37.606400",
    "geom:latitude": 37.211340483754846,
    "geom:longitude": -122.08412270716104,
    "src:alt_label": "swim-approach",
    "src:geom": "swim",
    "swim:elevations": [
      5229,
      5069,
      4888,
      4729,
      4598,
      4140,
      3979,
      3581,
      3240,
      3115,
      2956,
      2900,
      2789,
      2589,
      2458,
      2263,
      2041,
      1924,
      1861,
      1820,
      1582,
      1405,
      1085,
      908,
      737,
      579,
      550,
      474,
      328,
      270,
      186,
      125,
      84
    ],
    "swim:geom": "approach",
    "swim:timestamps": [
      1791399687,
      1791399703,
      1791399721,
      1791399737,
      1791399750,
      1791399797,
      1791399814,
      1791399857,
      1791399893,
      1791399916,
      1791399954,
      1791399970,
      1791400006,
      1791400037,
      1791400057,
      1791400081,
      1791400113,
      1791400134,
      1791400147,
      1791400174,
      1791400207,
      1791400234,
      1791400285,
      1791400310,
      1791400334,
      1791400372,
      1791400394,
      1791400423,
      1791400460,
      1791400470,
      1791400496,
      1791400517,
      1791400530
    ],
    "wof:geomhash": "3d79e6393ae10c5b1690cce576ac8aad",
    "wof:id": 2048536199,
    "wof:repo": "sfomuseum-data-flights-2026-10"
  },
  "bbox": [
    -122.34571,
    36.7335,
    -121.88614,
    37.6064
  ],
  "geometry": {"type":"LineString","coordinates":[[-121.88614,36.7335],[-121.89903,36.76095],[-121.90759,36.79012],[-121.91499,36.81653],[-121.92143,36.83914],[-121.9428,36.91582],[-121.95027,36.9425],[-121.97566,37.01013],[-121.99704,37.06517],[-122.01027,37.09937],[-122.03096,37.15171],[-122.04455,37.16928],[-122.07697,37.20617],[-122.10366,37.23681],[-122.11959,37.2551],[-122.13972,37.27768],[-122.16639,37.30741],[-122.18423,37.3272],[-122.19358,37.33899],[-122.18655,37.36608],[-122.16549,37.3993],[-122.15228,37.4263],[-122.16685,37.47749],[-122.17446,37.50211],[-122.18152,37.52566],[-122.2106,37.54953],[-122.23217,37.55857],[-122.26026,37.57061],[-122.2916,37.5838],[-122.29981,37.5873],[-122.3198,37.59551],[-122.33612,37.60236],[-122.34571,37.6064]]}
}
