{
  "id": 2048518825,
  "type": "Feature",
  "properties": {
    "geom:area": 0,
    "geom:bbox": "-122.360950,36.721380,-121.878260,37.614680",
    "geom:latitude": 37.21587754062489,
    "geom:longitude": -122.07070902657277,
    "src:alt_label": "swim-approach",
    "src:geom": "swim",
    "swim:elevations": [
      5544,
      5463,
      5244,
      4899,
      4714,
      4528,
      4098,
      3785,
      3671,
      3241,
      3130,
      3001,
      2875,
      2558,
      2405,
      2369,
      2150,
      2046,
      1669,
      1504,
      1364,
      1307,
      1227,
      1090,
      1037,
      809,
      694,
      669,
      498,
      352,
      208,
      119,
      0
    ],
    "swim:geom": "approach",
    "swim:timestamps": [
      1791241046,
      1791241054,
      1791241074,
      1791241107,
      1791241125,
      1791241148,
      1791241192,
      1791241221,
      1791241234,
      1791241278,
      1791241300,
      1791241335,
      1791241353,
      1791241396,
      1791241434,
      1791241440,
      1791241489,
      1791241504,
      1791241557,
      1791241584,
      1791241617,
      1791241626,
      1791241646,
      1791241671,
      1791241684,
      1791241738,
      1791241767,
      1791241771,
      1791241817,
      1791241850,
      1791241883,
      1791241903,
      1791241931
    ],
    "wof:geomhash": "4924a6cd9a326b2a9e76935df66bbece",
    "wof:id": 2048518825,
    "wof:repo": "sfomuseum-data-flights-2026-10"
  },
  "bbox": [
    -122.36095,
    36.72138,
    -121.87826,
    37.61468
  ],
  "geometry": {"type":"LineString","coordinates":[[-121.87826,36.72138],[-121.88607,36.73233],[-121.90036,36.76396],[-121.91527,36.81772],[-121.92306,36.84557],[-121.9335,36.88228],[-121.95351,36.95282],[-121.97062,36.99679],[-121.97804,37.016],[-122.00354,37.08203],[-122.01605,37.11394],[-122.03517,37.16228],[-122.0441,37.18524],[-122.06536,37.23915],[-122.08421,37.28744],[-122.08702,37.29471],[-122.10912,37.35054],[-122.11546,37.36631],[-122.13492,37.42175],[-122.14418,37.44878],[-122.15429,37.47986],[-122.15696,37.48803],[-122.16237,37.50493],[-122.16915,37.52514],[-122.1725,37.53511],[-122.20128,37.5638],[-122.22407,37.57114],[-122.22797,37.57241],[-122.26374,37.58392],[-122.29143,37.59185],[-122.32026,37.60019],[-122.33852,37.60601],[-122.36095,37.61468]]}
}
