{
  "id": 2048545135,
  "type": "Feature",
  "properties": {
    "geom:area": 0,
    "geom:bbox": "-122.356420,37.491460,-121.496950,37.613010",
    "geom:latitude": 37.537178599099164,
    "geom:longitude": -121.93008939159839,
    "src:alt_label": "swim-approach",
    "src:geom": "swim",
    "swim:elevations": [
      3321,
      3184,
      3052,
      2902,
      2752,
      2604,
      2383,
      2209,
      2133,
      2079,
      1921,
      1917,
      1821,
      1561,
      1411,
      1265,
      1192,
      1096,
      1004,
      862,
      713,
      638,
      483,
      389,
      271,
      183,
      0
    ],
    "swim:geom": "approach",
    "swim:timestamps": [
      1791486500,
      1791486515,
      1791486563,
      1791486592,
      1791486618,
      1791486646,
      1791486686,
      1791486713,
      1791486727,
      1791486742,
      1791486778,
      1791486781,
      1791486812,
      1791486854,
      1791486880,
      1791486909,
      1791486925,
      1791486949,
      1791486970,
      1791487007,
      1791487042,
      1791487060,
      1791487099,
      1791487123,
      1791487152,
      1791487172,
      1791487216
    ],
    "wof:geomhash": "737d90eadbe3bb148c90983f1ccea179",
    "wof:id": 2048545135,
    "wof:repo": "sfomuseum-data-flights-2026-10"
  },
  "bbox": [
    -122.35642,
    37.49146,
    -121.49695,
    37.61301
  ],
  "geometry": {"type":"LineString","coordinates":[[-121.49695,37.56578],[-121.52652,37.56235],[-121.61483,37.55168],[-121.6644,37.54134],[-121.7082,37.53093],[-121.75391,37.51982],[-121.81454,37.50534],[-121.85514,37.49562],[-121.87565,37.49213],[-121.89761,37.49146],[-121.94748,37.49245],[-121.95155,37.49257],[-121.99042,37.49584],[-122.03642,37.51033],[-122.06514,37.51975],[-122.09615,37.52979],[-122.11253,37.53513],[-122.13681,37.543],[-122.15716,37.54965],[-122.19032,37.56026],[-122.21973,37.56978],[-122.23457,37.57462],[-122.26745,37.58511],[-122.28676,37.59055],[-122.30923,37.59705],[-122.32438,37.60099],[-122.35642,37.61301]]}
}
