{
  "id": 2048506787,
  "type": "Feature",
  "properties": {
    "date:inception_lower": "2026-10-03",
    "date:inception_upper": "2026-10-03",
    "edtf:cessation": "",
    "edtf:inception": "2026-10-03",
    "flysfo:actual_timestamp": -1,
    "flysfo:airline": "UA",
    "flysfo:base_airline": "",
    "flysfo:base_flight_number": "9387",
    "flysfo:date": "2026-10-03",
    "flysfo:estimated_timestamp": 1791051480,
    "flysfo:event": "D",
    "flysfo:flight_number": "UA499",
    "flysfo:gate": "D5",
    "flysfo:journey": "SFO-BNA",
    "flysfo:scheduled_timestamp": 1791052080,
    "flysfo:timestamp": 1791052080,
    "geom:area": 0,
    "geom:bbox": "-122.370943,36.126387,-86.676652,37.617990",
    "geom:latitude": 36.8721885,
    "geom:longitude": -104.5237975,
    "iata:airline": "UA",
    "iata:base_airline": "",
    "icao:airline": "UAL",
    "icao:base_airline": "ANZ",
    "lbl:latitude": 37.616825,
    "lbl:longitude": -122.381021,
    "sfomuseum:airline_id": 1159285413,
    "sfomuseum:arrival_id": 102525035,
    "sfomuseum:base_flight_id": "20261003-D-ANZ-9387",
    "sfomuseum:departure_id": 102527513,
    "sfomuseum:flight_id": "20261003-D-UAL-499",
    "sfomuseum:flight_number": [
      "UAL499",
      "UA499"
    ],
    "sfomuseum:placetype": "flight",
    "src:geom": "flysfo",
    "wof:belongsto": [
      1947304067,
      102527513,
      1947304595,
      102191575,
      85633793,
      102087579,
      85922583,
      554784711,
      85688637,
      1947304607,
      1947304591,
      102085387
    ],
    "wof:country": "US",
    "wof:created": 1791130505,
    "wof:geomhash": "36f645f844d4838b633d7fed3f06d4a5",
    "wof:hierarchy": [
      {
        "building_id": 1947304067,
        "campus_id": 102527513,
        "concourse_id": 1947304595,
        "continent_id": 102191575,
        "country_id": 85633793,
        "county_id": 102087579,
        "custom_id": 2048506787,
        "flight_id": 2048506787,
        "locality_id": 85922583,
        "postalcode_id": 554784711,
        "region_id": 85688637,
        "venue_id": 1947304607,
        "wing_id": 1947304591
      },
      {
        "building_id": 1947304067,
        "campus_id": 102527513,
        "concourse_id": 1947304595,
        "continent_id": 102191575,
        "country_id": 85633793,
        "county_id": 102085387,
        "custom_id": 2048506787,
        "flight_id": 2048506787,
        "region_id": 85688637,
        "venue_id": 1947304607,
        "wing_id": 1947304591
      }
    ],
    "wof:id": 2048506787,
    "wof:involves": [
      102525035,
      102527513,
      1159285413,
      1947304607,
      1159283697
    ],
    "wof:lastmodified": 1791130505,
    "wof:name": "UA499 (SFO-BNA)",
    "wof:parent_id": 1947304607,
    "wof:placetype": "custom",
    "wof:placetype_alt": [
      "flight"
    ],
    "wof:repo": "sfomuseum-data-flights-2026-10",
    "wof:superseded_by": [],
    "wof:supersedes": []
  },
  "bbox": [
    -122.370943,
    36.126387,
    -86.676652,
    37.61799
  ],
  "geometry": {"type":"MultiPoint","coordinates":[[-122.370943,37.61799],[-86.676652,36.126387]]}
}
