{
  "id": 2048499497,
  "type": "Feature",
  "properties": {
    "date:inception_lower": "2026-10-03",
    "date:inception_upper": "2026-10-03",
    "edtf:cessation": "",
    "edtf:inception": "2026-10-03",
    "flysfo:actual_timestamp": -1,
    "flysfo:airline": "AA",
    "flysfo:base_airline": "",
    "flysfo:base_flight_number": "7539",
    "flysfo:date": "2026-10-03",
    "flysfo:estimated_timestamp": 1791068340,
    "flysfo:event": "A",
    "flysfo:flight_number": "AA7539",
    "flysfo:gate": "B3",
    "flysfo:journey": "GEG-SFO",
    "flysfo:scheduled_timestamp": 1791069120,
    "flysfo:timestamp": 1791069120,
    "geom:area": 0,
    "geom:bbox": "-122.370943,37.617990,-117.531916,47.625686",
    "geom:latitude": 42.621838,
    "geom:longitude": -119.95142949999999,
    "iata:airline": "AA",
    "iata:base_airline": "",
    "icao:airline": "AAL",
    "icao:base_airline": "AAL",
    "lbl:latitude": 37.61799,
    "lbl:longitude": -122.370943,
    "sfomuseum:airline_id": 1159283849,
    "sfomuseum:arrival_id": 102527513,
    "sfomuseum:base_flight_id": "20261003-A-AAL-7539",
    "sfomuseum:departure_id": 102533331,
    "sfomuseum:flight_id": "20261003-A-AAL-7539",
    "sfomuseum:flight_number": [
      "AAL7539",
      "AA7539"
    ],
    "sfomuseum:placetype": "flight",
    "src:geom": "flysfo",
    "wof:belongsto": [
      1947304067,
      102527513,
      1947304261,
      102191575,
      85633793,
      102087579,
      85922583,
      554784711,
      85688637,
      1947304289,
      1947304259,
      102085387
    ],
    "wof:country": "US",
    "wof:created": 1791129663,
    "wof:geomhash": "a4e0879e5fc6968e3e72ecbd42744790",
    "wof:hierarchy": [
      {
        "building_id": 1947304067,
        "campus_id": 102527513,
        "concourse_id": 1947304261,
        "continent_id": 102191575,
        "country_id": 85633793,
        "county_id": 102087579,
        "custom_id": 2048499497,
        "flight_id": 2048499497,
        "locality_id": 85922583,
        "postalcode_id": 554784711,
        "region_id": 85688637,
        "venue_id": 1947304289,
        "wing_id": 1947304259
      },
      {
        "building_id": 1947304067,
        "campus_id": 102527513,
        "concourse_id": 1947304261,
        "continent_id": 102191575,
        "country_id": 85633793,
        "county_id": 102085387,
        "custom_id": 2048499497,
        "flight_id": 2048499497,
        "region_id": 85688637,
        "venue_id": 1947304289,
        "wing_id": 1947304259
      }
    ],
    "wof:id": 2048499497,
    "wof:involves": [
      102527513,
      102533331,
      1159283849,
      1947304289,
      1159283849
    ],
    "wof:lastmodified": 1791129663,
    "wof:name": "AA7539 (GEG-SFO)",
    "wof:parent_id": 1947304289,
    "wof:placetype": "custom",
    "wof:placetype_alt": [
      "flight"
    ],
    "wof:repo": "sfomuseum-data-flights-2026-10",
    "wof:superseded_by": [],
    "wof:supersedes": []
  },
  "bbox": [
    -122.370943,
    37.61799,
    -117.531916,
    47.625686
  ],
  "geometry": {"type":"MultiPoint","coordinates":[[-117.531916,47.625686],[-122.370943,37.61799]]}
}
