{
  "id": 2048496815,
  "type": "Feature",
  "properties": {
    "geom:area": 0,
    "geom:bbox": "-122.367610,37.626560,-121.253180,38.118850",
    "geom:latitude": 37.88656921789237,
    "geom:longitude": -121.81758304942198,
    "src:alt_label": "swim-takeoff",
    "src:geom": "swim",
    "swim:elevations": [
      122,
      597,
      972,
      1162,
      1354,
      1856,
      2292,
      2710,
      3140,
      3457,
      3973,
      4298,
      4701,
      4973,
      5972,
      6276,
      6368,
      6620,
      6917,
      7215,
      7516,
      7640
    ],
    "swim:geom": "takeoff",
    "swim:timestamps": [
      1790948347,
      1790948386,
      1790948418,
      1790948448,
      1790948472,
      1790948506,
      1790948537,
      1790948562,
      1790948588,
      1790948625,
      1790948668,
      1790948691,
      1790948719,
      1790948738,
      1790948816,
      1790948843,
      1790948851,
      1790948876,
      1790948904,
      1790948935,
      1790948968,
      1790948976
    ],
    "wof:geomhash": "350e520c82c52e496a5cee79941d8b1f",
    "wof:id": 2048496815,
    "wof:repo": "sfomuseum-data-flights-2026-10"
  },
  "bbox": [
    -122.36761,
    37.62656,
    -121.25318,
    38.11885
  ],
  "geometry": {"type":"LineString","coordinates":[[-122.36761,37.62656],[-122.34322,37.64854],[-122.31547,37.66351],[-122.28705,37.67929],[-122.26002,37.69451],[-122.21532,37.71725],[-122.17162,37.73968],[-122.1336,37.75931],[-122.0935,37.77771],[-122.0319,37.8036],[-121.94644,37.8382],[-121.9003,37.85689],[-121.84351,37.87991],[-121.80294,37.89647],[-121.63333,37.96552],[-121.5729,37.99003],[-121.55331,37.99795],[-121.49767,38.02052],[-121.43172,38.04713],[-121.35533,38.07781],[-121.27443,38.11034],[-121.25318,38.11885]]}
}
