{
  "id": 2048537575,
  "type": "Feature",
  "properties": {
    "geom:area": 0,
    "geom:bbox": "-122.358790,36.736970,-121.887790,37.611870",
    "geom:latitude": 37.225252974892314,
    "geom:longitude": -122.07121228335804,
    "src:alt_label": "swim-approach",
    "src:geom": "swim",
    "swim:elevations": [
      5331,
      4995,
      4838,
      4660,
      4456,
      4284,
      4029,
      3717,
      3395,
      3125,
      2937,
      2799,
      2678,
      2492,
      2369,
      2164,
      1832,
      1786,
      1541,
      1488,
      1153,
      1026,
      998,
      798,
      736,
      482,
      425,
      310,
      204,
      62,
      0
    ],
    "swim:geom": "approach",
    "swim:timestamps": [
      1791385494,
      1791385526,
      1791385553,
      1791385579,
      1791385608,
      1791385630,
      1791385661,
      1791385697,
      1791385732,
      1791385761,
      1791385797,
      1791385821,
      1791385837,
      1791385871,
      1791385894,
      1791385924,
      1791385975,
      1791385987,
      1791386033,
      1791386046,
      1791386097,
      1791386111,
      1791386114,
      1791386152,
      1791386165,
      1791386215,
      1791386231,
      1791386260,
      1791386295,
      1791386333,
      1791386346
    ],
    "wof:geomhash": "3b126b75bb4ae97e3fa8f526fce11720",
    "wof:id": 2048537575,
    "wof:repo": "sfomuseum-data-flights-2026-10"
  },
  "bbox": [
    -122.35879,
    36.73697,
    -121.88779,
    37.61187
  ],
  "geometry": {"type":"LineString","coordinates":[[-121.88779,36.73697],[-121.90772,36.79043],[-121.91987,36.83341],[-121.9309,36.87362],[-121.94275,36.91602],[-121.95187,36.94751],[-121.96911,36.99235],[-121.98855,37.04223],[-122.00706,37.0911],[-122.0234,37.13226],[-122.04258,37.18096],[-122.05427,37.21101],[-122.06202,37.23097],[-122.07818,37.27188],[-122.08914,37.29952],[-122.10315,37.33507],[-122.11991,37.39579],[-122.11888,37.40931],[-122.11422,37.45921],[-122.1133,37.47194],[-122.14288,37.51146],[-122.15215,37.52186],[-122.15427,37.52392],[-122.19121,37.54136],[-122.20543,37.54741],[-122.25583,37.56923],[-122.26938,37.57475],[-122.29303,37.58418],[-122.31991,37.59554],[-122.34853,37.60764],[-122.35879,37.61187]]}
}
