{
  "id": 2048488417,
  "type": "Feature",
  "properties": {
    "geom:area": 0,
    "geom:bbox": "-122.355300,37.640250,-121.246460,38.424790",
    "geom:latitude": 38.04227968964696,
    "geom:longitude": -121.8096135877561,
    "src:alt_label": "swim-takeoff",
    "src:geom": "swim",
    "swim:elevations": [
      327,
      432,
      656,
      802,
      961,
      1396,
      1796,
      1840,
      2320,
      2565,
      2765,
      3124,
      3157,
      3365,
      3444,
      3798,
      3977,
      4102,
      4326,
      4562,
      4821,
      4922,
      5107,
      5363,
      5416,
      5740,
      5919
    ],
    "swim:geom": "takeoff",
    "swim:timestamps": [
      1790861396,
      1790861412,
      1790861445,
      1790861468,
      1790861490,
      1790861535,
      1790861577,
      1790861581,
      1790861626,
      1790861653,
      1790861675,
      1790861726,
      1790861730,
      1790861781,
      1790861798,
      1790861848,
      1790861874,
      1790861892,
      1790861926,
      1790861964,
      1790861997,
      1790862012,
      1790862040,
      1790862086,
      1790862098,
      1790862144,
      1790862173
    ],
    "wof:geomhash": "0440abcaf4f6ee60b311e974a3ca6025",
    "wof:id": 2048488417,
    "wof:repo": "sfomuseum-data-flights-2026-10"
  },
  "bbox": [
    -122.3553,
    37.64025,
    -121.24646,
    38.42479
  ],
  "geometry": {"type":"LineString","coordinates":[[-122.3553,37.64025],[-122.34317,37.64783],[-122.31206,37.66491],[-122.2868,37.67885],[-122.26056,37.6937],[-122.20554,37.72852],[-122.16497,37.77293],[-122.16099,37.77736],[-122.11673,37.826],[-122.08968,37.85585],[-122.06573,37.87983],[-121.99881,37.92663],[-121.99319,37.93045],[-121.91632,37.98256],[-121.89065,37.99997],[-121.81001,38.05449],[-121.76688,38.08354],[-121.73824,38.10285],[-121.68096,38.14138],[-121.6166,38.1845],[-121.56061,38.22204],[-121.5354,38.23887],[-121.48668,38.27144],[-121.40584,38.32529],[-121.38459,38.33938],[-121.29949,38.39193],[-121.24646,38.42479]]}
}
