{
  "id": 2048493381,
  "type": "Feature",
  "properties": {
    "date:cessation_lower": "2026-10-02",
    "date:cessation_upper": "2026-10-02",
    "date:inception_lower": "1970-01-01",
    "date:inception_upper": "1970-01-01",
    "edtf:cessation": "2026-10-02T12:55:13-07:00",
    "edtf:inception": "1970-01-01T00:00:00Z",
    "flysfo:actual_timestamp": -1,
    "flysfo:airline": "WN",
    "flysfo:date": "2026-10-02",
    "flysfo:estimated_timestamp": 1790996460,
    "flysfo:event": "A",
    "flysfo:flight_number": "WN1773",
    "flysfo:gate": "D1",
    "flysfo:journey": "DEN-SFO",
    "flysfo:scheduled_timestamp": 1790996700,
    "flysfo:timestamp": 1790996700,
    "geom:area": 0,
    "geom:bbox": "-122.370943,37.617990,-104.672219,39.864939",
    "geom:latitude": 38.7414645,
    "geom:longitude": -113.521581,
    "iata:airline": "WN",
    "icao:aircraft": "B737",
    "icao:airline": "SWA",
    "lbl:latitude": 37.616987,
    "lbl:longitude": -122.382479,
    "sfomuseum:aircraft_id": 1159289869,
    "sfomuseum:airline_id": 1159285591,
    "sfomuseum:arrival_id": 102527513,
    "sfomuseum:departure_id": 102531189,
    "sfomuseum:flight_id": "20261002-A-SWA-1773",
    "sfomuseum:flight_number": [
      "SWA1773",
      "WN1773"
    ],
    "sfomuseum:placetype": "flight",
    "src:geom": "flysfo",
    "src:geom_alt": [
      "swim-approach"
    ],
    "swim:tail_number": "N293WN",
    "wof:belongsto": [
      1947304067,
      102527513,
      1947304595,
      102191575,
      85633793,
      102087579,
      85922583,
      554784711,
      85688637,
      1947304625,
      1947304591,
      102085387
    ],
    "wof:country": "US",
    "wof:created": 1791043611,
    "wof:geomhash": "736fe0d2ebd38878be6950e82908a686",
    "wof:hierarchy": [
      {
        "building_id": 1947304067,
        "campus_id": 102527513,
        "concourse_id": 1947304595,
        "continent_id": 102191575,
        "country_id": 85633793,
        "county_id": 102087579,
        "custom_id": 2048493381,
        "flight_id": 2048493381,
        "locality_id": 85922583,
        "postalcode_id": 554784711,
        "region_id": 85688637,
        "venue_id": 1947304625,
        "wing_id": 1947304591
      },
      {
        "building_id": 1947304067,
        "campus_id": 102527513,
        "concourse_id": 1947304595,
        "continent_id": 102191575,
        "country_id": 85633793,
        "county_id": 102085387,
        "custom_id": 2048493381,
        "flight_id": 2048493381,
        "region_id": 85688637,
        "venue_id": 1947304625,
        "wing_id": 1947304591
      }
    ],
    "wof:id": 2048493381,
    "wof:involves": [
      1947304625,
      1159289869,
      102527513,
      102531189,
      1159285591
    ],
    "wof:lastmodified": 1791044295,
    "wof:name": "WN1773 (DEN-SFO)",
    "wof:parent_id": 1947304625,
    "wof:placetype": "custom",
    "wof:placetype_alt": [
      "flight"
    ],
    "wof:repo": "sfomuseum-data-flights-2026-10",
    "wof:superseded_by": [],
    "wof:supersedes": []
  },
  "bbox": [
    -122.370943,
    37.61799,
    -104.672219,
    39.864939
  ],
  "geometry": {"type":"MultiPoint","coordinates":[[-104.672219,39.864939],[-122.370943,37.61799]]}
}
