{
  "id": 2048493381,
  "type": "Feature",
  "properties": {
    "geom:area": 0,
    "geom:bbox": "-122.352610,37.491210,-121.377930,37.611590",
    "geom:latitude": 37.5411053913524,
    "geom:longitude": -121.86943714802477,
    "src:alt_label": "swim-approach",
    "src:geom": "swim",
    "swim:elevations": [
      4635,
      4378,
      3777,
      3661,
      3455,
      3253,
      3140,
      2992,
      2912,
      2720,
      2523,
      2437,
      2438,
      2409,
      2405,
      2134,
      1986,
      1688,
      1397,
      1240,
      1189,
      940,
      752,
      688,
      453,
      347,
      241,
      101,
      88,
      52
    ],
    "swim:geom": "approach",
    "swim:timestamps": [
      1790970160,
      1790970181,
      1790970222,
      1790970231,
      1790970250,
      1790970278,
      1790970294,
      1790970322,
      1790970333,
      1790970371,
      1790970393,
      1790970427,
      1790970456,
      1790970477,
      1790970481,
      1790970537,
      1790970560,
      1790970586,
      1790970628,
      1790970658,
      1790970667,
      1790970716,
      1790970748,
      1790970762,
      1790970808,
      1790970837,
      1790970865,
      1790970897,
      1790970901,
      1790970913
    ],
    "wof:geomhash": "3410648e9f9e961b51df9bc6c93ddcbd",
    "wof:id": 2048493381,
    "wof:repo": "sfomuseum-data-flights-2026-10"
  },
  "bbox": [
    -122.35261,
    37.49121,
    -121.37793,
    37.61159
  ],
  "geometry": {"type":"LineString","coordinates":[[-121.37793,37.5797],[-121.41141,37.57567],[-121.48241,37.5674],[-121.49854,37.56539],[-121.53267,37.56141],[-121.58059,37.55594],[-121.6081,37.55279],[-121.65448,37.54397],[-121.67095,37.54012],[-121.73126,37.52568],[-121.76446,37.51753],[-121.81608,37.50492],[-121.85846,37.49487],[-121.88788,37.49121],[-121.89351,37.49123],[-121.96932,37.49341],[-121.99739,37.49742],[-122.02916,37.50763],[-122.07877,37.52401],[-122.11292,37.53529],[-122.1228,37.53857],[-122.17666,37.55584],[-122.21223,37.56742],[-122.22696,37.57229],[-122.27066,37.58548],[-122.29408,37.59242],[-122.31592,37.59848],[-122.34062,37.6066],[-122.34347,37.60773],[-122.35261,37.61159]]}
}
