{
  "id": 2048520731,
  "type": "Feature",
  "properties": {
    "geom:area": 0,
    "geom:bbox": "-122.359090,37.490950,-121.277790,37.614410",
    "geom:latitude": 37.54552378085827,
    "geom:longitude": -121.82331206546304,
    "src:alt_label": "swim-approach",
    "src:geom": "swim",
    "swim:elevations": [
      4537,
      4266,
      4166,
      3882,
      3467,
      3280,
      3110,
      3013,
      2628,
      2499,
      2409,
      2198,
      2101,
      1950,
      1860,
      1730,
      1509,
      1202,
      1068,
      796,
      690,
      524,
      367,
      271,
      92,
      0
    ],
    "swim:geom": "approach",
    "swim:timestamps": [
      1791193227,
      1791193254,
      1791193262,
      1791193293,
      1791193334,
      1791193354,
      1791193399,
      1791193413,
      1791193466,
      1791193492,
      1791193516,
      1791193553,
      1791193570,
      1791193613,
      1791193631,
      1791193655,
      1791193687,
      1791193735,
      1791193753,
      1791193797,
      1791193817,
      1791193845,
      1791193876,
      1791193897,
      1791193935,
      1791193958
    ],
    "wof:geomhash": "6d07c8fcc92277177d08458e34c287fa",
    "wof:id": 2048520731,
    "wof:repo": "sfomuseum-data-flights-2026-10"
  },
  "bbox": [
    -122.35909,
    37.49095,
    -121.27779,
    37.61441
  ],
  "geometry": {"type":"LineString","coordinates":[[-121.27779,37.59082],[-121.33186,37.5847],[-121.34947,37.58282],[-121.41012,37.57584],[-121.49328,37.56616],[-121.53212,37.56165],[-121.61713,37.55156],[-121.64026,37.54704],[-121.72862,37.52603],[-121.76944,37.51625],[-121.80669,37.50712],[-121.86067,37.49375],[-121.88719,37.49095],[-121.94933,37.4924],[-121.97568,37.4934],[-122.01011,37.50166],[-122.05566,37.5163],[-122.12201,37.53821],[-122.14796,37.54659],[-122.20459,37.56487],[-122.22794,37.57233],[-122.25885,37.58226],[-122.28987,37.59156],[-122.30968,37.59709],[-122.34111,37.607],[-122.35909,37.61441]]}
}
