{
  "id": 2048491495,
  "type": "Feature",
  "properties": {
    "date:inception_lower": "2026-10-02",
    "date:inception_upper": "2026-10-02",
    "edtf:cessation": "",
    "edtf:inception": "2026-10-02",
    "flysfo:actual_timestamp": -1,
    "flysfo:airline": "NZ",
    "flysfo:base_airline": "",
    "flysfo:base_flight_number": "4369",
    "flysfo:date": "2026-10-02",
    "flysfo:estimated_timestamp": 1791002520,
    "flysfo:event": "A",
    "flysfo:flight_number": "NZ9381",
    "flysfo:gate": "D12",
    "flysfo:journey": "PHX-SFO",
    "flysfo:scheduled_timestamp": 1791002640,
    "flysfo:timestamp": 1791002640,
    "geom:area": 0,
    "geom:bbox": "-122.370943,33.432684,-112.017392,37.617990",
    "geom:latitude": 35.525337,
    "geom:longitude": -117.19416749999999,
    "iata:airline": "NZ",
    "iata:base_airline": "",
    "icao:airline": "ANZ",
    "icao:base_airline": "ACA",
    "lbl:latitude": 37.618249,
    "lbl:longitude": -122.381477,
    "sfomuseum:airline_id": 1159283697,
    "sfomuseum:arrival_id": 102527513,
    "sfomuseum:base_flight_id": "20261002-A-ACA-4369",
    "sfomuseum:departure_id": 102526751,
    "sfomuseum:flight_id": "20261002-A-ANZ-9381",
    "sfomuseum:flight_number": [
      "ANZ9381",
      "NZ9381"
    ],
    "sfomuseum:placetype": "flight",
    "src:geom": "flysfo",
    "wof:belongsto": [
      1947304067,
      102527513,
      1947304595,
      102191575,
      85633793,
      102087579,
      85922583,
      554784711,
      85688637,
      1947304631,
      1947304591,
      102085387
    ],
    "wof:country": "US",
    "wof:created": 1791043397,
    "wof:geomhash": "c9fdc5df38b6a105de4fe30ae6ada830",
    "wof:hierarchy": [
      {
        "building_id": 1947304067,
        "campus_id": 102527513,
        "concourse_id": 1947304595,
        "continent_id": 102191575,
        "country_id": 85633793,
        "county_id": 102087579,
        "custom_id": 2048491495,
        "flight_id": 2048491495,
        "locality_id": 85922583,
        "postalcode_id": 554784711,
        "region_id": 85688637,
        "venue_id": 1947304631,
        "wing_id": 1947304591
      },
      {
        "building_id": 1947304067,
        "campus_id": 102527513,
        "concourse_id": 1947304595,
        "continent_id": 102191575,
        "country_id": 85633793,
        "county_id": 102085387,
        "custom_id": 2048491495,
        "flight_id": 2048491495,
        "region_id": 85688637,
        "venue_id": 1947304631,
        "wing_id": 1947304591
      }
    ],
    "wof:id": 2048491495,
    "wof:involves": [
      102527513,
      102526751,
      1159283697,
      1947304631,
      1159283597
    ],
    "wof:lastmodified": 1791043397,
    "wof:name": "NZ9381 (PHX-SFO)",
    "wof:parent_id": 1947304631,
    "wof:placetype": "custom",
    "wof:placetype_alt": [
      "flight"
    ],
    "wof:repo": "sfomuseum-data-flights-2026-10",
    "wof:superseded_by": [],
    "wof:supersedes": []
  },
  "bbox": [
    -122.370943,
    33.432684,
    -112.017392,
    37.61799
  ],
  "geometry": {"type":"MultiPoint","coordinates":[[-112.017392,33.432684],[-122.370943,37.61799]]}
}
