{
  "id": 2048508997,
  "type": "Feature",
  "properties": {
    "geom:area": 0,
    "geom:bbox": "-122.854470,37.679390,-122.323650,38.517640",
    "geom:latitude": 38.033396370957824,
    "geom:longitude": -122.66264090670548,
    "src:alt_label": "swim-approach",
    "src:geom": "swim",
    "swim:elevations": [
      8534,
      8534,
      8351,
      8003,
      7640,
      7331,
      7122,
      6759,
      6462,
      6204,
      5770,
      5561,
      5321,
      4923,
      4667,
      4501,
      4038,
      3814,
      3542,
      3354,
      3353,
      3321,
      3073,
      3014,
      2721
    ],
    "swim:geom": "approach",
    "swim:timestamps": [
      1791128085,
      1791128092,
      1791128119,
      1791128150,
      1791128183,
      1791128211,
      1791128231,
      1791128264,
      1791128290,
      1791128314,
      1791128351,
      1791128371,
      1791128392,
      1791128425,
      1791128447,
      1791128461,
      1791128506,
      1791128527,
      1791128553,
      1791128606,
      1791128620,
      1791128649,
      1791128694,
      1791128702,
      1791128730
    ],
    "wof:geomhash": "5a3efe5e4d50bfe290d420473d2e8a5c",
    "wof:id": 2048508997,
    "wof:repo": "sfomuseum-data-flights-2026-10"
  },
  "bbox": [
    -122.85447,
    37.67939,
    -122.32365,
    38.51764
  ],
  "geometry": {"type":"LineString","coordinates":[[-122.85447,38.51764],[-122.85056,38.50541],[-122.83728,38.46088],[-122.82197,38.40882],[-122.80614,38.35546],[-122.79257,38.30944],[-122.78315,38.27728],[-122.7675,38.22393],[-122.75483,38.18087],[-122.74374,38.14278],[-122.72624,38.08265],[-122.71677,38.05043],[-122.70699,38.01668],[-122.69177,37.96338],[-122.68188,37.92888],[-122.67273,37.90654],[-122.61867,37.84794],[-122.59193,37.82251],[-122.55844,37.79096],[-122.49459,37.73077],[-122.47661,37.71814],[-122.43321,37.70586],[-122.37039,37.69056],[-122.36015,37.68803],[-122.32365,37.67939]]}
}
