{
  "id": 2048533381,
  "type": "Feature",
  "properties": {
    "date:cessation_lower": "1970-01-01",
    "date:cessation_upper": "1970-01-01",
    "date:inception_lower": "2026-10-06",
    "date:inception_upper": "2026-10-06",
    "edtf:cessation": "1970-01-01T00:00:00Z",
    "edtf:inception": "2026-10-06T11:44:47-07:00",
    "flysfo:actual_timestamp": -1,
    "flysfo:airline": "UA",
    "flysfo:base_airline": "",
    "flysfo:base_flight_number": "5416",
    "flysfo:date": "2026-10-06",
    "flysfo:estimated_timestamp": 1791336660,
    "flysfo:event": "D",
    "flysfo:flight_number": "UA2436",
    "flysfo:gate": "D8",
    "flysfo:journey": "SFO-DEN",
    "flysfo:scheduled_timestamp": 1791336720,
    "flysfo:timestamp": 1791336720,
    "geom:area": 0,
    "geom:bbox": "-122.370943,37.617990,-104.672219,39.864939",
    "geom:latitude": 38.7414645,
    "geom:longitude": -113.521581,
    "iata:airline": "UA",
    "iata:base_airline": "",
    "icao:aircraft": "B738",
    "icao:airline": "UAL",
    "icao:base_airline": "ACA",
    "lbl:latitude": 37.617421,
    "lbl:longitude": -122.380916,
    "sfomuseum:aircraft_id": 1159289871,
    "sfomuseum:airline_id": 1159285413,
    "sfomuseum:arrival_id": 102531189,
    "sfomuseum:base_flight_id": "20261006-D-ACA-5416",
    "sfomuseum:departure_id": 102527513,
    "sfomuseum:flight_id": "20261006-D-UAL-2436",
    "sfomuseum:flight_number": [
      "UAL2436",
      "UA2436"
    ],
    "sfomuseum:placetype": "flight",
    "src:geom": "flysfo",
    "src:geom_alt": [
      "swim-takeoff"
    ],
    "swim:tail_number": "N35204",
    "wof:belongsto": [
      1947304067,
      102527513,
      1947304595,
      102191575,
      85633793,
      102087579,
      85922583,
      554784711,
      85688637,
      1947304617,
      1947304591,
      102085387
    ],
    "wof:country": "US",
    "wof:created": 1791389708,
    "wof:geomhash": "976937653dbac6c9c27dd23670ba89bf",
    "wof:hierarchy": [
      {
        "building_id": 1947304067,
        "campus_id": 102527513,
        "concourse_id": 1947304595,
        "continent_id": 102191575,
        "country_id": 85633793,
        "county_id": 102087579,
        "custom_id": 2048533381,
        "flight_id": 2048533381,
        "locality_id": 85922583,
        "postalcode_id": 554784711,
        "region_id": 85688637,
        "venue_id": 1947304617,
        "wing_id": 1947304591
      },
      {
        "building_id": 1947304067,
        "campus_id": 102527513,
        "concourse_id": 1947304595,
        "continent_id": 102191575,
        "country_id": 85633793,
        "county_id": 102085387,
        "custom_id": 2048533381,
        "flight_id": 2048533381,
        "region_id": 85688637,
        "venue_id": 1947304617,
        "wing_id": 1947304591
      }
    ],
    "wof:id": 2048533381,
    "wof:involves": [
      102531189,
      102527513,
      1159285413,
      1947304617,
      1159283597,
      1159289871
    ],
    "wof:lastmodified": 1791389852,
    "wof:name": "UA2436 (SFO-DEN)",
    "wof:parent_id": 1947304617,
    "wof:placetype": "custom",
    "wof:placetype_alt": [
      "flight"
    ],
    "wof:repo": "sfomuseum-data-flights-2026-10",
    "wof:superseded_by": [],
    "wof:supersedes": []
  },
  "bbox": [
    -122.370943,
    37.61799,
    -104.672219,
    39.864939
  ],
  "geometry": {"type":"MultiPoint","coordinates":[[-122.370943,37.61799],[-104.672219,39.864939]]}
}
