{
  "id": 2048487671,
  "type": "Feature",
  "properties": {
    "geom:area": 0,
    "geom:bbox": "-122.366500,37.628280,-122.114270,38.499340",
    "geom:latitude": 38.03004318294944,
    "geom:longitude": -122.17955788949119,
    "src:alt_label": "swim-takeoff",
    "src:geom": "swim",
    "swim:elevations": [
      183,
      347,
      652,
      1017,
      1441,
      1707,
      2539,
      2780,
      2872,
      3277,
      3488,
      3688,
      3862,
      4053,
      4373,
      4823,
      4851,
      5166,
      5479,
      5695,
      5789
    ],
    "swim:geom": "takeoff",
    "swim:timestamps": [
      1790853146,
      1790853161,
      1790853202,
      1790853249,
      1790853290,
      1790853313,
      1790853387,
      1790853410,
      1790853420,
      1790853469,
      1790853504,
      1790853531,
      1790853558,
      1790853578,
      1790853602,
      1790853657,
      1790853661,
      1790853698,
      1790853738,
      1790853766,
      1790853789
    ],
    "wof:geomhash": "1bb0667fa6e77f98152933bcc68eef46",
    "wof:id": 2048487671,
    "wof:repo": "sfomuseum-data-flights-2026-10"
  },
  "bbox": [
    -122.3665,
    37.62828,
    -122.11427,
    38.49934
  ],
  "geometry": {"type":"LineString","coordinates":[[-122.3665,37.62828],[-122.35781,37.63671],[-122.32449,37.65656],[-122.27468,37.6853],[-122.22314,37.716],[-122.21059,37.74279],[-122.19454,37.84135],[-122.18895,37.87272],[-122.18649,37.88639],[-122.17489,37.95809],[-122.16643,38.01145],[-122.1593,38.057],[-122.15175,38.10083],[-122.14546,38.13598],[-122.13877,38.17631],[-122.12387,38.26841],[-122.12275,38.27548],[-122.11427,38.33846],[-122.11784,38.4088],[-122.12129,38.45833],[-122.12413,38.49934]]}
}
