{
  "id": 2048499941,
  "type": "Feature",
  "properties": {
    "geom:area": 0,
    "geom:bbox": "-122.757370,37.550370,-122.096890,38.427530",
    "geom:latitude": 37.87457053961973,
    "geom:longitude": -122.4811489482168,
    "src:alt_label": "swim-approach",
    "src:geom": "swim",
    "swim:elevations": [
      7559,
      7498,
      7142,
      6702,
      6606,
      6389,
      6119,
      6045,
      5660,
      5330,
      5091,
      4789,
      4630,
      4474,
      4237,
      4197,
      4176,
      4062,
      3715,
      3442,
      3200,
      3041,
      2764,
      2577,
      2172,
      2086,
      1739,
      1652,
      1268,
      1125,
      1059,
      954,
      881,
      792,
      687,
      526,
      360,
      216,
      91,
      33
    ],
    "swim:geom": "approach",
    "swim:timestamps": [
      1791029334,
      1791029343,
      1791029379,
      1791029423,
      1791029433,
      1791029457,
      1791029488,
      1791029497,
      1791029537,
      1791029575,
      1791029601,
      1791029635,
      1791029656,
      1791029673,
      1791029711,
      1791029735,
      1791029761,
      1791029793,
      1791029855,
      1791029897,
      1791029925,
      1791029947,
      1791029984,
      1791030006,
      1791030058,
      1791030068,
      1791030113,
      1791030127,
      1791030176,
      1791030196,
      1791030218,
      1791030242,
      1791030259,
      1791030279,
      1791030302,
      1791030339,
      1791030377,
      1791030413,
      1791030445,
      1791030458
    ],
    "wof:geomhash": "2bc302856bdd666f0f2ae25f3ea5df03",
    "wof:id": 2048499941,
    "wof:repo": "sfomuseum-data-flights-2026-10"
  },
  "bbox": [
    -122.75737,
    37.55037,
    -122.09689,
    38.42753
  ],
  "geometry": {"type":"LineString","coordinates":[[-122.55675,38.42753],[-122.57028,38.41456],[-122.62501,38.36201],[-122.68986,38.29954],[-122.70431,38.28565],[-122.73804,38.25224],[-122.75737,38.20106],[-122.75545,38.18565],[-122.73672,38.11842],[-122.71895,38.05733],[-122.70651,38.01443],[-122.69054,37.95931],[-122.68128,37.92739],[-122.66951,37.90098],[-122.62315,37.85218],[-122.59416,37.82492],[-122.56584,37.79814],[-122.5328,37.76691],[-122.46633,37.71694],[-122.40965,37.69785],[-122.37242,37.68553],[-122.34124,37.67542],[-122.2921,37.65976],[-122.26374,37.65059],[-122.19883,37.62959],[-122.18655,37.62563],[-122.13248,37.60766],[-122.11593,37.60209],[-122.09689,37.56508],[-122.11465,37.553],[-122.14133,37.55037],[-122.16866,37.55435],[-122.18616,37.55898],[-122.20545,37.56521],[-122.22525,37.57164],[-122.25681,37.58172],[-122.28946,37.59127],[-122.32003,37.60033],[-122.34504,37.60812],[-122.35461,37.61247]]}
}
