{
  "id": 2048486253,
  "type": "Feature",
  "properties": {
    "date:inception_lower": "2026-10-01",
    "date:inception_upper": "2026-10-01",
    "edtf:cessation": "",
    "edtf:inception": "2026-10-01",
    "flysfo:actual_timestamp": -1,
    "flysfo:airline": "AC",
    "flysfo:base_airline": "",
    "flysfo:base_flight_number": "4465",
    "flysfo:date": "2026-10-01",
    "flysfo:estimated_timestamp": 1790913720,
    "flysfo:event": "D",
    "flysfo:flight_number": "AC4465",
    "flysfo:gate": "F21",
    "flysfo:journey": "SFO-PHX",
    "flysfo:scheduled_timestamp": 1790913900,
    "flysfo:timestamp": 1790913900,
    "geom:area": 0,
    "geom:bbox": "-122.370943,33.432684,-112.017392,37.617990",
    "geom:latitude": 35.525337,
    "geom:longitude": -117.19416749999999,
    "iata:airline": "AC",
    "iata:base_airline": "",
    "icao:airline": "ACA",
    "icao:base_airline": "ACA",
    "lbl:latitude": 37.621173,
    "lbl:longitude": -122.390131,
    "sfomuseum:airline_id": 1159283597,
    "sfomuseum:arrival_id": 102526751,
    "sfomuseum:base_flight_id": "20261001-D-ACA-4465",
    "sfomuseum:departure_id": 102527513,
    "sfomuseum:flight_id": "20261001-D-ACA-4465",
    "sfomuseum:flight_number": [
      "ACA4465",
      "AC4465"
    ],
    "sfomuseum:placetype": "flight",
    "src:geom": "flysfo",
    "wof:belongsto": [
      1947304067,
      102527513,
      1947304451,
      102191575,
      85633793,
      102087579,
      85922583,
      554784711,
      85688637,
      1947304491,
      1947304447,
      102085387
    ],
    "wof:country": "US",
    "wof:created": 1790957450,
    "wof:geomhash": "2a19f056fd5d16c52f22f1bf5dc85c9c",
    "wof:hierarchy": [
      {
        "building_id": 1947304067,
        "campus_id": 102527513,
        "concourse_id": 1947304451,
        "continent_id": 102191575,
        "country_id": 85633793,
        "county_id": 102087579,
        "custom_id": 2048486253,
        "flight_id": 2048486253,
        "locality_id": 85922583,
        "postalcode_id": 554784711,
        "region_id": 85688637,
        "venue_id": 1947304491,
        "wing_id": 1947304447
      },
      {
        "building_id": 1947304067,
        "campus_id": 102527513,
        "concourse_id": 1947304451,
        "continent_id": 102191575,
        "country_id": 85633793,
        "county_id": 102085387,
        "custom_id": 2048486253,
        "flight_id": 2048486253,
        "region_id": 85688637,
        "venue_id": 1947304491,
        "wing_id": 1947304447
      }
    ],
    "wof:id": 2048486253,
    "wof:involves": [
      102526751,
      102527513,
      1159283597,
      1947304491,
      1159283597
    ],
    "wof:lastmodified": 1790957450,
    "wof:name": "AC4465 (SFO-PHX)",
    "wof:parent_id": 1947304491,
    "wof:placetype": "custom",
    "wof:placetype_alt": [
      "flight"
    ],
    "wof:repo": "sfomuseum-data-flights-2026-10",
    "wof:superseded_by": [],
    "wof:supersedes": []
  },
  "bbox": [
    -122.370943,
    33.432684,
    -112.017392,
    37.61799
  ],
  "geometry": {"type":"MultiPoint","coordinates":[[-122.370943,37.61799],[-112.017392,33.432684]]}
}
