{
  "id": 2048558811,
  "type": "Feature",
  "properties": {
    "geom:area": 0,
    "geom:bbox": "-122.611790,36.744820,-122.364450,37.696820",
    "geom:latitude": 37.29279486130228,
    "geom:longitude": -122.52841207654268,
    "src:alt_label": "swim-takeoff",
    "src:geom": "swim",
    "swim:elevations": [
      183,
      584,
      958,
      1037,
      1671,
      2166,
      2450,
      3358,
      3867,
      4582,
      4752,
      4836,
      4991,
      5302,
      5633,
      6223,
      6432,
      6660,
      7288,
      7491,
      7926,
      8199,
      8506,
      8727,
      9251,
      9643,
      9880,
      10190
    ],
    "swim:geom": "takeoff",
    "swim:timestamps": [
      1791540628,
      1791540644,
      1791540669,
      1791540674,
      1791540718,
      1791540745,
      1791540760,
      1791540805,
      1791540829,
      1791540867,
      1791540884,
      1791540894,
      1791540911,
      1791540939,
      1791540960,
      1791540999,
      1791541015,
      1791541036,
      1791541075,
      1791541092,
      1791541129,
      1791541153,
      1791541184,
      1791541204,
      1791541250,
      1791541278,
      1791541296,
      1791541321
    ],
    "wof:geomhash": "8a69db18152d58404708b2e7faacdc7f",
    "wof:id": 2048558811,
    "wof:repo": "sfomuseum-data-flights-2026-10"
  },
  "bbox": [
    -122.61179,
    36.74482,
    -122.36445,
    37.69682
  ],
  "geometry": {"type":"LineString","coordinates":[[-122.37325,37.62236],[-122.36642,37.63321],[-122.36449,37.65301],[-122.36445,37.65813],[-122.40177,37.68763],[-122.44248,37.69682],[-122.46663,37.69319],[-122.53923,37.67654],[-122.57921,37.66508],[-122.61179,37.62096],[-122.60967,37.5947],[-122.60735,37.58001],[-122.60433,37.54986],[-122.60127,37.50061],[-122.59837,37.46136],[-122.59254,37.38572],[-122.59009,37.3547],[-122.58698,37.31294],[-122.5809,37.23451],[-122.57801,37.19953],[-122.57281,37.12255],[-122.5685,37.07233],[-122.55755,37.00611],[-122.53596,36.96615],[-122.46998,36.8776],[-122.43067,36.82467],[-122.40547,36.79098],[-122.37153,36.74482]]}
}
