{
  "id": 2048531901,
  "type": "Feature",
  "properties": {
    "geom:area": 0,
    "geom:bbox": "-122.358080,37.636320,-121.285360,38.141960",
    "geom:latitude": 37.95510249366759,
    "geom:longitude": -121.86627681721058,
    "src:alt_label": "swim-takeoff",
    "src:geom": "swim",
    "swim:elevations": [
      422,
      675,
      833,
      999,
      1766,
      1865,
      2510,
      2994,
      3349,
      3630,
      4316,
      4549,
      5125,
      5332,
      5978,
      6142,
      6682,
      7067,
      7182,
      7550,
      7810,
      7932
    ],
    "swim:geom": "takeoff",
    "swim:timestamps": [
      1791308644,
      1791308674,
      1791308692,
      1791308705,
      1791308755,
      1791308760,
      1791308799,
      1791308827,
      1791308854,
      1791308885,
      1791308935,
      1791308949,
      1791308991,
      1791309006,
      1791309056,
      1791309069,
      1791309118,
      1791309147,
      1791309159,
      1791309206,
      1791309234,
      1791309248
    ],
    "wof:geomhash": "9614ea6bf69ebc08911d9d659d1ae233",
    "wof:id": 2048531901,
    "wof:repo": "sfomuseum-data-flights-2026-10"
  },
  "bbox": [
    -122.35808,
    37.63632,
    -121.28536,
    38.14196
  ],
  "geometry": {"type":"LineString","coordinates":[[-122.35808,37.63632],[-122.33416,37.65102],[-122.31661,37.66137],[-122.30209,37.66985],[-122.25435,37.71478],[-122.25218,37.72074],[-122.23661,37.76963],[-122.22587,37.80816],[-122.19967,37.84102],[-122.15607,37.87862],[-122.07233,37.93789],[-122.04338,37.94874],[-121.94742,37.97431],[-121.91261,37.98403],[-121.79297,38.01534],[-121.76087,38.0237],[-121.63788,38.05504],[-121.56172,38.07442],[-121.52986,38.08233],[-121.40358,38.11304],[-121.32495,38.1317],[-121.28536,38.14196]]}
}
