{
  "id": 2048493691,
  "type": "Feature",
  "properties": {
    "geom:area": 0,
    "geom:bbox": "-122.808540,37.270170,-122.080930,37.615300",
    "geom:latitude": 37.415024633387986,
    "geom:longitude": -122.37121763852949,
    "src:alt_label": "swim-approach",
    "src:geom": "swim",
    "swim:elevations": [
      3048,
      3048,
      3042,
      3048,
      2923,
      2835,
      2726,
      2488,
      2338,
      2072,
      1923,
      1734,
      1598,
      1434,
      1337,
      1221,
      1218,
      1219,
      1082,
      973,
      870,
      592,
      456,
      343,
      222,
      91,
      244
    ],
    "swim:geom": "approach",
    "swim:timestamps": [
      1790960597,
      1790960626,
      1790960648,
      1790960687,
      1790960719,
      1790960737,
      1790960760,
      1790960805,
      1790960836,
      1790960871,
      1790960895,
      1790960928,
      1790960952,
      1790960989,
      1790961012,
      1790961056,
      1790961062,
      1790961104,
      1790961144,
      1790961170,
      1790961189,
      1790961233,
      1790961254,
      1790961278,
      1790961310,
      1790961347,
      1790961377
    ],
    "wof:geomhash": "c9d134ec1a658e8e37c844ed7e991c56",
    "wof:id": 2048493691,
    "wof:repo": "sfomuseum-data-flights-2026-10"
  },
  "bbox": [
    -122.80854,
    37.27017,
    -122.08093,
    37.6153
  ],
  "geometry": {"type":"LineString","coordinates":[[-122.80854,37.27017],[-122.75176,37.28371],[-122.70968,37.29365],[-122.63729,37.31068],[-122.58404,37.32292],[-122.55332,37.32992],[-122.51507,37.33863],[-122.44158,37.35557],[-122.3914,37.36717],[-122.33359,37.38069],[-122.29453,37.38948],[-122.24196,37.40136],[-122.20371,37.41014],[-122.14875,37.42302],[-122.11753,37.43046],[-122.08263,37.46424],[-122.08093,37.46913],[-122.1023,37.50304],[-122.1438,37.52125],[-122.17215,37.53337],[-122.19248,37.5418],[-122.24044,37.56196],[-122.26296,37.57158],[-122.28552,37.58122],[-122.31182,37.59218],[-122.34074,37.60434],[-122.36419,37.6153]]}
}
