{
  "id": 2048510221,
  "type": "Feature",
  "properties": {
    "date:cessation_lower": "2026-10-04",
    "date:cessation_upper": "2026-10-04",
    "date:inception_lower": "1970-01-01",
    "date:inception_upper": "1970-01-01",
    "edtf:cessation": "2026-10-04T13:54:13-07:00",
    "edtf:inception": "1970-01-01T00:00:00Z",
    "flysfo:actual_timestamp": -1,
    "flysfo:airline": "B6",
    "flysfo:date": "2026-10-04",
    "flysfo:estimated_timestamp": 1791172980,
    "flysfo:event": "A",
    "flysfo:flight_number": "B6615",
    "flysfo:gate": "B15",
    "flysfo:journey": "JFK-SFO",
    "flysfo:scheduled_timestamp": 1791174360,
    "flysfo:timestamp": 1791174360,
    "geom:area": 0,
    "geom:bbox": "-122.370943,37.617990,-73.787845,40.643286",
    "geom:latitude": 39.130638000000005,
    "geom:longitude": -98.07939400000001,
    "iata:airline": "B6",
    "icao:aircraft": "A321",
    "icao:airline": "JBU",
    "lbl:latitude": 37.61799,
    "lbl:longitude": -122.370943,
    "sfomuseum:aircraft_id": 1159289411,
    "sfomuseum:airline_id": 1159284583,
    "sfomuseum:arrival_id": 102527513,
    "sfomuseum:departure_id": 102534365,
    "sfomuseum:flight_id": "20261004-A-JBU-615",
    "sfomuseum:flight_number": [
      "JBU615",
      "B6615"
    ],
    "sfomuseum:placetype": "flight",
    "src:geom": "flysfo",
    "src:geom_alt": [
      "swim-approach"
    ],
    "swim:tail_number": "N947JB",
    "wof:belongsto": [
      1947304067,
      102527513,
      1947304261,
      102191575,
      85633793,
      102087579,
      85922583,
      554784711,
      85688637,
      1947304271,
      1947304259,
      102085387
    ],
    "wof:country": "US",
    "wof:created": 1791216382,
    "wof:geomhash": "ba4d31d1826c6198b5ffa8fdb1249c5d",
    "wof:hierarchy": [
      {
        "building_id": 1947304067,
        "campus_id": 102527513,
        "concourse_id": 1947304261,
        "continent_id": 102191575,
        "country_id": 85633793,
        "county_id": 102087579,
        "custom_id": 2048510221,
        "flight_id": 2048510221,
        "locality_id": 85922583,
        "postalcode_id": 554784711,
        "region_id": 85688637,
        "venue_id": 1947304271,
        "wing_id": 1947304259
      },
      {
        "building_id": 1947304067,
        "campus_id": 102527513,
        "concourse_id": 1947304261,
        "continent_id": 102191575,
        "country_id": 85633793,
        "county_id": 102085387,
        "custom_id": 2048510221,
        "flight_id": 2048510221,
        "region_id": 85688637,
        "venue_id": 1947304271,
        "wing_id": 1947304259
      }
    ],
    "wof:id": 2048510221,
    "wof:involves": [
      102534365,
      1159284583,
      1947304271,
      1159289411,
      102527513
    ],
    "wof:lastmodified": 1791217155,
    "wof:name": "B6615 (JFK-SFO)",
    "wof:parent_id": 1947304271,
    "wof:placetype": "custom",
    "wof:placetype_alt": [
      "flight"
    ],
    "wof:repo": "sfomuseum-data-flights-2026-10",
    "wof:superseded_by": [],
    "wof:supersedes": []
  },
  "bbox": [
    -122.370943,
    37.61799,
    -73.787845,
    40.643286
  ],
  "geometry": {"type":"MultiPoint","coordinates":[[-73.787845,40.643286],[-122.370943,37.61799]]}
}
