{
  "id": 2048515577,
  "type": "Feature",
  "properties": {
    "geom:area": 0,
    "geom:bbox": "-122.554380,36.738270,-122.361570,37.703940",
    "geom:latitude": 37.24441761191954,
    "geom:longitude": -122.47351103924031,
    "src:alt_label": "swim-takeoff",
    "src:geom": "swim",
    "swim:elevations": [
      344,
      508,
      644,
      1093,
      1106,
      1225,
      1279,
      1339,
      1539,
      2040,
      2725,
      2826,
      3258,
      3663,
      3744,
      4388,
      4796,
      4885,
      5438,
      5962,
      6083,
      6467,
      6817,
      7079,
      7601,
      7648,
      7804,
      7821,
      8000,
      8167,
      8394
    ],
    "swim:geom": "takeoff",
    "swim:timestamps": [
      1791145067,
      1791145083,
      1791145095,
      1791145137,
      1791145141,
      1791145162,
      1791145174,
      1791145183,
      1791145206,
      1791145236,
      1791145280,
      1791145286,
      1791145312,
      1791145348,
      1791145354,
      1791145402,
      1791145437,
      1791145443,
      1791145487,
      1791145527,
      1791145537,
      1791145570,
      1791145601,
      1791145623,
      1791145674,
      1791145680,
      1791145705,
      1791145711,
      1791145761,
      1791145787,
      1791145816
    ],
    "wof:geomhash": "4057e778231d24458f5bb7b6196530c0",
    "wof:id": 2048515577,
    "wof:repo": "sfomuseum-data-flights-2026-10"
  },
  "bbox": [
    -122.55438,
    36.73827,
    -122.36157,
    37.70394
  ],
  "geometry": {"type":"LineString","coordinates":[[-122.36157,37.64188],[-122.36167,37.65394],[-122.36215,37.66364],[-122.36884,37.69476],[-122.37189,37.69737],[-122.39392,37.70394],[-122.40859,37.69985],[-122.41728,37.69257],[-122.42852,37.66587],[-122.43654,37.62774],[-122.44894,37.57175],[-122.45034,37.56397],[-122.45659,37.53058],[-122.46622,37.48289],[-122.46803,37.47446],[-122.48249,37.40382],[-122.49278,37.35177],[-122.49479,37.34228],[-122.50972,37.27352],[-122.52289,37.21009],[-122.52603,37.1941],[-122.53687,37.14052],[-122.54686,37.09096],[-122.55438,37.05436],[-122.53765,36.97113],[-122.531,36.96206],[-122.50361,36.92345],[-122.4968,36.914],[-122.43673,36.83169],[-122.40438,36.78767],[-122.36812,36.73827]]}
}
