{
  "id": 2048486081,
  "type": "Feature",
  "properties": {
    "date:inception_lower": "2026-10-01",
    "date:inception_upper": "2026-10-01",
    "edtf:cessation": "",
    "edtf:inception": "2026-10-01",
    "flysfo:actual_timestamp": -1,
    "flysfo:airline": "AC",
    "flysfo:base_airline": "",
    "flysfo:base_flight_number": "3534",
    "flysfo:date": "2026-10-01",
    "flysfo:estimated_timestamp": 1790897520,
    "flysfo:event": "D",
    "flysfo:flight_number": "AC3534",
    "flysfo:gate": "F19",
    "flysfo:journey": "SFO-OGG",
    "flysfo:scheduled_timestamp": 1790897700,
    "flysfo:timestamp": 1790897700,
    "geom:area": 0,
    "geom:bbox": "-156.437877,20.894952,-122.370943,37.617990",
    "geom:latitude": 29.256470999999998,
    "geom:longitude": -139.40440999999998,
    "iata:airline": "AC",
    "iata:base_airline": "",
    "icao:airline": "ACA",
    "icao:base_airline": "ACA",
    "lbl:latitude": 37.620929,
    "lbl:longitude": -122.390272,
    "sfomuseum:airline_id": 1159283597,
    "sfomuseum:arrival_id": 102532929,
    "sfomuseum:base_flight_id": "20261001-D-ACA-3534",
    "sfomuseum:departure_id": 102527513,
    "sfomuseum:flight_id": "20261001-D-ACA-3534",
    "sfomuseum:flight_number": [
      "ACA3534",
      "AC3534"
    ],
    "sfomuseum:placetype": "flight",
    "src:geom": "flysfo",
    "wof:belongsto": [
      1947304067,
      102527513,
      1947304451,
      102191575,
      85633793,
      102087579,
      85922583,
      554784711,
      85688637,
      1947304487,
      1947304447,
      102085387
    ],
    "wof:country": "US",
    "wof:created": 1790957430,
    "wof:geomhash": "8c8f659fbae3cc58419f360e0abfbe56",
    "wof:hierarchy": [
      {
        "building_id": 1947304067,
        "campus_id": 102527513,
        "concourse_id": 1947304451,
        "continent_id": 102191575,
        "country_id": 85633793,
        "county_id": 102087579,
        "custom_id": 2048486081,
        "flight_id": 2048486081,
        "locality_id": 85922583,
        "postalcode_id": 554784711,
        "region_id": 85688637,
        "venue_id": 1947304487,
        "wing_id": 1947304447
      },
      {
        "building_id": 1947304067,
        "campus_id": 102527513,
        "concourse_id": 1947304451,
        "continent_id": 102191575,
        "country_id": 85633793,
        "county_id": 102085387,
        "custom_id": 2048486081,
        "flight_id": 2048486081,
        "region_id": 85688637,
        "venue_id": 1947304487,
        "wing_id": 1947304447
      }
    ],
    "wof:id": 2048486081,
    "wof:involves": [
      102532929,
      102527513,
      1159283597,
      1947304487,
      1159283597
    ],
    "wof:lastmodified": 1790957430,
    "wof:name": "AC3534 (SFO-OGG)",
    "wof:parent_id": 1947304487,
    "wof:placetype": "custom",
    "wof:placetype_alt": [
      "flight"
    ],
    "wof:repo": "sfomuseum-data-flights-2026-10",
    "wof:superseded_by": [],
    "wof:supersedes": []
  },
  "bbox": [
    -156.437877,
    20.894952,
    -122.370943,
    37.61799
  ],
  "geometry": {"type":"MultiPoint","coordinates":[[-122.370943,37.61799],[-156.437877,20.894952]]}
}
