{
  "id": 2048537839,
  "type": "Feature",
  "properties": {
    "geom:area": 0,
    "geom:bbox": "-123.032000,37.407620,-122.132170,38.496000",
    "geom:latitude": 37.84779408029582,
    "geom:longitude": -122.5376372449779,
    "src:alt_label": "swim-approach",
    "src:geom": "swim",
    "swim:elevations": [
      7346,
      7206,
      7169,
      6895,
      6674,
      6545,
      6158,
      5888,
      5791,
      5403,
      5370,
      4964,
      4664,
      4567,
      4140,
      4078,
      3588,
      3507,
      3441,
      3410,
      3352,
      3353,
      3353,
      3353,
      3198,
      2996,
      2857,
      2669,
      2530,
      2295,
      2260,
      2208,
      1973,
      1808,
      1735,
      1588,
      1581,
      1192,
      991,
      827,
      692,
      484,
      355,
      308,
      244,
      156,
      61,
      200
    ],
    "swim:geom": "approach",
    "swim:timestamps": [
      1791405956,
      1791405978,
      1791405982,
      1791406015,
      1791406042,
      1791406058,
      1791406105,
      1791406138,
      1791406150,
      1791406196,
      1791406201,
      1791406249,
      1791406285,
      1791406294,
      1791406345,
      1791406352,
      1791406407,
      1791406433,
      1791406460,
      1791406472,
      1791406510,
      1791406553,
      1791406570,
      1791406609,
      1791406640,
      1791406669,
      1791406693,
      1791406731,
      1791406755,
      1791406796,
      1791406801,
      1791406808,
      1791406858,
      1791406882,
      1791406897,
      1791406945,
      1791406950,
      1791407005,
      1791407029,
      1791407050,
      1791407070,
      1791407125,
      1791407156,
      1791407164,
      1791407185,
      1791407204,
      1791407233,
      1791407250
    ],
    "wof:geomhash": "bcf04797f91beb6e8ae4cd37ea4ae8af",
    "wof:id": 2048537839,
    "wof:repo": "sfomuseum-data-flights-2026-10"
  },
  "bbox": [
    -123.032,
    37.40762,
    -122.13217,
    38.496
  ],
  "geometry": {"type":"LineString","coordinates":[[-123.032,38.496],[-122.99961,38.46285],[-122.99334,38.45645],[-122.94336,38.40535],[-122.90356,38.36452],[-122.87971,38.34002],[-122.81273,38.27109],[-122.7716,38.22056],[-122.76163,38.20061],[-122.73784,38.1224],[-122.73535,38.1138],[-122.71212,38.03349],[-122.69485,37.97424],[-122.69059,37.95954],[-122.65349,37.88125],[-122.64505,37.87264],[-122.57459,37.80652],[-122.54147,37.7753],[-122.51089,37.74629],[-122.49731,37.73335],[-122.46025,37.69842],[-122.41928,37.66],[-122.40329,37.64491],[-122.36749,37.61078],[-122.3484,37.58017],[-122.33166,37.55156],[-122.31778,37.52746],[-122.31051,37.48808],[-122.31165,37.46223],[-122.28233,37.42825],[-122.27611,37.42603],[-122.26661,37.42311],[-122.20104,37.40762],[-122.17222,37.41946],[-122.15621,37.42961],[-122.13217,37.4734],[-122.13324,37.47754],[-122.1591,37.52281],[-122.17804,37.53609],[-122.19685,37.54392],[-122.21476,37.55134],[-122.2621,37.57125],[-122.28905,37.58255],[-122.2956,37.58533],[-122.31283,37.59255],[-122.32823,37.59905],[-122.34964,37.60805],[-122.36026,37.6124]]}
}
