{
  "id": 2048520973,
  "type": "Feature",
  "properties": {
    "date:cessation_lower": "2026-10-05",
    "date:cessation_upper": "2026-10-05",
    "date:inception_lower": "1970-01-01",
    "date:inception_upper": "1970-01-01",
    "edtf:cessation": "2026-10-05T12:41:19-07:00",
    "edtf:inception": "1970-01-01T00:00:00Z",
    "flysfo:actual_timestamp": -1,
    "flysfo:airline": "UA",
    "flysfo:base_airline": "",
    "flysfo:base_flight_number": "4406",
    "flysfo:date": "2026-10-05",
    "flysfo:estimated_timestamp": 1791255120,
    "flysfo:event": "A",
    "flysfo:flight_number": "UA754",
    "flysfo:gate": "D16",
    "flysfo:journey": "BOS-SFO",
    "flysfo:scheduled_timestamp": 1791254400,
    "flysfo:timestamp": 1791255120,
    "geom:area": 0,
    "geom:bbox": "-122.370943,37.617990,-71.014750,42.362322",
    "geom:latitude": 39.990156,
    "geom:longitude": -96.6928465,
    "iata:airline": "UA",
    "iata:base_airline": "",
    "icao:aircraft": "B39M",
    "icao:airline": "UAL",
    "icao:base_airline": "ITY",
    "lbl:latitude": 37.617532,
    "lbl:longitude": -122.382384,
    "sfomuseum:aircraft_id": 1528104577,
    "sfomuseum:airline_id": 1159285413,
    "sfomuseum:arrival_id": 102527513,
    "sfomuseum:base_flight_id": "20261005-A-ITY-4406",
    "sfomuseum:departure_id": 102530741,
    "sfomuseum:flight_id": "20261005-A-UAL-754",
    "sfomuseum:flight_number": [
      "UAL754",
      "UA754"
    ],
    "sfomuseum:placetype": "flight",
    "src:geom": "flysfo",
    "src:geom_alt": [
      "swim-approach"
    ],
    "swim:tail_number": "N17452",
    "wof:belongsto": [
      1947304067,
      102527513,
      1947304595,
      102191575,
      85633793,
      102087579,
      85922583,
      554784711,
      85688637,
      1947304619,
      1947304591,
      102085387
    ],
    "wof:country": "US",
    "wof:created": 1791302941,
    "wof:geomhash": "9cccd37636918a32bc446a92e7ba93ba",
    "wof:hierarchy": [
      {
        "building_id": 1947304067,
        "campus_id": 102527513,
        "concourse_id": 1947304595,
        "continent_id": 102191575,
        "country_id": 85633793,
        "county_id": 102087579,
        "custom_id": 2048520973,
        "flight_id": 2048520973,
        "locality_id": 85922583,
        "postalcode_id": 554784711,
        "region_id": 85688637,
        "venue_id": 1947304619,
        "wing_id": 1947304591
      },
      {
        "building_id": 1947304067,
        "campus_id": 102527513,
        "concourse_id": 1947304595,
        "continent_id": 102191575,
        "country_id": 85633793,
        "county_id": 102085387,
        "custom_id": 2048520973,
        "flight_id": 2048520973,
        "region_id": 85688637,
        "venue_id": 1947304619,
        "wing_id": 1947304591
      }
    ],
    "wof:id": 2048520973,
    "wof:involves": [
      1528104577,
      102527513,
      102530741,
      1159285413,
      1947304619,
      1763699293
    ],
    "wof:lastmodified": 1791303560,
    "wof:name": "UA754 (BOS-SFO)",
    "wof:parent_id": 1947304619,
    "wof:placetype": "custom",
    "wof:placetype_alt": [
      "flight"
    ],
    "wof:repo": "sfomuseum-data-flights-2026-10",
    "wof:superseded_by": [],
    "wof:supersedes": []
  },
  "bbox": [
    -122.370943,
    37.61799,
    -71.01475,
    42.362322
  ],
  "geometry": {"type":"MultiPoint","coordinates":[[-71.01475,42.362322],[-122.370943,37.61799]]}
}
