{
  "id": 2048555665,
  "type": "Feature",
  "properties": {
    "geom:area": 0,
    "geom:bbox": "-122.353020,37.491580,-121.248910,37.611760",
    "geom:latitude": 37.546488637721694,
    "geom:longitude": -121.80574874637419,
    "src:alt_label": "swim-approach",
    "src:geom": "swim",
    "swim:elevations": [
      4840,
      4659,
      4246,
      4012,
      3814,
      3660,
      3409,
      3150,
      3046,
      2949,
      2635,
      2546,
      2444,
      2255,
      2065,
      1978,
      1857,
      1712,
      1580,
      1472,
      1201,
      1071,
      822,
      730,
      610,
      497,
      301,
      211,
      41
    ],
    "swim:geom": "approach",
    "swim:timestamps": [
      1791569290,
      1791569310,
      1791569363,
      1791569386,
      1791569408,
      1791569433,
      1791569469,
      1791569509,
      1791569538,
      1791569553,
      1791569605,
      1791569625,
      1791569661,
      1791569689,
      1791569728,
      1791569749,
      1791569783,
      1791569809,
      1791569832,
      1791569853,
      1791569897,
      1791569925,
      1791569968,
      1791569986,
      1791570006,
      1791570031,
      1791570074,
      1791570096,
      1791570136
    ],
    "wof:geomhash": "17412cdf0742f21abe10c4fce11da8e8",
    "wof:id": 2048555665,
    "wof:repo": "sfomuseum-data-flights-2026-10"
  },
  "bbox": [
    -122.35302,
    37.49158,
    -121.24891,
    37.61176
  ],
  "geometry": {"type":"LineString","coordinates":[[-121.24891,37.59463],[-121.28244,37.59018],[-121.36955,37.58064],[-121.40754,37.57601],[-121.44435,37.57178],[-121.48498,37.56711],[-121.53989,37.56071],[-121.59853,37.55388],[-121.64012,37.54708],[-121.66155,37.54196],[-121.73345,37.52472],[-121.76134,37.51817],[-121.8102,37.5065],[-121.84886,37.49719],[-121.90268,37.49158],[-121.93212,37.49234],[-121.97836,37.49378],[-122.01028,37.50193],[-122.0394,37.51136],[-122.06498,37.5197],[-122.11918,37.53714],[-122.15138,37.54764],[-122.19991,37.56344],[-122.21848,37.56939],[-122.23896,37.57597],[-122.26357,37.58379],[-122.30186,37.595],[-122.32043,37.60051],[-122.35302,37.61176]]}
}
