{
  "id": 2048529137,
  "type": "Feature",
  "properties": {
    "geom:area": 0,
    "geom:bbox": "-122.355800,37.491370,-121.250890,37.612910",
    "geom:latitude": 37.546760988284205,
    "geom:longitude": -121.80816279012278,
    "src:alt_label": "swim-approach",
    "src:geom": "swim",
    "swim:elevations": [
      4678,
      4363,
      4048,
      4016,
      3486,
      3367,
      3140,
      3107,
      2857,
      2732,
      2525,
      2436,
      2411,
      2080,
      1955,
      1920,
      1682,
      1521,
      1471,
      1244,
      1157,
      1047,
      890,
      658,
      524,
      424,
      255,
      116,
      0
    ],
    "swim:geom": "approach",
    "swim:timestamps": [
      1791295827,
      1791295858,
      1791295888,
      1791295892,
      1791295946,
      1791295957,
      1791296002,
      1791296015,
      1791296058,
      1791296076,
      1791296104,
      1791296127,
      1791296134,
      1791296186,
      1791296213,
      1791296229,
      1791296272,
      1791296305,
      1791296316,
      1791296364,
      1791296381,
      1791296404,
      1791296436,
      1791296486,
      1791296506,
      1791296529,
      1791296572,
      1791296605,
      1791296623
    ],
    "wof:geomhash": "452a28ff1a15bb1d5f94243164f70b65",
    "wof:id": 2048529137,
    "wof:repo": "sfomuseum-data-flights-2026-10"
  },
  "bbox": [
    -122.3558,
    37.49137,
    -121.25089,
    37.61291
  ],
  "geometry": {"type":"LineString","coordinates":[[-121.25089,37.59438],[-121.31364,37.5868],[-121.37698,37.57984],[-121.38512,37.57886],[-121.49314,37.56631],[-121.51632,37.56361],[-121.60385,37.55318],[-121.62689,37.55006],[-121.69719,37.53361],[-121.72648,37.52657],[-121.77117,37.51573],[-121.80658,37.50737],[-121.81792,37.50464],[-121.89601,37.49137],[-121.9363,37.49246],[-121.95935,37.4931],[-122.01342,37.50285],[-122.04961,37.51462],[-122.06043,37.51815],[-122.11105,37.53457],[-122.12883,37.54027],[-122.15274,37.54812],[-122.1864,37.5591],[-122.23539,37.57484],[-122.25557,37.58141],[-122.2776,37.5878],[-122.31429,37.59864],[-122.34185,37.60723],[-122.3558,37.61291]]}
}
