{
  "id": 2048516581,
  "type": "Feature",
  "properties": {
    "date:inception_lower": "2026-10-04",
    "date:inception_upper": "2026-10-04",
    "edtf:cessation": "",
    "edtf:inception": "2026-10-04",
    "flysfo:actual_timestamp": -1,
    "flysfo:airline": "VA",
    "flysfo:base_airline": "",
    "flysfo:base_flight_number": "4559",
    "flysfo:date": "2026-10-04",
    "flysfo:estimated_timestamp": 1791148200,
    "flysfo:event": "D",
    "flysfo:flight_number": "VA8431",
    "flysfo:gate": "E4",
    "flysfo:journey": "SFO-SAN",
    "flysfo:scheduled_timestamp": 1791148200,
    "flysfo:timestamp": 1791148200,
    "geom:area": 0,
    "geom:bbox": "-122.370943,32.733534,-117.185927,37.617990",
    "geom:latitude": 35.175762,
    "geom:longitude": -119.778435,
    "iata:airline": "VA",
    "iata:base_airline": "",
    "icao:airline": "VOZ",
    "icao:base_airline": "ACA",
    "lbl:latitude": 37.618161,
    "lbl:longitude": -122.384735,
    "sfomuseum:airline_id": 1159285485,
    "sfomuseum:arrival_id": 102528997,
    "sfomuseum:base_flight_id": "20261004-D-ACA-4559",
    "sfomuseum:departure_id": 102527513,
    "sfomuseum:flight_id": "20261004-D-VOZ-8431",
    "sfomuseum:flight_number": [
      "VOZ8431",
      "VA8431"
    ],
    "sfomuseum:placetype": "flight",
    "src:geom": "flysfo",
    "wof:belongsto": [
      1763588121,
      102527513,
      1763588335,
      102191575,
      85633793,
      102087579,
      85922583,
      554784711,
      85688637,
      1763588337,
      1763588269,
      102085387
    ],
    "wof:country": "US",
    "wof:created": 1791217108,
    "wof:geomhash": "25f5345529d944df781e36098260a435",
    "wof:hierarchy": [
      {
        "building_id": 1763588121,
        "campus_id": 102527513,
        "concourse_id": 1763588335,
        "continent_id": 102191575,
        "country_id": 85633793,
        "county_id": 102087579,
        "custom_id": 2048516581,
        "flight_id": 2048516581,
        "locality_id": 85922583,
        "postalcode_id": 554784711,
        "region_id": 85688637,
        "venue_id": 1763588337,
        "wing_id": 1763588269
      },
      {
        "building_id": 1763588121,
        "campus_id": 102527513,
        "concourse_id": 1763588335,
        "continent_id": 102191575,
        "country_id": 85633793,
        "county_id": 102085387,
        "custom_id": 2048516581,
        "flight_id": 2048516581,
        "region_id": 85688637,
        "venue_id": 1763588337,
        "wing_id": 1763588269
      }
    ],
    "wof:id": 2048516581,
    "wof:involves": [
      102528997,
      102527513,
      1159285485,
      1763588337,
      1159283597
    ],
    "wof:lastmodified": 1791217108,
    "wof:name": "VA8431 (SFO-SAN)",
    "wof:parent_id": 1763588337,
    "wof:placetype": "custom",
    "wof:placetype_alt": [
      "flight"
    ],
    "wof:repo": "sfomuseum-data-flights-2026-10",
    "wof:superseded_by": [],
    "wof:supersedes": []
  },
  "bbox": [
    -122.370943,
    32.733534,
    -117.185927,
    37.61799
  ],
  "geometry": {"type":"MultiPoint","coordinates":[[-122.370943,37.61799],[-117.185927,32.733534]]}
}
