{
  "id": 2048507701,
  "type": "Feature",
  "properties": {
    "geom:area": 0,
    "geom:bbox": "-122.362090,37.491170,-121.292610,37.616140",
    "geom:latitude": 37.54540432680343,
    "geom:longitude": -121.83217207052522,
    "src:alt_label": "swim-approach",
    "src:geom": "swim",
    "swim:elevations": [
      4392,
      3645,
      3449,
      3231,
      3139,
      3069,
      2850,
      2557,
      2486,
      2256,
      2079,
      2041,
      1831,
      1576,
      1298,
      1048,
      944,
      895,
      858,
      778,
      522,
      451,
      364,
      277,
      181,
      49,
      0
    ],
    "swim:geom": "approach",
    "swim:timestamps": [
      1791107124,
      1791107185,
      1791107214,
      1791107248,
      1791107275,
      1791107289,
      1791107325,
      1791107362,
      1791107371,
      1791107426,
      1791107455,
      1791107463,
      1791107494,
      1791107549,
      1791107577,
      1791107605,
      1791107621,
      1791107635,
      1791107658,
      1791107673,
      1791107715,
      1791107737,
      1791107757,
      1791107778,
      1791107801,
      1791107837,
      1791107851
    ],
    "wof:geomhash": "be3f009078be4ec13329e2697ea63c24",
    "wof:id": 2048507701,
    "wof:repo": "sfomuseum-data-flights-2026-10"
  },
  "bbox": [
    -122.36209,
    37.49117,
    -121.29261,
    37.61614
  ],
  "geometry": {"type":"LineString","coordinates":[[-121.29261,37.58874],[-121.41786,37.57481],[-121.47638,37.56811],[-121.54179,37.56035],[-121.59333,37.55421],[-121.6188,37.55115],[-121.67785,37.53784],[-121.73898,37.52344],[-121.75418,37.51974],[-121.84294,37.49855],[-121.88917,37.49117],[-121.90281,37.49145],[-121.95244,37.49299],[-122.0332,37.50952],[-122.07454,37.523],[-122.11585,37.53632],[-122.13885,37.54373],[-122.1577,37.54979],[-122.18629,37.55901],[-122.20375,37.5646],[-122.2485,37.57903],[-122.26976,37.58568],[-122.2877,37.59102],[-122.30537,37.59614],[-122.3234,37.60155],[-122.35236,37.61146],[-122.36209,37.61614]]}
}
