{
  "id": 2048505931,
  "type": "Feature",
  "properties": {
    "date:inception_lower": "2026-10-03",
    "date:inception_upper": "2026-10-03",
    "edtf:cessation": "",
    "edtf:inception": "2026-10-03",
    "flysfo:actual_timestamp": -1,
    "flysfo:airline": "QF",
    "flysfo:base_airline": "",
    "flysfo:base_flight_number": "9269",
    "flysfo:date": "2026-10-03",
    "flysfo:estimated_timestamp": 1791042300,
    "flysfo:event": "D",
    "flysfo:flight_number": "QF3796",
    "flysfo:gate": "B19",
    "flysfo:journey": "SFO-MCO",
    "flysfo:scheduled_timestamp": 1791040980,
    "flysfo:timestamp": 1791042300,
    "geom:area": 0,
    "geom:bbox": "-122.370943,28.431495,-81.307537,37.617990",
    "geom:latitude": 33.0247425,
    "geom:longitude": -101.83923999999999,
    "iata:airline": "QF",
    "iata:base_airline": "",
    "icao:airline": "QFA",
    "icao:base_airline": "AAL",
    "lbl:latitude": 37.61799,
    "lbl:longitude": -122.370943,
    "sfomuseum:airline_id": 1159285043,
    "sfomuseum:arrival_id": 102533657,
    "sfomuseum:base_flight_id": "20261003-D-AAL-9269",
    "sfomuseum:departure_id": 102527513,
    "sfomuseum:flight_id": "20261003-D-QFA-3796",
    "sfomuseum:flight_number": [
      "QFA3796",
      "QF3796"
    ],
    "sfomuseum:placetype": "flight",
    "src:geom": "flysfo",
    "wof:belongsto": [
      1947304067,
      102527513,
      1947304261,
      102191575,
      85633793,
      102087579,
      85922583,
      554784711,
      85688637,
      1947304301,
      1947304259,
      102085387
    ],
    "wof:country": "US",
    "wof:created": 1791130413,
    "wof:geomhash": "33c9625a4901edf29154e5ec4b308b8b",
    "wof:hierarchy": [
      {
        "building_id": 1947304067,
        "campus_id": 102527513,
        "concourse_id": 1947304261,
        "continent_id": 102191575,
        "country_id": 85633793,
        "county_id": 102087579,
        "custom_id": 2048505931,
        "flight_id": 2048505931,
        "locality_id": 85922583,
        "postalcode_id": 554784711,
        "region_id": 85688637,
        "venue_id": 1947304301,
        "wing_id": 1947304259
      },
      {
        "building_id": 1947304067,
        "campus_id": 102527513,
        "concourse_id": 1947304261,
        "continent_id": 102191575,
        "country_id": 85633793,
        "county_id": 102085387,
        "custom_id": 2048505931,
        "flight_id": 2048505931,
        "region_id": 85688637,
        "venue_id": 1947304301,
        "wing_id": 1947304259
      }
    ],
    "wof:id": 2048505931,
    "wof:involves": [
      102533657,
      102527513,
      1159285043,
      1947304301,
      1159283849
    ],
    "wof:lastmodified": 1791130413,
    "wof:name": "QF3796 (SFO-MCO)",
    "wof:parent_id": 1947304301,
    "wof:placetype": "custom",
    "wof:placetype_alt": [
      "flight"
    ],
    "wof:repo": "sfomuseum-data-flights-2026-10",
    "wof:superseded_by": [],
    "wof:supersedes": []
  },
  "bbox": [
    -122.370943,
    28.431495,
    -81.307537,
    37.61799
  ],
  "geometry": {"type":"MultiPoint","coordinates":[[-122.370943,37.61799],[-81.307537,28.431495]]}
}
