{
  "id": 2048515495,
  "type": "Feature",
  "properties": {
    "geom:area": 0,
    "geom:bbox": "-123.212610,36.725890,-122.397810,37.667900",
    "geom:latitude": 37.261927267915034,
    "geom:longitude": -122.8481437552553,
    "src:alt_label": "swim-takeoff",
    "src:geom": "swim",
    "swim:elevations": [
      183,
      588,
      703,
      1061,
      1099,
      1343,
      1543,
      1987,
      2519,
      2925,
      3367,
      3410,
      3811,
      4023,
      4424,
      4683,
      5051,
      5302,
      5479,
      5796,
      6041,
      6352,
      6817,
      7052,
      7307,
      7590,
      7803
    ],
    "swim:geom": "takeoff",
    "swim:timestamps": [
      1791120916,
      1791120952,
      1791120972,
      1791121014,
      1791121029,
      1791121074,
      1791121097,
      1791121135,
      1791121184,
      1791121217,
      1791121258,
      1791121261,
      1791121309,
      1791121341,
      1791121378,
      1791121405,
      1791121437,
      1791121462,
      1791121483,
      1791121516,
      1791121538,
      1791121568,
      1791121616,
      1791121640,
      1791121664,
      1791121701,
      1791121725
    ],
    "wof:geomhash": "0454bcf529d56609c633e8ca5e953ece",
    "wof:id": 2048515495,
    "wof:repo": "sfomuseum-data-flights-2026-10"
  },
  "bbox": [
    -123.21261,
    36.72589,
    -122.39781,
    37.6679
  ],
  "geometry": {"type":"LineString","coordinates":[[-122.39781,37.62806],[-122.43236,37.64315],[-122.45192,37.6519],[-122.49815,37.6679],[-122.51693,37.66569],[-122.56609,37.63463],[-122.59506,37.61589],[-122.62841,37.57557],[-122.66395,37.51803],[-122.71271,37.49106],[-122.76382,37.44927],[-122.76634,37.4453],[-122.80391,37.38211],[-122.83303,37.33565],[-122.86865,37.27923],[-122.89401,37.23855],[-122.92543,37.1881],[-122.94927,37.14979],[-122.97001,37.11656],[-123.00229,37.0643],[-123.02375,37.03009],[-123.05437,36.98083],[-123.10229,36.90363],[-123.12639,36.86407],[-123.15066,36.82487],[-123.18825,36.76533],[-123.21261,36.72589]]}
}
