{
  "id": 2048506717,
  "type": "Feature",
  "properties": {
    "geom:area": 0,
    "geom:bbox": "-122.357160,37.640260,-121.262380,38.022180",
    "geom:latitude": 37.85019577458977,
    "geom:longitude": -121.81792466219375,
    "src:alt_label": "swim-takeoff",
    "src:geom": "swim",
    "swim:elevations": [
      309,
      465,
      884,
      945,
      1248,
      1323,
      1703,
      1878,
      2550,
      2826,
      3281,
      3617,
      4062,
      4173,
      4404,
      4755,
      5073,
      5368,
      5469,
      5667,
      6146,
      6280,
      6547,
      6754
    ],
    "swim:geom": "takeoff",
    "swim:timestamps": [
      1791023247,
      1791023262,
      1791023305,
      1791023312,
      1791023365,
      1791023381,
      1791023421,
      1791023432,
      1791023485,
      1791023508,
      1791023546,
      1791023567,
      1791023605,
      1791023618,
      1791023665,
      1791023694,
      1791023724,
      1791023757,
      1791023769,
      1791023791,
      1791023845,
      1791023864,
      1791023896,
      1791023922
    ],
    "wof:geomhash": "2ec99ebda5d3cadb384037a7e9c62416",
    "wof:id": 2048506717,
    "wof:repo": "sfomuseum-data-flights-2026-10"
  },
  "bbox": [
    -122.35716,
    37.64026,
    -121.26238,
    38.02218
  ],
  "geometry": {"type":"LineString","coordinates":[[-122.35716,37.64026],[-122.34476,37.64684],[-122.30941,37.66569],[-122.30277,37.66945],[-122.25068,37.69929],[-122.23135,37.70896],[-122.17859,37.73633],[-122.16286,37.74474],[-122.08743,37.78301],[-122.05505,37.80002],[-121.99627,37.82698],[-121.96056,37.83499],[-121.89559,37.8467],[-121.87293,37.85067],[-121.78446,37.86702],[-121.7259,37.87786],[-121.66613,37.88908],[-121.60098,37.9048],[-121.57624,37.91341],[-121.53303,37.92835],[-121.42531,37.9659],[-121.387,37.97914],[-121.31803,38.00298],[-121.26238,38.02218]]}
}
