{
  "id": 2048511539,
  "type": "Feature",
  "properties": {
    "geom:area": 0,
    "geom:bbox": "-122.353200,37.491280,-121.286940,37.611790",
    "geom:latitude": 37.5447047133772,
    "geom:longitude": -121.82475629034833,
    "src:alt_label": "swim-approach",
    "src:geom": "swim",
    "swim:elevations": [
      4523,
      4398,
      4344,
      4149,
      3954,
      3820,
      3701,
      3472,
      3283,
      3012,
      2782,
      2585,
      2557,
      2498,
      2317,
      2207,
      2089,
      1948,
      1851,
      1723,
      1553,
      1419,
      1367,
      1310,
      1289,
      1281,
      1115,
      175,
      40
    ],
    "swim:geom": "approach",
    "swim:timestamps": [
      1791103724,
      1791103737,
      1791103746,
      1791103770,
      1791103806,
      1791103826,
      1791103850,
      1791103878,
      1791103902,
      1791103936,
      1791103969,
      1791103997,
      1791104007,
      1791104032,
      1791104060,
      1791104079,
      1791104104,
      1791104136,
      1791104166,
      1791104184,
      1791104213,
      1791104237,
      1791104244,
      1791104254,
      1791104258,
      1791104260,
      1791104286,
      1791104473,
      1791104501
    ],
    "wof:geomhash": "3d0974a840d5580e98830d5d49a546ca",
    "wof:id": 2048511539,
    "wof:repo": "sfomuseum-data-flights-2026-10"
  },
  "bbox": [
    -122.3532,
    37.49128,
    -121.28694,
    37.61179
  ],
  "geometry": {"type":"LineString","coordinates":[[-121.28694,37.58959],[-121.31495,37.58656],[-121.33297,37.58466],[-121.37934,37.57952],[-121.44484,37.57178],[-121.47872,37.56789],[-121.51974,37.56312],[-121.5646,37.55781],[-121.60212,37.55348],[-121.65514,37.54342],[-121.70501,37.53167],[-121.74538,37.52194],[-121.76022,37.51842],[-121.79462,37.51008],[-121.83416,37.50073],[-121.85946,37.49463],[-121.89522,37.49128],[-121.94051,37.49256],[-121.98177,37.49439],[-122.0067,37.50071],[-122.04422,37.5129],[-122.07515,37.52301],[-122.08473,37.52608],[-122.09775,37.53022],[-122.1035,37.53206],[-122.10513,37.53257],[-122.13753,37.54316],[-122.33043,37.6034],[-122.3532,37.61179]]}
}
