{
  "id": 2048527423,
  "type": "Feature",
  "properties": {
    "geom:area": 0,
    "geom:bbox": "-123.354310,37.030860,-122.124400,37.613560",
    "geom:latitude": 37.31620975341575,
    "geom:longitude": -122.64752486370392,
    "src:alt_label": "swim-approach",
    "src:geom": "swim",
    "swim:elevations": [
      6096,
      5974,
      5483,
      5008,
      4760,
      4379,
      4011,
      3439,
      3087,
      3048,
      3048,
      3048,
      2830,
      2595,
      2438,
      2438,
      2438,
      2438,
      2438,
      2438,
      2438,
      2438,
      2438,
      2396,
      2258,
      1894,
      1655,
      1632,
      1409,
      1250,
      1050,
      922,
      853,
      642,
      518,
      393,
      328,
      181,
      69,
      0
    ],
    "swim:geom": "approach",
    "swim:timestamps": [
      1791333208,
      1791333219,
      1791333257,
      1791333287,
      1791333309,
      1791333341,
      1791333371,
      1791333415,
      1791333442,
      1791333472,
      1791333481,
      1791333502,
      1791333533,
      1791333562,
      1791333598,
      1791333628,
      1791333646,
      1791333682,
      1791333712,
      1791333745,
      1791333769,
      1791333784,
      1791333814,
      1791333835,
      1791333856,
      1791333895,
      1791333928,
      1791333931,
      1791333975,
      1791334011,
      1791334047,
      1791334074,
      1791334089,
      1791334131,
      1791334161,
      1791334191,
      1791334209,
      1791334248,
      1791334278,
      1791334290
    ],
    "wof:geomhash": "dbf48be8544a4c9fdd27f775c12adc71",
    "wof:id": 2048527423,
    "wof:repo": "sfomuseum-data-flights-2026-10"
  },
  "bbox": [
    -123.35431,
    37.03086,
    -122.1244,
    37.61356
  ],
  "geometry": {"type":"LineString","coordinates":[[-123.35431,37.03086],[-123.332,37.04114],[-123.24888,37.07974],[-123.1852,37.10934],[-123.13856,37.13089],[-123.07467,37.16056],[-123.01483,37.18805],[-122.92994,37.22715],[-122.87838,37.2505],[-122.82,37.26751],[-122.80337,37.27144],[-122.76689,37.28024],[-122.71484,37.29232],[-122.66727,37.30358],[-122.60917,37.3169],[-122.56379,37.32745],[-122.53744,37.33348],[-122.48552,37.34553],[-122.44413,37.3551],[-122.39872,37.36553],[-122.36581,37.37307],[-122.34523,37.37775],[-122.30397,37.3872],[-122.2751,37.39386],[-122.2468,37.40034],[-122.19435,37.4124],[-122.1527,37.42684],[-122.15012,37.42934],[-122.1244,37.47029],[-122.12928,37.50029],[-122.15233,37.52477],[-122.17677,37.53757],[-122.19129,37.54382],[-122.23163,37.56078],[-122.25866,37.5722],[-122.28205,37.58196],[-122.29533,37.58754],[-122.3251,37.60006],[-122.34841,37.60984],[-122.35702,37.61356]]}
}
