{
  "id": 2048560187,
  "type": "Feature",
  "properties": {
    "geom:area": 0,
    "geom:bbox": "-122.459410,36.732470,-121.297770,37.695810",
    "geom:latitude": 37.2148739814557,
    "geom:longitude": -121.96884143978599,
    "src:alt_label": "swim-takeoff",
    "src:geom": "swim",
    "swim:elevations": [
      259,
      554,
      656,
      987,
      1084,
      1132,
      1593,
      1963,
      2491,
      2942,
      3134,
      3199,
      3403,
      3994,
      4183,
      4499,
      4832,
      5548,
      5655,
      5748,
      5934,
      6308,
      6445,
      6807,
      7150,
      7350,
      7529,
      7759,
      7807,
      7894,
      8045,
      8396,
      8524,
      8905,
      9116,
      9341,
      9528,
      9686,
      9850,
      10055,
      10087
    ],
    "swim:geom": "takeoff",
    "swim:timestamps": [
      1791581872,
      1791581898,
      1791581904,
      1791581925,
      1791581936,
      1791581942,
      1791581995,
      1791582020,
      1791582050,
      1791582075,
      1791582086,
      1791582092,
      1791582112,
      1791582146,
      1791582158,
      1791582185,
      1791582210,
      1791582262,
      1791582268,
      1791582277,
      1791582292,
      1791582326,
      1791582338,
      1791582372,
      1791582404,
      1791582422,
      1791582441,
      1791582463,
      1791582472,
      1791582481,
      1791582498,
      1791582537,
      1791582550,
      1791582597,
      1791582625,
      1791582657,
      1791582688,
      1791582714,
      1791582740,
      1791582775,
      1791582781
    ],
    "wof:geomhash": "65e6a566d00d3f15796ce99ce2c117fe",
    "wof:id": 2048560187,
    "wof:repo": "sfomuseum-data-flights-2026-10"
  },
  "bbox": [
    -122.45941,
    36.73247,
    -121.29777,
    37.69581
  ],
  "geometry": {"type":"LineString","coordinates":[[-122.36381,37.63658],[-122.36229,37.65704],[-122.36259,37.66181],[-122.36189,37.67788],[-122.36242,37.6858],[-122.36427,37.6903],[-122.42072,37.69581],[-122.43549,37.66654],[-122.4417,37.62723],[-122.44852,37.59486],[-122.45214,37.58046],[-122.45417,37.57242],[-122.45941,37.54392],[-122.43169,37.49985],[-122.41371,37.48867],[-122.3738,37.46427],[-122.33337,37.43797],[-122.25091,37.3827],[-122.24127,37.37622],[-122.22635,37.36619],[-122.20196,37.3498],[-122.14675,37.31259],[-122.12573,37.29834],[-122.06867,37.25973],[-122.01298,37.22201],[-121.98076,37.20014],[-121.94807,37.17791],[-121.9087,37.15097],[-121.89228,37.13982],[-121.87571,37.12872],[-121.84477,37.10754],[-121.77151,37.05761],[-121.74851,37.04177],[-121.65943,36.98135],[-121.60549,36.94393],[-121.54405,36.90175],[-121.48382,36.86016],[-121.43189,36.8249],[-121.3803,36.78975],[-121.30988,36.74087],[-121.29777,36.73247]]}
}
