{
  "id": 2048488243,
  "type": "Feature",
  "properties": {
    "geom:area": 0,
    "geom:bbox": "-122.386210,37.629810,-121.445710,38.508150",
    "geom:latitude": 38.11698145431356,
    "geom:longitude": -122.01993336455463,
    "src:alt_label": "swim-takeoff",
    "src:geom": "swim",
    "swim:elevations": [
      122,
      351,
      590,
      660,
      755,
      1025,
      1320,
      1485,
      2074,
      2345,
      2419,
      2574,
      2850,
      3068,
      3091,
      3232,
      3282,
      3360,
      3386,
      3421,
      3536,
      3813,
      3963,
      4166,
      4203,
      4387,
      4543,
      4726,
      4906,
      5018,
      5318,
      5405
    ],
    "swim:geom": "takeoff",
    "swim:timestamps": [
      1790893121,
      1790893134,
      1790893167,
      1790893182,
      1790893201,
      1790893253,
      1790893280,
      1790893295,
      1790893348,
      1790893378,
      1790893384,
      1790893402,
      1790893434,
      1790893464,
      1790893471,
      1790893528,
      1790893545,
      1790893578,
      1790893584,
      1790893591,
      1790893609,
      1790893647,
      1790893668,
      1790893700,
      1790893709,
      1790893738,
      1790893766,
      1790893793,
      1790893822,
      1790893840,
      1790893887,
      1790893907
    ],
    "wof:geomhash": "6ab1825f25755766b056511d7659545b",
    "wof:id": 2048488243,
    "wof:repo": "sfomuseum-data-flights-2026-10"
  },
  "bbox": [
    -122.38621,
    37.62981,
    -121.44571,
    38.50815
  ],
  "geometry": {"type":"LineString","coordinates":[[-122.36533,37.62981],[-122.35895,37.63842],[-122.33572,37.65857],[-122.32345,37.66867],[-122.31101,37.68534],[-122.33305,37.7433],[-122.35126,37.7758],[-122.3606,37.79422],[-122.38621,37.86149],[-122.38384,37.90196],[-122.38357,37.91013],[-122.38081,37.93467],[-122.34382,37.96599],[-122.30131,37.99029],[-122.28993,37.99716],[-122.19959,38.0528],[-122.17185,38.06979],[-122.1119,38.10635],[-122.10067,38.11325],[-122.08707,38.12151],[-122.0513,38.14321],[-121.97939,38.18672],[-121.93825,38.21155],[-121.87501,38.24964],[-121.85708,38.26046],[-121.79675,38.29674],[-121.74056,38.33044],[-121.68479,38.36393],[-121.62491,38.39989],[-121.58711,38.42249],[-121.48713,38.4826],[-121.44571,38.50815]]}
}
