{
  "id": 2048556219,
  "type": "Feature",
  "properties": {
    "geom:area": 0,
    "geom:bbox": "-122.360520,36.733590,-121.886800,37.612310",
    "geom:latitude": 37.22321929061701,
    "geom:longitude": -122.0936048060832,
    "src:alt_label": "swim-approach",
    "src:geom": "swim",
    "swim:elevations": [
      5336,
      5146,
      5030,
      4991,
      4935,
      4816,
      4508,
      4260,
      4148,
      3801,
      3717,
      3486,
      3370,
      3139,
      3017,
      2755,
      2592,
      2499,
      2318,
      2163,
      2085,
      1982,
      1855,
      1631,
      1552,
      1296,
      1229,
      1104,
      1008,
      869,
      792,
      744,
      614,
      543,
      384,
      304,
      182,
      0
    ],
    "swim:geom": "approach",
    "swim:timestamps": [
      1791537589,
      1791537611,
      1791537627,
      1791537632,
      1791537636,
      1791537647,
      1791537680,
      1791537713,
      1791537728,
      1791537775,
      1791537789,
      1791537824,
      1791537841,
      1791537881,
      1791537904,
      1791537950,
      1791537982,
      1791538001,
      1791538039,
      1791538071,
      1791538088,
      1791538112,
      1791538140,
      1791538192,
      1791538208,
      1791538258,
      1791538272,
      1791538315,
      1791538333,
      1791538366,
      1791538397,
      1791538414,
      1791538443,
      1791538460,
      1791538492,
      1791538519,
      1791538544,
      1791538588
    ],
    "wof:geomhash": "e5617e58487c77670ca9e050c5ac3be7",
    "wof:id": 2048556219,
    "wof:repo": "sfomuseum-data-flights-2026-10"
  },
  "bbox": [
    -122.36052,
    36.73359,
    -121.8868,
    37.61231
  ],
  "geometry": {"type":"LineString","coordinates":[[-121.8868,36.73359],[-121.90134,36.76691],[-121.90784,36.79093],[-121.90985,36.79799],[-121.91189,36.80492],[-121.9164,36.821],[-121.92959,36.86946],[-121.94414,36.91879],[-121.95045,36.94114],[-121.97516,37.00798],[-121.98231,37.02709],[-122.00102,37.07536],[-122.00929,37.09665],[-122.02829,37.14387],[-122.04003,37.1705],[-122.09473,37.2043],[-122.13461,37.22522],[-122.15678,37.23669],[-122.20198,37.26066],[-122.21449,37.29354],[-122.20562,37.31084],[-122.1925,37.33432],[-122.16765,37.35275],[-122.12653,37.38604],[-122.11977,37.39912],[-122.12831,37.44148],[-122.13302,37.45261],[-122.14796,37.48869],[-122.15513,37.50357],[-122.17168,37.52789],[-122.19754,37.54395],[-122.21286,37.5505],[-122.23911,37.56163],[-122.25476,37.56821],[-122.28175,37.57952],[-122.30329,37.58849],[-122.3235,37.59701],[-122.36052,37.61231]]}
}
