{
  "id": 2048526947,
  "type": "Feature",
  "properties": {
    "date:inception_lower": "2026-10-06",
    "date:inception_upper": "2026-10-06",
    "edtf:cessation": "",
    "edtf:inception": "2026-10-06",
    "flysfo:actual_timestamp": -1,
    "flysfo:airline": "NZ",
    "flysfo:base_airline": "",
    "flysfo:base_flight_number": "4733",
    "flysfo:date": "2026-10-06",
    "flysfo:estimated_timestamp": 1791307320,
    "flysfo:event": "A",
    "flysfo:flight_number": "NZ4733",
    "flysfo:gate": "",
    "flysfo:journey": "YYZ-SFO",
    "flysfo:scheduled_timestamp": 1791308340,
    "flysfo:timestamp": 1791308340,
    "geom:area": 0,
    "geom:bbox": "-122.370943,37.617990,-79.628342,43.676352",
    "geom:latitude": 40.647171,
    "geom:longitude": -100.9996425,
    "iata:airline": "NZ",
    "iata:base_airline": "",
    "icao:airline": "ANZ",
    "icao:base_airline": "ANZ",
    "lbl:latitude": 37.61799,
    "lbl:longitude": -122.370943,
    "sfomuseum:airline_id": 1159283697,
    "sfomuseum:arrival_id": 102527513,
    "sfomuseum:base_flight_id": "20261006-A-ANZ-4733",
    "sfomuseum:departure_id": 102555091,
    "sfomuseum:flight_id": "20261006-A-ANZ-4733",
    "sfomuseum:flight_number": [
      "ANZ4733",
      "NZ4733"
    ],
    "sfomuseum:placetype": "flight",
    "src:geom": "flysfo",
    "wof:belongsto": [],
    "wof:country": "US",
    "wof:created": 1791388965,
    "wof:geomhash": "c362a07ec1dacdc6f288623946bd8d01",
    "wof:hierarchy": [
      {
        "custom_id": 2048526947,
        "flight_id": 2048526947
      }
    ],
    "wof:id": 2048526947,
    "wof:involves": [
      102527513,
      102555091,
      1159283697,
      -1,
      1159283697
    ],
    "wof:lastmodified": 1791388965,
    "wof:name": "NZ4733 (YYZ-SFO)",
    "wof:parent_id": -1,
    "wof:placetype": "custom",
    "wof:placetype_alt": [
      "flight"
    ],
    "wof:repo": "sfomuseum-data-flights-2026-10",
    "wof:superseded_by": [],
    "wof:supersedes": []
  },
  "bbox": [
    -122.370943,
    37.61799,
    -79.628342,
    43.676352
  ],
  "geometry": {"type":"MultiPoint","coordinates":[[-79.628342,43.676352],[-122.370943,37.61799]]}
}
