{
  "id": 2048515159,
  "type": "Feature",
  "properties": {
    "geom:area": 0,
    "geom:bbox": "-122.465690,37.301110,-121.254490,37.666680",
    "geom:latitude": 37.38486036886321,
    "geom:longitude": -121.94152993655912,
    "src:alt_label": "swim-takeoff",
    "src:geom": "swim",
    "swim:elevations": [
      1686,
      2083,
      2745,
      2826,
      3147,
      3659,
      3821,
      4297,
      4450,
      4974,
      5428,
      5479,
      6299,
      6465,
      7042,
      7273,
      7557,
      7637,
      8162,
      8412,
      8578,
      8835,
      9130,
      9394,
      9417,
      9450,
      9449,
      9449
    ],
    "swim:geom": "takeoff",
    "swim:timestamps": [
      1791104481,
      1791104505,
      1791104544,
      1791104550,
      1791104568,
      1791104607,
      1791104623,
      1791104664,
      1791104678,
      1791104720,
      1791104757,
      1791104761,
      1791104810,
      1791104822,
      1791104854,
      1791104873,
      1791104904,
      1791104912,
      1791104964,
      1791104992,
      1791105011,
      1791105042,
      1791105079,
      1791105117,
      1791105122,
      1791105143,
      1791105169,
      1791105181
    ],
    "wof:geomhash": "b7baea210fd894ee453bbe29bdbd0028",
    "wof:id": 2048515159,
    "wof:repo": "sfomuseum-data-flights-2026-10"
  },
  "bbox": [
    -122.46569,
    37.30111,
    -121.25449,
    37.66668
  ],
  "geometry": {"type":"LineString","coordinates":[[-122.434,37.66668],[-122.44067,37.64102],[-122.4504,37.59805],[-122.45182,37.59198],[-122.45656,37.57101],[-122.46569,37.52509],[-122.46228,37.50391],[-122.41835,37.45742],[-122.39666,37.4449],[-122.32314,37.40981],[-122.24519,37.39277],[-122.23656,37.39107],[-122.13045,37.37025],[-122.10674,37.36562],[-122.03719,37.35259],[-121.99712,37.34995],[-121.92768,37.34597],[-121.90983,37.34497],[-121.78991,37.3378],[-121.72557,37.33406],[-121.68074,37.3312],[-121.60452,37.32702],[-121.51363,37.32229],[-121.41835,37.31738],[-121.40685,37.31659],[-121.35327,37.31387],[-121.28401,37.30812],[-121.25449,37.30111]]}
}
