{
  "id": 2048546737,
  "type": "Feature",
  "properties": {
    "geom:area": 0,
    "geom:bbox": "-122.355060,37.344040,-122.045210,37.610340",
    "geom:latitude": 37.47660205855581,
    "geom:longitude": -122.17004490320167,
    "src:alt_label": "swim-approach",
    "src:geom": "swim",
    "swim:elevations": [
      1829,
      1829,
      1829,
      1829,
      1825,
      1829,
      1825,
      1829,
      1766,
      1630,
      1566,
      1525,
      1348,
      1172,
      1061,
      919,
      816,
      713,
      589,
      476,
      411,
      272,
      26
    ],
    "swim:geom": "approach",
    "swim:timestamps": [
      1791478673,
      1791478680,
      1791478733,
      1791478765,
      1791478797,
      1791478817,
      1791478858,
      1791478885,
      1791478913,
      1791478932,
      1791478946,
      1791478969,
      1791479002,
      1791479038,
      1791479062,
      1791479085,
      1791479107,
      1791479123,
      1791479153,
      1791479186,
      1791479199,
      1791479236,
      1791479301
    ],
    "wof:geomhash": "3046ff84d2a4a1395202919efbe8c69a",
    "wof:id": 2048546737,
    "wof:repo": "sfomuseum-data-flights-2026-10"
  },
  "bbox": [
    -122.35506,
    37.34404,
    -122.04521,
    37.61034
  ],
  "geometry": {"type":"LineString","coordinates":[[-122.26517,37.35978],[-122.25547,37.35779],[-122.1859,37.34404],[-122.14899,37.35868],[-122.12095,37.38199],[-122.10458,37.39562],[-122.08098,37.42821],[-122.06887,37.44992],[-122.0564,37.47222],[-122.04816,37.4872],[-122.04521,37.49914],[-122.05798,37.51448],[-122.09462,37.51479],[-122.1332,37.51722],[-122.15589,37.52623],[-122.17567,37.53487],[-122.19558,37.54325],[-122.20931,37.54908],[-122.2355,37.56013],[-122.26443,37.57235],[-122.27531,37.57686],[-122.30554,37.58942],[-122.35506,37.61034]]}
}
