{
  "id": 2048529389,
  "type": "Feature",
  "properties": {
    "date:cessation_lower": "2026-10-06",
    "date:cessation_upper": "2026-10-06",
    "date:inception_lower": "1970-01-01",
    "date:inception_upper": "1970-01-01",
    "edtf:cessation": "2026-10-06T08:38:06-07:00",
    "edtf:inception": "1970-01-01T00:00:00Z",
    "flysfo:actual_timestamp": -1,
    "flysfo:airline": "UA",
    "flysfo:base_airline": "",
    "flysfo:base_flight_number": "4355",
    "flysfo:date": "2026-10-06",
    "flysfo:estimated_timestamp": 1791326460,
    "flysfo:event": "A",
    "flysfo:flight_number": "UA2305",
    "flysfo:gate": "D10",
    "flysfo:journey": "SBA-SFO",
    "flysfo:scheduled_timestamp": 1791325140,
    "flysfo:timestamp": 1791326460,
    "geom:area": 0,
    "geom:bbox": "-122.370943,34.427974,-119.837133,37.617990",
    "geom:latitude": 36.022982,
    "geom:longitude": -121.104038,
    "iata:airline": "UA",
    "iata:base_airline": "",
    "icao:aircraft": "B738",
    "icao:airline": "UAL",
    "icao:base_airline": "ACA",
    "lbl:latitude": 37.617908,
    "lbl:longitude": -122.381084,
    "sfomuseum:aircraft_id": 1159289871,
    "sfomuseum:airline_id": 1159285413,
    "sfomuseum:arrival_id": 102527513,
    "sfomuseum:base_flight_id": "20261006-A-ACA-4355",
    "sfomuseum:departure_id": 102527337,
    "sfomuseum:flight_id": "20261006-A-UAL-2305",
    "sfomuseum:flight_number": [
      "UAL2305",
      "UA2305"
    ],
    "sfomuseum:placetype": "flight",
    "src:geom": "flysfo",
    "src:geom_alt": [
      "swim-approach"
    ],
    "swim:tail_number": "N76254",
    "wof:belongsto": [
      1947304067,
      102527513,
      1947304595,
      102191575,
      85633793,
      102087579,
      85922583,
      554784711,
      85688637,
      1947304603,
      1947304591,
      102085387
    ],
    "wof:country": "US",
    "wof:created": 1791389251,
    "wof:geomhash": "aae625247f3652ef8a50cae9f49d2791",
    "wof:hierarchy": [
      {
        "building_id": 1947304067,
        "campus_id": 102527513,
        "concourse_id": 1947304595,
        "continent_id": 102191575,
        "country_id": 85633793,
        "county_id": 102087579,
        "custom_id": 2048529389,
        "flight_id": 2048529389,
        "locality_id": 85922583,
        "postalcode_id": 554784711,
        "region_id": 85688637,
        "venue_id": 1947304603,
        "wing_id": 1947304591
      },
      {
        "building_id": 1947304067,
        "campus_id": 102527513,
        "concourse_id": 1947304595,
        "continent_id": 102191575,
        "country_id": 85633793,
        "county_id": 102085387,
        "custom_id": 2048529389,
        "flight_id": 2048529389,
        "region_id": 85688637,
        "venue_id": 1947304603,
        "wing_id": 1947304591
      }
    ],
    "wof:id": 2048529389,
    "wof:involves": [
      1159283597,
      1159289871,
      102527513,
      102527337,
      1159285413,
      1947304603
    ],
    "wof:lastmodified": 1791389831,
    "wof:name": "UA2305 (SBA-SFO)",
    "wof:parent_id": 1947304603,
    "wof:placetype": "custom",
    "wof:placetype_alt": [
      "flight"
    ],
    "wof:repo": "sfomuseum-data-flights-2026-10",
    "wof:superseded_by": [],
    "wof:supersedes": []
  },
  "bbox": [
    -122.370943,
    34.427974,
    -119.837133,
    37.61799
  ],
  "geometry": {"type":"MultiPoint","coordinates":[[-119.837133,34.427974],[-122.370943,37.61799]]}
}
