{
  "id": 2048548265,
  "type": "Feature",
  "properties": {
    "geom:area": 0,
    "geom:bbox": "-122.365640,37.629140,-121.260150,38.358710",
    "geom:latitude": 38.01448643937742,
    "geom:longitude": -121.82355456791599,
    "src:alt_label": "swim-takeoff",
    "src:geom": "swim",
    "swim:elevations": [
      152,
      183,
      525,
      779,
      981,
      1099,
      1318,
      1367,
      1633,
      1733,
      1846,
      2183,
      2581,
      2648,
      3006,
      3228,
      3359,
      3620,
      3768,
      4059,
      4232,
      4511,
      4694,
      4927,
      5132,
      5259,
      5388,
      5545,
      5793
    ],
    "swim:geom": "takeoff",
    "swim:timestamps": [
      1791448857,
      1791448860,
      1791448896,
      1791448932,
      1791448964,
      1791448991,
      1791449037,
      1791449048,
      1791449094,
      1791449111,
      1791449132,
      1791449171,
      1791449215,
      1791449221,
      1791449257,
      1791449291,
      1791449324,
      1791449367,
      1791449383,
      1791449420,
      1791449439,
      1791449467,
      1791449505,
      1791449538,
      1791449571,
      1791449593,
      1791449620,
      1791449649,
      1791449693
    ],
    "wof:geomhash": "e7ec7abca5c7494a3a66a7b8fd01e739",
    "wof:id": 2048548265,
    "wof:repo": "sfomuseum-data-flights-2026-10"
  },
  "bbox": [
    -122.36564,
    37.62914,
    -121.26015,
    38.35871
  ],
  "geometry": {"type":"LineString","coordinates":[[-122.36564,37.62914],[-122.36431,37.63111],[-122.34115,37.64886],[-122.31526,37.66332],[-122.29146,37.67675],[-122.27049,37.68953],[-122.2332,37.71737],[-122.22266,37.72523],[-122.17801,37.75843],[-122.15866,37.77277],[-122.1355,37.78995],[-122.08778,37.82536],[-122.03326,37.86568],[-122.02661,37.87055],[-121.98029,37.90482],[-121.93659,37.93696],[-121.89003,37.97122],[-121.82548,38.01873],[-121.80115,38.03656],[-121.74264,38.07942],[-121.71306,38.10112],[-121.66985,38.1327],[-121.60917,38.17689],[-121.55562,38.21592],[-121.50225,38.25478],[-121.466,38.28109],[-121.41639,38.30845],[-121.35484,38.32883],[-121.26015,38.35871]]}
}
