{
  "id": 2048558731,
  "type": "Feature",
  "properties": {
    "geom:area": 0,
    "geom:bbox": "-122.384350,37.628810,-122.115990,38.473400",
    "geom:latitude": 38.04418767367157,
    "geom:longitude": -122.26863491167434,
    "src:alt_label": "swim-takeoff",
    "src:geom": "swim",
    "swim:elevations": [
      213,
      542,
      788,
      944,
      1223,
      1855,
      2178,
      2465,
      2839,
      3361,
      3576,
      3902,
      4159,
      4412,
      4747,
      4973,
      5396,
      5604,
      5916,
      6056,
      6251,
      6398
    ],
    "swim:geom": "takeoff",
    "swim:timestamps": [
      1791613857,
      1791613886,
      1791613914,
      1791613929,
      1791613961,
      1791614006,
      1791614027,
      1791614051,
      1791614078,
      1791614126,
      1791614158,
      1791614187,
      1791614214,
      1791614235,
      1791614265,
      1791614291,
      1791614336,
      1791614350,
      1791614395,
      1791614417,
      1791614444,
      1791614465
    ],
    "wof:geomhash": "32f0bc0ed9d2d197b41844bedbd1a612",
    "wof:id": 2048558731,
    "wof:repo": "sfomuseum-data-flights-2026-10"
  },
  "bbox": [
    -122.38435,
    37.62881,
    -122.11599,
    38.4734
  ],
  "geometry": {"type":"LineString","coordinates":[[-122.36594,37.62881],[-122.34803,37.64641],[-122.32636,37.66535],[-122.31402,37.67733],[-122.31639,37.71131],[-122.34365,37.76059],[-122.35567,37.78486],[-122.37005,37.81318],[-122.38409,37.84682],[-122.38435,37.91396],[-122.36862,37.96206],[-122.33952,38.00531],[-122.31162,38.04608],[-122.28938,38.07869],[-122.25759,38.12524],[-122.22973,38.16585],[-122.17939,38.23909],[-122.16342,38.26243],[-122.11777,38.34008],[-122.11599,38.38212],[-122.11939,38.43304],[-122.12218,38.4734]]}
}
