{
  "id": 2048536603,
  "type": "Feature",
  "properties": {
    "geom:area": 0,
    "geom:bbox": "-122.782920,37.412330,-122.123070,38.408080",
    "geom:latitude": 37.78528730368323,
    "geom:longitude": -122.47887368328526,
    "src:alt_label": "swim-approach",
    "src:geom": "swim",
    "swim:elevations": [
      7559,
      7498,
      6956,
      6841,
      6459,
      5894,
      5658,
      5276,
      4954,
      4670,
      4337,
      4134,
      3816,
      3554,
      3410,
      3353,
      3353,
      3353,
      3353,
      3353,
      3353,
      3273,
      3138,
      2837,
      2690,
      2373,
      2274,
      2148,
      1904,
      1819,
      1615,
      1555,
      1306,
      1058,
      942,
      789,
      670,
      548,
      441,
      346,
      289,
      132,
      87,
      9
    ],
    "swim:geom": "approach",
    "swim:timestamps": [
      1791393177,
      1791393182,
      1791393231,
      1791393243,
      1791393277,
      1791393328,
      1791393351,
      1791393386,
      1791393416,
      1791393443,
      1791393474,
      1791393494,
      1791393531,
      1791393554,
      1791393577,
      1791393628,
      1791393646,
      1791393661,
      1791393681,
      1791393717,
      1791393728,
      1791393768,
      1791393792,
      1791393838,
      1791393855,
      1791393894,
      1791393908,
      1791393931,
      1791393970,
      1791393983,
      1791394014,
      1791394024,
      1791394076,
      1791394107,
      1791394125,
      1791394164,
      1791394197,
      1791394224,
      1791394255,
      1791394283,
      1791394301,
      1791394339,
      1791394359,
      1791394380
    ],
    "wof:geomhash": "7321fc38f73bbb65ccb461cf5da239d7",
    "wof:id": 2048536603,
    "wof:repo": "sfomuseum-data-flights-2026-10"
  },
  "bbox": [
    -122.78292,
    37.41233,
    -122.12307,
    38.40808
  ],
  "geometry": {"type":"LineString","coordinates":[[-122.78292,38.40808],[-122.78197,38.39742],[-122.77427,38.30466],[-122.7725,38.28403],[-122.76559,38.22116],[-122.73963,38.12868],[-122.72813,38.089],[-122.71023,38.02759],[-122.69562,37.97711],[-122.68263,37.9319],[-122.65704,37.88481],[-122.63046,37.85901],[-122.58068,37.812],[-122.5511,37.78417],[-122.52284,37.75763],[-122.46617,37.70412],[-122.4487,37.68769],[-122.43466,37.67443],[-122.41665,37.65751],[-122.38389,37.62664],[-122.3739,37.61719],[-122.34925,37.57841],[-122.33554,37.55405],[-122.30865,37.50968],[-122.29836,37.49314],[-122.27447,37.45404],[-122.2659,37.44018],[-122.2444,37.42292],[-122.19329,37.41233],[-122.17617,37.41903],[-122.15302,37.44694],[-122.14749,37.4565],[-122.12307,37.50262],[-122.14327,37.52175],[-122.16081,37.52833],[-122.194,37.54259],[-122.22087,37.55393],[-122.24349,37.56343],[-122.26756,37.57354],[-122.28827,37.58224],[-122.30167,37.5879],[-122.33041,37.6],[-122.34451,37.60593],[-122.35948,37.61177]]}
}
