{
  "id": 2048525533,
  "type": "Feature",
  "properties": {
    "geom:area": 0,
    "geom:bbox": "-123.328930,37.630020,-122.402220,38.508260",
    "geom:latitude": 38.02807783036751,
    "geom:longitude": -122.89875935838913,
    "src:alt_label": "swim-takeoff",
    "src:geom": "swim",
    "swim:elevations": [
      221,
      480,
      875,
      934,
      1126,
      1361,
      1854,
      2038,
      2405,
      2927,
      3147,
      3287,
      3383,
      3688,
      4050,
      4447,
      4688,
      4967,
      5264,
      5583,
      5822,
      6026,
      6162,
      6455,
      6531,
      6989,
      7013
    ],
    "swim:geom": "takeoff",
    "swim:timestamps": [
      1791198168,
      1791198192,
      1791198237,
      1791198251,
      1791198284,
      1791198312,
      1791198356,
      1791198372,
      1791198403,
      1791198446,
      1791198468,
      1791198494,
      1791198513,
      1791198561,
      1791198593,
      1791198627,
      1791198648,
      1791198674,
      1791198704,
      1791198737,
      1791198766,
      1791198788,
      1791198801,
      1791198835,
      1791198842,
      1791198897,
      1791198901
    ],
    "wof:geomhash": "a57ed1a154d48993c6500a0470fbe896",
    "wof:id": 2048525533,
    "wof:repo": "sfomuseum-data-flights-2026-10"
  },
  "bbox": [
    -123.32893,
    37.63002,
    -122.40222,
    38.50826
  ],
  "geometry": {"type":"LineString","coordinates":[[-122.40222,37.63002],[-122.42564,37.64033],[-122.4713,37.66066],[-122.48588,37.66708],[-122.52369,37.68645],[-122.5581,37.70724],[-122.61667,37.74147],[-122.63681,37.75326],[-122.68022,37.77878],[-122.74061,37.81442],[-122.76788,37.83714],[-122.79485,37.86937],[-122.81608,37.89506],[-122.87435,37.96559],[-122.91497,38.01461],[-122.95908,38.06723],[-122.98616,38.09938],[-123.01977,38.13967],[-123.05891,38.18658],[-123.10344,38.23943],[-123.14239,38.28583],[-123.17305,38.32226],[-123.19096,38.34365],[-123.23689,38.39775],[-123.24758,38.41012],[-123.32331,38.50149],[-123.32893,38.50826]]}
}
