{
  "id": 2048554905,
  "type": "Feature",
  "properties": {
    "date:inception_lower": "2026-10-09",
    "date:inception_upper": "2026-10-09",
    "edtf:cessation": "",
    "edtf:inception": "2026-10-09",
    "flysfo:actual_timestamp": -1,
    "flysfo:airline": "KL",
    "flysfo:base_airline": "",
    "flysfo:base_flight_number": "6697",
    "flysfo:date": "2026-10-09",
    "flysfo:estimated_timestamp": 1791603000,
    "flysfo:event": "A",
    "flysfo:flight_number": "KL6697",
    "flysfo:gate": "C3",
    "flysfo:journey": "MSP-SFO",
    "flysfo:scheduled_timestamp": 1791603600,
    "flysfo:timestamp": 1791603600,
    "geom:area": 0,
    "geom:bbox": "-122.370943,37.617990,-93.200317,44.883321",
    "geom:latitude": 41.2506555,
    "geom:longitude": -107.78563,
    "iata:airline": "KL",
    "iata:base_airline": "",
    "icao:airline": "KLM",
    "icao:base_airline": "KLM",
    "lbl:latitude": 37.615398,
    "lbl:longitude": -122.383426,
    "sfomuseum:airline_id": 1159284613,
    "sfomuseum:arrival_id": 102527513,
    "sfomuseum:base_flight_id": "20261009-A-KLM-6697",
    "sfomuseum:departure_id": 102531131,
    "sfomuseum:flight_id": "20261009-A-KLM-6697",
    "sfomuseum:flight_number": [
      "KLM6697",
      "KL6697"
    ],
    "sfomuseum:placetype": "flight",
    "src:geom": "flysfo",
    "wof:belongsto": [
      1947304067,
      102527513,
      1947304663,
      102191575,
      85633793,
      102087579,
      85922583,
      554784711,
      85688637,
      1947304671,
      1947304591,
      102085387
    ],
    "wof:country": "US",
    "wof:created": 1791648372,
    "wof:geomhash": "0c6e1b69ec0e7e239d3f5365b057a47f",
    "wof:hierarchy": [
      {
        "building_id": 1947304067,
        "campus_id": 102527513,
        "concourse_id": 1947304663,
        "continent_id": 102191575,
        "country_id": 85633793,
        "county_id": 102087579,
        "custom_id": 2048554905,
        "flight_id": 2048554905,
        "locality_id": 85922583,
        "postalcode_id": 554784711,
        "region_id": 85688637,
        "venue_id": 1947304671,
        "wing_id": 1947304591
      },
      {
        "building_id": 1947304067,
        "campus_id": 102527513,
        "concourse_id": 1947304663,
        "continent_id": 102191575,
        "country_id": 85633793,
        "county_id": 102085387,
        "custom_id": 2048554905,
        "flight_id": 2048554905,
        "region_id": 85688637,
        "venue_id": 1947304671,
        "wing_id": 1947304591
      }
    ],
    "wof:id": 2048554905,
    "wof:involves": [
      102527513,
      102531131,
      1159284613,
      1947304671,
      1159284613
    ],
    "wof:lastmodified": 1791648372,
    "wof:name": "KL6697 (MSP-SFO)",
    "wof:parent_id": 1947304671,
    "wof:placetype": "custom",
    "wof:placetype_alt": [
      "flight"
    ],
    "wof:repo": "sfomuseum-data-flights-2026-10",
    "wof:superseded_by": [],
    "wof:supersedes": []
  },
  "bbox": [
    -122.370943,
    37.61799,
    -93.200317,
    44.883321
  ],
  "geometry": {"type":"MultiPoint","coordinates":[[-93.200317,44.883321],[-122.370943,37.61799]]}
}
