{
  "id": 2048484671,
  "type": "Feature",
  "properties": {
    "geom:area": 0,
    "geom:bbox": "-122.620960,37.361940,-122.162540,37.850310",
    "geom:latitude": 37.56161661258919,
    "geom:longitude": -122.3490271664205,
    "src:alt_label": "swim-approach",
    "src:geom": "swim",
    "swim:elevations": [
      3970,
      3691,
      3449,
      3359,
      3353,
      3353,
      3353,
      3353,
      3353,
      3345,
      3256,
      3123,
      2898,
      2748,
      2303,
      2187,
      1880,
      1829,
      1829,
      1829,
      1686,
      1570,
      1310,
      1219,
      1219,
      1219,
      1070,
      943,
      609,
      292,
      200,
      57,
      0
    ],
    "swim:geom": "approach",
    "swim:timestamps": [
      1790875367,
      1790875397,
      1790875430,
      1790875450,
      1790875497,
      1790875522,
      1790875557,
      1790875565,
      1790875599,
      1790875627,
      1790875643,
      1790875658,
      1790875694,
      1790875715,
      1790875788,
      1790875810,
      1790875858,
      1790875878,
      1790875918,
      1790875936,
      1790875967,
      1790875984,
      1790876027,
      1790876067,
      1790876094,
      1790876100,
      1790876143,
      1790876161,
      1790876210,
      1790876247,
      1790876260,
      1790876293,
      1790876310
    ],
    "wof:geomhash": "069a6955482053376cd11ea332f9983b",
    "wof:id": 2048484671,
    "wof:repo": "sfomuseum-data-flights-2026-10"
  },
  "bbox": [
    -122.62096,
    37.36194,
    -122.16254,
    37.85031
  ],
  "geometry": {"type":"LineString","coordinates":[[-122.62096,37.85031],[-122.58353,37.8147],[-122.54252,37.77587],[-122.51683,37.75163],[-122.46404,37.702],[-122.43897,37.67849],[-122.40532,37.64684],[-122.39838,37.64033],[-122.36648,37.60992],[-122.34639,37.58217],[-122.33809,37.56489],[-122.33079,37.54788],[-122.3089,37.51074],[-122.29863,37.48792],[-122.35824,37.42522],[-122.3778,37.40814],[-122.36092,37.36346],[-122.33472,37.36194],[-122.28869,37.38691],[-122.2692,37.39873],[-122.23511,37.41956],[-122.21659,37.43089],[-122.17466,37.46416],[-122.16254,37.50397],[-122.17191,37.52779],[-122.17685,37.53188],[-122.21926,37.55339],[-122.23644,37.56089],[-122.28256,37.57991],[-122.31464,37.59341],[-122.32539,37.59788],[-122.35119,37.60869],[-122.36404,37.61301]]}
}
