{
  "id": 2048520769,
  "type": "Feature",
  "properties": {
    "date:inception_lower": "2026-10-05",
    "date:inception_upper": "2026-10-05",
    "edtf:cessation": "",
    "edtf:inception": "2026-10-05",
    "flysfo:actual_timestamp": -1,
    "flysfo:airline": "UA",
    "flysfo:base_airline": "",
    "flysfo:base_flight_number": "9368",
    "flysfo:date": "2026-10-05",
    "flysfo:estimated_timestamp": 1791224700,
    "flysfo:event": "A",
    "flysfo:flight_number": "UA4657",
    "flysfo:gate": "F5",
    "flysfo:journey": "ASE-SFO",
    "flysfo:scheduled_timestamp": 1791224700,
    "flysfo:timestamp": 1791224700,
    "geom:area": 0,
    "geom:bbox": "-122.370943,37.617990,-106.869003,39.223202",
    "geom:latitude": 38.420596,
    "geom:longitude": -114.619973,
    "iata:airline": "UA",
    "iata:base_airline": "",
    "icao:airline": "UAL",
    "icao:base_airline": "ANZ",
    "lbl:latitude": 37.620164,
    "lbl:longitude": -122.387194,
    "sfomuseum:airline_id": 1159285413,
    "sfomuseum:arrival_id": 102527513,
    "sfomuseum:base_flight_id": "20261005-A-ANZ-9368",
    "sfomuseum:departure_id": 102531993,
    "sfomuseum:flight_id": "20261005-A-UAL-4657",
    "sfomuseum:flight_number": [
      "UAL4657",
      "UA4657"
    ],
    "sfomuseum:placetype": "flight",
    "src:geom": "flysfo",
    "wof:belongsto": [
      1914600839,
      102527513,
      1914600845,
      102191575,
      85633793,
      102087579,
      85922583,
      554784711,
      85688637,
      1930457221,
      1914600841,
      102085387
    ],
    "wof:country": "US",
    "wof:created": 1791302918,
    "wof:geomhash": "2c2e1729c8655812749a286fa73dd01e",
    "wof:hierarchy": [
      {
        "building_id": 1914600839,
        "campus_id": 102527513,
        "concourse_id": 1914600845,
        "continent_id": 102191575,
        "country_id": 85633793,
        "county_id": 102087579,
        "custom_id": 2048520769,
        "flight_id": 2048520769,
        "locality_id": 85922583,
        "postalcode_id": 554784711,
        "region_id": 85688637,
        "venue_id": 1930457221,
        "wing_id": 1914600841
      },
      {
        "building_id": 1914600839,
        "campus_id": 102527513,
        "concourse_id": 1914600845,
        "continent_id": 102191575,
        "country_id": 85633793,
        "county_id": 102085387,
        "custom_id": 2048520769,
        "flight_id": 2048520769,
        "region_id": 85688637,
        "venue_id": 1930457221,
        "wing_id": 1914600841
      }
    ],
    "wof:id": 2048520769,
    "wof:involves": [
      102527513,
      102531993,
      1159285413,
      1930457221,
      1159283697
    ],
    "wof:lastmodified": 1791302918,
    "wof:name": "UA4657 (ASE-SFO)",
    "wof:parent_id": 1930457221,
    "wof:placetype": "custom",
    "wof:placetype_alt": [
      "flight"
    ],
    "wof:repo": "sfomuseum-data-flights-2026-10",
    "wof:superseded_by": [],
    "wof:supersedes": []
  },
  "bbox": [
    -122.370943,
    37.61799,
    -106.869003,
    39.223202
  ],
  "geometry": {"type":"MultiPoint","coordinates":[[-106.869003,39.223202],[-122.370943,37.61799]]}
}
