{
  "id": 2048556887,
  "type": "Feature",
  "properties": {
    "geom:area": 0,
    "geom:bbox": "-122.468980,36.719500,-121.439300,37.711310",
    "geom:latitude": 37.21556745248546,
    "geom:longitude": -122.05347100660828,
    "src:alt_label": "swim-takeoff",
    "src:geom": "swim",
    "swim:elevations": [
      256,
      573,
      868,
      1217,
      1821,
      2364,
      2485,
      3056,
      3506,
      3790,
      4341,
      4603,
      4861,
      5057,
      5247,
      5843,
      6289,
      6517,
      6802,
      6976,
      7183,
      7400,
      7599,
      7831,
      8255,
      8510,
      8735,
      8822,
      8839,
      8839,
      8839,
      8839
    ],
    "swim:geom": "takeoff",
    "swim:timestamps": [
      1791577489,
      1791577525,
      1791577552,
      1791577576,
      1791577613,
      1791577648,
      1791577654,
      1791577687,
      1791577737,
      1791577755,
      1791577787,
      1791577813,
      1791577834,
      1791577850,
      1791577867,
      1791577911,
      1791577944,
      1791577967,
      1791577997,
      1791578013,
      1791578034,
      1791578056,
      1791578079,
      1791578105,
      1791578155,
      1791578189,
      1791578218,
      1791578232,
      1791578273,
      1791578297,
      1791578320,
      1791578333
    ],
    "wof:geomhash": "8af56595f3ea2315a95b600451070c9d",
    "wof:id": 2048556887,
    "wof:repo": "sfomuseum-data-flights-2026-10"
  },
  "bbox": [
    -122.46898,
    36.7195,
    -121.4393,
    37.71131
  ],
  "geometry": {"type":"LineString","coordinates":[[-122.36446,37.63571],[-122.36199,37.66673],[-122.36708,37.69523],[-122.39354,37.71131],[-122.44085,37.69187],[-122.44584,37.6465],[-122.44656,37.63832],[-122.45411,37.59455],[-122.46898,37.52213],[-122.46419,37.49378],[-122.42507,37.45249],[-122.38562,37.42355],[-122.35248,37.3992],[-122.32511,37.37918],[-122.29747,37.35897],[-122.2243,37.30548],[-122.16746,37.2636],[-122.12805,37.23436],[-122.07632,37.19605],[-122.04752,37.17465],[-122.01011,37.1468],[-121.96992,37.1169],[-121.92821,37.08585],[-121.88105,37.05046],[-121.78631,36.98042],[-121.72258,36.93329],[-121.66602,36.89126],[-121.63961,36.87145],[-121.55835,36.81011],[-121.50932,36.77297],[-121.46499,36.73915],[-121.4393,36.7195]]}
}
