{
  "id": 2048509597,
  "type": "Feature",
  "properties": {
    "geom:area": 0,
    "geom:bbox": "-122.359650,37.491990,-121.297330,37.614360",
    "geom:latitude": 37.5449239955533,
    "geom:longitude": -121.83323039279892,
    "src:alt_label": "swim-approach",
    "src:geom": "swim",
    "swim:elevations": [
      4355,
      4052,
      3722,
      3690,
      3301,
      3109,
      3015,
      2715,
      2499,
      2336,
      2223,
      2008,
      1936,
      1743,
      1687,
      1582,
      1402,
      1321,
      1099,
      1005,
      826,
      715,
      578,
      538,
      271,
      215,
      138,
      68,
      0
    ],
    "swim:geom": "approach",
    "swim:timestamps": [
      1791120955,
      1791120985,
      1791121018,
      1791121023,
      1791121063,
      1791121097,
      1791121130,
      1791121181,
      1791121217,
      1791121251,
      1791121270,
      1791121314,
      1791121333,
      1791121374,
      1791121385,
      1791121405,
      1791121434,
      1791121450,
      1791121495,
      1791121516,
      1791121558,
      1791121578,
      1791121607,
      1791121620,
      1791121675,
      1791121688,
      1791121703,
      1791121727,
      1791121742
    ],
    "wof:geomhash": "ba490d2eb40f2184e976c1ea20774277",
    "wof:id": 2048509597,
    "wof:repo": "sfomuseum-data-flights-2026-10"
  },
  "bbox": [
    -122.35965,
    37.49199,
    -121.29733,
    37.61436
  ],
  "geometry": {"type":"LineString","coordinates":[[-121.29733,37.58831],[-121.35908,37.58154],[-121.42879,37.57402],[-121.43858,37.57292],[-121.51957,37.56338],[-121.58617,37.55513],[-121.64446,37.54573],[-121.72706,37.52641],[-121.78255,37.51317],[-121.83078,37.5015],[-121.85711,37.49525],[-121.91995,37.49199],[-121.94656,37.49263],[-122.0033,37.49965],[-122.01723,37.50445],[-122.04053,37.51197],[-122.07494,37.5227],[-122.09245,37.52846],[-122.13997,37.54375],[-122.16083,37.5508],[-122.20047,37.56339],[-122.21897,37.56938],[-122.24608,37.5782],[-122.25767,37.58192],[-122.30666,37.59545],[-122.3176,37.59852],[-122.3299,37.60285],[-122.34908,37.61018],[-122.35965,37.61436]]}
}
