{
  "id": 2048537659,
  "type": "Feature",
  "properties": {
    "geom:area": 0,
    "geom:bbox": "-122.345960,37.492020,-121.246330,37.608710",
    "geom:latitude": 37.54624671049301,
    "geom:longitude": -121.80070210785043,
    "src:alt_label": "swim-approach",
    "src:geom": "swim",
    "swim:elevations": [
      4722,
      4411,
      4327,
      4216,
      3848,
      3526,
      3346,
      3253,
      3048,
      2967,
      2666,
      2422,
      2146,
      2013,
      1920,
      1691,
      1431,
      1303,
      1057,
      870,
      674,
      614,
      471,
      307,
      181,
      72
    ],
    "swim:geom": "approach",
    "swim:timestamps": [
      1791384708,
      1791384747,
      1791384772,
      1791384795,
      1791384829,
      1791384867,
      1791384898,
      1791384911,
      1791384949,
      1791384960,
      1791384998,
      1791385033,
      1791385066,
      1791385096,
      1791385120,
      1791385160,
      1791385198,
      1791385219,
      1791385256,
      1791385285,
      1791385318,
      1791385328,
      1791385355,
      1791385387,
      1791385415,
      1791385443
    ],
    "wof:geomhash": "a9b115184369ae09b4940c0281f71610",
    "wof:id": 2048537659,
    "wof:repo": "sfomuseum-data-flights-2026-10"
  },
  "bbox": [
    -122.34596,
    37.49202,
    -121.24633,
    37.60871
  ],
  "geometry": {"type":"LineString","coordinates":[[-121.24633,37.59493],[-121.32516,37.58553],[-121.37442,37.58001],[-121.41609,37.57529],[-121.47678,37.56807],[-121.54528,37.56003],[-121.60014,37.55358],[-121.62298,37.55075],[-121.68374,37.53666],[-121.70227,37.5322],[-121.76145,37.51814],[-121.81651,37.50496],[-121.86951,37.49264],[-121.91774,37.49202],[-121.9549,37.49288],[-122.01574,37.50378],[-122.07031,37.52135],[-122.09979,37.53099],[-122.14967,37.54713],[-122.18722,37.55928],[-122.22769,37.57237],[-122.23942,37.57616],[-122.26821,37.5852],[-122.29932,37.59418],[-122.32385,37.60127],[-122.34596,37.60871]]}
}
