{
  "id": 2048555359,
  "type": "Feature",
  "properties": {
    "date:cessation_lower": "2026-10-09",
    "date:cessation_upper": "2026-10-09",
    "date:inception_lower": "1970-01-01",
    "date:inception_upper": "1970-01-01",
    "edtf:cessation": "2026-10-09T11:58:06-07:00",
    "edtf:inception": "1970-01-01T00:00:00Z",
    "flysfo:actual_timestamp": -1,
    "flysfo:airline": "WN",
    "flysfo:date": "2026-10-09",
    "flysfo:estimated_timestamp": 1791598020,
    "flysfo:event": "A",
    "flysfo:flight_number": "WN4259",
    "flysfo:gate": "D3",
    "flysfo:journey": "SAN-SFO",
    "flysfo:scheduled_timestamp": 1791598200,
    "flysfo:timestamp": 1791598200,
    "geom:area": 0,
    "geom:bbox": "-122.370943,32.733534,-117.185927,37.617990",
    "geom:latitude": 35.175762,
    "geom:longitude": -119.778435,
    "iata:airline": "WN",
    "icao:aircraft": "B38M",
    "icao:airline": "SWA",
    "lbl:latitude": 37.617092,
    "lbl:longitude": -122.381656,
    "sfomuseum:aircraft_id": 1528104575,
    "sfomuseum:airline_id": 1159285591,
    "sfomuseum:arrival_id": 102527513,
    "sfomuseum:departure_id": 102528997,
    "sfomuseum:flight_id": "20261009-A-SWA-4259",
    "sfomuseum:flight_number": [
      "SWA4259",
      "WN4259"
    ],
    "sfomuseum:placetype": "flight",
    "src:geom": "flysfo",
    "src:geom_alt": [
      "swim-approach"
    ],
    "swim:tail_number": "N8796L",
    "wof:belongsto": [
      1947304067,
      102527513,
      1947304595,
      102191575,
      85633793,
      102087579,
      85922583,
      554784711,
      85688637,
      1947304597,
      1947304591,
      102085387
    ],
    "wof:country": "US",
    "wof:created": 1791648425,
    "wof:geomhash": "d1d4873ced1d6ea3128e45b0b2070718",
    "wof:hierarchy": [
      {
        "building_id": 1947304067,
        "campus_id": 102527513,
        "concourse_id": 1947304595,
        "continent_id": 102191575,
        "country_id": 85633793,
        "county_id": 102087579,
        "custom_id": 2048555359,
        "flight_id": 2048555359,
        "locality_id": 85922583,
        "postalcode_id": 554784711,
        "region_id": 85688637,
        "venue_id": 1947304597,
        "wing_id": 1947304591
      },
      {
        "building_id": 1947304067,
        "campus_id": 102527513,
        "concourse_id": 1947304595,
        "continent_id": 102191575,
        "country_id": 85633793,
        "county_id": 102085387,
        "custom_id": 2048555359,
        "flight_id": 2048555359,
        "region_id": 85688637,
        "venue_id": 1947304597,
        "wing_id": 1947304591
      }
    ],
    "wof:id": 2048555359,
    "wof:involves": [
      1528104575,
      102527513,
      102528997,
      1159285591,
      1947304597
    ],
    "wof:lastmodified": 1791649135,
    "wof:name": "WN4259 (SAN-SFO)",
    "wof:parent_id": 1947304597,
    "wof:placetype": "custom",
    "wof:placetype_alt": [
      "flight"
    ],
    "wof:repo": "sfomuseum-data-flights-2026-10",
    "wof:superseded_by": [],
    "wof:supersedes": []
  },
  "bbox": [
    -122.370943,
    32.733534,
    -117.185927,
    37.61799
  ],
  "geometry": {"type":"MultiPoint","coordinates":[[-117.185927,32.733534],[-122.370943,37.61799]]}
}
