{
  "id": 2048489119,
  "type": "Feature",
  "properties": {
    "geom:area": 0,
    "geom:bbox": "-122.365470,37.629530,-121.268660,38.411230",
    "geom:latitude": 38.041609275215954,
    "geom:longitude": -121.84195429685951,
    "src:alt_label": "swim-takeoff",
    "src:geom": "swim",
    "swim:elevations": [
      152,
      473,
      895,
      1050,
      1293,
      1799,
      1844,
      2497,
      2645,
      3186,
      3245,
      3703,
      3943,
      4067,
      4547,
      4926,
      5498,
      5723,
      5983,
      6340,
      6476,
      6747,
      6833,
      7314,
      7505,
      7663
    ],
    "swim:geom": "takeoff",
    "swim:timestamps": [
      1790853992,
      1790854022,
      1790854060,
      1790854080,
      1790854119,
      1790854167,
      1790854173,
      1790854224,
      1790854235,
      1790854285,
      1790854299,
      1790854346,
      1790854369,
      1790854381,
      1790854432,
      1790854468,
      1790854525,
      1790854547,
      1790854576,
      1790854617,
      1790854636,
      1790854671,
      1790854683,
      1790854733,
      1790854752,
      1790854770
    ],
    "wof:geomhash": "cd763a0a21b30e99ac38134bc9f96c8a",
    "wof:id": 2048489119,
    "wof:repo": "sfomuseum-data-flights-2026-10"
  },
  "bbox": [
    -122.36547,
    37.62953,
    -121.26866,
    38.41123
  ],
  "geometry": {"type":"LineString","coordinates":[[-122.36547,37.62953],[-122.34413,37.64649],[-122.31212,37.66416],[-122.2993,37.67747],[-122.29251,37.7182],[-122.26451,37.77281],[-122.25971,37.77867],[-122.19636,37.82473],[-122.18132,37.83447],[-122.11217,37.87858],[-122.0914,37.89179],[-122.01902,37.93811],[-121.98182,37.96217],[-121.96307,37.97425],[-121.8793,38.02754],[-121.81855,38.06591],[-121.72047,38.12782],[-121.6818,38.15231],[-121.63133,38.18427],[-121.55751,38.23094],[-121.52311,38.25255],[-121.45773,38.29356],[-121.43582,38.3074],[-121.33961,38.36749],[-121.30308,38.39012],[-121.26866,38.41123]]}
}
