{
  "id": 2048502619,
  "type": "Feature",
  "properties": {
    "geom:area": 0,
    "geom:bbox": "-122.362060,36.722100,-121.878060,37.614090",
    "geom:latitude": 37.22265609587185,
    "geom:longitude": -122.06854720905439,
    "src:alt_label": "swim-approach",
    "src:geom": "swim",
    "swim:elevations": [
      5313,
      5072,
      4731,
      4444,
      4231,
      3982,
      3594,
      3245,
      3140,
      3083,
      2992,
      2780,
      2587,
      2361,
      2096,
      1903,
      1780,
      1565,
      1553,
      1404,
      1280,
      1048,
      941,
      751,
      694,
      490,
      408,
      276,
      154,
      38,
      57
    ],
    "swim:geom": "approach",
    "swim:timestamps": [
      1791065366,
      1791065391,
      1791065426,
      1791065455,
      1791065477,
      1791065503,
      1791065542,
      1791065579,
      1791065595,
      1791065616,
      1791065641,
      1791065668,
      1791065695,
      1791065719,
      1791065748,
      1791065775,
      1791065796,
      1791065842,
      1791065870,
      1791065902,
      1791065920,
      1791065965,
      1791065989,
      1791066025,
      1791066040,
      1791066086,
      1791066104,
      1791066138,
      1791066165,
      1791066200,
      1791066211
    ],
    "wof:geomhash": "364ce40f2c89fca55314048676733803",
    "wof:id": 2048502619,
    "wof:repo": "sfomuseum-data-flights-2026-10"
  },
  "bbox": [
    -122.36206,
    36.7221,
    -121.87806,
    37.61409
  ],
  "geometry": {"type":"LineString","coordinates":[[-121.87806,36.7221],[-121.89975,36.7647],[-121.91735,36.82571],[-121.93127,36.87532],[-121.94162,36.91172],[-121.95463,36.95586],[-121.97869,37.01784],[-122.00115,37.07585],[-122.01087,37.10077],[-122.02368,37.13319],[-122.03735,37.16798],[-122.05193,37.2051],[-122.06593,37.24046],[-122.07822,37.27148],[-122.09271,37.3084],[-122.10557,37.34174],[-122.11585,37.36846],[-122.11217,37.42304],[-122.09867,37.45046],[-122.09849,37.47949],[-122.11264,37.49308],[-122.15096,37.52397],[-122.17654,37.53511],[-122.21185,37.55009],[-122.22519,37.55575],[-122.2641,37.57206],[-122.27883,37.57823],[-122.30664,37.58979],[-122.32797,37.59889],[-122.35449,37.61005],[-122.36206,37.61409]]}
}
