{
  "id": 2048558711,
  "type": "Feature",
  "properties": {
    "geom:area": 0,
    "geom:bbox": "-122.533890,36.720580,-121.439720,37.668780",
    "geom:latitude": 37.207653105908236,
    "geom:longitude": -122.06468077975623,
    "src:alt_label": "swim-takeoff",
    "src:geom": "swim",
    "swim:elevations": [
      288,
      412,
      934,
      1145,
      1176,
      1307,
      1705,
      2119,
      2205,
      2679,
      3053,
      3240,
      3541,
      3682,
      3994,
      4454,
      4523,
      5077,
      5290,
      5798,
      6081,
      6356,
      6731,
      7132,
      7242,
      7585,
      7652,
      7976,
      8077
    ],
    "swim:geom": "takeoff",
    "swim:timestamps": [
      1791551632,
      1791551646,
      1791551696,
      1791551728,
      1791551733,
      1791551760,
      1791551813,
      1791551846,
      1791551855,
      1791551890,
      1791551918,
      1791551940,
      1791551998,
      1791552012,
      1791552038,
      1791552080,
      1791552090,
      1791552136,
      1791552152,
      1791552201,
      1791552236,
      1791552263,
      1791552305,
      1791552352,
      1791552363,
      1791552411,
      1791552423,
      1791552471,
      1791552482
    ],
    "wof:geomhash": "e96d21b4ab39b3607d9a724d97c44b6c",
    "wof:id": 2048558711,
    "wof:repo": "sfomuseum-data-flights-2026-10"
  },
  "bbox": [
    -122.53389,
    36.72058,
    -121.43972,
    37.66878
  ],
  "geometry": {"type":"LineString","coordinates":[[-122.39748,37.62817],[-122.4099,37.6336],[-122.4569,37.65397],[-122.48894,37.66771],[-122.49449,37.66878],[-122.53002,37.66139],[-122.53389,37.60165],[-122.51225,37.56007],[-122.50668,37.5496],[-122.48367,37.50692],[-122.45578,37.47627],[-122.42805,37.45572],[-122.34312,37.39316],[-122.32047,37.37647],[-122.2781,37.34526],[-122.20794,37.29343],[-122.19129,37.28107],[-122.10961,37.22061],[-122.08081,37.19921],[-121.99253,37.13379],[-121.92639,37.08473],[-121.87497,37.04638],[-121.79423,36.98586],[-121.70328,36.91764],[-121.68158,36.90136],[-121.58693,36.83015],[-121.56174,36.81115],[-121.46204,36.73752],[-121.43972,36.72058]]}
}
