{
  "id": 2048558711,
  "type": "Feature",
  "properties": {
    "date:cessation_lower": "1970-01-01",
    "date:cessation_upper": "1970-01-01",
    "date:inception_lower": "2026-10-09",
    "date:inception_upper": "2026-10-09",
    "edtf:cessation": "1970-01-01T00:00:00Z",
    "edtf:inception": "2026-10-09T06:13:52-07:00",
    "flysfo:actual_timestamp": -1,
    "flysfo:airline": "DL",
    "flysfo:base_airline": "",
    "flysfo:base_flight_number": "3851",
    "flysfo:date": "2026-10-09",
    "flysfo:estimated_timestamp": 1791574560,
    "flysfo:event": "D",
    "flysfo:flight_number": "DL1862",
    "flysfo:gate": "C3",
    "flysfo:journey": "SFO-LAX",
    "flysfo:scheduled_timestamp": 1791572700,
    "flysfo:timestamp": 1791574560,
    "geom:area": 0,
    "geom:bbox": "-122.370943,33.942593,-118.389510,37.617990",
    "geom:latitude": 35.780291500000004,
    "geom:longitude": -120.38022649999999,
    "iata:airline": "DL",
    "iata:base_airline": "",
    "icao:aircraft": "B738",
    "icao:airline": "DAL",
    "icao:base_airline": "AMX",
    "lbl:latitude": 37.615398,
    "lbl:longitude": -122.383426,
    "sfomuseum:aircraft_id": 1159289871,
    "sfomuseum:airline_id": 1159284261,
    "sfomuseum:arrival_id": 102533795,
    "sfomuseum:base_flight_id": "20261009-D-AMX-3851",
    "sfomuseum:departure_id": 102527513,
    "sfomuseum:flight_id": "20261009-D-DAL-1862",
    "sfomuseum:flight_number": [
      "DAL1862",
      "DL1862"
    ],
    "sfomuseum:placetype": "flight",
    "src:geom": "flysfo",
    "src:geom_alt": [
      "swim-takeoff"
    ],
    "swim:tail_number": "N3755D",
    "wof:belongsto": [
      1947304067,
      102527513,
      1947304663,
      102191575,
      85633793,
      102087579,
      85922583,
      554784711,
      85688637,
      1947304671,
      1947304591,
      102085387
    ],
    "wof:country": "US",
    "wof:created": 1791648805,
    "wof:geomhash": "602be2a828e3460cadf44be5b1c2e36b",
    "wof:hierarchy": [
      {
        "building_id": 1947304067,
        "campus_id": 102527513,
        "concourse_id": 1947304663,
        "continent_id": 102191575,
        "country_id": 85633793,
        "county_id": 102087579,
        "custom_id": 2048558711,
        "flight_id": 2048558711,
        "locality_id": 85922583,
        "postalcode_id": 554784711,
        "region_id": 85688637,
        "venue_id": 1947304671,
        "wing_id": 1947304591
      },
      {
        "building_id": 1947304067,
        "campus_id": 102527513,
        "concourse_id": 1947304663,
        "continent_id": 102191575,
        "country_id": 85633793,
        "county_id": 102085387,
        "custom_id": 2048558711,
        "flight_id": 2048558711,
        "region_id": 85688637,
        "venue_id": 1947304671,
        "wing_id": 1947304591
      }
    ],
    "wof:id": 2048558711,
    "wof:involves": [
      102527513,
      1159284261,
      1947304671,
      1159283539,
      1159289871,
      102533795
    ],
    "wof:lastmodified": 1791649157,
    "wof:name": "DL1862 (SFO-LAX)",
    "wof:parent_id": 1947304671,
    "wof:placetype": "custom",
    "wof:placetype_alt": [
      "flight"
    ],
    "wof:repo": "sfomuseum-data-flights-2026-10",
    "wof:superseded_by": [],
    "wof:supersedes": []
  },
  "bbox": [
    -122.370943,
    33.942593,
    -118.38951,
    37.61799
  ],
  "geometry": {"type":"MultiPoint","coordinates":[[-122.370943,37.61799],[-118.38951,33.942593]]}
}
