{
  "id": 2048537665,
  "type": "Feature",
  "properties": {
    "geom:area": 0,
    "geom:bbox": "-122.799690,37.416590,-122.110540,38.505940",
    "geom:latitude": 37.82168219448102,
    "geom:longitude": -122.49284958883153,
    "src:alt_label": "swim-approach",
    "src:geom": "swim",
    "swim:elevations": [
      7986,
      7646,
      7224,
      6998,
      6737,
      6490,
      5895,
      5674,
      5484,
      4951,
      4724,
      4481,
      4325,
      4116,
      4016,
      3840,
      3654,
      3437,
      3383,
      3353,
      3353,
      3353,
      3179,
      2961,
      2678,
      2499,
      2179,
      2085,
      1912,
      1715,
      1531,
      1334,
      1295,
      1241,
      1095,
      916,
      914,
      887,
      703,
      663,
      465,
      311,
      178,
      123,
      0
    ],
    "swim:geom": "approach",
    "swim:timestamps": [
      1791441492,
      1791441524,
      1791441563,
      1791441583,
      1791441608,
      1791441630,
      1791441686,
      1791441708,
      1791441725,
      1791441777,
      1791441800,
      1791441825,
      1791441858,
      1791441893,
      1791441908,
      1791441943,
      1791441980,
      1791442010,
      1791442025,
      1791442068,
      1791442094,
      1791442133,
      1791442158,
      1791442184,
      1791442220,
      1791442245,
      1791442286,
      1791442298,
      1791442322,
      1791442377,
      1791442397,
      1791442435,
      1791442445,
      1791442461,
      1791442487,
      1791442527,
      1791442538,
      1791442570,
      1791442610,
      1791442623,
      1791442666,
      1791442703,
      1791442734,
      1791442749,
      1791442778
    ],
    "wof:geomhash": "f89e9be7e6f694439ba8c520f059f423",
    "wof:id": 2048537665,
    "wof:repo": "sfomuseum-data-flights-2026-10"
  },
  "bbox": [
    -122.79969,
    37.41659,
    -122.11054,
    38.50594
  ],
  "geometry": {"type":"LineString","coordinates":[[-122.79969,38.50594],[-122.79264,38.44267],[-122.78374,38.36842],[-122.77966,38.33231],[-122.77447,38.28578],[-122.7699,38.24532],[-122.74454,38.14528],[-122.73403,38.10903],[-122.72532,38.07895],[-122.69981,37.9914],[-122.6894,37.9547],[-122.67671,37.91421],[-122.64149,37.8698],[-122.59966,37.83047],[-122.58241,37.81413],[-122.54375,37.77734],[-122.5079,37.74325],[-122.48199,37.71887],[-122.46986,37.70729],[-122.43158,37.67132],[-122.40918,37.65039],[-122.37427,37.61756],[-122.35573,37.59552],[-122.34289,37.56963],[-122.32282,37.53366],[-122.30801,37.50907],[-122.28391,37.46965],[-122.27555,37.4582],[-122.24832,37.44477],[-122.18093,37.42105],[-122.15472,37.41659],[-122.11898,37.44259],[-122.11418,37.45091],[-122.11054,37.46634],[-122.12373,37.48627],[-122.14865,37.51413],[-122.15509,37.52107],[-122.18065,37.53935],[-122.21879,37.55534],[-122.23079,37.56042],[-122.27046,37.5771],[-122.30101,37.58994],[-122.32557,37.60024],[-122.33736,37.60514],[-122.3585,37.61392]]}
}
