{
  "id": 2048556187,
  "type": "Feature",
  "properties": {
    "geom:area": 0,
    "geom:bbox": "-122.963340,37.345150,-122.098830,38.505900",
    "geom:latitude": 37.781640836961905,
    "geom:longitude": -122.53908950367457,
    "src:alt_label": "swim-approach",
    "src:geom": "swim",
    "swim:elevations": [
      7315,
      7315,
      7282,
      7147,
      7108,
      7103,
      7069,
      6785,
      6527,
      6244,
      5901,
      5682,
      5418,
      5157,
      4919,
      4597,
      4272,
      3993,
      3878,
      3632,
      3456,
      3354,
      3353,
      3353,
      3353,
      3302,
      3083,
      2874,
      2822,
      2602,
      2262,
      2125,
      2101,
      1771,
      1644,
      1433,
      1331,
      1249,
      1219,
      1218,
      1211,
      1191,
      1027,
      923,
      732,
      599,
      416,
      325,
      156,
      65,
      0
    ],
    "swim:geom": "approach",
    "swim:timestamps": [
      1791558929,
      1791558956,
      1791558986,
      1791559013,
      1791559024,
      1791559041,
      1791559053,
      1791559107,
      1791559132,
      1791559160,
      1791559189,
      1791559213,
      1791559239,
      1791559270,
      1791559298,
      1791559336,
      1791559370,
      1791559407,
      1791559419,
      1791559450,
      1791559471,
      1791559509,
      1791559532,
      1791559548,
      1791559575,
      1791559613,
      1791559644,
      1791559677,
      1791559684,
      1791559711,
      1791559763,
      1791559796,
      1791559802,
      1791559850,
      1791559868,
      1791559913,
      1791559942,
      1791559956,
      1791559994,
      1791560033,
      1791560050,
      1791560058,
      1791560094,
      1791560114,
      1791560148,
      1791560175,
      1791560214,
      1791560235,
      1791560276,
      1791560301,
      1791560312
    ],
    "wof:geomhash": "086ec1662201ccb3ecb544195b5ee780",
    "wof:id": 2048556187,
    "wof:repo": "sfomuseum-data-flights-2026-10"
  },
  "bbox": [
    -122.96334,
    37.34515,
    -122.09883,
    38.5059
  ],
  "geometry": {"type":"LineString","coordinates":[[-122.96334,38.5059],[-122.95142,38.45264],[-122.93892,38.39736],[-122.92719,38.34537],[-122.92295,38.326],[-122.91592,38.29428],[-122.91078,38.27126],[-122.88884,38.17351],[-122.87848,38.12759],[-122.86583,38.07931],[-122.84583,38.02926],[-122.82845,37.98929],[-122.80977,37.94631],[-122.78801,37.89624],[-122.76812,37.85133],[-122.71709,37.80243],[-122.65982,37.77127],[-122.59664,37.73784],[-122.57703,37.72732],[-122.52824,37.70105],[-122.49532,37.68322],[-122.43524,37.65091],[-122.39743,37.63039],[-122.37273,37.61679],[-122.34062,37.59117],[-122.31273,37.54823],[-122.29134,37.51551],[-122.28167,37.4783],[-122.28498,37.47021],[-122.30008,37.44104],[-122.28117,37.38159],[-122.25696,37.34917],[-122.25009,37.34515],[-122.19503,37.35936],[-122.18191,37.37541],[-122.15002,37.41344],[-122.13148,37.43549],[-122.12266,37.44577],[-122.09883,37.47334],[-122.10896,37.50408],[-122.12243,37.51396],[-122.13093,37.51799],[-122.16618,37.53309],[-122.18613,37.54137],[-122.21912,37.55564],[-122.24555,37.56653],[-122.28082,37.58154],[-122.29876,37.58885],[-122.3308,37.60246],[-122.34905,37.6101],[-122.35744,37.61362]]}
}
