{
  "id": 2048507041,
  "type": "Feature",
  "properties": {
    "geom:area": 0,
    "geom:bbox": "-122.526840,37.628750,-121.441010,38.509390",
    "geom:latitude": 38.07725680318578,
    "geom:longitude": -122.06053028764053,
    "src:alt_label": "swim-takeoff",
    "src:geom": "swim",
    "swim:elevations": [
      244,
      635,
      993,
      1124,
      1196,
      1459,
      1587,
      1898,
      2485,
      2824,
      3050,
      3288,
      3505,
      3520,
      3920,
      4039,
      4434,
      4654,
      4992,
      5110,
      5456,
      5761,
      5866,
      6111,
      6392,
      6506,
      6749,
      6798,
      7103
    ],
    "swim:geom": "takeoff",
    "swim:timestamps": [
      1791040782,
      1791040817,
      1791040853,
      1791040885,
      1791040909,
      1791040946,
      1791040959,
      1791040986,
      1791041038,
      1791041067,
      1791041085,
      1791041107,
      1791041157,
      1791041175,
      1791041215,
      1791041229,
      1791041270,
      1791041291,
      1791041334,
      1791041345,
      1791041390,
      1791041423,
      1791041438,
      1791041469,
      1791041514,
      1791041538,
      1791041567,
      1791041578,
      1791041620
    ],
    "wof:geomhash": "18b5f6946e661d424ba6806e968b0fc2",
    "wof:id": 2048507041,
    "wof:repo": "sfomuseum-data-flights-2026-10"
  },
  "bbox": [
    -122.52684,
    37.62875,
    -121.44101,
    38.50939
  ],
  "geometry": {"type":"LineString","coordinates":[[-122.39922,37.62875],[-122.43421,37.64439],[-122.47025,37.65998],[-122.50416,37.67459],[-122.52526,37.6938],[-122.52684,37.73902],[-122.52661,37.75626],[-122.52328,37.79048],[-122.45692,37.83083],[-122.41376,37.84972],[-122.38858,37.86629],[-122.35979,37.88635],[-122.28781,37.93685],[-122.26034,37.95591],[-122.19561,38.0005],[-122.17069,38.01777],[-122.1015,38.06599],[-122.06565,38.09084],[-121.99054,38.14289],[-121.97118,38.15635],[-121.89064,38.21183],[-121.83038,38.25304],[-121.80248,38.27219],[-121.74587,38.31125],[-121.66039,38.36949],[-121.61029,38.40231],[-121.55074,38.43986],[-121.52858,38.45386],[-121.44101,38.50939]]}
}
