{
  "id": 2048515795,
  "type": "Feature",
  "properties": {
    "geom:area": 0,
    "geom:bbox": "-122.364060,37.631190,-122.149890,38.507730",
    "geom:latitude": 38.030787034676834,
    "geom:longitude": -122.22521457231328,
    "src:alt_label": "swim-takeoff",
    "src:geom": "swim",
    "swim:elevations": [
      274,
      653,
      1045,
      1263,
      1484,
      1806,
      2312,
      2420,
      2649,
      3230,
      3582,
      3658,
      3658,
      3913,
      4215,
      4267,
      4267,
      4535,
      4740,
      5023,
      5687,
      5811,
      6088,
      6287,
      6738,
      6803
    ],
    "swim:geom": "takeoff",
    "swim:timestamps": [
      1791134068,
      1791134086,
      1791134117,
      1791134156,
      1791134176,
      1791134197,
      1791134229,
      1791134236,
      1791134252,
      1791134286,
      1791134325,
      1791134362,
      1791134378,
      1791134426,
      1791134450,
      1791134477,
      1791134500,
      1791134548,
      1791134562,
      1791134586,
      1791134636,
      1791134644,
      1791134668,
      1791134684,
      1791134728,
      1791134732
    ],
    "wof:geomhash": "fed476469ac41bbf563303ab7effbc7c",
    "wof:id": 2048515795,
    "wof:repo": "sfomuseum-data-flights-2026-10"
  },
  "bbox": [
    -122.36406,
    37.63119,
    -122.14989,
    38.50773
  ],
  "geometry": {"type":"LineString","coordinates":[[-122.36406,37.63119],[-122.35033,37.64214],[-122.32374,37.65748],[-122.28287,37.6816],[-122.25741,37.6962],[-122.2288,37.71215],[-122.2081,37.74942],[-122.20688,37.75986],[-122.21164,37.78114],[-122.23881,37.82473],[-122.2734,37.8792],[-122.3066,37.93195],[-122.31709,37.95579],[-122.27563,38.018],[-122.23713,38.03521],[-122.20166,38.06711],[-122.18744,38.10218],[-122.17409,38.1793],[-122.17297,38.2019],[-122.17071,38.24242],[-122.16436,38.32993],[-122.16323,38.34446],[-122.15965,38.38659],[-122.15727,38.41727],[-122.15062,38.49916],[-122.14989,38.50773]]}
}
