{
  "id": 2048517939,
  "type": "Feature",
  "properties": {
    "date:inception_lower": "2026-10-05",
    "date:inception_upper": "2026-10-05",
    "edtf:cessation": "",
    "edtf:inception": "2026-10-05",
    "flysfo:actual_timestamp": -1,
    "flysfo:airline": "NZ",
    "flysfo:base_airline": "",
    "flysfo:base_flight_number": "7488",
    "flysfo:date": "2026-10-05",
    "flysfo:estimated_timestamp": 1791263580,
    "flysfo:event": "A",
    "flysfo:flight_number": "NZ9178",
    "flysfo:gate": "F11",
    "flysfo:journey": "IAD-SFO",
    "flysfo:scheduled_timestamp": 1791257400,
    "flysfo:timestamp": 1791263580,
    "geom:area": 0,
    "geom:bbox": "-122.370943,37.617990,-77.453702,38.949246",
    "geom:latitude": 38.283618000000004,
    "geom:longitude": -99.9123225,
    "iata:airline": "NZ",
    "iata:base_airline": "",
    "icao:airline": "ANZ",
    "icao:base_airline": "DLH",
    "lbl:latitude": 37.620244,
    "lbl:longitude": -122.387813,
    "sfomuseum:airline_id": 1159283697,
    "sfomuseum:arrival_id": 102527513,
    "sfomuseum:base_flight_id": "20261005-A-DLH-7488",
    "sfomuseum:departure_id": 102528817,
    "sfomuseum:flight_id": "20261005-A-ANZ-9178",
    "sfomuseum:flight_number": [
      "ANZ9178",
      "NZ9178"
    ],
    "sfomuseum:placetype": "flight",
    "src:geom": "flysfo",
    "wof:belongsto": [
      1947304067,
      102527513,
      1947304451,
      102191575,
      85633793,
      102087579,
      85922583,
      554784711,
      85688637,
      1947304463,
      1947304447,
      102085387
    ],
    "wof:country": "US",
    "wof:created": 1791302586,
    "wof:geomhash": "376248592ab7850cfb9a479529cc5caf",
    "wof:hierarchy": [
      {
        "building_id": 1947304067,
        "campus_id": 102527513,
        "concourse_id": 1947304451,
        "continent_id": 102191575,
        "country_id": 85633793,
        "county_id": 102087579,
        "custom_id": 2048517939,
        "flight_id": 2048517939,
        "locality_id": 85922583,
        "postalcode_id": 554784711,
        "region_id": 85688637,
        "venue_id": 1947304463,
        "wing_id": 1947304447
      },
      {
        "building_id": 1947304067,
        "campus_id": 102527513,
        "concourse_id": 1947304451,
        "continent_id": 102191575,
        "country_id": 85633793,
        "county_id": 102085387,
        "custom_id": 2048517939,
        "flight_id": 2048517939,
        "region_id": 85688637,
        "venue_id": 1947304463,
        "wing_id": 1947304447
      }
    ],
    "wof:id": 2048517939,
    "wof:involves": [
      102527513,
      102528817,
      1159283697,
      1947304463,
      1159286015
    ],
    "wof:lastmodified": 1791302586,
    "wof:name": "NZ9178 (IAD-SFO)",
    "wof:parent_id": 1947304463,
    "wof:placetype": "custom",
    "wof:placetype_alt": [
      "flight"
    ],
    "wof:repo": "sfomuseum-data-flights-2026-10",
    "wof:superseded_by": [],
    "wof:supersedes": []
  },
  "bbox": [
    -122.370943,
    37.61799,
    -77.453702,
    38.949246
  ],
  "geometry": {"type":"MultiPoint","coordinates":[[-77.453702,38.949246],[-122.370943,37.61799]]}
}
