{
  "id": 2048537891,
  "type": "Feature",
  "properties": {
    "date:inception_lower": "2026-10-07",
    "date:inception_upper": "2026-10-07",
    "edtf:cessation": "",
    "edtf:inception": "2026-10-07",
    "flysfo:actual_timestamp": -1,
    "flysfo:airline": "UA",
    "flysfo:date": "2026-10-07",
    "flysfo:estimated_timestamp": 1791427020,
    "flysfo:event": "A",
    "flysfo:flight_number": "UA3939",
    "flysfo:gate": "",
    "flysfo:journey": "HNL-SFO",
    "flysfo:scheduled_timestamp": 1791417420,
    "flysfo:timestamp": 1791427020,
    "geom:area": 0,
    "geom:bbox": "-157.918416,21.332508,-122.370943,37.617990",
    "geom:latitude": 29.475248999999998,
    "geom:longitude": -140.1446795,
    "iata:airline": "UA",
    "icao:airline": "UAL",
    "lbl:latitude": 37.61799,
    "lbl:longitude": -122.370943,
    "sfomuseum:airline_id": 1159285413,
    "sfomuseum:arrival_id": 102527513,
    "sfomuseum:departure_id": 102533997,
    "sfomuseum:flight_id": "20261007-A-UAL-3939",
    "sfomuseum:flight_number": [
      "UAL3939",
      "UA3939"
    ],
    "sfomuseum:placetype": "flight",
    "src:geom": "flysfo",
    "wof:belongsto": [],
    "wof:country": "US",
    "wof:created": 1791475694,
    "wof:geomhash": "1ad63fa22de9103ed4396c0ca683f63f",
    "wof:hierarchy": [
      {
        "custom_id": 2048537891,
        "flight_id": 2048537891
      }
    ],
    "wof:id": 2048537891,
    "wof:involves": [
      102527513,
      102533997,
      1159285413,
      -1
    ],
    "wof:lastmodified": 1791475694,
    "wof:name": "UA3939 (HNL-SFO)",
    "wof:parent_id": -1,
    "wof:placetype": "custom",
    "wof:placetype_alt": [
      "flight"
    ],
    "wof:repo": "sfomuseum-data-flights-2026-10",
    "wof:superseded_by": [],
    "wof:supersedes": []
  },
  "bbox": [
    -157.918416,
    21.332508,
    -122.370943,
    37.61799
  ],
  "geometry": {"type":"MultiPoint","coordinates":[[-157.918416,21.332508],[-122.370943,37.61799]]}
}
