{
  "id": 2048505239,
  "type": "Feature",
  "properties": {
    "geom:area": 0,
    "geom:bbox": "-122.366330,37.628080,-121.435200,38.515710",
    "geom:latitude": 38.067641705001975,
    "geom:longitude": -121.8985701860331,
    "src:alt_label": "swim-takeoff",
    "src:geom": "swim",
    "swim:elevations": [
      152,
      416,
      611,
      827,
      1065,
      1484,
      1896,
      2342,
      2692,
      2818,
      3314,
      3437,
      3641,
      3774,
      4250,
      4440,
      4696,
      5187,
      5296,
      5732,
      6032,
      6258,
      6453,
      6697,
      6988,
      7275,
      7416
    ],
    "swim:geom": "takeoff",
    "swim:timestamps": [
      1791038101,
      1791038122,
      1791038150,
      1791038177,
      1791038210,
      1791038245,
      1791038274,
      1791038307,
      1791038333,
      1791038343,
      1791038389,
      1791038409,
      1791038432,
      1791038451,
      1791038487,
      1791038511,
      1791038534,
      1791038577,
      1791038588,
      1791038632,
      1791038663,
      1791038692,
      1791038717,
      1791038744,
      1791038780,
      1791038815,
      1791038831
    ],
    "wof:geomhash": "2d85bdbd3e5d0ac6fde7eeb52926f14e",
    "wof:id": 2048505239,
    "wof:repo": "sfomuseum-data-flights-2026-10"
  },
  "bbox": [
    -122.36633,
    37.62808,
    -121.4352,
    38.51571
  ],
  "geometry": {"type":"LineString","coordinates":[[-122.36633,37.62808],[-122.35587,37.64145],[-122.33213,37.65383],[-122.30655,37.66843],[-122.26818,37.68956],[-122.22336,37.71365],[-122.19246,37.74233],[-122.16163,37.77694],[-122.1351,37.80527],[-122.12455,37.8168],[-122.07803,37.86935],[-122.05603,37.89341],[-122.02789,37.92423],[-122.00467,37.94937],[-121.95886,38.00024],[-121.92854,38.03349],[-121.89697,38.06744],[-121.83961,38.13057],[-121.82568,38.14639],[-121.76459,38.21312],[-121.71914,38.26163],[-121.67669,38.30745],[-121.64109,38.34614],[-121.60007,38.39076],[-121.53997,38.44804],[-121.46912,38.49502],[-121.4352,38.51571]]}
}
