{
  "id": 2048509891,
  "type": "Feature",
  "properties": {
    "date:inception_lower": "2026-10-04",
    "date:inception_upper": "2026-10-04",
    "edtf:cessation": "",
    "edtf:inception": "2026-10-04",
    "flysfo:actual_timestamp": -1,
    "flysfo:airline": "F9",
    "flysfo:base_airline": "",
    "flysfo:base_flight_number": "2011",
    "flysfo:date": "2026-10-04",
    "flysfo:estimated_timestamp": 1791134700,
    "flysfo:event": "A",
    "flysfo:flight_number": "F91229",
    "flysfo:gate": "B14",
    "flysfo:journey": "DEN-SFO",
    "flysfo:scheduled_timestamp": 1791136680,
    "flysfo:timestamp": 1791136680,
    "geom:area": 0,
    "geom:bbox": "-122.370943,37.617990,-104.672219,39.864939",
    "geom:latitude": 38.7414645,
    "geom:longitude": -113.521581,
    "iata:airline": "F9",
    "iata:base_airline": "",
    "icao:airline": "FFT",
    "icao:base_airline": "VOI",
    "lbl:latitude": 37.61799,
    "lbl:longitude": -122.370943,
    "sfomuseum:airline_id": 1159284401,
    "sfomuseum:arrival_id": 102527513,
    "sfomuseum:base_flight_id": "20261004-A-VOI-2011",
    "sfomuseum:departure_id": 102531189,
    "sfomuseum:flight_id": "20261004-A-FFT-1229",
    "sfomuseum:flight_number": [
      "FFT1229",
      "F91229"
    ],
    "sfomuseum:placetype": "flight",
    "src:geom": "flysfo",
    "wof:belongsto": [
      1947304067,
      102527513,
      1947304261,
      102191575,
      85633793,
      102087579,
      85922583,
      554784711,
      85688637,
      1947304273,
      1947304259,
      102085387
    ],
    "wof:country": "US",
    "wof:created": 1791216345,
    "wof:geomhash": "736fe0d2ebd38878be6950e82908a686",
    "wof:hierarchy": [
      {
        "building_id": 1947304067,
        "campus_id": 102527513,
        "concourse_id": 1947304261,
        "continent_id": 102191575,
        "country_id": 85633793,
        "county_id": 102087579,
        "custom_id": 2048509891,
        "flight_id": 2048509891,
        "locality_id": 85922583,
        "postalcode_id": 554784711,
        "region_id": 85688637,
        "venue_id": 1947304273,
        "wing_id": 1947304259
      },
      {
        "building_id": 1947304067,
        "campus_id": 102527513,
        "concourse_id": 1947304261,
        "continent_id": 102191575,
        "country_id": 85633793,
        "county_id": 102085387,
        "custom_id": 2048509891,
        "flight_id": 2048509891,
        "region_id": 85688637,
        "venue_id": 1947304273,
        "wing_id": 1947304259
      }
    ],
    "wof:id": 2048509891,
    "wof:involves": [
      102527513,
      102531189,
      1159284401,
      1947304273,
      1360700749
    ],
    "wof:lastmodified": 1791216345,
    "wof:name": "F91229 (DEN-SFO)",
    "wof:parent_id": 1947304273,
    "wof:placetype": "custom",
    "wof:placetype_alt": [
      "flight"
    ],
    "wof:repo": "sfomuseum-data-flights-2026-10",
    "wof:superseded_by": [],
    "wof:supersedes": []
  },
  "bbox": [
    -122.370943,
    37.61799,
    -104.672219,
    39.864939
  ],
  "geometry": {"type":"MultiPoint","coordinates":[[-104.672219,39.864939],[-122.370943,37.61799]]}
}
