{
  "id": 2048532889,
  "type": "Feature",
  "properties": {
    "geom:area": 0,
    "geom:bbox": "-122.469460,36.734410,-121.457780,37.715180",
    "geom:latitude": 37.1940186299151,
    "geom:longitude": -121.96314064231404,
    "src:alt_label": "swim-takeoff",
    "src:geom": "swim",
    "swim:elevations": [
      6554,
      6924,
      7219,
      7313,
      7509,
      7990,
      8011,
      8422,
      8500,
      8618,
      8872,
      8980,
      224,
      510,
      983,
      1128,
      1436,
      1736,
      2270,
      2792,
      3022,
      3353,
      3469,
      4136,
      4436
    ],
    "swim:geom": "takeoff",
    "swim:timestamps": [
      1791270020,
      1791270055,
      1791270088,
      1791270098,
      1791270122,
      1791270177,
      1791270180,
      1791270236,
      1791270247,
      1791270261,
      1791270296,
      1791270309,
      1791356025,
      1791356050,
      1791356098,
      1791356118,
      1791356156,
      1791356177,
      1791356213,
      1791356247,
      1791356260,
      1791356303,
      1791356325,
      1791356365,
      1791356386
    ],
    "wof:geomhash": "d92428469ef1d0b6c0a6ec3cf4210756",
    "wof:id": 2048532889,
    "wof:repo": "sfomuseum-data-flights-2026-10"
  },
  "bbox": [
    -122.46946,
    36.73441,
    -121.45778,
    37.71518
  ],
  "geometry": {"type":"LineString","coordinates":[[-122.03846,37.16784],[-121.97541,37.12098],[-121.91238,37.07411],[-121.89357,37.06008],[-121.84689,37.02522],[-121.73612,36.94381],[-121.72997,36.93927],[-121.61539,36.85354],[-121.59013,36.83442],[-121.56251,36.81273],[-121.4857,36.7558],[-121.45778,36.73441],[-122.36892,37.62902],[-122.36653,37.64802],[-122.36118,37.69192],[-122.37355,37.7083],[-122.42625,37.71518],[-122.44901,37.69735],[-122.45708,37.65335],[-122.46182,37.61152],[-122.46361,37.59447],[-122.46946,37.53643],[-122.4677,37.50123],[-122.42171,37.45123],[-122.38964,37.42737]]}
}
