{
  "id": 2048506951,
  "type": "Feature",
  "properties": {
    "geom:area": 0,
    "geom:bbox": "-122.366030,37.628860,-121.246190,38.124330",
    "geom:latitude": 37.89346999282982,
    "geom:longitude": -121.81430964641413,
    "src:alt_label": "swim-takeoff",
    "src:geom": "swim",
    "swim:elevations": [
      91,
      491,
      800,
      861,
      1032,
      1365,
      1671,
      1978,
      2186,
      2336,
      2568,
      3107,
      3154,
      3288,
      3555,
      3742,
      4047,
      4518,
      4659,
      5060,
      5300,
      5361,
      5750,
      6013,
      6229,
      6392,
      6589
    ],
    "swim:geom": "takeoff",
    "swim:timestamps": [
      1791063859,
      1791063891,
      1791063927,
      1791063933,
      1791063966,
      1791064017,
      1791064043,
      1791064066,
      1791064084,
      1791064096,
      1791064118,
      1791064167,
      1791064174,
      1791064198,
      1791064227,
      1791064239,
      1791064263,
      1791064312,
      1791064331,
      1791064376,
      1791064406,
      1791064415,
      1791064462,
      1791064495,
      1791064522,
      1791064544,
      1791064571
    ],
    "wof:geomhash": "3285b8ead0fdce97cb4f871548d0ebb7",
    "wof:id": 2048506951,
    "wof:repo": "sfomuseum-data-flights-2026-10"
  },
  "bbox": [
    -122.36603,
    37.62886,
    -121.24619,
    38.12433
  ],
  "geometry": {"type":"LineString","coordinates":[[-122.36603,37.62886],[-122.34351,37.64675],[-122.313,37.66407],[-122.30782,37.66707],[-122.27643,37.68508],[-122.21626,37.71699],[-122.18044,37.73518],[-122.14953,37.7511],[-122.12538,37.76363],[-122.10913,37.77207],[-122.07946,37.78739],[-122.00975,37.82347],[-121.99896,37.8287],[-121.95927,37.84459],[-121.90741,37.86454],[-121.88607,37.8729],[-121.84417,37.88971],[-121.75679,37.92446],[-121.72212,37.93816],[-121.63801,37.97111],[-121.58089,37.99379],[-121.56346,38.00083],[-121.47043,38.03681],[-121.40418,38.06296],[-121.34899,38.08465],[-121.30253,38.10248],[-121.24619,38.12433]]}
}
