{
  "id": 2048506763,
  "type": "Feature",
  "properties": {
    "geom:area": 0,
    "geom:bbox": "-122.385760,37.630970,-121.244260,38.396250",
    "geom:latitude": 38.07754527679152,
    "geom:longitude": -121.92198600114037,
    "src:alt_label": "swim-takeoff",
    "src:geom": "swim",
    "swim:elevations": [
      152,
      244,
      366,
      567,
      941,
      1130,
      1192,
      1607,
      1736,
      2158,
      2348,
      2931,
      3269,
      3409,
      3831,
      4179,
      4393,
      4509,
      4876,
      5137,
      5437,
      5717,
      5818,
      6143,
      6292,
      6414,
      6580,
      6765,
      6965,
      7004,
      7226,
      7266,
      7547
    ],
    "swim:geom": "takeoff",
    "swim:timestamps": [
      1791069236,
      1791069244,
      1791069255,
      1791069274,
      1791069314,
      1791069343,
      1791069362,
      1791069414,
      1791069423,
      1791069465,
      1791069480,
      1791069535,
      1791069565,
      1791069586,
      1791069627,
      1791069657,
      1791069687,
      1791069699,
      1791069747,
      1791069771,
      1791069806,
      1791069836,
      1791069851,
      1791069893,
      1791069913,
      1791069931,
      1791069952,
      1791069981,
      1791070014,
      1791070023,
      1791070059,
      1791070065,
      1791070102
    ],
    "wof:geomhash": "527064af74a598ce007f140419ed876c",
    "wof:id": 2048506763,
    "wof:repo": "sfomuseum-data-flights-2026-10"
  },
  "bbox": [
    -122.38576,
    37.63097,
    -121.24426,
    38.39625
  ],
  "geometry": {"type":"LineString","coordinates":[[-122.36461,37.63097],[-122.36083,37.63658],[-122.35345,37.64383],[-122.33975,37.65477],[-122.31446,37.68127],[-122.31496,37.70684],[-122.32435,37.72446],[-122.35639,37.78396],[-122.36169,37.79464],[-122.3846,37.84701],[-122.38576,37.8673],[-122.35076,37.93121],[-122.30456,37.95034],[-122.27066,37.96478],[-122.20064,37.99452],[-122.14802,38.01757],[-122.09503,38.03937],[-122.07321,38.04839],[-121.9838,38.08706],[-121.93771,38.10637],[-121.87098,38.13437],[-121.81233,38.15907],[-121.78263,38.1716],[-121.69715,38.20756],[-121.65662,38.22464],[-121.61935,38.24027],[-121.57536,38.25869],[-121.51468,38.28404],[-121.4431,38.31389],[-121.42152,38.32283],[-121.341,38.35616],[-121.32713,38.36192],[-121.24426,38.39625]]}
}
