{
  "id": 2048535197,
  "type": "Feature",
  "properties": {
    "date:inception_lower": "2026-10-07",
    "date:inception_upper": "2026-10-07",
    "edtf:cessation": "",
    "edtf:inception": "2026-10-07",
    "flysfo:actual_timestamp": -1,
    "flysfo:airline": "NZ",
    "flysfo:base_airline": "",
    "flysfo:base_flight_number": "9135",
    "flysfo:date": "2026-10-07",
    "flysfo:estimated_timestamp": 1791440100,
    "flysfo:event": "A",
    "flysfo:flight_number": "NZ9135",
    "flysfo:gate": "D12",
    "flysfo:journey": "EWR-SFO",
    "flysfo:scheduled_timestamp": 1791441120,
    "flysfo:timestamp": 1791441120,
    "geom:area": 0,
    "geom:bbox": "-122.370943,37.617990,-74.177526,40.691243",
    "geom:latitude": 39.1546165,
    "geom:longitude": -98.2742345,
    "iata:airline": "NZ",
    "iata:base_airline": "",
    "icao:airline": "ANZ",
    "icao:base_airline": "ANZ",
    "lbl:latitude": 37.618249,
    "lbl:longitude": -122.381477,
    "sfomuseum:airline_id": 1159283697,
    "sfomuseum:arrival_id": 102527513,
    "sfomuseum:base_flight_id": "20261007-A-ANZ-9135",
    "sfomuseum:departure_id": 102530049,
    "sfomuseum:flight_id": "20261007-A-ANZ-9135",
    "sfomuseum:flight_number": [
      "ANZ9135",
      "NZ9135"
    ],
    "sfomuseum:placetype": "flight",
    "src:geom": "flysfo",
    "wof:belongsto": [
      1947304067,
      102527513,
      1947304595,
      102191575,
      85633793,
      102087579,
      85922583,
      554784711,
      85688637,
      1947304631,
      1947304591,
      102085387
    ],
    "wof:country": "US",
    "wof:created": 1791475382,
    "wof:geomhash": "5afbf99c4360a00cfc0890f48cccf304",
    "wof:hierarchy": [
      {
        "building_id": 1947304067,
        "campus_id": 102527513,
        "concourse_id": 1947304595,
        "continent_id": 102191575,
        "country_id": 85633793,
        "county_id": 102087579,
        "custom_id": 2048535197,
        "flight_id": 2048535197,
        "locality_id": 85922583,
        "postalcode_id": 554784711,
        "region_id": 85688637,
        "venue_id": 1947304631,
        "wing_id": 1947304591
      },
      {
        "building_id": 1947304067,
        "campus_id": 102527513,
        "concourse_id": 1947304595,
        "continent_id": 102191575,
        "country_id": 85633793,
        "county_id": 102085387,
        "custom_id": 2048535197,
        "flight_id": 2048535197,
        "region_id": 85688637,
        "venue_id": 1947304631,
        "wing_id": 1947304591
      }
    ],
    "wof:id": 2048535197,
    "wof:involves": [
      102527513,
      102530049,
      1159283697,
      1947304631,
      1159283697
    ],
    "wof:lastmodified": 1791475382,
    "wof:name": "NZ9135 (EWR-SFO)",
    "wof:parent_id": 1947304631,
    "wof:placetype": "custom",
    "wof:placetype_alt": [
      "flight"
    ],
    "wof:repo": "sfomuseum-data-flights-2026-10",
    "wof:superseded_by": [],
    "wof:supersedes": []
  },
  "bbox": [
    -122.370943,
    37.61799,
    -74.177526,
    40.691243
  ],
  "geometry": {"type":"MultiPoint","coordinates":[[-74.177526,40.691243],[-122.370943,37.61799]]}
}
