{
  "id": 2048551339,
  "type": "Feature",
  "properties": {
    "date:cessation_lower": "1970-01-01",
    "date:cessation_upper": "1970-01-01",
    "date:inception_lower": "2026-10-08",
    "date:inception_upper": "2026-10-08",
    "edtf:cessation": "1970-01-01T00:00:00Z",
    "edtf:inception": "2026-10-08T01:14:19-07:00",
    "flysfo:actual_timestamp": -1,
    "flysfo:airline": "UA",
    "flysfo:date": "2026-10-08",
    "flysfo:estimated_timestamp": 1791469260,
    "flysfo:event": "D",
    "flysfo:flight_number": "UA3903",
    "flysfo:gate": "",
    "flysfo:journey": "SFO-IAD",
    "flysfo:scheduled_timestamp": 1791468000,
    "flysfo:timestamp": 1791469260,
    "geom:area": 0,
    "geom:bbox": "-122.370943,37.617990,-77.453702,38.949246",
    "geom:latitude": 38.283618000000004,
    "geom:longitude": -99.9123225,
    "iata:airline": "UA",
    "icao:aircraft": "B789",
    "icao:airline": "UAL",
    "lbl:latitude": 37.61799,
    "lbl:longitude": -122.370943,
    "sfomuseum:aircraft_id": 1159293215,
    "sfomuseum:airline_id": 1159285413,
    "sfomuseum:arrival_id": 102528817,
    "sfomuseum:departure_id": 102527513,
    "sfomuseum:flight_id": "20261008-D-UAL-3903",
    "sfomuseum:flight_number": [
      "UAL3903",
      "UA3903"
    ],
    "sfomuseum:placetype": "flight",
    "src:geom": "flysfo",
    "src:geom_alt": [
      "swim-takeoff"
    ],
    "swim:tail_number": "N61103",
    "wof:belongsto": [],
    "wof:country": "US",
    "wof:created": 1791562669,
    "wof:geomhash": "1c4ce661f6692034a082b31062a17f5e",
    "wof:hierarchy": [
      {
        "custom_id": 2048551339,
        "flight_id": 2048551339
      }
    ],
    "wof:id": 2048551339,
    "wof:involves": [
      1159293215,
      102528817,
      102527513,
      1159285413
    ],
    "wof:lastmodified": 1791562839,
    "wof:name": "UA3903 (SFO-IAD)",
    "wof:parent_id": -1,
    "wof:placetype": "custom",
    "wof:placetype_alt": [
      "flight"
    ],
    "wof:repo": "sfomuseum-data-flights-2026-10",
    "wof:superseded_by": [],
    "wof:supersedes": []
  },
  "bbox": [
    -122.370943,
    37.61799,
    -77.453702,
    38.949246
  ],
  "geometry": {"type":"MultiPoint","coordinates":[[-122.370943,37.61799],[-77.453702,38.949246]]}
}
