{
  "id": 2048525473,
  "type": "Feature",
  "properties": {
    "date:cessation_lower": "1970-01-01",
    "date:cessation_upper": "1970-01-01",
    "date:inception_lower": "2026-10-05",
    "date:inception_upper": "2026-10-05",
    "edtf:cessation": "1970-01-01T00:00:00Z",
    "edtf:inception": "2026-10-05T06:21:23-07:00",
    "flysfo:actual_timestamp": -1,
    "flysfo:airline": "UA",
    "flysfo:base_airline": "",
    "flysfo:base_flight_number": "7489",
    "flysfo:date": "2026-10-05",
    "flysfo:estimated_timestamp": 1791229620,
    "flysfo:event": "D",
    "flysfo:flight_number": "UA755",
    "flysfo:gate": "F17",
    "flysfo:journey": "SFO-IAD",
    "flysfo:scheduled_timestamp": 1791229500,
    "flysfo:timestamp": 1791229620,
    "geom:area": 0,
    "geom:bbox": "-122.370943,37.617990,-77.453702,38.949246",
    "geom:latitude": 38.283618000000004,
    "geom:longitude": -99.9123225,
    "iata:airline": "UA",
    "iata:base_airline": "",
    "icao:aircraft": "B753",
    "icao:airline": "UAL",
    "icao:base_airline": "DLH",
    "lbl:latitude": 37.620791,
    "lbl:longitude": -122.390014,
    "sfomuseum:aircraft_id": 1159289945,
    "sfomuseum:airline_id": 1159285413,
    "sfomuseum:arrival_id": 102528817,
    "sfomuseum:base_flight_id": "20261005-D-DLH-7489",
    "sfomuseum:departure_id": 102527513,
    "sfomuseum:flight_id": "20261005-D-UAL-755",
    "sfomuseum:flight_number": [
      "UAL755",
      "UA755"
    ],
    "sfomuseum:placetype": "flight",
    "src:geom": "flysfo",
    "src:geom_alt": [
      "swim-takeoff"
    ],
    "swim:tail_number": "N74856",
    "wof:belongsto": [
      1947304067,
      102527513,
      1947304451,
      102191575,
      85633793,
      102087579,
      85922583,
      554784711,
      85688637,
      1947304473,
      1947304447,
      102085387
    ],
    "wof:country": "US",
    "wof:created": 1791303457,
    "wof:geomhash": "1c4ce661f6692034a082b31062a17f5e",
    "wof:hierarchy": [
      {
        "building_id": 1947304067,
        "campus_id": 102527513,
        "concourse_id": 1947304451,
        "continent_id": 102191575,
        "country_id": 85633793,
        "county_id": 102087579,
        "custom_id": 2048525473,
        "flight_id": 2048525473,
        "locality_id": 85922583,
        "postalcode_id": 554784711,
        "region_id": 85688637,
        "venue_id": 1947304473,
        "wing_id": 1947304447
      },
      {
        "building_id": 1947304067,
        "campus_id": 102527513,
        "concourse_id": 1947304451,
        "continent_id": 102191575,
        "country_id": 85633793,
        "county_id": 102085387,
        "custom_id": 2048525473,
        "flight_id": 2048525473,
        "region_id": 85688637,
        "venue_id": 1947304473,
        "wing_id": 1947304447
      }
    ],
    "wof:id": 2048525473,
    "wof:involves": [
      1159285413,
      1947304473,
      1159286015,
      1159289945,
      102528817,
      102527513
    ],
    "wof:lastmodified": 1791303584,
    "wof:name": "UA755 (SFO-IAD)",
    "wof:parent_id": 1947304473,
    "wof:placetype": "custom",
    "wof:placetype_alt": [
      "flight"
    ],
    "wof:repo": "sfomuseum-data-flights-2026-10",
    "wof:superseded_by": [],
    "wof:supersedes": []
  },
  "bbox": [
    -122.370943,
    37.61799,
    -77.453702,
    38.949246
  ],
  "geometry": {"type":"MultiPoint","coordinates":[[-122.370943,37.61799],[-77.453702,38.949246]]}
}
