{
  "id": 2048522867,
  "type": "Feature",
  "properties": {
    "geom:area": 0,
    "geom:bbox": "-122.541860,36.719090,-121.482010,37.709610",
    "geom:latitude": 37.240475302289454,
    "geom:longitude": -122.112084109259,
    "src:alt_label": "swim-takeoff",
    "src:geom": "swim",
    "swim:elevations": [
      152,
      454,
      671,
      718,
      1031,
      1313,
      1459,
      1796,
      2422,
      2597,
      3047,
      3178,
      3339,
      3602,
      3928,
      4294,
      4805,
      5370,
      5848,
      6059,
      6358,
      6855,
      7016,
      7443,
      7609,
      7885,
      8079,
      8565,
      8845,
      8876,
      9111,
      9233,
      9301,
      9561
    ],
    "swim:geom": "takeoff",
    "swim:timestamps": [
      1791231624,
      1791231652,
      1791231686,
      1791231697,
      1791231743,
      1791231773,
      1791231788,
      1791231818,
      1791231866,
      1791231879,
      1791231915,
      1791231939,
      1791231952,
      1791231974,
      1791231998,
      1791232022,
      1791232061,
      1791232103,
      1791232138,
      1791232156,
      1791232182,
      1791232227,
      1791232241,
      1791232287,
      1791232305,
      1791232334,
      1791232351,
      1791232405,
      1791232438,
      1791232443,
      1791232475,
      1791232495,
      1791232501,
      1791232543
    ],
    "wof:geomhash": "e88ac6ea22f13727519c8076326c0eaa",
    "wof:id": 2048522867,
    "wof:repo": "sfomuseum-data-flights-2026-10"
  },
  "bbox": [
    -122.54186,
    36.71909,
    -121.48201,
    37.70961
  ],
  "geometry": {"type":"LineString","coordinates":[[-122.36636,37.63214],[-122.35872,37.6517],[-122.36328,37.67798],[-122.37077,37.68527],[-122.41975,37.70961],[-122.46244,37.70543],[-122.48323,37.69661],[-122.52629,37.67696],[-122.54186,37.61663],[-122.5397,37.59993],[-122.53334,37.55177],[-122.52861,37.51738],[-122.52406,37.49931],[-122.49857,37.47356],[-122.46201,37.44948],[-122.42514,37.42346],[-122.36445,37.38017],[-122.29797,37.33248],[-122.23986,37.29102],[-122.21034,37.26997],[-122.16558,37.23775],[-122.08618,37.18055],[-122.06113,37.1625],[-121.97548,37.10087],[-121.94151,37.07629],[-121.88772,37.03707],[-121.85411,37.01297],[-121.74734,36.93674],[-121.68308,36.88846],[-121.67372,36.88054],[-121.61242,36.82946],[-121.57449,36.79789],[-121.56285,36.78808],[-121.48201,36.71909]]}
}
