{
  "id": 2048482637,
  "type": "Feature",
  "properties": {
    "geom:area": 0,
    "geom:bbox": "-122.834830,37.398090,-122.138590,38.454690",
    "geom:latitude": 37.80516600270129,
    "geom:longitude": -122.49594852080449,
    "src:alt_label": "swim-approach",
    "src:geom": "swim",
    "swim:elevations": [
      7620,
      7468,
      6930,
      6867,
      6333,
      6103,
      5757,
      5639,
      5146,
      4837,
      4659,
      4467,
      4209,
      3706,
      3596,
      3386,
      3353,
      3353,
      3353,
      3353,
      3286,
      3156,
      3098,
      2885,
      2590,
      2262,
      2199,
      1947,
      1765,
      1566,
      1450,
      1372,
      1340,
      1120,
      1013,
      701,
      541,
      440,
      283,
      244,
      122,
      29
    ],
    "swim:geom": "approach",
    "swim:timestamps": [
      1790867720,
      1790867734,
      1790867788,
      1790867793,
      1790867846,
      1790867870,
      1790867904,
      1790867916,
      1790867965,
      1790867997,
      1790868016,
      1790868035,
      1790868063,
      1790868117,
      1790868129,
      1790868169,
      1790868201,
      1790868232,
      1790868260,
      1790868294,
      1790868324,
      1790868352,
      1790868361,
      1790868392,
      1790868433,
      1790868478,
      1790868484,
      1790868519,
      1790868548,
      1790868577,
      1790868612,
      1790868628,
      1790868636,
      1790868673,
      1790868693,
      1790868745,
      1790868774,
      1790868792,
      1790868833,
      1790868845,
      1790868876,
      1790868903
    ],
    "wof:geomhash": "58ba6963771c3d2317cfb4e42d5e7ede",
    "wof:id": 2048482637,
    "wof:repo": "sfomuseum-data-flights-2026-10"
  },
  "bbox": [
    -122.83483,
    37.39809,
    -122.13859,
    38.45469
  ],
  "geometry": {"type":"LineString","coordinates":[[-122.83483,38.45469],[-122.82772,38.43022],[-122.79951,38.33387],[-122.7967,38.32414],[-122.76963,38.23162],[-122.75767,38.19054],[-122.74093,38.13258],[-122.73505,38.1126],[-122.71108,38.03031],[-122.69616,37.97847],[-122.68749,37.94872],[-122.67828,37.91855],[-122.65136,37.87896],[-122.58297,37.81424],[-122.56807,37.80027],[-122.5189,37.75371],[-122.48227,37.71916],[-122.44741,37.68656],[-122.41594,37.65701],[-122.3788,37.62182],[-122.35354,37.59232],[-122.33863,37.56067],[-122.33432,37.55212],[-122.31482,37.52037],[-122.28957,37.47888],[-122.26198,37.4338],[-122.25855,37.42805],[-122.22894,37.39809],[-122.19044,37.40008],[-122.1617,37.42267],[-122.13859,37.45303],[-122.13985,37.46855],[-122.14344,37.47521],[-122.16789,37.50482],[-122.18184,37.51936],[-122.22153,37.55412],[-122.24991,37.5662],[-122.26749,37.57358],[-122.30174,37.58789],[-122.31116,37.59176],[-122.33511,37.60194],[-122.35588,37.6106]]}
}
