{
  "id": 2048483263,
  "type": "Feature",
  "properties": {
    "geom:area": 0,
    "geom:bbox": "-122.360590,37.491860,-121.244430,37.615280",
    "geom:latitude": 37.54336326549798,
    "geom:longitude": -121.80969060812482,
    "src:alt_label": "swim-approach",
    "src:geom": "swim",
    "swim:elevations": [
      4598,
      4239,
      3898,
      3683,
      3384,
      3278,
      3108,
      3077,
      2780,
      2656,
      2534,
      2259,
      2130,
      2001,
      1904,
      1814,
      1658,
      1418,
      1267,
      1195,
      1070,
      862,
      795,
      606,
      513,
      364,
      208,
      125,
      131
    ],
    "swim:geom": "approach",
    "swim:timestamps": [
      1790848995,
      1790849033,
      1790849067,
      1790849090,
      1790849125,
      1790849149,
      1790849188,
      1790849204,
      1790849248,
      1790849265,
      1790849290,
      1790849336,
      1790849365,
      1790849391,
      1790849411,
      1790849445,
      1790849470,
      1790849511,
      1790849540,
      1790849568,
      1790849592,
      1790849633,
      1790849644,
      1790849684,
      1790849702,
      1790849736,
      1790849774,
      1790849791,
      1790849821
    ],
    "wof:geomhash": "5acf96aff0d2f50dba910569aa23c864",
    "wof:id": 2048483263,
    "wof:repo": "sfomuseum-data-flights-2026-10"
  },
  "bbox": [
    -122.36059,
    37.49186,
    -121.24443,
    37.61528
  ],
  "geometry": {"type":"LineString","coordinates":[[-121.24443,37.59519],[-121.32306,37.5855],[-121.39339,37.57769],[-121.44114,37.57237],[-121.51126,37.56461],[-121.55581,37.55947],[-121.62365,37.5507],[-121.64855,37.54481],[-121.7151,37.52862],[-121.74088,37.52301],[-121.77515,37.51498],[-121.83884,37.49942],[-121.87787,37.49186],[-121.91518,37.49311],[-121.94169,37.49467],[-121.98518,37.49738],[-122.01459,37.49844],[-122.06349,37.50146],[-122.09701,37.50521],[-122.12598,37.51611],[-122.15075,37.52657],[-122.19416,37.5449],[-122.20521,37.54966],[-122.24562,37.56658],[-122.26255,37.57374],[-122.29204,37.58622],[-122.32298,37.5992],[-122.33686,37.60503],[-122.36059,37.61528]]}
}
