{
  "id": 2048493577,
  "type": "Feature",
  "properties": {
    "date:inception_lower": "2026-10-02",
    "date:inception_upper": "2026-10-02",
    "edtf:cessation": "",
    "edtf:inception": "2026-10-02",
    "flysfo:actual_timestamp": -1,
    "flysfo:airline": "EK",
    "flysfo:base_airline": "",
    "flysfo:base_flight_number": "2879",
    "flysfo:date": "2026-10-02",
    "flysfo:estimated_timestamp": 1790968980,
    "flysfo:event": "A",
    "flysfo:flight_number": "EK5823",
    "flysfo:gate": "D11",
    "flysfo:journey": "YEG-SFO",
    "flysfo:scheduled_timestamp": 1790968020,
    "flysfo:timestamp": 1790968980,
    "geom:area": 0,
    "geom:bbox": "-122.370943,37.617990,-113.584752,53.308108",
    "geom:latitude": 45.463049,
    "geom:longitude": -117.9778475,
    "iata:airline": "EK",
    "iata:base_airline": "",
    "icao:airline": "UAE",
    "icao:base_airline": "AVA",
    "lbl:latitude": 37.618139,
    "lbl:longitude": -122.381258,
    "sfomuseum:airline_id": 1159284333,
    "sfomuseum:arrival_id": 102527513,
    "sfomuseum:base_flight_id": "20261002-A-AVA-2879",
    "sfomuseum:departure_id": 102554473,
    "sfomuseum:flight_id": "20261002-A-UAE-5823",
    "sfomuseum:flight_number": [
      "UAE5823",
      "EK5823"
    ],
    "sfomuseum:placetype": "flight",
    "src:geom": "flysfo",
    "wof:belongsto": [
      1947304067,
      102527513,
      1947304595,
      102191575,
      85633793,
      102087579,
      85922583,
      554784711,
      85688637,
      1947304627,
      1947304591,
      102085387
    ],
    "wof:country": "US",
    "wof:created": 1791043632,
    "wof:geomhash": "5251ebd94a7bdc5872b19729ff2a2674",
    "wof:hierarchy": [
      {
        "building_id": 1947304067,
        "campus_id": 102527513,
        "concourse_id": 1947304595,
        "continent_id": 102191575,
        "country_id": 85633793,
        "county_id": 102087579,
        "custom_id": 2048493577,
        "flight_id": 2048493577,
        "locality_id": 85922583,
        "postalcode_id": 554784711,
        "region_id": 85688637,
        "venue_id": 1947304627,
        "wing_id": 1947304591
      },
      {
        "building_id": 1947304067,
        "campus_id": 102527513,
        "concourse_id": 1947304595,
        "continent_id": 102191575,
        "country_id": 85633793,
        "county_id": 102085387,
        "custom_id": 2048493577,
        "flight_id": 2048493577,
        "region_id": 85688637,
        "venue_id": 1947304627,
        "wing_id": 1947304591
      }
    ],
    "wof:id": 2048493577,
    "wof:involves": [
      102527513,
      102554473,
      1159284333,
      1947304627,
      1159285749
    ],
    "wof:lastmodified": 1791043632,
    "wof:name": "EK5823 (YEG-SFO)",
    "wof:parent_id": 1947304627,
    "wof:placetype": "custom",
    "wof:placetype_alt": [
      "flight"
    ],
    "wof:repo": "sfomuseum-data-flights-2026-10",
    "wof:superseded_by": [],
    "wof:supersedes": []
  },
  "bbox": [
    -122.370943,
    37.61799,
    -113.584752,
    53.308108
  ],
  "geometry": {"type":"MultiPoint","coordinates":[[-113.584752,53.308108],[-122.370943,37.61799]]}
}
