{
  "id": 2048540005,
  "type": "Feature",
  "properties": {
    "geom:area": 0,
    "geom:bbox": "-123.493030,37.599550,-122.396970,37.669120",
    "geom:latitude": 37.61815685085293,
    "geom:longitude": -122.93926870596442,
    "src:alt_label": "swim-takeoff",
    "src:geom": "swim",
    "swim:elevations": [
      213,
      360,
      677,
      873,
      1075,
      1219,
      1463,
      1597,
      2048,
      2516,
      2805,
      2964,
      3200,
      3317,
      3368,
      3528,
      3968,
      4337,
      4696,
      5010,
      5366,
      5689,
      6009,
      6320
    ],
    "swim:geom": "takeoff",
    "swim:timestamps": [
      1791358587,
      1791358605,
      1791358646,
      1791358675,
      1791358700,
      1791358711,
      1791358736,
      1791358747,
      1791358784,
      1791358827,
      1791358856,
      1791358872,
      1791358906,
      1791358927,
      1791358937,
      1791358952,
      1791358995,
      1791359027,
      1791359058,
      1791359089,
      1791359121,
      1791359147,
      1791359178,
      1791359210
    ],
    "wof:geomhash": "27545f85a7217b214476a8a62d12587f",
    "wof:id": 2048540005,
    "wof:repo": "sfomuseum-data-flights-2026-10"
  },
  "bbox": [
    -123.49303,
    37.59955,
    -122.39697,
    37.66912
  ],
  "geometry": {"type":"LineString","coordinates":[[-122.39697,37.63011],[-122.41418,37.63733],[-122.4569,37.65559],[-122.4894,37.66883],[-122.52564,37.66912],[-122.54106,37.66506],[-122.5767,37.65587],[-122.59296,37.65178],[-122.64684,37.63781],[-122.71186,37.62083],[-122.7581,37.60883],[-122.7831,37.6024],[-122.84317,37.59955],[-122.8848,37.60066],[-122.90456,37.60111],[-122.93513,37.6015],[-123.02217,37.60278],[-123.08971,37.604],[-123.15591,37.60454],[-123.22484,37.60548],[-123.29423,37.60656],[-123.35248,37.60753],[-123.42036,37.60867],[-123.49303,37.60983]]}
}
