{
  "id": 2048483589,
  "type": "Feature",
  "properties": {
    "geom:area": 0,
    "geom:bbox": "-122.364610,37.470160,-121.243830,37.616960",
    "geom:latitude": 37.53467203410941,
    "geom:longitude": -121.7922412549323,
    "src:alt_label": "swim-approach",
    "src:geom": "swim",
    "swim:elevations": [
      4540,
      4253,
      4084,
      4014,
      3991,
      3875,
      3838,
      3645,
      3476,
      3384,
      3186,
      3025,
      2987,
      2714,
      2542,
      2438,
      2438,
      2406,
      2214,
      2057,
      1975,
      1728,
      1613,
      1353,
      1233,
      1033,
      952,
      732,
      718,
      459,
      365,
      146,
      89,
      73
    ],
    "swim:geom": "approach",
    "swim:timestamps": [
      1790859575,
      1790859622,
      1790859656,
      1790859688,
      1790859697,
      1790859747,
      1790859759,
      1790859802,
      1790859835,
      1790859861,
      1790859897,
      1790859928,
      1790859933,
      1790859976,
      1790860008,
      1790860048,
      1790860065,
      1790860085,
      1790860131,
      1790860164,
      1790860180,
      1790860224,
      1790860240,
      1790860287,
      1790860307,
      1790860342,
      1790860368,
      1790860408,
      1790860414,
      1790860454,
      1790860474,
      1790860527,
      1790860536,
      1790860568
    ],
    "wof:geomhash": "1bb54e363dc0799349f9caefdef3809c",
    "wof:id": 2048483589,
    "wof:repo": "sfomuseum-data-flights-2026-10"
  },
  "bbox": [
    -122.36461,
    37.47016,
    -121.24383,
    37.61696
  ],
  "geometry": {"type":"LineString","coordinates":[[-121.24383,37.55057],[-121.30029,37.48871],[-121.36245,37.47016],[-121.41921,37.48646],[-121.4341,37.49228],[-121.51158,37.52254],[-121.52886,37.52922],[-121.58899,37.55195],[-121.63409,37.56921],[-121.66825,37.58274],[-121.7173,37.60179],[-121.76026,37.61653],[-121.76741,37.61696],[-121.80814,37.58648],[-121.7985,37.55253],[-121.78383,37.51118],[-121.78726,37.49248],[-121.80452,37.47535],[-121.86617,37.47624],[-121.91218,37.48333],[-121.93538,37.48658],[-121.99477,37.49636],[-122.01532,37.50358],[-122.07652,37.52351],[-122.1021,37.53181],[-122.14602,37.54601],[-122.17742,37.55619],[-122.2232,37.57102],[-122.23016,37.57331],[-122.27289,37.58663],[-122.29272,37.59227],[-122.33588,37.60471],[-122.34252,37.60741],[-122.36461,37.61615]]}
}
