{
  "id": 2048551001,
  "type": "Feature",
  "properties": {
    "geom:area": 0,
    "geom:bbox": "-122.385980,37.628330,-121.428810,38.518880",
    "geom:latitude": 38.12259553423649,
    "geom:longitude": -122.01162964583781,
    "src:alt_label": "swim-takeoff",
    "src:geom": "swim",
    "swim:elevations": [
      122,
      336,
      836,
      1062,
      1142,
      1201,
      1494,
      1597,
      1629,
      1933,
      2293,
      2607,
      2819,
      3188,
      3255,
      3373,
      3751,
      4183,
      4555,
      4617,
      4945,
      5260,
      5399,
      5634,
      5817,
      5911,
      6051,
      6319,
      6410,
      6759,
      6850,
      7042,
      7193
    ],
    "swim:geom": "takeoff",
    "swim:timestamps": [
      1791503751,
      1791503771,
      1791503816,
      1791503848,
      1791503875,
      1791503892,
      1791503937,
      1791503946,
      1791503949,
      1791503971,
      1791504001,
      1791504028,
      1791504049,
      1791504088,
      1791504112,
      1791504130,
      1791504172,
      1791504208,
      1791504238,
      1791504244,
      1791504291,
      1791504327,
      1791504342,
      1791504366,
      1791504392,
      1791504411,
      1791504434,
      1791504474,
      1791504483,
      1791504529,
      1791504544,
      1791504572,
      1791504596
    ],
    "wof:geomhash": "0c529218f5f99af687dea9ef44d31c31",
    "wof:id": 2048551001,
    "wof:repo": "sfomuseum-data-flights-2026-10"
  },
  "bbox": [
    -122.38598,
    37.62833,
    -121.42881,
    38.51888
  ],
  "geometry": {"type":"LineString","coordinates":[[-122.36644,37.62833],[-122.35392,37.64234],[-122.3227,37.66941],[-122.3131,37.6941],[-122.32141,37.71797],[-122.33016,37.734],[-122.35693,37.78588],[-122.36233,37.79676],[-122.36415,37.80042],[-122.37787,37.82758],[-122.38598,37.86605],[-122.38459,37.9019],[-122.38111,37.92931],[-122.33761,37.96849],[-122.30272,37.99012],[-122.27472,38.00689],[-122.20529,38.04891],[-122.14633,38.08614],[-122.09661,38.11622],[-122.08669,38.12218],[-122.00669,38.17014],[-121.94271,38.20887],[-121.91622,38.22487],[-121.8723,38.2514],[-121.82449,38.28011],[-121.79049,38.30066],[-121.74634,38.32719],[-121.66821,38.37394],[-121.65072,38.38448],[-121.56102,38.43808],[-121.53134,38.45583],[-121.47767,38.48876],[-121.42881,38.51888]]}
}
