{
  "id": 2048520975,
  "type": "Feature",
  "properties": {
    "geom:area": 0,
    "geom:bbox": "-122.360660,37.492210,-121.274210,37.614700",
    "geom:latitude": 37.545771692356475,
    "geom:longitude": -121.82226874743641,
    "src:alt_label": "swim-approach",
    "src:geom": "swim",
    "swim:elevations": [
      4546,
      4209,
      4087,
      3780,
      3606,
      3366,
      3282,
      2948,
      2686,
      2460,
      2438,
      2253,
      2206,
      1924,
      1829,
      1829,
      1374,
      1328,
      1209,
      1004,
      876,
      775,
      567,
      455,
      334,
      200,
      42,
      0
    ],
    "swim:geom": "approach",
    "swim:timestamps": [
      1791188659,
      1791188698,
      1791188711,
      1791188746,
      1791188769,
      1791188803,
      1791188828,
      1791188872,
      1791188904,
      1791188936,
      1791188961,
      1791188996,
      1791189003,
      1791189048,
      1791189084,
      1791189091,
      1791189143,
      1791189151,
      1791189167,
      1791189198,
      1791189226,
      1791189245,
      1791189284,
      1791189309,
      1791189339,
      1791189375,
      1791189416,
      1791189426
    ],
    "wof:geomhash": "ba2fc6e0aed4de338402a3c1bc073328",
    "wof:id": 2048520975,
    "wof:repo": "sfomuseum-data-flights-2026-10"
  },
  "bbox": [
    -122.36066,
    37.49221,
    -121.27421,
    37.6147
  ],
  "geometry": {"type":"LineString","coordinates":[[-121.27421,37.59094],[-121.35465,37.5818],[-121.38144,37.57885],[-121.45219,37.57064],[-121.49536,37.56573],[-121.55461,37.55882],[-121.59531,37.55398],[-121.66317,37.5413],[-121.71044,37.53004],[-121.75767,37.51877],[-121.79339,37.51007],[-121.84444,37.49804],[-121.85583,37.49534],[-121.92521,37.49221],[-121.98302,37.49452],[-121.99539,37.49748],[-122.07365,37.52252],[-122.08455,37.52605],[-122.10691,37.53327],[-122.14923,37.54694],[-122.18583,37.55877],[-122.2076,37.56578],[-122.2486,37.57895],[-122.27203,37.58631],[-122.29674,37.59352],[-122.32441,37.60156],[-122.3542,37.61228],[-122.36066,37.6147]]}
}
