{
  "id": 2048546593,
  "type": "Feature",
  "properties": {
    "geom:area": 0,
    "geom:bbox": "-122.341420,36.722730,-121.878840,37.604570",
    "geom:latitude": 37.236651987441924,
    "geom:longitude": -122.07785555436898,
    "src:alt_label": "swim-approach",
    "src:geom": "swim",
    "swim:elevations": [
      5744,
      5336,
      5211,
      4638,
      4378,
      4059,
      3628,
      3283,
      3107,
      2974,
      2868,
      2850,
      2734,
      2616,
      2515,
      2371,
      2178,
      2076,
      1937,
      1808,
      1507,
      1321,
      1276,
      1218,
      1187,
      1083,
      1067,
      909,
      823,
      676,
      491,
      450,
      275,
      151,
      94
    ],
    "swim:geom": "approach",
    "swim:timestamps": [
      1791468349,
      1791468382,
      1791468393,
      1791468444,
      1791468468,
      1791468497,
      1791468535,
      1791468566,
      1791468591,
      1791468624,
      1791468655,
      1791468663,
      1791468697,
      1791468733,
      1791468767,
      1791468792,
      1791468823,
      1791468842,
      1791468862,
      1791468889,
      1791468927,
      1791468953,
      1791468966,
      1791469003,
      1791469045,
      1791469077,
      1791469081,
      1791469119,
      1791469144,
      1791469181,
      1791469225,
      1791469235,
      1791469279,
      1791469315,
      1791469333
    ],
    "wof:geomhash": "9807194e46e434b5b0a4a7766a8d0537",
    "wof:id": 2048546593,
    "wof:repo": "sfomuseum-data-flights-2026-10"
  },
  "bbox": [
    -122.34142,
    36.72273,
    -121.87884,
    37.60457
  ],
  "geometry": {"type":"LineString","coordinates":[[-121.87884,36.72273],[-121.90405,36.77734],[-121.90961,36.797],[-121.93443,36.88559],[-121.94569,36.92606],[-121.9617,36.97385],[-121.98532,37.03476],[-122.00479,37.08455],[-122.01999,37.12345],[-122.03919,37.17277],[-122.05618,37.2154],[-122.06206,37.2245],[-122.10475,37.25212],[-122.15076,37.27692],[-122.19196,37.29975],[-122.2054,37.32469],[-122.18363,37.35313],[-122.16225,37.36639],[-122.14107,37.37929],[-122.11278,37.39883],[-122.09343,37.43591],[-122.08045,37.46143],[-122.07395,37.47366],[-122.06224,37.50518],[-122.09708,37.51628],[-122.12857,37.51614],[-122.13312,37.51753],[-122.16644,37.53076],[-122.18777,37.53999],[-122.22018,37.55368],[-122.25835,37.56973],[-122.26708,37.57339],[-122.30258,37.58829],[-122.32878,37.59937],[-122.34142,37.60457]]}
}
