{
  "id": 2048530947,
  "type": "Feature",
  "properties": {
    "date:inception_lower": "2026-10-06",
    "date:inception_upper": "2026-10-06",
    "edtf:cessation": "",
    "edtf:inception": "2026-10-06",
    "flysfo:actual_timestamp": -1,
    "flysfo:airline": "NZ",
    "flysfo:base_airline": "",
    "flysfo:base_flight_number": "2889",
    "flysfo:date": "2026-10-06",
    "flysfo:estimated_timestamp": 1791308580,
    "flysfo:event": "D",
    "flysfo:flight_number": "NZ2889",
    "flysfo:gate": "E5",
    "flysfo:journey": "SFO-DTW",
    "flysfo:scheduled_timestamp": 1791308700,
    "flysfo:timestamp": 1791308700,
    "geom:area": 0,
    "geom:bbox": "-122.370943,37.617990,-83.351709,42.218860",
    "geom:latitude": 39.918425,
    "geom:longitude": -102.86132599999999,
    "iata:airline": "NZ",
    "iata:base_airline": "",
    "icao:airline": "ANZ",
    "icao:base_airline": "ANZ",
    "lbl:latitude": 37.618486,
    "lbl:longitude": -122.384457,
    "sfomuseum:airline_id": 1159283697,
    "sfomuseum:arrival_id": 102525635,
    "sfomuseum:base_flight_id": "20261006-D-ANZ-2889",
    "sfomuseum:departure_id": 102527513,
    "sfomuseum:flight_id": "20261006-D-ANZ-2889",
    "sfomuseum:flight_number": [
      "ANZ2889",
      "NZ2889"
    ],
    "sfomuseum:placetype": "flight",
    "src:geom": "flysfo",
    "wof:belongsto": [
      1947304067,
      102527513,
      1947304511,
      102191575,
      85633793,
      102087579,
      85922583,
      554784711,
      85688637,
      1947304525,
      1947304447,
      102085387
    ],
    "wof:country": "US",
    "wof:created": 1791389429,
    "wof:geomhash": "9151bfe07cf224e1ff61a7f7b8c30671",
    "wof:hierarchy": [
      {
        "building_id": 1947304067,
        "campus_id": 102527513,
        "concourse_id": 1947304511,
        "continent_id": 102191575,
        "country_id": 85633793,
        "county_id": 102087579,
        "custom_id": 2048530947,
        "flight_id": 2048530947,
        "locality_id": 85922583,
        "postalcode_id": 554784711,
        "region_id": 85688637,
        "venue_id": 1947304525,
        "wing_id": 1947304447
      },
      {
        "building_id": 1947304067,
        "campus_id": 102527513,
        "concourse_id": 1947304511,
        "continent_id": 102191575,
        "country_id": 85633793,
        "county_id": 102085387,
        "custom_id": 2048530947,
        "flight_id": 2048530947,
        "region_id": 85688637,
        "venue_id": 1947304525,
        "wing_id": 1947304447
      }
    ],
    "wof:id": 2048530947,
    "wof:involves": [
      102525635,
      102527513,
      1159283697,
      1947304525,
      1159283697
    ],
    "wof:lastmodified": 1791389429,
    "wof:name": "NZ2889 (SFO-DTW)",
    "wof:parent_id": 1947304525,
    "wof:placetype": "custom",
    "wof:placetype_alt": [
      "flight"
    ],
    "wof:repo": "sfomuseum-data-flights-2026-10",
    "wof:superseded_by": [],
    "wof:supersedes": []
  },
  "bbox": [
    -122.370943,
    37.61799,
    -83.351709,
    42.21886
  ],
  "geometry": {"type":"MultiPoint","coordinates":[[-122.370943,37.61799],[-83.351709,42.21886]]}
}
