{
  "id": 2048533373,
  "type": "Feature",
  "properties": {
    "date:inception_lower": "2026-10-06",
    "date:inception_upper": "2026-10-06",
    "edtf:cessation": "",
    "edtf:inception": "2026-10-06",
    "flysfo:actual_timestamp": -1,
    "flysfo:airline": "UA",
    "flysfo:base_airline": "",
    "flysfo:base_flight_number": "6378",
    "flysfo:date": "2026-10-06",
    "flysfo:estimated_timestamp": 1791328920,
    "flysfo:event": "D",
    "flysfo:flight_number": "UA2418",
    "flysfo:gate": "D10",
    "flysfo:journey": "SFO-RDM",
    "flysfo:scheduled_timestamp": 1791329400,
    "flysfo:timestamp": 1791329400,
    "geom:area": 0,
    "geom:bbox": "-122.370943,37.617990,-121.157137,44.259811",
    "geom:latitude": 40.9389005,
    "geom:longitude": -121.76404,
    "iata:airline": "UA",
    "iata:base_airline": "",
    "icao:airline": "UAL",
    "icao:base_airline": "UAE",
    "lbl:latitude": 37.617908,
    "lbl:longitude": -122.381084,
    "sfomuseum:airline_id": 1159285413,
    "sfomuseum:arrival_id": 102530507,
    "sfomuseum:base_flight_id": "20261006-D-UAE-6378",
    "sfomuseum:departure_id": 102527513,
    "sfomuseum:flight_id": "20261006-D-UAL-2418",
    "sfomuseum:flight_number": [
      "UAL2418",
      "UA2418"
    ],
    "sfomuseum:placetype": "flight",
    "src:geom": "flysfo",
    "wof:belongsto": [
      1947304067,
      102527513,
      1947304595,
      102191575,
      85633793,
      102087579,
      85922583,
      554784711,
      85688637,
      1947304603,
      1947304591,
      102085387
    ],
    "wof:country": "US",
    "wof:created": 1791389707,
    "wof:geomhash": "398b6cf59cf3bdf390f5834c7a336099",
    "wof:hierarchy": [
      {
        "building_id": 1947304067,
        "campus_id": 102527513,
        "concourse_id": 1947304595,
        "continent_id": 102191575,
        "country_id": 85633793,
        "county_id": 102087579,
        "custom_id": 2048533373,
        "flight_id": 2048533373,
        "locality_id": 85922583,
        "postalcode_id": 554784711,
        "region_id": 85688637,
        "venue_id": 1947304603,
        "wing_id": 1947304591
      },
      {
        "building_id": 1947304067,
        "campus_id": 102527513,
        "concourse_id": 1947304595,
        "continent_id": 102191575,
        "country_id": 85633793,
        "county_id": 102085387,
        "custom_id": 2048533373,
        "flight_id": 2048533373,
        "region_id": 85688637,
        "venue_id": 1947304603,
        "wing_id": 1947304591
      }
    ],
    "wof:id": 2048533373,
    "wof:involves": [
      102530507,
      102527513,
      1159285413,
      1947304603,
      1159284333
    ],
    "wof:lastmodified": 1791389707,
    "wof:name": "UA2418 (SFO-RDM)",
    "wof:parent_id": 1947304603,
    "wof:placetype": "custom",
    "wof:placetype_alt": [
      "flight"
    ],
    "wof:repo": "sfomuseum-data-flights-2026-10",
    "wof:superseded_by": [],
    "wof:supersedes": []
  },
  "bbox": [
    -122.370943,
    37.61799,
    -121.157137,
    44.259811
  ],
  "geometry": {"type":"MultiPoint","coordinates":[[-122.370943,37.61799],[-121.157137,44.259811]]}
}
