{
  "id": 2048527843,
  "type": "Feature",
  "properties": {
    "date:cessation_lower": "2026-10-06",
    "date:cessation_upper": "2026-10-06",
    "date:inception_lower": "1970-01-01",
    "date:inception_upper": "1970-01-01",
    "edtf:cessation": "2026-10-06T16:19:31-07:00",
    "edtf:inception": "1970-01-01T00:00:00Z",
    "flysfo:actual_timestamp": -1,
    "flysfo:airline": "CM",
    "flysfo:base_airline": "",
    "flysfo:base_flight_number": "7116",
    "flysfo:date": "2026-10-06",
    "flysfo:estimated_timestamp": 1791353940,
    "flysfo:event": "A",
    "flysfo:flight_number": "CM382",
    "flysfo:gate": "A8",
    "flysfo:journey": "PTY-SFO",
    "flysfo:scheduled_timestamp": 1791355200,
    "flysfo:timestamp": 1791355200,
    "geom:area": 0,
    "geom:bbox": "-122.370943,9.071360,-79.383499,37.617990",
    "geom:latitude": 23.344675,
    "geom:longitude": -100.87722099999999,
    "iata:airline": "CM",
    "iata:base_airline": "",
    "icao:aircraft": "B39M",
    "icao:airline": "CMP",
    "icao:base_airline": "UAL",
    "lbl:latitude": 37.612048,
    "lbl:longitude": -122.389573,
    "sfomuseum:aircraft_id": 1528104577,
    "sfomuseum:airline_id": 1159284211,
    "sfomuseum:arrival_id": 102527513,
    "sfomuseum:base_flight_id": "20261006-A-UAL-7116",
    "sfomuseum:departure_id": 102547051,
    "sfomuseum:flight_id": "20261006-A-CMP-382",
    "sfomuseum:flight_number": [
      "CMP382",
      "CM382"
    ],
    "sfomuseum:placetype": "flight",
    "src:geom": "flysfo",
    "src:geom_alt": [
      "swim-approach"
    ],
    "swim:tail_number": "HP9901CM",
    "wof:belongsto": [
      1947304067,
      102527513,
      1947304073,
      102191575,
      85633793,
      102087579,
      85922583,
      554784711,
      85688637,
      1947304097,
      1947304069,
      102085387
    ],
    "wof:country": "US",
    "wof:created": 1791389072,
    "wof:geomhash": "a24fa29091ad40e8c2dcacd18340610c",
    "wof:hierarchy": [
      {
        "building_id": 1947304067,
        "campus_id": 102527513,
        "concourse_id": 1947304073,
        "continent_id": 102191575,
        "country_id": 85633793,
        "county_id": 102087579,
        "custom_id": 2048527843,
        "flight_id": 2048527843,
        "locality_id": 85922583,
        "postalcode_id": 554784711,
        "region_id": 85688637,
        "venue_id": 1947304097,
        "wing_id": 1947304069
      },
      {
        "building_id": 1947304067,
        "campus_id": 102527513,
        "concourse_id": 1947304073,
        "continent_id": 102191575,
        "country_id": 85633793,
        "county_id": 102085387,
        "custom_id": 2048527843,
        "flight_id": 2048527843,
        "region_id": 85688637,
        "venue_id": 1947304097,
        "wing_id": 1947304069
      }
    ],
    "wof:id": 2048527843,
    "wof:involves": [
      1159285413,
      1528104577,
      102527513,
      102547051,
      1159284211,
      1947304097
    ],
    "wof:lastmodified": 1791389818,
    "wof:name": "CM382 (PTY-SFO)",
    "wof:parent_id": 1947304097,
    "wof:placetype": "custom",
    "wof:placetype_alt": [
      "flight"
    ],
    "wof:repo": "sfomuseum-data-flights-2026-10",
    "wof:superseded_by": [],
    "wof:supersedes": []
  },
  "bbox": [
    -122.370943,
    9.07136,
    -79.383499,
    37.61799
  ],
  "geometry": {"type":"MultiPoint","coordinates":[[-79.383499,9.07136],[-122.370943,37.61799]]}
}
