{
  "id": 2048532495,
  "type": "Feature",
  "properties": {
    "date:inception_lower": "2026-10-06",
    "date:inception_upper": "2026-10-06",
    "edtf:cessation": "",
    "edtf:inception": "2026-10-06",
    "flysfo:actual_timestamp": -1,
    "flysfo:airline": "LA",
    "flysfo:base_airline": "",
    "flysfo:base_flight_number": "7498",
    "flysfo:date": "2026-10-06",
    "flysfo:estimated_timestamp": 1791319800,
    "flysfo:event": "D",
    "flysfo:flight_number": "LA6393",
    "flysfo:gate": "C9",
    "flysfo:journey": "SFO-JFK",
    "flysfo:scheduled_timestamp": 1791319800,
    "flysfo:timestamp": 1791319800,
    "geom:area": 0,
    "geom:bbox": "-122.370943,37.617990,-73.787845,40.643286",
    "geom:latitude": 39.130638000000005,
    "geom:longitude": -98.07939400000001,
    "iata:airline": "LA",
    "iata:base_airline": "",
    "icao:airline": "LAN",
    "icao:base_airline": "KAL",
    "lbl:latitude": 37.61799,
    "lbl:longitude": -122.370943,
    "sfomuseum:airline_id": 1159285641,
    "sfomuseum:arrival_id": 102534365,
    "sfomuseum:base_flight_id": "20261006-D-KAL-7498",
    "sfomuseum:departure_id": 102527513,
    "sfomuseum:flight_id": "20261006-D-LAN-6393",
    "sfomuseum:flight_number": [
      "LAN6393",
      "LA6393"
    ],
    "sfomuseum:placetype": "flight",
    "src:geom": "flysfo",
    "wof:belongsto": [
      1763588121,
      102527513,
      1763588233,
      102191575,
      85633793,
      102087579,
      85922583,
      554784711,
      85688637,
      1763588251,
      1763588123,
      102085387
    ],
    "wof:country": "US",
    "wof:created": 1791389608,
    "wof:geomhash": "1348792a172720778d3219cc18ccd8ee",
    "wof:hierarchy": [
      {
        "building_id": 1763588121,
        "campus_id": 102527513,
        "concourse_id": 1763588233,
        "continent_id": 102191575,
        "country_id": 85633793,
        "county_id": 102087579,
        "custom_id": 2048532495,
        "flight_id": 2048532495,
        "locality_id": 85922583,
        "postalcode_id": 554784711,
        "region_id": 85688637,
        "venue_id": 1763588251,
        "wing_id": 1763588123
      },
      {
        "building_id": 1763588121,
        "campus_id": 102527513,
        "concourse_id": 1763588233,
        "continent_id": 102191575,
        "country_id": 85633793,
        "county_id": 102085387,
        "custom_id": 2048532495,
        "flight_id": 2048532495,
        "region_id": 85688637,
        "venue_id": 1763588251,
        "wing_id": 1763588123
      }
    ],
    "wof:id": 2048532495,
    "wof:involves": [
      102534365,
      102527513,
      1159285641,
      1763588251,
      1159284625
    ],
    "wof:lastmodified": 1791389608,
    "wof:name": "LA6393 (SFO-JFK)",
    "wof:parent_id": 1763588251,
    "wof:placetype": "custom",
    "wof:placetype_alt": [
      "flight"
    ],
    "wof:repo": "sfomuseum-data-flights-2026-10",
    "wof:superseded_by": [],
    "wof:supersedes": []
  },
  "bbox": [
    -122.370943,
    37.61799,
    -73.787845,
    40.643286
  ],
  "geometry": {"type":"MultiPoint","coordinates":[[-122.370943,37.61799],[-73.787845,40.643286]]}
}
