{
  "id": 2048511669,
  "type": "Feature",
  "properties": {
    "geom:area": 0,
    "geom:bbox": "-123.492980,37.262780,-122.145330,37.611340",
    "geom:latitude": 37.384222074552646,
    "geom:longitude": -122.72411756667914,
    "src:alt_label": "swim-approach",
    "src:geom": "swim",
    "swim:elevations": [
      5547,
      5182,
      4927,
      4802,
      4587,
      4437,
      4084,
      3953,
      3759,
      3536,
      3176,
      3045,
      3048,
      2984,
      2791,
      2617,
      2469,
      2347,
      2169,
      2138,
      2057,
      1925,
      1904,
      1867,
      1829,
      1829,
      1829,
      1829,
      1829,
      1829,
      1829,
      1795,
      1551,
      1462,
      1405,
      1370,
      1090,
      820,
      761,
      642,
      603,
      520,
      460,
      229,
      149,
      27
    ],
    "swim:geom": "approach",
    "swim:timestamps": [
      1791100879,
      1791100917,
      1791100945,
      1791100958,
      1791100982,
      1791100998,
      1791101037,
      1791101052,
      1791101075,
      1791101100,
      1791101157,
      1791101181,
      1791101212,
      1791101243,
      1791101278,
      1791101309,
      1791101334,
      1791101358,
      1791101393,
      1791101396,
      1791101411,
      1791101435,
      1791101438,
      1791101447,
      1791101480,
      1791101492,
      1791101496,
      1791101520,
      1791101556,
      1791101569,
      1791101603,
      1791101612,
      1791101667,
      1791101684,
      1791101692,
      1791101705,
      1791101749,
      1791101787,
      1791101811,
      1791101842,
      1791101852,
      1791101871,
      1791101881,
      1791101938,
      1791101956,
      1791101990
    ],
    "wof:geomhash": "1fd2249a202e1c30ff33594dfd8f851d",
    "wof:id": 2048511669,
    "wof:repo": "sfomuseum-data-flights-2026-10"
  },
  "bbox": [
    -123.49298,
    37.26278,
    -122.14533,
    37.61134
  ],
  "geometry": {"type":"LineString","coordinates":[[-123.49298,37.45366],[-123.41727,37.43041],[-123.36149,37.41314],[-123.33674,37.40548],[-123.28942,37.39067],[-123.25896,37.38127],[-123.18313,37.35776],[-123.15593,37.34935],[-123.11423,37.33638],[-123.06707,37.32164],[-122.96564,37.28983],[-122.92314,37.27644],[-122.87253,37.26278],[-122.82211,37.26738],[-122.7676,37.27983],[-122.71898,37.29139],[-122.67897,37.30083],[-122.6418,37.30948],[-122.58915,37.32165],[-122.58465,37.32268],[-122.56225,37.32784],[-122.52706,37.33596],[-122.5226,37.33697],[-122.50931,37.34003],[-122.46034,37.35132],[-122.44332,37.35527],[-122.43674,37.35675],[-122.40119,37.36493],[-122.34727,37.3773],[-122.32901,37.38151],[-122.27736,37.39359],[-122.26553,37.39822],[-122.2022,37.44001],[-122.18485,37.45181],[-122.17672,37.45741],[-122.16522,37.46533],[-122.14533,37.50036],[-122.16739,37.5307],[-122.19214,37.54165],[-122.22397,37.55517],[-122.23373,37.55933],[-122.25343,37.56762],[-122.26338,37.5718],[-122.31538,37.59372],[-122.33033,37.59992],[-122.35703,37.61134]]}
}
