{
  "id": 2048556329,
  "type": "Feature",
  "properties": {
    "date:cessation_lower": "2026-10-09",
    "date:cessation_upper": "2026-10-09",
    "date:inception_lower": "1970-01-01",
    "date:inception_upper": "1970-01-01",
    "edtf:cessation": "2026-10-09T12:06:32-07:00",
    "edtf:inception": "1970-01-01T00:00:00Z",
    "flysfo:actual_timestamp": -1,
    "flysfo:airline": "UA",
    "flysfo:base_airline": "",
    "flysfo:base_flight_number": "3716",
    "flysfo:date": "2026-10-09",
    "flysfo:estimated_timestamp": 1791598320,
    "flysfo:event": "A",
    "flysfo:flight_number": "UA939",
    "flysfo:gate": "",
    "flysfo:journey": "LHR-SFO",
    "flysfo:scheduled_timestamp": 1791598500,
    "flysfo:timestamp": 1791598500,
    "geom:area": 0,
    "geom:bbox": "-122.370943,37.617990,-0.450443,51.470087",
    "geom:latitude": 44.5440385,
    "geom:longitude": -61.410693,
    "iata:airline": "UA",
    "iata:base_airline": "",
    "icao:aircraft": "B789",
    "icao:airline": "UAL",
    "icao:base_airline": "ACA",
    "lbl:latitude": 37.61799,
    "lbl:longitude": -122.370943,
    "sfomuseum:aircraft_id": 1159293215,
    "sfomuseum:airline_id": 1159285413,
    "sfomuseum:arrival_id": 102527513,
    "sfomuseum:base_flight_id": "20261009-A-ACA-3716",
    "sfomuseum:departure_id": 102556703,
    "sfomuseum:flight_id": "20261009-A-UAL-939",
    "sfomuseum:flight_number": [
      "UAL939",
      "UA939"
    ],
    "sfomuseum:placetype": "flight",
    "src:geom": "flysfo",
    "src:geom_alt": [
      "swim-approach"
    ],
    "swim:tail_number": "N81107",
    "wof:belongsto": [],
    "wof:country": "US",
    "wof:created": 1791648536,
    "wof:geomhash": "c7bf5337358552a3a60caed0c1e9ea63",
    "wof:hierarchy": [
      {
        "custom_id": 2048556329,
        "flight_id": 2048556329
      }
    ],
    "wof:id": 2048556329,
    "wof:involves": [
      102527513,
      102556703,
      1159285413,
      1159283597,
      1159293215
    ],
    "wof:lastmodified": 1791649142,
    "wof:name": "UA939 (LHR-SFO)",
    "wof:parent_id": -1,
    "wof:placetype": "custom",
    "wof:placetype_alt": [
      "flight"
    ],
    "wof:repo": "sfomuseum-data-flights-2026-10",
    "wof:superseded_by": [],
    "wof:supersedes": []
  },
  "bbox": [
    -122.370943,
    37.61799,
    -0.450443,
    51.470087
  ],
  "geometry": {"type":"MultiPoint","coordinates":[[-0.450443,51.470087],[-122.370943,37.61799]]}
}
