{
  "id": 2048489407,
  "type": "Feature",
  "properties": {
    "geom:area": 0,
    "geom:bbox": "-122.363920,37.632360,-122.072490,38.485010",
    "geom:latitude": 38.02745484659047,
    "geom:longitude": -122.17526370456301,
    "src:alt_label": "swim-takeoff",
    "src:geom": "swim",
    "swim:elevations": [
      183,
      706,
      971,
      1193,
      1375,
      1873,
      2305,
      2601,
      2945,
      3223,
      3337,
      3935,
      4155,
      4401,
      4947,
      4998,
      5256,
      5398,
      5615,
      6162,
      6383,
      6608,
      6824
    ],
    "swim:geom": "takeoff",
    "swim:timestamps": [
      1790844942,
      1790844987,
      1790845011,
      1790845048,
      1790845072,
      1790845106,
      1790845136,
      1790845158,
      1790845186,
      1790845212,
      1790845231,
      1790845287,
      1790845307,
      1790845328,
      1790845378,
      1790845382,
      1790845404,
      1790845418,
      1790845440,
      1790845498,
      1790845522,
      1790845545,
      1790845572
    ],
    "wof:geomhash": "3dd41eb6f7fd6b42ab97861408099186",
    "wof:id": 2048489407,
    "wof:repo": "sfomuseum-data-flights-2026-10"
  },
  "bbox": [
    -122.36392,
    37.63236,
    -122.07249,
    38.48501
  ],
  "geometry": {"type":"LineString","coordinates":[[-122.36392,37.63236],[-122.32847,37.6548],[-122.30809,37.66628],[-122.27128,37.68787],[-122.24159,37.70356],[-122.21057,37.73823],[-122.20489,37.77762],[-122.20011,37.80653],[-122.19359,37.8454],[-122.18795,37.88139],[-122.18338,37.91015],[-122.1689,38.00044],[-122.16426,38.03167],[-122.15884,38.06691],[-122.14425,38.15003],[-122.14308,38.1567],[-122.13684,38.19302],[-122.13287,38.21694],[-122.1271,38.25259],[-122.10807,38.354],[-122.09642,38.39709],[-122.08528,38.43814],[-122.07249,38.48501]]}
}
