{
  "id": 2048544467,
  "type": "Feature",
  "properties": {
    "geom:area": 0,
    "geom:bbox": "-123.495050,37.260680,-122.112480,37.612790",
    "geom:latitude": 37.36017932346116,
    "geom:longitude": -122.6952558224204,
    "src:alt_label": "swim-approach",
    "src:geom": "swim",
    "swim:elevations": [
      6226,
      6192,
      5993,
      5712,
      5364,
      5215,
      4867,
      4778,
      4439,
      3866,
      3682,
      3234,
      3061,
      3048,
      3048,
      3048,
      3048,
      2955,
      2919,
      2803,
      2747,
      2439,
      2438,
      2438,
      2406,
      2372,
      2236,
      1936,
      1856,
      1609,
      1454,
      1315,
      1156,
      908,
      791,
      634,
      572,
      432,
      332,
      291,
      233,
      120,
      40,
      8,
      0
    ],
    "swim:geom": "approach",
    "swim:timestamps": [
      1791501598,
      1791501601,
      1791501619,
      1791501642,
      1791501672,
      1791501687,
      1791501717,
      1791501726,
      1791501757,
      1791501807,
      1791501822,
      1791501859,
      1791501876,
      1791501900,
      1791501950,
      1791501985,
      1791501991,
      1791502018,
      1791502045,
      1791502071,
      1791502081,
      1791502123,
      1791502166,
      1791502173,
      1791502211,
      1791502226,
      1791502250,
      1791502288,
      1791502297,
      1791502344,
      1791502365,
      1791502389,
      1791502413,
      1791502466,
      1791502489,
      1791502527,
      1791502544,
      1791502577,
      1791502605,
      1791502617,
      1791502635,
      1791502662,
      1791502686,
      1791502692,
      1791502695
    ],
    "wof:geomhash": "8507c921a4d73aa7985ad6bbd66ca60f",
    "wof:id": 2048544467,
    "wof:repo": "sfomuseum-data-flights-2026-10"
  },
  "bbox": [
    -123.49505,
    37.26068,
    -122.11248,
    37.61279
  ],
  "geometry": {"type":"LineString","coordinates":[[-123.49505,37.31246],[-123.48761,37.31182],[-123.44335,37.30809],[-123.38681,37.30313],[-123.31546,37.29705],[-123.28222,37.29415],[-123.21286,37.28827],[-123.19244,37.28653],[-123.12301,37.28059],[-123.01279,37.27112],[-122.98087,37.26824],[-122.90327,37.26111],[-122.86771,37.26068],[-122.81964,37.26808],[-122.72274,37.29029],[-122.65459,37.30619],[-122.64287,37.30891],[-122.59151,37.32103],[-122.54374,37.33217],[-122.50105,37.3421],[-122.48554,37.34555],[-122.41833,37.36071],[-122.35044,37.37671],[-122.33919,37.37939],[-122.28283,37.39215],[-122.26183,37.39699],[-122.22948,37.40433],[-122.18231,37.41866],[-122.17312,37.42416],[-122.12656,37.45175],[-122.11248,37.46653],[-122.1189,37.48677],[-122.1349,37.50366],[-122.17528,37.53469],[-122.1964,37.54373],[-122.22962,37.55762],[-122.2445,37.56385],[-122.27006,37.57463],[-122.29139,37.58359],[-122.30048,37.58739],[-122.31439,37.59323],[-122.33637,37.60252],[-122.35442,37.61002],[-122.35852,37.61175],[-122.36063,37.61279]]}
}
