{
  "id": 2048490357,
  "type": "Feature",
  "properties": {
    "geom:area": 0,
    "geom:bbox": "-122.357750,37.491320,-121.247820,37.613750",
    "geom:latitude": 37.54683062912005,
    "geom:longitude": -121.80766987141601,
    "src:alt_label": "swim-approach",
    "src:geom": "swim",
    "swim:elevations": [
      4783,
      4554,
      4211,
      4044,
      3657,
      3364,
      3262,
      3041,
      3014,
      2740,
      2497,
      2349,
      2195,
      2072,
      1876,
      1827,
      1579,
      1280,
      1141,
      913,
      914,
      763,
      516,
      444,
      350,
      301,
      183,
      6
    ],
    "swim:geom": "approach",
    "swim:timestamps": [
      1790977888,
      1790977911,
      1790977947,
      1790977962,
      1790978001,
      1790978033,
      1790978060,
      1790978098,
      1790978102,
      1790978134,
      1790978180,
      1790978211,
      1790978243,
      1790978258,
      1790978287,
      1790978305,
      1790978334,
      1790978367,
      1790978389,
      1790978425,
      1790978446,
      1790978473,
      1790978511,
      1790978545,
      1790978575,
      1790978590,
      1790978623,
      1790978668
    ],
    "wof:geomhash": "947beec549f3fd61470da5dfd35ef2a2",
    "wof:id": 2048490357,
    "wof:repo": "sfomuseum-data-flights-2026-10"
  },
  "bbox": [
    -122.35775,
    37.49132,
    -121.24782,
    37.61375
  ],
  "geometry": {"type":"LineString","coordinates":[[-121.24782,37.59492],[-121.29517,37.58864],[-121.36734,37.58072],[-121.3969,37.57737],[-121.4753,37.56819],[-121.53998,37.56078],[-121.59156,37.55495],[-121.65676,37.54312],[-121.66308,37.54152],[-121.71693,37.52878],[-121.79196,37.51069],[-121.84229,37.49867],[-121.89073,37.49132],[-121.91314,37.49207],[-121.95813,37.49318],[-121.98511,37.4949],[-122.02458,37.50678],[-122.07012,37.52157],[-122.09947,37.53108],[-122.14425,37.54546],[-122.16982,37.55372],[-122.20208,37.56414],[-122.24284,37.57737],[-122.27066,37.58609],[-122.29265,37.59243],[-122.30371,37.59565],[-122.32751,37.60259],[-122.35775,37.61375]]}
}
