{
  "id": 2048526181,
  "type": "Feature",
  "properties": {
    "geom:area": 0,
    "geom:bbox": "-122.346520,37.491010,-121.255090,37.609110",
    "geom:latitude": 37.545475207514855,
    "geom:longitude": -121.80548508606152,
    "src:alt_label": "swim-approach",
    "src:geom": "swim",
    "swim:elevations": [
      4467,
      4435,
      3956,
      3645,
      3394,
      3230,
      3074,
      3058,
      2757,
      2654,
      2538,
      2435,
      2164,
      2009,
      1818,
      1685,
      1437,
      1359,
      1218,
      960,
      884,
      734,
      548,
      547,
      360,
      268,
      154,
      68
    ],
    "swim:geom": "approach",
    "swim:timestamps": [
      1791296967,
      1791296971,
      1791297022,
      1791297057,
      1791297086,
      1791297107,
      1791297147,
      1791297151,
      1791297202,
      1791297221,
      1791297241,
      1791297272,
      1791297328,
      1791297354,
      1791297388,
      1791297408,
      1791297448,
      1791297463,
      1791297487,
      1791297527,
      1791297562,
      1791297593,
      1791297625,
      1791297633,
      1791297681,
      1791297699,
      1791297726,
      1791297752
    ],
    "wof:geomhash": "8fdba51492f89d576104bf3e79af099d",
    "wof:id": 2048526181,
    "wof:repo": "sfomuseum-data-flights-2026-10"
  },
  "bbox": [
    -122.34652,
    37.49101,
    -121.25509,
    37.60911
  ],
  "geometry": {"type":"LineString","coordinates":[[-121.25509,37.59337],[-121.26321,37.59227],[-121.36642,37.58038],[-121.43634,37.57234],[-121.49146,37.5661],[-121.53371,37.56106],[-121.60567,37.55252],[-121.61263,37.55174],[-121.69681,37.53298],[-121.72831,37.52546],[-121.75874,37.51836],[-121.80443,37.50741],[-121.88757,37.49101],[-121.92377,37.49204],[-121.96851,37.49312],[-121.99499,37.49721],[-122.04356,37.51255],[-122.06166,37.51838],[-122.09118,37.52794],[-122.13871,37.54346],[-122.1751,37.55507],[-122.20676,37.56533],[-122.23787,37.57551],[-122.24624,37.57819],[-122.29071,37.59098],[-122.30565,37.59509],[-122.32687,37.60192],[-122.34652,37.60911]]}
}
