{
  "id": 2048546677,
  "type": "Feature",
  "properties": {
    "geom:area": 0,
    "geom:bbox": "-122.358140,37.491720,-121.242550,37.613930",
    "geom:latitude": 37.54708295527051,
    "geom:longitude": -121.80525644442092,
    "src:alt_label": "swim-approach",
    "src:geom": "swim",
    "swim:elevations": [
      5212,
      4962,
      4613,
      4111,
      3954,
      3737,
      3653,
      3391,
      3256,
      3136,
      2903,
      2752,
      2680,
      2529,
      2433,
      2397,
      2133,
      2005,
      1947,
      1773,
      1698,
      1321,
      1138,
      1019,
      914,
      804,
      549,
      488,
      352,
      271,
      212,
      120,
      17,
      0
    ],
    "swim:geom": "approach",
    "swim:timestamps": [
      1791488692,
      1791488716,
      1791488743,
      1791488783,
      1791488809,
      1791488844,
      1791488857,
      1791488889,
      1791488904,
      1791488924,
      1791488964,
      1791488991,
      1791489002,
      1791489045,
      1791489066,
      1791489070,
      1791489114,
      1791489147,
      1791489163,
      1791489201,
      1791489210,
      1791489252,
      1791489282,
      1791489309,
      1791489346,
      1791489373,
      1791489412,
      1791489448,
      1791489479,
      1791489503,
      1791489525,
      1791489546,
      1791489571,
      1791489574
    ],
    "wof:geomhash": "b80e2a071ba403539f97d49ac7aeb8d0",
    "wof:id": 2048546677,
    "wof:repo": "sfomuseum-data-flights-2026-10"
  },
  "bbox": [
    -122.35814,
    37.49172,
    -121.24255,
    37.61393
  ],
  "geometry": {"type":"LineString","coordinates":[[-121.24255,37.59556],[-121.27997,37.5905],[-121.32181,37.58585],[-121.38834,37.57826],[-121.43316,37.5732],[-121.48865,37.56665],[-121.50749,37.5645],[-121.55649,37.5587],[-121.57855,37.5561],[-121.60856,37.55264],[-121.66754,37.5405],[-121.70547,37.53146],[-121.72157,37.52755],[-121.7803,37.51359],[-121.80932,37.5066],[-121.81595,37.50497],[-121.87556,37.49172],[-121.92227,37.49228],[-121.9452,37.49286],[-121.99646,37.49774],[-122.00759,37.50126],[-122.06271,37.51918],[-122.10085,37.53142],[-122.1307,37.54111],[-122.16919,37.55359],[-122.19662,37.56239],[-122.23633,37.5753],[-122.26937,37.58547],[-122.29216,37.59209],[-122.30868,37.59688],[-122.32395,37.60177],[-122.33912,37.60631],[-122.35621,37.61308],[-122.35814,37.61393]]}
}
