{
  "id": 2048481267,
  "type": "Feature",
  "properties": {
    "geom:area": 0,
    "geom:bbox": "-122.353910,37.491620,-121.273270,37.612140",
    "geom:latitude": 37.54544802920445,
    "geom:longitude": -121.81833458330478,
    "src:alt_label": "swim-approach",
    "src:geom": "swim",
    "swim:elevations": [
      4590,
      4523,
      3951,
      3839,
      3665,
      3350,
      3313,
      3218,
      3112,
      2832,
      2723,
      2463,
      2281,
      2176,
      2119,
      1979,
      1873,
      1857,
      1521,
      1458,
      1412,
      1218,
      1128,
      994,
      867,
      808,
      548,
      445,
      272,
      151,
      42
    ],
    "swim:geom": "approach",
    "swim:timestamps": [
      1790889834,
      1790889840,
      1790889897,
      1790889909,
      1790889931,
      1790889983,
      1790889996,
      1790890018,
      1790890033,
      1790890073,
      1790890086,
      1790890130,
      1790890161,
      1790890175,
      1790890188,
      1790890225,
      1790890250,
      1790890264,
      1790890313,
      1790890323,
      1790890330,
      1790890360,
      1790890380,
      1790890400,
      1790890432,
      1790890441,
      1790890493,
      1790890514,
      1790890556,
      1790890587,
      1790890611
    ],
    "wof:geomhash": "0b0cfaa3a17294d046fd261d359ab109",
    "wof:id": 2048481267,
    "wof:repo": "sfomuseum-data-flights-2026-10"
  },
  "bbox": [
    -122.35391,
    37.49162,
    -121.27327,
    37.61214
  ],
  "geometry": {"type":"LineString","coordinates":[[-121.27327,37.59133],[-121.28588,37.58966],[-121.40442,37.57659],[-121.42906,37.57383],[-121.47372,37.56867],[-121.57084,37.55706],[-121.59246,37.55445],[-121.62829,37.54974],[-121.65145,37.54437],[-121.71203,37.52981],[-121.73216,37.52505],[-121.79833,37.50942],[-121.84269,37.49873],[-121.86295,37.49396],[-121.88169,37.49162],[-121.93682,37.49242],[-121.97098,37.49343],[-121.99021,37.49604],[-122.05351,37.51574],[-122.06551,37.51964],[-122.07458,37.52257],[-122.11299,37.5351],[-122.13665,37.54298],[-122.15971,37.55045],[-122.19415,37.56161],[-122.20379,37.56468],[-122.2549,37.58099],[-122.27347,37.58655],[-122.31054,37.59754],[-122.33585,37.60504],[-122.35391,37.61214]]}
}
