{
  "id": 2048551151,
  "type": "Feature",
  "properties": {
    "geom:area": 0,
    "geom:bbox": "-122.438820,37.359860,-121.243730,37.705640",
    "geom:latitude": 37.49835043876131,
    "geom:longitude": -121.92244651525071,
    "src:alt_label": "swim-takeoff",
    "src:geom": "swim",
    "swim:elevations": [
      213,
      686,
      809,
      1017,
      1130,
      1332,
      1523,
      1973,
      2544,
      2868,
      3152,
      3420,
      3587,
      4281,
      4569,
      5010,
      5081,
      5463,
      5888,
      6183,
      6361,
      6767,
      6950,
      7210,
      7269,
      7380,
      7697,
      7983
    ],
    "swim:geom": "takeoff",
    "swim:timestamps": [
      1791522350,
      1791522385,
      1791522396,
      1791522421,
      1791522439,
      1791522478,
      1791522499,
      1791522529,
      1791522565,
      1791522586,
      1791522607,
      1791522644,
      1791522662,
      1791522713,
      1791522734,
      1791522776,
      1791522782,
      1791522824,
      1791522866,
      1791522895,
      1791522913,
      1791522957,
      1791522978,
      1791523008,
      1791523017,
      1791523029,
      1791523068,
      1791523104
    ],
    "wof:geomhash": "64ac46c80c38053da82b37dfc503850c",
    "wof:id": 2048551151,
    "wof:repo": "sfomuseum-data-flights-2026-10"
  },
  "bbox": [
    -122.43882,
    37.35986,
    -121.24373,
    37.70564
  ],
  "geometry": {"type":"LineString","coordinates":[[-122.3655,37.63319],[-122.36131,37.65961],[-122.36176,37.66781],[-122.36278,37.68644],[-122.37122,37.69978],[-122.41807,37.70564],[-122.43826,37.68487],[-122.43882,37.64631],[-122.39871,37.61296],[-122.37115,37.59711],[-122.34055,37.58349],[-122.27783,37.56723],[-122.2442,37.55833],[-122.14553,37.53204],[-122.10449,37.52104],[-122.02053,37.49847],[-122.00818,37.49511],[-121.91972,37.47121],[-121.82723,37.44696],[-121.75989,37.43672],[-121.71729,37.43057],[-121.61138,37.41505],[-121.56013,37.40746],[-121.48594,37.39642],[-121.4634,37.39308],[-121.43337,37.38861],[-121.33648,37.37401],[-121.24373,37.35986]]}
}
