{
  "id": 2048484755,
  "type": "Feature",
  "properties": {
    "geom:area": 0,
    "geom:bbox": "-122.352080,37.491310,-121.258790,37.611340",
    "geom:latitude": 37.54595417828125,
    "geom:longitude": -121.81019019764817,
    "src:alt_label": "swim-approach",
    "src:geom": "swim",
    "swim:elevations": [
      4556,
      4127,
      3825,
      3736,
      3353,
      3153,
      3101,
      2879,
      2627,
      2528,
      2322,
      2206,
      2082,
      1920,
      1831,
      1552,
      1456,
      1340,
      1058,
      907,
      763,
      528,
      487,
      327,
      148,
      69
    ],
    "swim:geom": "approach",
    "swim:timestamps": [
      1790879892,
      1790879936,
      1790879967,
      1790879978,
      1790880018,
      1790880048,
      1790880072,
      1790880116,
      1790880144,
      1790880162,
      1790880208,
      1790880226,
      1790880253,
      1790880296,
      1790880315,
      1790880358,
      1790880376,
      1790880394,
      1790880442,
      1790880466,
      1790880492,
      1790880536,
      1790880546,
      1790880578,
      1790880625,
      1790880645
    ],
    "wof:geomhash": "33ee0a54028df42107912893a081b656",
    "wof:id": 2048484755,
    "wof:repo": "sfomuseum-data-flights-2026-10"
  },
  "bbox": [
    -122.35208,
    37.49131,
    -121.25879,
    37.61134
  ],
  "geometry": {"type":"LineString","coordinates":[[-121.25879,37.59323],[-121.35033,37.58247],[-121.41386,37.57549],[-121.43591,37.573],[-121.51522,37.56373],[-121.57385,37.55682],[-121.61895,37.55081],[-121.69246,37.53457],[-121.73843,37.52363],[-121.76835,37.51649],[-121.83752,37.49989],[-121.86136,37.49417],[-121.8986,37.49131],[-121.95993,37.49292],[-121.98624,37.49519],[-122.04249,37.51246],[-122.06627,37.52016],[-122.08944,37.52771],[-122.14989,37.54731],[-122.18048,37.55717],[-122.21218,37.56749],[-122.25987,37.58273],[-122.26966,37.58577],[-122.30059,37.59472],[-122.33845,37.60559],[-122.35208,37.61134]]}
}
