{
  "id": 2048487089,
  "type": "Feature",
  "properties": {
    "geom:area": 0,
    "geom:bbox": "-122.360570,37.636510,-121.269260,38.410970",
    "geom:latitude": 38.0222325444545,
    "geom:longitude": -121.81441463800718,
    "src:alt_label": "swim-takeoff",
    "src:geom": "swim",
    "swim:elevations": [
      242,
      331,
      489,
      548,
      976,
      1146,
      1325,
      1748,
      2218,
      2552,
      2755,
      2924,
      3196,
      3361,
      3686,
      3896,
      3960,
      4336,
      4694,
      4881,
      5131,
      5277,
      5541,
      5811,
      6085,
      6161,
      6453,
      6539
    ],
    "swim:geom": "takeoff",
    "swim:timestamps": [
      1790840935,
      1790840943,
      1790840964,
      1790840976,
      1790841027,
      1790841047,
      1790841069,
      1790841105,
      1790841147,
      1790841177,
      1790841196,
      1790841216,
      1790841249,
      1790841285,
      1790841328,
      1790841352,
      1790841360,
      1790841399,
      1790841448,
      1790841472,
      1790841503,
      1790841520,
      1790841552,
      1790841585,
      1790841627,
      1790841641,
      1790841687,
      1790841700
    ],
    "wof:geomhash": "667b1c44bed5dd010f73dc3526823897",
    "wof:id": 2048487089,
    "wof:repo": "sfomuseum-data-flights-2026-10"
  },
  "bbox": [
    -122.36057,
    37.63651,
    -121.26926,
    38.41097
  ],
  "geometry": {"type":"LineString","coordinates":[[-122.36057,37.63651],[-122.35507,37.64143],[-122.33539,37.65131],[-122.32346,37.65781],[-122.26877,37.68861],[-122.2445,37.70192],[-122.21755,37.71739],[-122.1782,37.75157],[-122.12702,37.78967],[-122.09014,37.81736],[-122.06741,37.8345],[-122.04132,37.85408],[-121.99872,37.88603],[-121.94815,37.92376],[-121.88358,37.97171],[-121.84598,37.99972],[-121.83409,38.00849],[-121.77343,38.05355],[-121.6976,38.10957],[-121.65905,38.13796],[-121.60859,38.17529],[-121.58127,38.19547],[-121.52879,38.23404],[-121.47354,38.27459],[-121.40309,38.3263],[-121.37787,38.34341],[-121.2918,38.39693],[-121.26926,38.41097]]}
}
