{
  "id": 2048520437,
  "type": "Feature",
  "properties": {
    "date:cessation_lower": "2026-10-05",
    "date:cessation_upper": "2026-10-05",
    "date:inception_lower": "1970-01-01",
    "date:inception_upper": "1970-01-01",
    "edtf:cessation": "2026-10-05T01:55:05-07:00",
    "edtf:inception": "1970-01-01T00:00:00Z",
    "flysfo:actual_timestamp": -1,
    "flysfo:airline": "UA",
    "flysfo:base_airline": "",
    "flysfo:base_flight_number": "2888",
    "flysfo:date": "2026-10-05",
    "flysfo:estimated_timestamp": 1791215940,
    "flysfo:event": "A",
    "flysfo:flight_number": "UA1550",
    "flysfo:gate": "D15",
    "flysfo:journey": "DTW-SFO",
    "flysfo:scheduled_timestamp": 1791216660,
    "flysfo:timestamp": 1791216660,
    "geom:area": 0,
    "geom:bbox": "-122.370943,37.617990,-83.351709,42.218860",
    "geom:latitude": 39.918425,
    "geom:longitude": -102.86132599999999,
    "iata:airline": "UA",
    "iata:base_airline": "",
    "icao:aircraft": "A320",
    "icao:airline": "UAL",
    "icao:base_airline": "ANZ",
    "lbl:latitude": 37.617921,
    "lbl:longitude": -122.38181,
    "sfomuseum:aircraft_id": 1159292085,
    "sfomuseum:airline_id": 1159285413,
    "sfomuseum:arrival_id": 102527513,
    "sfomuseum:base_flight_id": "20261005-A-ANZ-2888",
    "sfomuseum:departure_id": 102525635,
    "sfomuseum:flight_id": "20261005-A-UAL-1550",
    "sfomuseum:flight_number": [
      "UAL1550",
      "UA1550"
    ],
    "sfomuseum:placetype": "flight",
    "src:geom": "flysfo",
    "src:geom_alt": [
      "swim-approach"
    ],
    "swim:tail_number": "N480UA",
    "wof:belongsto": [
      1947304067,
      102527513,
      1947304595,
      102191575,
      85633793,
      102087579,
      85922583,
      554784711,
      85688637,
      1947304623,
      1947304591,
      102085387
    ],
    "wof:country": "US",
    "wof:created": 1791302880,
    "wof:geomhash": "a23858bb4e93419105e139a22bd92749",
    "wof:hierarchy": [
      {
        "building_id": 1947304067,
        "campus_id": 102527513,
        "concourse_id": 1947304595,
        "continent_id": 102191575,
        "country_id": 85633793,
        "county_id": 102087579,
        "custom_id": 2048520437,
        "flight_id": 2048520437,
        "locality_id": 85922583,
        "postalcode_id": 554784711,
        "region_id": 85688637,
        "venue_id": 1947304623,
        "wing_id": 1947304591
      },
      {
        "building_id": 1947304067,
        "campus_id": 102527513,
        "concourse_id": 1947304595,
        "continent_id": 102191575,
        "country_id": 85633793,
        "county_id": 102085387,
        "custom_id": 2048520437,
        "flight_id": 2048520437,
        "region_id": 85688637,
        "venue_id": 1947304623,
        "wing_id": 1947304591
      }
    ],
    "wof:id": 2048520437,
    "wof:involves": [
      1159283697,
      1159292085,
      102527513,
      102525635,
      1159285413,
      1947304623
    ],
    "wof:lastmodified": 1791303557,
    "wof:name": "UA1550 (DTW-SFO)",
    "wof:parent_id": 1947304623,
    "wof:placetype": "custom",
    "wof:placetype_alt": [
      "flight"
    ],
    "wof:repo": "sfomuseum-data-flights-2026-10",
    "wof:superseded_by": [],
    "wof:supersedes": []
  },
  "bbox": [
    -122.370943,
    37.61799,
    -83.351709,
    42.21886
  ],
  "geometry": {"type":"MultiPoint","coordinates":[[-83.351709,42.21886],[-122.370943,37.61799]]}
}
