{
  "id": 2048537485,
  "type": "Feature",
  "properties": {
    "geom:area": 0,
    "geom:bbox": "-122.360800,37.490280,-121.255860,37.615110",
    "geom:latitude": 37.546544873843615,
    "geom:longitude": -121.8133794513487,
    "src:alt_label": "swim-approach",
    "src:geom": "swim",
    "swim:elevations": [
      4586,
      4529,
      4214,
      3909,
      3750,
      3591,
      3396,
      3206,
      3072,
      2824,
      2567,
      2513,
      2285,
      2076,
      1888,
      1829,
      1723,
      1534,
      1401,
      1191,
      1142,
      840,
      704,
      631,
      454,
      390,
      272,
      212,
      149,
      0
    ],
    "swim:geom": "approach",
    "swim:timestamps": [
      1791400046,
      1791400051,
      1791400085,
      1791400117,
      1791400134,
      1791400152,
      1791400174,
      1791400216,
      1791400242,
      1791400276,
      1791400315,
      1791400334,
      1791400372,
      1791400402,
      1791400436,
      1791400460,
      1791400483,
      1791400517,
      1791400533,
      1791400582,
      1791400594,
      1791400648,
      1791400670,
      1791400681,
      1791400735,
      1791400754,
      1791400779,
      1791400795,
      1791400817,
      1791400854
    ],
    "wof:geomhash": "87180be2b7cfc3974609adaffbbe9d88",
    "wof:id": 2048537485,
    "wof:repo": "sfomuseum-data-flights-2026-10"
  },
  "bbox": [
    -122.3608,
    37.49028,
    -121.25586,
    37.61511
  ],
  "geometry": {"type":"LineString","coordinates":[[-121.25586,37.59367],[-121.26629,37.5923],[-121.33625,37.58423],[-121.40094,37.57707],[-121.4359,37.5729],[-121.47111,37.56873],[-121.51502,37.56352],[-121.59644,37.55407],[-121.64339,37.54645],[-121.69882,37.53293],[-121.76113,37.51824],[-121.78909,37.5116],[-121.84501,37.49792],[-121.88964,37.49028],[-121.93942,37.49248],[-121.9748,37.49378],[-122.00538,37.49819],[-122.04734,37.51314],[-122.06562,37.51989],[-122.12306,37.53882],[-122.13629,37.54309],[-122.18952,37.56036],[-122.21014,37.56718],[-122.21987,37.57007],[-122.27146,37.58607],[-122.28813,37.59096],[-122.30752,37.59674],[-122.31925,37.60012],[-122.33587,37.60522],[-122.3608,37.61511]]}
}
