{
  "id": 2048560649,
  "type": "Feature",
  "properties": {
    "geom:area": 0,
    "geom:bbox": "-122.601090,37.628080,-121.429200,38.515640",
    "geom:latitude": 38.09683591403098,
    "geom:longitude": -122.12207159731042,
    "src:alt_label": "swim-takeoff",
    "src:geom": "swim",
    "swim:elevations": [
      213,
      482,
      837,
      955,
      1036,
      1124,
      1332,
      1532,
      2151,
      2479,
      2689,
      2743,
      2743,
      3184,
      3280,
      3489,
      3647,
      3670,
      4064,
      4303,
      4764,
      4967,
      5293,
      5655,
      5817,
      6123,
      6370,
      6617,
      6796,
      7009,
      7251,
      7268
    ],
    "swim:geom": "takeoff",
    "swim:timestamps": [
      1791555410,
      1791555435,
      1791555469,
      1791555482,
      1791555507,
      1791555525,
      1791555554,
      1791555570,
      1791555626,
      1791555652,
      1791555674,
      1791555704,
      1791555721,
      1791555776,
      1791555791,
      1791555836,
      1791555864,
      1791555872,
      1791555911,
      1791555930,
      1791555978,
      1791555998,
      1791556031,
      1791556066,
      1791556092,
      1791556131,
      1791556162,
      1791556197,
      1791556224,
      1791556253,
      1791556288,
      1791556295
    ],
    "wof:geomhash": "acc9160bd164ca6a1fb8321aba512239",
    "wof:id": 2048560649,
    "wof:repo": "sfomuseum-data-flights-2026-10"
  },
  "bbox": [
    -122.60109,
    37.62808,
    -121.4292,
    38.51564
  ],
  "geometry": {"type":"LineString","coordinates":[[-122.39675,37.62808],[-122.41982,37.63835],[-122.45321,37.65239],[-122.4661,37.65811],[-122.4935,37.66997],[-122.51642,37.67956],[-122.55494,37.69588],[-122.57782,37.70575],[-122.60109,37.76893],[-122.58999,37.80224],[-122.58043,37.82985],[-122.5666,37.87081],[-122.55351,37.89162],[-122.48523,37.94631],[-122.46241,37.95848],[-122.38962,37.99763],[-122.33996,38.02462],[-122.32393,38.0332],[-122.24775,38.07424],[-122.21209,38.09401],[-122.11569,38.146],[-122.0747,38.16746],[-122.00767,38.20411],[-121.93509,38.24174],[-121.87999,38.27103],[-121.79546,38.31565],[-121.72773,38.35108],[-121.64775,38.3931],[-121.58699,38.42501],[-121.52143,38.46157],[-121.44299,38.50753],[-121.4292,38.51564]]}
}
