{
  "id": 2048545439,
  "type": "Feature",
  "properties": {
    "geom:area": 0,
    "geom:bbox": "-122.360070,37.491070,-121.288550,37.615820",
    "geom:latitude": 37.545237085081844,
    "geom:longitude": -121.82923054548641,
    "src:alt_label": "swim-approach",
    "src:geom": "swim",
    "swim:elevations": [
      4747,
      4399,
      4121,
      3731,
      3391,
      3259,
      3128,
      2999,
      2775,
      2594,
      2559,
      2558,
      2507,
      2185,
      2092,
      1918,
      1890,
      1660,
      1299,
      1076,
      1065,
      946,
      849,
      712,
      624,
      377,
      302,
      242,
      215,
      53,
      191
    ],
    "swim:geom": "approach",
    "swim:timestamps": [
      1791499077,
      1791499107,
      1791499131,
      1791499164,
      1791499197,
      1791499228,
      1791499246,
      1791499260,
      1791499287,
      1791499315,
      1791499321,
      1791499324,
      1791499337,
      1791499382,
      1791499400,
      1791499436,
      1791499442,
      1791499489,
      1791499525,
      1791499556,
      1791499560,
      1791499616,
      1791499636,
      1791499665,
      1791499684,
      1791499738,
      1791499760,
      1791499775,
      1791499784,
      1791499826,
      1791499841
    ],
    "wof:geomhash": "88fa103d3770cf7cb3101c650e23ed7d",
    "wof:id": 2048545439,
    "wof:repo": "sfomuseum-data-flights-2026-10"
  },
  "bbox": [
    -122.36007,
    37.49107,
    -121.28855,
    37.61582
  ],
  "geometry": {"type":"LineString","coordinates":[[-121.28855,37.58927],[-121.35276,37.58162],[-121.40587,37.57571],[-121.47541,37.56806],[-121.54724,37.5594],[-121.60877,37.55231],[-121.64183,37.54667],[-121.66623,37.54064],[-121.71176,37.52943],[-121.75882,37.51836],[-121.76841,37.51622],[-121.77312,37.51515],[-121.79307,37.51044],[-121.86253,37.49382],[-121.89045,37.49107],[-121.94518,37.49266],[-121.9541,37.49292],[-122.01908,37.50496],[-122.06825,37.52091],[-122.1082,37.53384],[-122.11268,37.53532],[-122.17421,37.55527],[-122.19505,37.56195],[-122.22222,37.57072],[-122.23865,37.57599],[-122.28505,37.59014],[-122.30218,37.59525],[-122.31243,37.59824],[-122.31894,37.60004],[-122.34987,37.61054],[-122.36007,37.61582]]}
}
