{
  "id": 2048559761,
  "type": "Feature",
  "properties": {
    "geom:area": 0,
    "geom:bbox": "-122.552090,36.723650,-122.356700,37.708030",
    "geom:latitude": 37.24767730400841,
    "geom:longitude": -122.4743755194127,
    "src:alt_label": "swim-takeoff",
    "src:geom": "swim",
    "swim:elevations": [
      122,
      327,
      412,
      870,
      1252,
      1495,
      1662,
      1822,
      2182,
      2430,
      2896,
      3202,
      3377,
      3552,
      3917,
      4344,
      4441,
      4982,
      5179,
      5523,
      5872,
      6086,
      6341,
      6445,
      6766,
      7018,
      7143
    ],
    "swim:geom": "takeoff",
    "swim:timestamps": [
      1791537657,
      1791537679,
      1791537691,
      1791537737,
      1791537769,
      1791537789,
      1791537812,
      1791537829,
      1791537855,
      1791537871,
      1791537904,
      1791537938,
      1791537972,
      1791538001,
      1791538034,
      1791538071,
      1791538081,
      1791538131,
      1791538149,
      1791538186,
      1791538228,
      1791538254,
      1791538282,
      1791538296,
      1791538333,
      1791538366,
      1791538383
    ],
    "wof:geomhash": "5384f6aa6531351b6742bc3d085d56e0",
    "wof:id": 2048559761,
    "wof:repo": "sfomuseum-data-flights-2026-10"
  },
  "bbox": [
    -122.55209,
    36.72365,
    -122.3567,
    37.70803
  ],
  "geometry": {"type":"LineString","coordinates":[[-122.36892,37.62883],[-122.36285,37.64561],[-122.36331,37.6561],[-122.3758,37.6996],[-122.41723,37.70803],[-122.43707,37.69285],[-122.44348,37.66485],[-122.44748,37.64225],[-122.45352,37.60864],[-122.45718,37.58776],[-122.46478,37.54472],[-122.47292,37.49905],[-122.48242,37.44733],[-122.4912,37.40074],[-122.50184,37.34393],[-122.51376,37.27959],[-122.517,37.26194],[-122.53373,37.17137],[-122.53978,37.13865],[-122.55209,37.07181],[-122.54956,36.9916],[-122.51957,36.94639],[-122.48467,36.89822],[-122.46772,36.8751],[-122.42001,36.81014],[-122.37857,36.75359],[-122.3567,36.72365]]}
}
