{
  "id": 2048520091,
  "type": "Feature",
  "properties": {
    "geom:area": 0,
    "geom:bbox": "-122.359980,37.491610,-121.262860,37.615010",
    "geom:latitude": 37.546315005521386,
    "geom:longitude": -121.81641536867357,
    "src:alt_label": "swim-approach",
    "src:geom": "swim",
    "swim:elevations": [
      4542,
      4302,
      4010,
      3763,
      3417,
      3211,
      3078,
      2941,
      2813,
      2593,
      2470,
      2284,
      2189,
      2072,
      1858,
      1784,
      1481,
      1371,
      1145,
      997,
      847,
      714,
      607,
      486,
      384,
      185,
      1,
      0
    ],
    "swim:geom": "approach",
    "swim:timestamps": [
      1791195177,
      1791195201,
      1791195232,
      1791195257,
      1791195294,
      1791195316,
      1791195355,
      1791195378,
      1791195398,
      1791195428,
      1791195464,
      1791195501,
      1791195518,
      1791195543,
      1791195595,
      1791195607,
      1791195655,
      1791195678,
      1791195714,
      1791195747,
      1791195774,
      1791195798,
      1791195825,
      1791195849,
      1791195871,
      1791195917,
      1791195958,
      1791195964
    ],
    "wof:geomhash": "01b42a4150d2d3152fb6ddea285e7e9b",
    "wof:id": 2048520091,
    "wof:repo": "sfomuseum-data-flights-2026-10"
  },
  "bbox": [
    -122.35998,
    37.49161,
    -121.26286,
    37.61501
  ],
  "geometry": {"type":"LineString","coordinates":[[-121.26286,37.59266],[-121.31194,37.58664],[-121.37282,37.58019],[-121.42386,37.57449],[-121.49628,37.56595],[-121.53773,37.56103],[-121.61006,37.55252],[-121.6502,37.54468],[-121.68254,37.53696],[-121.73127,37.5254],[-121.78749,37.51184],[-121.84167,37.49889],[-121.86696,37.49309],[-121.90441,37.49161],[-121.98142,37.49432],[-121.99783,37.49785],[-122.06015,37.51825],[-122.08853,37.52725],[-122.13107,37.54069],[-122.1667,37.55267],[-122.1945,37.56182],[-122.21743,37.56893],[-122.24187,37.57695],[-122.26408,37.58417],[-122.28557,37.59019],[-122.32427,37.60151],[-122.35712,37.61351],[-122.35998,37.61501]]}
}
