{
  "id": 2048515627,
  "type": "Feature",
  "properties": {
    "geom:area": 0,
    "geom:bbox": "-122.459710,36.720600,-121.548740,37.698650",
    "geom:latitude": 37.2140530511482,
    "geom:longitude": -122.08507163484383,
    "src:alt_label": "swim-takeoff",
    "src:geom": "swim",
    "swim:elevations": [
      244,
      462,
      852,
      938,
      1349,
      1624,
      1907,
      2451,
      3292,
      3691,
      3970,
      4782,
      5099,
      5330,
      5707,
      5801,
      6083,
      6291,
      6788,
      7309,
      7636,
      7802,
      8489,
      8631,
      9011,
      9333,
      9449,
      9449,
      9449,
      9449,
      9449,
      9449,
      9449,
      9449
    ],
    "swim:geom": "takeoff",
    "swim:timestamps": [
      1791098667,
      1791098684,
      1791098720,
      1791098730,
      1791098780,
      1791098805,
      1791098827,
      1791098861,
      1791098898,
      1791098923,
      1791098946,
      1791098994,
      1791099015,
      1791099032,
      1791099057,
      1791099063,
      1791099080,
      1791099095,
      1791099133,
      1791099178,
      1791099207,
      1791099219,
      1791099267,
      1791099275,
      1791099306,
      1791099332,
      1791099387,
      1791099401,
      1791099448,
      1791099476,
      1791099483,
      1791099534,
      1791099557,
      1791099574
    ],
    "wof:geomhash": "eaf779b6e0957e11ad2d30714adf7242",
    "wof:id": 2048515627,
    "wof:repo": "sfomuseum-data-flights-2026-10"
  },
  "bbox": [
    -122.45971,
    36.7206,
    -121.54874,
    37.69865
  ],
  "geometry": {"type":"LineString","coordinates":[[-122.36923,37.62896],[-122.36706,37.63902],[-122.36333,37.66026],[-122.36238,37.66616],[-122.37633,37.69865],[-122.40497,37.69248],[-122.41663,37.67085],[-122.4267,37.63008],[-122.44132,37.58575],[-122.45254,37.55344],[-122.45971,37.52052],[-122.41075,37.45905],[-122.38331,37.43569],[-122.35958,37.41531],[-122.32465,37.38597],[-122.31516,37.37798],[-122.29075,37.35747],[-122.26997,37.33985],[-122.21456,37.29292],[-122.14654,37.23499],[-122.10194,37.19703],[-122.08362,37.18056],[-122.00903,37.11717],[-121.99707,37.10691],[-121.94927,37.06606],[-121.91045,37.03288],[-121.82814,36.96195],[-121.80658,36.94298],[-121.73538,36.88287],[-121.69449,36.84692],[-121.68401,36.83764],[-121.60876,36.77243],[-121.57297,36.74154],[-121.54874,36.7206]]}
}
