{
  "id": 2048535049,
  "type": "Feature",
  "properties": {
    "date:cessation_lower": "2026-10-07",
    "date:cessation_upper": "2026-10-07",
    "date:inception_lower": "1970-01-01",
    "date:inception_upper": "1970-01-01",
    "edtf:cessation": "2026-10-07T03:51:39-07:00",
    "edtf:inception": "1970-01-01T00:00:00Z",
    "flysfo:actual_timestamp": -1,
    "flysfo:airline": "NH",
    "flysfo:base_airline": "",
    "flysfo:base_flight_number": "6094",
    "flysfo:date": "2026-10-07",
    "flysfo:estimated_timestamp": 1791394440,
    "flysfo:event": "A",
    "flysfo:flight_number": "NH8",
    "flysfo:gate": "G8",
    "flysfo:journey": "NRT-SFO",
    "flysfo:scheduled_timestamp": 1791394200,
    "flysfo:timestamp": 1791394440,
    "geom:area": 0,
    "geom:bbox": "-122.370943,35.755744,140.395257,37.617990",
    "geom:latitude": 36.686867,
    "geom:longitude": 9.012156999999995,
    "iata:airline": "NH",
    "iata:base_airline": "",
    "icao:aircraft": "B77W",
    "icao:airline": "ANA",
    "icao:base_airline": "THA",
    "lbl:latitude": 37.61836,
    "lbl:longitude": -122.393229,
    "sfomuseum:aircraft_id": 1159289993,
    "sfomuseum:airline_id": 1159283875,
    "sfomuseum:arrival_id": 102527513,
    "sfomuseum:base_flight_id": "20261007-A-THA-6094",
    "sfomuseum:departure_id": 102541685,
    "sfomuseum:flight_id": "20261007-A-ANA-8",
    "sfomuseum:flight_number": [
      "ANA8",
      "NH8"
    ],
    "sfomuseum:placetype": "flight",
    "src:geom": "flysfo",
    "src:geom_alt": [
      "swim-approach"
    ],
    "swim:tail_number": "JA793A",
    "wof:belongsto": [
      1947304067,
      102527513,
      1947304129,
      102191575,
      85633793,
      102087579,
      85922583,
      554784711,
      85688637,
      1947304133,
      1947304069,
      102085387
    ],
    "wof:country": "US",
    "wof:created": 1791475364,
    "wof:geomhash": "d46bcc8d1d94e68df95be799ac6a3b4c",
    "wof:hierarchy": [
      {
        "building_id": 1947304067,
        "campus_id": 102527513,
        "concourse_id": 1947304129,
        "continent_id": 102191575,
        "country_id": 85633793,
        "county_id": 102087579,
        "custom_id": 2048535049,
        "flight_id": 2048535049,
        "locality_id": 85922583,
        "postalcode_id": 554784711,
        "region_id": 85688637,
        "venue_id": 1947304133,
        "wing_id": 1947304069
      },
      {
        "building_id": 1947304067,
        "campus_id": 102527513,
        "concourse_id": 1947304129,
        "continent_id": 102191575,
        "country_id": 85633793,
        "county_id": 102085387,
        "custom_id": 2048535049,
        "flight_id": 2048535049,
        "region_id": 85688637,
        "venue_id": 1947304133,
        "wing_id": 1947304069
      }
    ],
    "wof:id": 2048535049,
    "wof:involves": [
      1159285639,
      1159289993,
      102527513,
      102541685,
      1159283875,
      1947304133
    ],
    "wof:lastmodified": 1791476285,
    "wof:name": "NH8 (NRT-SFO)",
    "wof:parent_id": 1947304133,
    "wof:placetype": "custom",
    "wof:placetype_alt": [
      "flight"
    ],
    "wof:repo": "sfomuseum-data-flights-2026-10",
    "wof:superseded_by": [],
    "wof:supersedes": []
  },
  "bbox": [
    -122.370943,
    35.755744,
    140.395257,
    37.61799
  ],
  "geometry": {"type":"MultiPoint","coordinates":[[140.395257,35.755744],[-122.370943,37.61799]]}
}
