{
  "id": 2048560089,
  "type": "Feature",
  "properties": {
    "date:cessation_lower": "1970-01-01",
    "date:cessation_upper": "1970-01-01",
    "date:inception_lower": "2026-10-09",
    "date:inception_upper": "2026-10-09",
    "edtf:cessation": "1970-01-01T00:00:00Z",
    "edtf:inception": "2026-10-09T10:34:28-07:00",
    "flysfo:actual_timestamp": -1,
    "flysfo:airline": "UA",
    "flysfo:base_airline": "",
    "flysfo:base_flight_number": "3252",
    "flysfo:date": "2026-10-09",
    "flysfo:estimated_timestamp": 1791579480,
    "flysfo:event": "D",
    "flysfo:flight_number": "UA1151",
    "flysfo:gate": "F20",
    "flysfo:journey": "SFO-YVR",
    "flysfo:scheduled_timestamp": 1791579480,
    "flysfo:timestamp": 1791579480,
    "geom:area": 0,
    "geom:bbox": "-123.179200,37.617990,-122.370943,49.193330",
    "geom:latitude": 43.40566,
    "geom:longitude": -122.7750715,
    "iata:airline": "UA",
    "iata:base_airline": "",
    "icao:aircraft": "B739",
    "icao:airline": "UAL",
    "icao:base_airline": "ACA",
    "lbl:latitude": 37.621076,
    "lbl:longitude": -122.390239,
    "sfomuseum:aircraft_id": 1377564285,
    "sfomuseum:airline_id": 1159285413,
    "sfomuseum:arrival_id": 102555307,
    "sfomuseum:base_flight_id": "20261009-D-ACA-3252",
    "sfomuseum:departure_id": 102527513,
    "sfomuseum:flight_id": "20261009-D-UAL-1151",
    "sfomuseum:flight_number": [
      "UAL1151",
      "UA1151"
    ],
    "sfomuseum:placetype": "flight",
    "src:geom": "flysfo",
    "src:geom_alt": [
      "swim-takeoff"
    ],
    "swim:tail_number": "N75435",
    "wof:belongsto": [
      1947304067,
      102527513,
      1947304451,
      102191575,
      85633793,
      102087579,
      85922583,
      554784711,
      85688637,
      1947304489,
      1947304447,
      102085387
    ],
    "wof:country": "US",
    "wof:created": 1791648962,
    "wof:geomhash": "af4ccf784d832b160f78d13fe8b8589a",
    "wof:hierarchy": [
      {
        "building_id": 1947304067,
        "campus_id": 102527513,
        "concourse_id": 1947304451,
        "continent_id": 102191575,
        "country_id": 85633793,
        "county_id": 102087579,
        "custom_id": 2048560089,
        "flight_id": 2048560089,
        "locality_id": 85922583,
        "postalcode_id": 554784711,
        "region_id": 85688637,
        "venue_id": 1947304489,
        "wing_id": 1947304447
      },
      {
        "building_id": 1947304067,
        "campus_id": 102527513,
        "concourse_id": 1947304451,
        "continent_id": 102191575,
        "country_id": 85633793,
        "county_id": 102085387,
        "custom_id": 2048560089,
        "flight_id": 2048560089,
        "region_id": 85688637,
        "venue_id": 1947304489,
        "wing_id": 1947304447
      }
    ],
    "wof:id": 2048560089,
    "wof:involves": [
      1377564285,
      102555307,
      102527513,
      1159285413,
      1947304489,
      1159283597
    ],
    "wof:lastmodified": 1791649164,
    "wof:name": "UA1151 (SFO-YVR)",
    "wof:parent_id": 1947304489,
    "wof:placetype": "custom",
    "wof:placetype_alt": [
      "flight"
    ],
    "wof:repo": "sfomuseum-data-flights-2026-10",
    "wof:superseded_by": [],
    "wof:supersedes": []
  },
  "bbox": [
    -123.1792,
    37.61799,
    -122.370943,
    49.19333
  ],
  "geometry": {"type":"MultiPoint","coordinates":[[-122.370943,37.61799],[-123.1792,49.19333]]}
}
