{
  "id": 2048489131,
  "type": "Feature",
  "properties": {
    "geom:area": 0,
    "geom:bbox": "-122.367470,37.627080,-121.262800,38.414950",
    "geom:latitude": 38.03143336560705,
    "geom:longitude": -121.82548799126438,
    "src:alt_label": "swim-takeoff",
    "src:geom": "swim",
    "swim:elevations": [
      91,
      383,
      540,
      1039,
      1134,
      1359,
      1495,
      1884,
      2348,
      2610,
      3014,
      3256,
      3489,
      3850,
      4279,
      4676,
      5023,
      5360,
      5498,
      5700,
      6056,
      6219,
      6608,
      6843,
      6901,
      7124,
      7444,
      7618
    ],
    "swim:geom": "takeoff",
    "swim:timestamps": [
      1790846938,
      1790846958,
      1790846970,
      1790847016,
      1790847033,
      1790847057,
      1790847075,
      1790847107,
      1790847140,
      1790847159,
      1790847189,
      1790847210,
      1790847252,
      1790847286,
      1790847320,
      1790847353,
      1790847384,
      1790847412,
      1790847426,
      1790847461,
      1790847504,
      1790847521,
      1790847565,
      1790847595,
      1790847601,
      1790847625,
      1790847657,
      1790847677
    ],
    "wof:geomhash": "1ec18a94db2311a44aca7a307695b47a",
    "wof:id": 2048489131,
    "wof:repo": "sfomuseum-data-flights-2026-10"
  },
  "bbox": [
    -122.36747,
    37.62708,
    -121.2628,
    38.41495
  ],
  "geometry": {"type":"LineString","coordinates":[[-122.36747,37.62708],[-122.35832,37.64144],[-122.34985,37.64808],[-122.31007,37.668],[-122.29333,37.67665],[-122.26735,37.69016],[-122.24596,37.70138],[-122.20672,37.72565],[-122.17521,37.76163],[-122.15643,37.78248],[-122.12625,37.81564],[-122.10524,37.83894],[-122.05484,37.8897],[-121.99959,37.92694],[-121.94407,37.96431],[-121.88924,38.00153],[-121.83745,38.03672],[-121.78935,38.06912],[-121.76542,38.08509],[-121.70115,38.12861],[-121.61893,38.18347],[-121.58511,38.20585],[-121.49754,38.26399],[-121.43769,38.30387],[-121.42366,38.3132],[-121.37413,38.34618],[-121.30559,38.38893],[-121.2628,38.41495]]}
}
