{
  "id": 2048517001,
  "type": "Feature",
  "properties": {
    "geom:area": 0,
    "geom:bbox": "-122.361220,37.491400,-121.256590,37.614870",
    "geom:latitude": 37.546773824592144,
    "geom:longitude": -121.81372070293007,
    "src:alt_label": "swim-approach",
    "src:geom": "swim",
    "swim:elevations": [
      4659,
      4394,
      4157,
      4004,
      3732,
      3409,
      3241,
      3041,
      2935,
      2582,
      2514,
      2279,
      2118,
      2019,
      1980,
      1921,
      1653,
      1478,
      1247,
      975,
      915,
      914,
      819,
      780,
      546,
      511,
      452,
      235,
      177,
      87,
      0
    ],
    "swim:geom": "approach",
    "swim:timestamps": [
      1791237986,
      1791238014,
      1791238038,
      1791238055,
      1791238086,
      1791238121,
      1791238157,
      1791238197,
      1791238209,
      1791238257,
      1791238276,
      1791238315,
      1791238343,
      1791238366,
      1791238375,
      1791238390,
      1791238431,
      1791238455,
      1791238484,
      1791238521,
      1791238535,
      1791238553,
      1791238576,
      1791238582,
      1791238617,
      1791238644,
      1791238653,
      1791238707,
      1791238726,
      1791238746,
      1791238766
    ],
    "wof:geomhash": "62c4fb04a52cedc7207da8b88ef8258e",
    "wof:id": 2048517001,
    "wof:repo": "sfomuseum-data-flights-2026-10"
  },
  "bbox": [
    -122.36122,
    37.4914,
    -121.25659,
    37.61487
  ],
  "geometry": {"type":"LineString","coordinates":[[-121.25659,37.5937],[-121.31367,37.58664],[-121.36008,37.58155],[-121.39446,37.57766],[-121.45388,37.57074],[-121.52302,37.56273],[-121.58893,37.55501],[-121.65662,37.54304],[-121.67675,37.53813],[-121.75481,37.51977],[-121.78339,37.51285],[-121.84157,37.49895],[-121.88413,37.4914],[-121.91829,37.49234],[-121.93194,37.49267],[-121.95451,37.49319],[-122.01512,37.50374],[-122.04829,37.51454],[-122.08805,37.52737],[-122.13447,37.54232],[-122.15109,37.5477],[-122.17041,37.55387],[-122.19405,37.5615],[-122.20021,37.56354],[-122.23608,37.57528],[-122.26148,37.58338],[-122.26963,37.58587],[-122.31499,37.59898],[-122.33003,37.60338],[-122.34636,37.60908],[-122.36122,37.61487]]}
}
