{
  "id": 2048560143,
  "type": "Feature",
  "properties": {
    "geom:area": 0,
    "geom:bbox": "-122.470710,36.725820,-121.446330,37.714390",
    "geom:latitude": 37.22518864464187,
    "geom:longitude": -122.06274981717156,
    "src:alt_label": "swim-takeoff",
    "src:geom": "swim",
    "swim:elevations": [
      183,
      668,
      1066,
      1183,
      1544,
      1819,
      2344,
      2943,
      3225,
      3626,
      4113,
      4519,
      5036,
      5426,
      5563,
      5798,
      6192,
      6476,
      6705,
      7091,
      7414,
      7540,
      7829,
      7985,
      8141,
      8204,
      8622,
      8638,
      8938,
      9199,
      9451,
      9643
    ],
    "swim:geom": "takeoff",
    "swim:timestamps": [
      1791537850,
      1791537885,
      1791537916,
      1791537938,
      1791537986,
      1791538005,
      1791538034,
      1791538068,
      1791538094,
      1791538131,
      1791538162,
      1791538189,
      1791538225,
      1791538258,
      1791538268,
      1791538292,
      1791538333,
      1791538360,
      1791538380,
      1791538417,
      1791538446,
      1791538460,
      1791538492,
      1791538509,
      1791538525,
      1791538534,
      1791538588,
      1791538592,
      1791538632,
      1791538674,
      1791538705,
      1791538729
    ],
    "wof:geomhash": "3bc06ad385bb7255f47d8023eee66f73",
    "wof:id": 2048560143,
    "wof:repo": "sfomuseum-data-flights-2026-10"
  },
  "bbox": [
    -122.47071,
    36.72582,
    -121.44633,
    37.71439
  ],
  "geometry": {"type":"LineString","coordinates":[[-122.36622,37.63292],[-122.36229,37.66012],[-122.36195,37.68315],[-122.36914,37.70017],[-122.42952,37.71439],[-122.45215,37.6969],[-122.45978,37.65902],[-122.46063,37.61413],[-122.4637,37.57927],[-122.47071,37.52095],[-122.45163,37.47454],[-122.41313,37.44469],[-122.35675,37.40377],[-122.30432,37.36533],[-122.28943,37.35439],[-122.24988,37.3258],[-122.18041,37.27381],[-122.13528,37.24012],[-122.10109,37.21437],[-122.03458,37.16487],[-121.98285,37.12652],[-121.95928,37.10903],[-121.90114,37.06553],[-121.87052,37.04278],[-121.84,37.01971],[-121.82361,37.0076],[-121.72113,36.93234],[-121.71392,36.9273],[-121.63684,36.86994],[-121.55458,36.80826],[-121.49301,36.76134],[-121.44633,36.72582]]}
}
