{
  "id": 2048498845,
  "type": "Feature",
  "properties": {
    "geom:area": 0,
    "geom:bbox": "-123.501900,37.628830,-122.398890,37.732240",
    "geom:latitude": 37.69842725123836,
    "geom:longitude": -122.94648867009928,
    "src:alt_label": "swim-takeoff",
    "src:geom": "swim",
    "swim:elevations": [
      213,
      701,
      862,
      1095,
      1346,
      1800,
      1905,
      2494,
      2663,
      3226,
      3231,
      3437,
      3557,
      3697,
      3937,
      4476,
      4899,
      5191,
      5458
    ],
    "swim:geom": "takeoff",
    "swim:timestamps": [
      1790938843,
      1790938888,
      1790938907,
      1790938930,
      1790938983,
      1790939033,
      1790939040,
      1790939087,
      1790939100,
      1790939158,
      1790939161,
      1790939207,
      1790939232,
      1790939255,
      1790939281,
      1790939341,
      1790939392,
      1790939422,
      1790939454
    ],
    "wof:geomhash": "952e7ec87c1aece9c8453e1f8c1db2a1",
    "wof:id": 2048498845,
    "wof:repo": "sfomuseum-data-flights-2026-10"
  },
  "bbox": [
    -123.5019,
    37.62883,
    -122.39889,
    37.73224
  ],
  "geometry": {"type":"LineString","coordinates":[[-122.39889,37.62883],[-122.4444,37.64862],[-122.46455,37.65762],[-122.48905,37.66824],[-122.56096,37.67796],[-122.64033,37.68257],[-122.65274,37.68348],[-122.73109,37.68835],[-122.75316,37.68963],[-122.85167,37.69541],[-122.85705,37.69574],[-122.94359,37.70095],[-122.99673,37.70376],[-123.04681,37.70654],[-123.10228,37.70983],[-123.23811,37.71761],[-123.35658,37.72424],[-123.42562,37.72808],[-123.5019,37.73224]]}
}
