{
  "id": 2048533361,
  "type": "Feature",
  "properties": {
    "geom:area": 0,
    "geom:bbox": "-122.537380,36.730360,-121.570490,37.660180",
    "geom:latitude": 37.22155855808524,
    "geom:longitude": -122.12458308611633,
    "src:alt_label": "swim-takeoff",
    "src:geom": "swim",
    "swim:elevations": [
      306,
      689,
      739,
      1008,
      1162,
      1783,
      1854,
      2880,
      3072,
      3277,
      3794,
      4022,
      4210,
      4627,
      5014,
      5228,
      5566,
      5798,
      6217,
      6660,
      6903,
      7111,
      7346,
      7443,
      7679,
      7831,
      8038,
      8396,
      8709
    ],
    "swim:geom": "takeoff",
    "swim:timestamps": [
      1791278423,
      1791278457,
      1791278464,
      1791278496,
      1791278529,
      1791278577,
      1791278580,
      1791278637,
      1791278646,
      1791278658,
      1791278698,
      1791278724,
      1791278751,
      1791278781,
      1791278812,
      1791278828,
      1791278856,
      1791278886,
      1791278929,
      1791278968,
      1791278996,
      1791279024,
      1791279053,
      1791279062,
      1791279097,
      1791279124,
      1791279155,
      1791279196,
      1791279229
    ],
    "wof:geomhash": "3146bc52478e4d474cfcdf01fb732dae",
    "wof:id": 2048533361,
    "wof:repo": "sfomuseum-data-flights-2026-10"
  },
  "bbox": [
    -122.53738,
    36.73036,
    -121.57049,
    37.66018
  ],
  "geometry": {"type":"LineString","coordinates":[[-122.38609,37.62356],[-122.40954,37.6337],[-122.41488,37.63596],[-122.43888,37.64634],[-122.47004,37.66018],[-122.53384,37.6567],[-122.53738,37.65315],[-122.52455,37.58529],[-122.51812,37.57377],[-122.51037,37.55939],[-122.48268,37.50698],[-122.454,37.47294],[-122.41375,37.43972],[-122.36751,37.40128],[-122.31858,37.36085],[-122.29259,37.33903],[-122.24787,37.30232],[-122.19898,37.26172],[-122.12648,37.20076],[-122.05794,37.1432],[-122.00909,37.10224],[-121.96017,37.06109],[-121.90721,37.01657],[-121.89098,37.00294],[-121.8261,36.94836],[-121.77383,36.90452],[-121.71386,36.8535],[-121.63574,36.78566],[-121.57049,36.73036]]}
}
