{
  "id": 2048560809,
  "type": "Feature",
  "properties": {
    "geom:area": 0,
    "geom:bbox": "-122.582870,37.625250,-121.441030,38.508360",
    "geom:latitude": 38.090309751996976,
    "geom:longitude": -122.10988034159034,
    "src:alt_label": "swim-takeoff",
    "src:geom": "swim",
    "swim:elevations": [
      152,
      304,
      825,
      1064,
      1252,
      1453,
      1620,
      2102,
      2548,
      2670,
      2813,
      2925,
      3473,
      3860,
      4061,
      4329,
      4696,
      4720,
      4862,
      5282,
      5627,
      5789,
      6123,
      6265,
      6674,
      6856,
      7154,
      7329,
      7513,
      7738
    ],
    "swim:geom": "takeoff",
    "swim:timestamps": [
      1791558531,
      1791558544,
      1791558590,
      1791558616,
      1791558645,
      1791558687,
      1791558699,
      1791558736,
      1791558772,
      1791558783,
      1791558837,
      1791558843,
      1791558910,
      1791558956,
      1791558977,
      1791558999,
      1791559033,
      1791559037,
      1791559053,
      1791559094,
      1791559125,
      1791559146,
      1791559189,
      1791559204,
      1791559257,
      1791559280,
      1791559316,
      1791559342,
      1791559373,
      1791559404
    ],
    "wof:geomhash": "188e2e8d8b498aa507f9e97da0c5064a",
    "wof:id": 2048560809,
    "wof:repo": "sfomuseum-data-flights-2026-10"
  },
  "bbox": [
    -122.58287,
    37.62525,
    -121.44103,
    38.50836
  ],
  "geometry": {"type":"LineString","coordinates":[[-122.39061,37.62525],[-122.40231,37.63043],[-122.44561,37.64955],[-122.47068,37.66028],[-122.50153,37.6733],[-122.54308,37.70761],[-122.54903,37.72195],[-122.56584,37.767],[-122.58205,37.81147],[-122.58287,37.8271],[-122.52984,37.88621],[-122.52058,37.89142],[-122.42012,37.94858],[-122.3397,37.99509],[-122.30188,38.01675],[-122.26144,38.03992],[-122.20027,38.07538],[-122.19272,38.07963],[-122.16094,38.09768],[-122.08362,38.14252],[-122.02374,38.1767],[-121.98273,38.20054],[-121.89629,38.24905],[-121.86612,38.26623],[-121.75587,38.32851],[-121.7076,38.35579],[-121.63113,38.39892],[-121.57566,38.43012],[-121.50918,38.46792],[-121.44103,38.50836]]}
}
