{
  "id": 2048488995,
  "type": "Feature",
  "properties": {
    "geom:area": 0,
    "geom:bbox": "-123.478960,37.629810,-122.401970,37.731210",
    "geom:latitude": 37.698353664260026,
    "geom:longitude": -122.93642183173877,
    "src:alt_label": "swim-takeoff",
    "src:geom": "swim",
    "swim:elevations": [
      244,
      607,
      821,
      1063,
      1210,
      1402,
      1437,
      1792,
      2283,
      2706,
      2853,
      3068,
      3164,
      3198,
      3420,
      3530,
      3875,
      4159,
      4442,
      4633,
      4816,
      5095
    ],
    "swim:geom": "takeoff",
    "swim:timestamps": [
      1790897147,
      1790897185,
      1790897210,
      1790897243,
      1790897277,
      1790897307,
      1790897310,
      1790897342,
      1790897386,
      1790897425,
      1790897440,
      1790897464,
      1790897482,
      1790897491,
      1790897542,
      1790897563,
      1790897606,
      1790897636,
      1790897665,
      1790897684,
      1790897712,
      1790897743
    ],
    "wof:geomhash": "743f86a5142d1ae1589abf9adf37477e",
    "wof:id": 2048488995,
    "wof:repo": "sfomuseum-data-flights-2026-10"
  },
  "bbox": [
    -123.47896,
    37.62981,
    -122.40197,
    37.73121
  ],
  "geometry": {"type":"LineString","coordinates":[[-122.40197,37.62981],[-122.44076,37.64701],[-122.46642,37.65846],[-122.50305,37.67331],[-122.54876,37.67762],[-122.59509,37.68034],[-122.59998,37.68059],[-122.65183,37.68369],[-122.72497,37.68822],[-122.79129,37.6922],[-122.81712,37.69372],[-122.85894,37.69615],[-122.89161,37.69796],[-122.90863,37.69899],[-123.01363,37.70562],[-123.05935,37.70826],[-123.15718,37.71354],[-123.22656,37.71725],[-123.29495,37.72101],[-123.33874,37.72345],[-123.40405,37.72706],[-123.47896,37.73121]]}
}
