{
  "id": 2048494409,
  "type": "Feature",
  "properties": {
    "geom:area": 0,
    "geom:bbox": "-122.669960,37.452360,-122.148890,38.384290",
    "geom:latitude": 37.79633831860424,
    "geom:longitude": -122.46474681028852,
    "src:alt_label": "swim-approach",
    "src:geom": "swim",
    "swim:elevations": [
      6763,
      6492,
      6303,
      5891,
      5595,
      5385,
      5072,
      4939,
      4538,
      4303,
      3994,
      3725,
      3583,
      3414,
      3353,
      3353,
      3335,
      3353,
      3328,
      3082,
      2934,
      2643,
      2366,
      1957,
      1666,
      1493,
      1331,
      1151,
      1036,
      820,
      735,
      564,
      428,
      322,
      185,
      150,
      43
    ],
    "swim:geom": "approach",
    "swim:timestamps": [
      1790965098,
      1790965127,
      1790965146,
      1790965192,
      1790965225,
      1790965250,
      1790965285,
      1790965300,
      1790965346,
      1790965374,
      1790965403,
      1790965432,
      1790965446,
      1790965480,
      1790965529,
      1790965551,
      1790965563,
      1790965602,
      1790965612,
      1790965646,
      1790965660,
      1790965695,
      1790965721,
      1790965762,
      1790965793,
      1790965810,
      1790965839,
      1790965875,
      1790965895,
      1790965935,
      1790965977,
      1790966002,
      1790966031,
      1790966056,
      1790966095,
      1790966106,
      1790966139
    ],
    "wof:geomhash": "22bd40d37b772ee28b8a3b5525ad959c",
    "wof:id": 2048494409,
    "wof:repo": "sfomuseum-data-flights-2026-10"
  },
  "bbox": [
    -122.66996,
    37.45236,
    -122.14889,
    38.38429
  ],
  "geometry": {"type":"LineString","coordinates":[[-122.64216,38.38429],[-122.64559,38.3324],[-122.64772,38.29741],[-122.65294,38.21638],[-122.65659,38.15984],[-122.65936,38.11634],[-122.66332,38.05575],[-122.66502,38.02972],[-122.66996,37.95263],[-122.6673,37.90645],[-122.63608,37.86404],[-122.59815,37.82821],[-122.5792,37.81048],[-122.53616,37.77026],[-122.48085,37.71766],[-122.45556,37.69378],[-122.44213,37.68129],[-122.40086,37.64256],[-122.39095,37.63326],[-122.36134,37.60328],[-122.35186,37.58837],[-122.33184,37.55414],[-122.31677,37.5282],[-122.29305,37.48818],[-122.25862,37.46995],[-122.23674,37.46332],[-122.19944,37.45236],[-122.15559,37.46365],[-122.14889,37.48386],[-122.17579,37.52001],[-122.21279,37.55048],[-122.24026,37.56211],[-122.26935,37.57431],[-122.29167,37.5837],[-122.32251,37.59669],[-122.33163,37.60052],[-122.35686,37.61108]]}
}
