{
  "id": 2048519257,
  "type": "Feature",
  "properties": {
    "geom:area": 0,
    "geom:bbox": "-122.356970,36.719320,-121.876560,37.611180",
    "geom:latitude": 37.20876518423549,
    "geom:longitude": -122.06890180494236,
    "src:alt_label": "swim-approach",
    "src:geom": "swim",
    "swim:elevations": [
      5440,
      5363,
      4814,
      4614,
      4230,
      4123,
      3662,
      3417,
      3218,
      3145,
      3011,
      2760,
      2515,
      2468,
      2247,
      2216,
      2085,
      1835,
      1644,
      1480,
      1216,
      1185,
      1043,
      912,
      688,
      492,
      427,
      286,
      181,
      118,
      26
    ],
    "swim:geom": "approach",
    "swim:timestamps": [
      1791194634,
      1791194643,
      1791194696,
      1791194716,
      1791194754,
      1791194766,
      1791194814,
      1791194842,
      1791194866,
      1791194882,
      1791194921,
      1791194957,
      1791194996,
      1791195006,
      1791195058,
      1791195062,
      1791195082,
      1791195117,
      1791195139,
      1791195151,
      1791195192,
      1791195238,
      1791195257,
      1791195276,
      1791195319,
      1791195355,
      1791195375,
      1791195415,
      1791195448,
      1791195458,
      1791195488
    ],
    "wof:geomhash": "e73db4e96cdb28c22da6b76ffabc6590",
    "wof:id": 2048519257,
    "wof:repo": "sfomuseum-data-flights-2026-10"
  },
  "bbox": [
    -122.35697,
    36.71932,
    -121.87656,
    37.61118
  ],
  "geometry": {"type":"LineString","coordinates":[[-121.87656,36.71932],[-121.88623,36.73173],[-121.91505,36.8177],[-121.92382,36.84869],[-121.94186,36.91093],[-121.94727,36.93018],[-121.97296,37.00218],[-121.98789,37.04056],[-122.00011,37.07204],[-122.00776,37.09149],[-122.02671,37.1399],[-122.04409,37.18402],[-122.06209,37.23107],[-122.06652,37.24244],[-122.09073,37.30366],[-122.09272,37.30871],[-122.10196,37.3326],[-122.11758,37.37227],[-122.12772,37.3969],[-122.13197,37.41044],[-122.14738,37.45674],[-122.16265,37.50171],[-122.16925,37.52103],[-122.18324,37.53626],[-122.22692,37.55648],[-122.25928,37.57012],[-122.27484,37.57668],[-122.30463,37.58914],[-122.32773,37.59892],[-122.3355,37.60213],[-122.35697,37.61118]]}
}
