{
  "id": 2048496803,
  "type": "Feature",
  "properties": {
    "geom:area": 0,
    "geom:bbox": "-122.365190,37.630640,-121.442020,38.510690",
    "geom:latitude": 38.07552645551437,
    "geom:longitude": -121.91496324563316,
    "src:alt_label": "swim-takeoff",
    "src:geom": "swim",
    "swim:elevations": [
      152,
      301,
      712,
      974,
      1090,
      1162,
      1300,
      1685,
      2071,
      2214,
      2462,
      2604,
      2817,
      2989,
      3210,
      3350,
      3450,
      3581,
      4013,
      4099,
      4393,
      4599,
      4789,
      5085,
      5194,
      5455,
      5700,
      5796
    ],
    "swim:geom": "takeoff",
    "swim:timestamps": [
      1790926674,
      1790926682,
      1790926735,
      1790926768,
      1790926786,
      1790926802,
      1790926840,
      1790926877,
      1790926917,
      1790926933,
      1790926959,
      1790926978,
      1790926998,
      1790927017,
      1790927053,
      1790927086,
      1790927117,
      1790927132,
      1790927184,
      1790927195,
      1790927232,
      1790927258,
      1790927283,
      1790927329,
      1790927343,
      1790927383,
      1790927418,
      1790927439
    ],
    "wof:geomhash": "f07e4e3659b4745a823716ba614fc96e",
    "wof:id": 2048496803,
    "wof:repo": "sfomuseum-data-flights-2026-10"
  },
  "bbox": [
    -122.36519,
    37.63064,
    -121.44202,
    38.51069
  ],
  "geometry": {"type":"LineString","coordinates":[[-122.36519,37.63064],[-122.36135,37.63623],[-122.31677,37.66264],[-122.28485,37.68047],[-122.26667,37.69067],[-122.24881,37.70032],[-122.20471,37.72938],[-122.18815,37.77684],[-122.17235,37.8286],[-122.15681,37.84798],[-122.12808,37.87603],[-122.10631,37.89799],[-122.08364,37.92065],[-122.06288,37.94141],[-122.02098,37.98296],[-121.97955,38.0241],[-121.9383,38.06493],[-121.91722,38.08561],[-121.84439,38.15727],[-121.82826,38.1731],[-121.77666,38.22372],[-121.73803,38.26168],[-121.70246,38.29656],[-121.63437,38.36316],[-121.61207,38.38489],[-121.55041,38.4429],[-121.48308,38.4853],[-121.44202,38.51069]]}
}
