{
  "id": 2048498191,
  "type": "Feature",
  "properties": {
    "geom:area": 0,
    "geom:bbox": "-122.386530,37.634570,-121.280630,38.402950",
    "geom:latitude": 38.07900824964306,
    "geom:longitude": -121.94192633388928,
    "src:alt_label": "swim-takeoff",
    "src:geom": "swim",
    "swim:elevations": [
      318,
      627,
      1032,
      1110,
      1308,
      1659,
      1820,
      2341,
      2849,
      3073,
      3364,
      3424,
      3989,
      4269,
      4809,
      4967,
      5334,
      5519,
      5713,
      6123,
      6372,
      6957,
      7214,
      7427,
      7523,
      7794,
      8016,
      8277,
      8412,
      8592
    ],
    "swim:geom": "takeoff",
    "swim:timestamps": [
      1791003953,
      1791003977,
      1791004012,
      1791004023,
      1791004059,
      1791004101,
      1791004119,
      1791004161,
      1791004197,
      1791004218,
      1791004257,
      1791004266,
      1791004317,
      1791004335,
      1791004377,
      1791004395,
      1791004434,
      1791004450,
      1791004472,
      1791004526,
      1791004546,
      1791004579,
      1791004603,
      1791004628,
      1791004641,
      1791004664,
      1791004697,
      1791004727,
      1791004748,
      1791004770
    ],
    "wof:geomhash": "f8f5e2e02845662c2e45b3250d7901c2",
    "wof:id": 2048498191,
    "wof:repo": "sfomuseum-data-flights-2026-10"
  },
  "bbox": [
    -122.38653,
    37.63457,
    -121.28063,
    38.40295
  ],
  "geometry": {"type":"LineString","coordinates":[[-122.36094,37.63457],[-122.34532,37.6478],[-122.32351,37.66767],[-122.31642,37.67392],[-122.31147,37.70389],[-122.33577,37.74651],[-122.34745,37.76701],[-122.37366,37.8195],[-122.38653,37.86772],[-122.38529,37.89779],[-122.35589,37.94999],[-122.34063,37.95838],[-122.24246,37.9981],[-122.20739,38.01188],[-122.12652,38.04423],[-122.09141,38.05842],[-122.01266,38.08962],[-121.98058,38.10238],[-121.93504,38.1207],[-121.81944,38.16691],[-121.77538,38.18443],[-121.70423,38.21268],[-121.65197,38.23332],[-121.59619,38.25542],[-121.5657,38.26745],[-121.51456,38.28791],[-121.44013,38.3171],[-121.3708,38.348],[-121.32687,38.37417],[-121.28063,38.40295]]}
}
