{
  "id": 2048528919,
  "type": "Feature",
  "properties": {
    "geom:area": 0,
    "geom:bbox": "-122.357520,36.718320,-121.875460,37.611340",
    "geom:latitude": 37.20901910787459,
    "geom:longitude": -122.06874067035389,
    "src:alt_label": "swim-approach",
    "src:geom": "swim",
    "swim:elevations": [
      5834,
      5446,
      5116,
      4786,
      4431,
      4152,
      3966,
      3666,
      3198,
      3112,
      3021,
      2945,
      2785,
      2524,
      2320,
      2225,
      1908,
      1797,
      1727,
      1543,
      1226,
      1001,
      863,
      625,
      475,
      370,
      265,
      184,
      98,
      19
    ],
    "swim:geom": "approach",
    "swim:timestamps": [
      1791279654,
      1791279688,
      1791279717,
      1791279746,
      1791279777,
      1791279803,
      1791279820,
      1791279848,
      1791279891,
      1791279916,
      1791279933,
      1791279944,
      1791279970,
      1791280011,
      1791280048,
      1791280059,
      1791280095,
      1791280130,
      1791280153,
      1791280191,
      1791280228,
      1791280255,
      1791280275,
      1791280316,
      1791280346,
      1791280371,
      1791280400,
      1791280426,
      1791280453,
      1791280474
    ],
    "wof:geomhash": "3365905669f81cc94eb00f0093237037",
    "wof:id": 2048528919,
    "wof:repo": "sfomuseum-data-flights-2026-10"
  },
  "bbox": [
    -122.35752,
    36.71832,
    -121.87546,
    37.61134
  ],
  "geometry": {"type":"LineString","coordinates":[[-121.87546,36.71832],[-121.90285,36.77301],[-121.91627,36.82089],[-121.9299,36.86949],[-121.94387,36.91929],[-121.95634,36.96044],[-121.96717,36.98774],[-121.98294,37.02877],[-122.00843,37.09424],[-122.02243,37.12979],[-122.03143,37.15281],[-122.03737,37.16798],[-122.05064,37.20196],[-122.07123,37.25449],[-122.08944,37.30068],[-122.09487,37.31459],[-122.11326,37.36065],[-122.12809,37.40184],[-122.13638,37.42701],[-122.14972,37.46519],[-122.16242,37.50151],[-122.17137,37.52746],[-122.18884,37.54161],[-122.23351,37.55938],[-122.26293,37.57158],[-122.28497,37.58084],[-122.30639,37.5899],[-122.32442,37.5975],[-122.34252,37.60499],[-122.35752,37.61134]]}
}
