{
  "id": 2048515883,
  "type": "Feature",
  "properties": {
    "geom:area": 0,
    "geom:bbox": "-123.406930,37.442680,-122.392500,37.666410",
    "geom:latitude": 37.5685044335895,
    "geom:longitude": -122.89840057180426,
    "src:alt_label": "swim-takeoff",
    "src:geom": "swim",
    "swim:elevations": [
      122,
      568,
      729,
      861,
      1188,
      1271,
      1511,
      1944,
      2318,
      2667,
      3101,
      3225,
      3364,
      3691,
      3936,
      4123,
      4414,
      4758,
      5261,
      5430,
      5900,
      5969
    ],
    "swim:geom": "takeoff",
    "swim:timestamps": [
      1791123315,
      1791123354,
      1791123376,
      1791123390,
      1791123447,
      1791123458,
      1791123482,
      1791123517,
      1791123548,
      1791123573,
      1791123610,
      1791123619,
      1791123643,
      1791123683,
      1791123711,
      1791123725,
      1791123757,
      1791123783,
      1791123834,
      1791123852,
      1791123895,
      1791123901
    ],
    "wof:geomhash": "9ac488cef984b308162639b066ee5b9e",
    "wof:id": 2048515883,
    "wof:repo": "sfomuseum-data-flights-2026-10"
  },
  "bbox": [
    -123.40693,
    37.44268,
    -122.3925,
    37.66641
  ],
  "geometry": {"type":"LineString","coordinates":[[-122.3925,37.62608],[-122.42902,37.64202],[-122.4508,37.65182],[-122.46562,37.65837],[-122.53859,37.66641],[-122.55465,37.66204],[-122.59173,37.65165],[-122.64478,37.63766],[-122.69474,37.6248],[-122.7368,37.61436],[-122.79888,37.59856],[-122.8148,37.59446],[-122.8565,37.58394],[-122.93358,37.56464],[-122.99212,37.54991],[-123.02114,37.54234],[-123.08984,37.52452],[-123.14406,37.51059],[-123.25683,37.48144],[-123.29757,37.47083],[-123.39339,37.44613],[-123.40693,37.44268]]}
}
