{
  "id": 2048549001,
  "type": "Feature",
  "properties": {
    "geom:area": 0,
    "geom:bbox": "-122.360580,37.635940,-122.214150,38.481150",
    "geom:latitude": 38.0271752662972,
    "geom:longitude": -122.23737992638033,
    "src:alt_label": "swim-takeoff",
    "src:geom": "swim",
    "swim:elevations": [
      213,
      595,
      733,
      905,
      1064,
      1391,
      1660,
      2007,
      2329,
      2626,
      2930,
      3148,
      3348,
      3782,
      3920,
      3964,
      4191,
      4608,
      4909,
      5300,
      5483,
      5892
    ],
    "swim:geom": "takeoff",
    "swim:timestamps": [
      1791461172,
      1791461218,
      1791461247,
      1791461269,
      1791461287,
      1791461334,
      1791461364,
      1791461397,
      1791461427,
      1791461455,
      1791461480,
      1791461498,
      1791461531,
      1791461577,
      1791461593,
      1791461628,
      1791461662,
      1791461692,
      1791461719,
      1791461753,
      1791461770,
      1791461806
    ],
    "wof:geomhash": "1922412adcb59969db47d1dea2582735",
    "wof:id": 2048549001,
    "wof:repo": "sfomuseum-data-flights-2026-10"
  },
  "bbox": [
    -122.36058,
    37.63594,
    -122.21415,
    38.48115
  ],
  "geometry": {"type":"LineString","coordinates":[[-122.36058,37.63594],[-122.32136,37.65878],[-122.29352,37.67483],[-122.26887,37.68926],[-122.24861,37.70035],[-122.21415,37.74565],[-122.21623,37.78377],[-122.21759,37.82604],[-122.21852,37.86699],[-122.21959,37.9052],[-122.22057,37.94132],[-122.22132,37.96704],[-122.22249,38.01689],[-122.22459,38.09252],[-122.22525,38.11832],[-122.22691,38.17961],[-122.22843,38.23628],[-122.22965,38.28712],[-122.23092,38.33244],[-122.2356,38.39006],[-122.23854,38.41876],[-122.24493,38.48115]]}
}
