{
  "id": 2048497343,
  "type": "Feature",
  "properties": {
    "geom:area": 0,
    "geom:bbox": "-123.491670,37.634610,-122.412420,37.769830",
    "geom:latitude": 37.70962173101383,
    "geom:longitude": -122.94937883226366,
    "src:alt_label": "swim-takeoff",
    "src:geom": "swim",
    "swim:elevations": [
      353,
      589,
      846,
      945,
      1096,
      1192,
      1525,
      2197,
      2471,
      2715,
      3071,
      3226,
      3384,
      3446,
      3567,
      4078,
      4163,
      4457,
      4806,
      4986,
      5345
    ],
    "swim:geom": "takeoff",
    "swim:timestamps": [
      1790949627,
      1790949650,
      1790949683,
      1790949697,
      1790949738,
      1790949752,
      1790949780,
      1790949832,
      1790949856,
      1790949880,
      1790949913,
      1790949947,
      1790949982,
      1790949992,
      1790950015,
      1790950075,
      1790950083,
      1790950114,
      1790950151,
      1790950171,
      1790950213
    ],
    "wof:geomhash": "238935f2f35752cd0407617243023764",
    "wof:id": 2048497343,
    "wof:repo": "sfomuseum-data-flights-2026-10"
  },
  "bbox": [
    -123.49167,
    37.63461,
    -122.41242,
    37.76983
  ],
  "geometry": {"type":"LineString","coordinates":[[-122.41242,37.63461],[-122.43464,37.6446],[-122.4679,37.65926],[-122.48347,37.666],[-122.5389,37.67674],[-122.56095,37.67817],[-122.60508,37.68092],[-122.68989,37.68619],[-122.72926,37.68848],[-122.76882,37.69078],[-122.82502,37.69414],[-122.88645,37.69789],[-122.95564,37.70498],[-122.97757,37.70774],[-123.02705,37.71371],[-123.16265,37.73025],[-123.18177,37.73255],[-123.25537,37.74135],[-123.34341,37.75199],[-123.39081,37.75768],[-123.49167,37.76983]]}
}
