{
  "id": 2048524815,
  "type": "Feature",
  "properties": {
    "geom:area": 0,
    "geom:bbox": "-122.367360,37.626250,-122.114500,38.513310",
    "geom:latitude": 38.035902848479,
    "geom:longitude": -122.17911675665069,
    "src:alt_label": "swim-takeoff",
    "src:geom": "swim",
    "swim:elevations": [
      152,
      471,
      1006,
      1133,
      1253,
      1583,
      2028,
      2619,
      2962,
      3567,
      3682,
      3863,
      4300,
      4532,
      4788,
      5175,
      5742,
      5879,
      6136,
      6241,
      6395,
      6773,
      7038,
      7311,
      7726,
      7888
    ],
    "swim:geom": "takeoff",
    "swim:timestamps": [
      1791234998,
      1791235022,
      1791235061,
      1791235078,
      1791235095,
      1791235130,
      1791235155,
      1791235192,
      1791235213,
      1791235252,
      1791235261,
      1791235284,
      1791235317,
      1791235335,
      1791235353,
      1791235382,
      1791235429,
      1791235441,
      1791235464,
      1791235473,
      1791235488,
      1791235522,
      1791235547,
      1791235572,
      1791235614,
      1791235629
    ],
    "wof:geomhash": "05e03d5683ad0623402f02792fe924a6",
    "wof:id": 2048524815,
    "wof:repo": "sfomuseum-data-flights-2026-10"
  },
  "bbox": [
    -122.36736,
    37.62625,
    -122.1145,
    38.51331
  ],
  "geometry": {"type":"LineString","coordinates":[[-122.36736,37.62625],[-122.35181,37.63963],[-122.32167,37.65693],[-122.30823,37.66564],[-122.29145,37.67579],[-122.24954,37.69963],[-122.2195,37.71867],[-122.20616,37.76518],[-122.20166,37.7934],[-122.19342,37.84655],[-122.1914,37.86051],[-122.18546,37.8961],[-122.17581,37.94979],[-122.17073,37.97977],[-122.16645,38.0103],[-122.15871,38.05989],[-122.14519,38.14069],[-122.14168,38.16194],[-122.13479,38.20349],[-122.13199,38.22021],[-122.12755,38.24714],[-122.11706,38.31035],[-122.1145,38.35622],[-122.11765,38.40356],[-122.12337,38.48234],[-122.12565,38.51331]]}
}
