{
  "id": 2048560123,
  "type": "Feature",
  "properties": {
    "geom:area": 0,
    "geom:bbox": "-122.351710,37.643940,-121.250310,38.421680",
    "geom:latitude": 38.0548421048547,
    "geom:longitude": -121.82726504935923,
    "src:alt_label": "swim-takeoff",
    "src:geom": "swim",
    "swim:elevations": [
      380,
      688,
      829,
      1036,
      1363,
      1798,
      2146,
      2245,
      2863,
      3063,
      3191,
      3354,
      3523,
      4078,
      4389,
      4795,
      5038,
      5358,
      5795,
      5998,
      6223,
      6542,
      6626,
      7031,
      7206,
      7492,
      7611,
      7636,
      7739
    ],
    "swim:geom": "takeoff",
    "swim:timestamps": [
      1791543773,
      1791543800,
      1791543810,
      1791543829,
      1791543884,
      1791543925,
      1791543954,
      1791543963,
      1791544010,
      1791544026,
      1791544045,
      1791544068,
      1791544084,
      1791544129,
      1791544149,
      1791544192,
      1791544215,
      1791544245,
      1791544284,
      1791544309,
      1791544335,
      1791544372,
      1791544382,
      1791544429,
      1791544457,
      1791544492,
      1791544513,
      1791544520,
      1791544537
    ],
    "wof:geomhash": "21489ec3e66d4f38ca765e693911daef",
    "wof:id": 2048560123,
    "wof:repo": "sfomuseum-data-flights-2026-10"
  },
  "bbox": [
    -122.35171,
    37.64394,
    -121.25031,
    38.42168
  ],
  "geometry": {"type":"LineString","coordinates":[[-122.35171,37.64394],[-122.32788,37.65627],[-122.31854,37.66113],[-122.30272,37.67011],[-122.24583,37.70192],[-122.22176,37.74821],[-122.2107,37.7853],[-122.20726,37.79585],[-122.17945,37.85499],[-122.15885,37.87033],[-122.13298,37.88642],[-122.09641,37.9084],[-122.07099,37.92355],[-121.99786,37.96785],[-121.96558,37.98792],[-121.89423,38.03255],[-121.8548,38.05636],[-121.80297,38.08786],[-121.73592,38.13004],[-121.69094,38.15688],[-121.64185,38.18505],[-121.57259,38.22658],[-121.55468,38.23735],[-121.46596,38.29134],[-121.4104,38.32454],[-121.34009,38.36552],[-121.29803,38.39158],[-121.28389,38.40046],[-121.25031,38.42168]]}
}
