{
  "id": 2048497981,
  "type": "Feature",
  "properties": {
    "date:inception_lower": "2026-10-02",
    "date:inception_upper": "2026-10-02",
    "edtf:cessation": "",
    "edtf:inception": "2026-10-02",
    "flysfo:actual_timestamp": -1,
    "flysfo:airline": "TK",
    "flysfo:date": "2026-10-02",
    "flysfo:estimated_timestamp": 1790992800,
    "flysfo:event": "D",
    "flysfo:flight_number": "TK80",
    "flysfo:gate": "A2",
    "flysfo:journey": "SFO-IST",
    "flysfo:scheduled_timestamp": 1790991900,
    "flysfo:timestamp": 1790992800,
    "geom:area": 0,
    "geom:bbox": "-122.370943,37.617990,28.727778,41.262222",
    "geom:latitude": 39.440106,
    "geom:longitude": -46.8215825,
    "iata:airline": "TK",
    "icao:airline": "THY",
    "lbl:latitude": 37.61799,
    "lbl:longitude": -122.370943,
    "sfomuseum:airline_id": 1159285391,
    "sfomuseum:arrival_id": 1779770747,
    "sfomuseum:departure_id": 102527513,
    "sfomuseum:flight_id": "20261002-D-THY-80",
    "sfomuseum:flight_number": [
      "THY80",
      "TK80"
    ],
    "sfomuseum:placetype": "flight",
    "src:geom": "flysfo",
    "wof:belongsto": [
      1947304067,
      102527513,
      1947304073,
      102191575,
      85633793,
      102087579,
      85922583,
      554784711,
      85688637,
      1947304075,
      1947304069,
      102085387
    ],
    "wof:country": "US",
    "wof:created": 1791044116,
    "wof:geomhash": "a6a2bfb09ffab4e8f937cae1c7a9329e",
    "wof:hierarchy": [
      {
        "building_id": 1947304067,
        "campus_id": 102527513,
        "concourse_id": 1947304073,
        "continent_id": 102191575,
        "country_id": 85633793,
        "county_id": 102087579,
        "custom_id": 2048497981,
        "flight_id": 2048497981,
        "locality_id": 85922583,
        "postalcode_id": 554784711,
        "region_id": 85688637,
        "venue_id": 1947304075,
        "wing_id": 1947304069
      },
      {
        "building_id": 1947304067,
        "campus_id": 102527513,
        "concourse_id": 1947304073,
        "continent_id": 102191575,
        "country_id": 85633793,
        "county_id": 102085387,
        "custom_id": 2048497981,
        "flight_id": 2048497981,
        "region_id": 85688637,
        "venue_id": 1947304075,
        "wing_id": 1947304069
      }
    ],
    "wof:id": 2048497981,
    "wof:involves": [
      1779770747,
      102527513,
      1159285391,
      1947304075
    ],
    "wof:lastmodified": 1791044116,
    "wof:name": "TK80 (SFO-IST)",
    "wof:parent_id": 1947304075,
    "wof:placetype": "custom",
    "wof:placetype_alt": [
      "flight"
    ],
    "wof:repo": "sfomuseum-data-flights-2026-10",
    "wof:superseded_by": [],
    "wof:supersedes": []
  },
  "bbox": [
    -122.370943,
    37.61799,
    28.727778,
    41.262222
  ],
  "geometry": {"type":"MultiPoint","coordinates":[[-122.370943,37.61799],[28.727778,41.262222]]}
}
