{
  "id": 2048511319,
  "type": "Feature",
  "properties": {
    "geom:area": 0,
    "geom:bbox": "-122.356850,37.491630,-121.245350,37.613460",
    "geom:latitude": 37.54685177943026,
    "geom:longitude": -121.80602945492227,
    "src:alt_label": "swim-approach",
    "src:geom": "swim",
    "swim:elevations": [
      4593,
      4270,
      3779,
      3499,
      3404,
      3129,
      3096,
      3024,
      3010,
      2893,
      2759,
      2593,
      2310,
      2117,
      1900,
      1830,
      1685,
      1637,
      1354,
      1164,
      974,
      933,
      676,
      571,
      420,
      265,
      68,
      0
    ],
    "swim:geom": "approach",
    "swim:timestamps": [
      1791123873,
      1791123901,
      1791123953,
      1791123985,
      1791123994,
      1791124046,
      1791124055,
      1791124075,
      1791124080,
      1791124097,
      1791124115,
      1791124142,
      1791124196,
      1791124226,
      1791124274,
      1791124294,
      1791124318,
      1791124325,
      1791124368,
      1791124404,
      1791124432,
      1791124441,
      1791124483,
      1791124502,
      1791124532,
      1791124569,
      1791124610,
      1791124623
    ],
    "wof:geomhash": "8154fd8d60b89041e097e7cb39aab96b",
    "wof:id": 2048511319,
    "wof:repo": "sfomuseum-data-flights-2026-10"
  },
  "bbox": [
    -122.35685,
    37.49163,
    -121.24535,
    37.61346
  ],
  "geometry": {"type":"LineString","coordinates":[[-121.24535,37.59497],[-121.30365,37.5874],[-121.41156,37.57617],[-121.47488,37.56858],[-121.49314,37.56622],[-121.59258,37.55427],[-121.60888,37.55244],[-121.64286,37.5464],[-121.65067,37.54453],[-121.67957,37.53761],[-121.70915,37.53036],[-121.75149,37.52055],[-121.83627,37.50037],[-121.88108,37.49163],[-121.95323,37.49293],[-121.9827,37.49466],[-122.01644,37.50387],[-122.02642,37.50714],[-122.08457,37.52594],[-122.13165,37.54125],[-122.1662,37.55238],[-122.17732,37.55596],[-122.22649,37.57182],[-122.24828,37.57891],[-122.27941,37.58859],[-122.31309,37.59824],[-122.34729,37.60928],[-122.35685,37.61346]]}
}
