{
  "id": 2048532915,
  "type": "Feature",
  "properties": {
    "geom:area": 0,
    "geom:bbox": "-122.559660,36.725790,-122.292030,37.711240",
    "geom:latitude": 37.24874687397162,
    "geom:longitude": -122.48072766134847,
    "src:alt_label": "swim-takeoff",
    "src:geom": "swim",
    "swim:elevations": [
      326,
      601,
      628,
      1104,
      1277,
      1579,
      2214,
      2795,
      3289,
      3298,
      3879,
      4309,
      4982,
      5284,
      5796,
      5883,
      6656,
      6914,
      7427,
      7533,
      7865,
      8243,
      8608,
      8810,
      9086,
      9125,
      9172
    ],
    "swim:geom": "takeoff",
    "swim:timestamps": [
      1791319315,
      1791319347,
      1791319350,
      1791319386,
      1791319408,
      1791319433,
      1791319467,
      1791319494,
      1791319525,
      1791319531,
      1791319580,
      1791319606,
      1791319647,
      1791319668,
      1791319704,
      1791319710,
      1791319767,
      1791319788,
      1791319829,
      1791319837,
      1791319868,
      1791319904,
      1791319946,
      1791319970,
      1791320005,
      1791320010,
      1791320017
    ],
    "wof:geomhash": "0e1ed865099c2994b27a0e13f2785e70",
    "wof:id": 2048532915,
    "wof:repo": "sfomuseum-data-flights-2026-10"
  },
  "bbox": [
    -122.55966,
    36.72579,
    -122.29203,
    37.71124
  ],
  "geometry": {"type":"LineString","coordinates":[[-122.36367,37.63823],[-122.36282,37.66423],[-122.36275,37.66698],[-122.36952,37.69923],[-122.3932,37.71124],[-122.43012,37.70661],[-122.47986,37.69005],[-122.49911,37.6607],[-122.50348,37.61987],[-122.50433,37.6113],[-122.51233,37.53192],[-122.51693,37.48635],[-122.52398,37.41461],[-122.52765,37.37756],[-122.53409,37.31105],[-122.53531,37.29901],[-122.54601,37.19083],[-122.55009,37.14902],[-122.55801,37.06844],[-122.55966,37.0511],[-122.54768,36.9877],[-122.49622,36.92426],[-122.42166,36.85179],[-122.3792,36.81045],[-122.31484,36.74777],[-122.3052,36.73853],[-122.29203,36.72579]]}
}
