{
  "id": 2048538747,
  "type": "Feature",
  "properties": {
    "geom:area": 0,
    "geom:bbox": "-122.385810,37.630610,-121.250970,38.164790",
    "geom:latitude": 37.989834582657714,
    "geom:longitude": -121.93801915774276,
    "src:alt_label": "swim-takeoff",
    "src:geom": "swim",
    "swim:elevations": [
      183,
      394,
      521,
      580,
      999,
      1245,
      1306,
      1393,
      1805,
      2024,
      2192,
      2388,
      2561,
      2916,
      3245,
      3353,
      3416,
      3636,
      3793,
      4011,
      4299,
      4491,
      4658,
      4870,
      4995,
      5157,
      5278,
      5416,
      5487,
      5713,
      5750
    ],
    "swim:geom": "takeoff",
    "swim:timestamps": [
      1791436197,
      1791436214,
      1791436244,
      1791436262,
      1791436307,
      1791436341,
      1791436358,
      1791436382,
      1791436427,
      1791436451,
      1791436466,
      1791436484,
      1791436511,
      1791436544,
      1791436586,
      1791436610,
      1791436625,
      1791436676,
      1791436700,
      1791436727,
      1791436763,
      1791436798,
      1791436827,
      1791436856,
      1791436879,
      1791436904,
      1791436926,
      1791436950,
      1791436962,
      1791437004,
      1791437014
    ],
    "wof:geomhash": "44bb54a69b0f82a4260c51b3ff712e00",
    "wof:id": 2048538747,
    "wof:repo": "sfomuseum-data-flights-2026-10"
  },
  "bbox": [
    -122.38581,
    37.63061,
    -121.25097,
    38.16479
  ],
  "geometry": {"type":"LineString","coordinates":[[-122.36764,37.63061],[-122.357,37.64063],[-122.33522,37.65871],[-122.32041,37.67107],[-122.3181,37.71167],[-122.33445,37.74178],[-122.34296,37.75774],[-122.35557,37.78303],[-122.38127,37.83473],[-122.38581,37.8647],[-122.38514,37.88419],[-122.38436,37.90736],[-122.36634,37.93932],[-122.31398,37.95432],[-122.24349,37.96879],[-122.1996,37.97778],[-122.17087,37.98356],[-122.06524,38.00493],[-122.01214,38.01554],[-121.95173,38.02754],[-121.87026,38.04377],[-121.78704,38.0602],[-121.71762,38.07393],[-121.64762,38.08765],[-121.59196,38.09853],[-121.52824,38.11104],[-121.47386,38.12164],[-121.41338,38.13341],[-121.38295,38.13931],[-121.27662,38.15983],[-121.25097,38.16479]]}
}
