{
  "id": 2048501239,
  "type": "Feature",
  "properties": {
    "geom:area": 0,
    "geom:bbox": "-122.355700,37.491410,-121.252000,37.612950",
    "geom:latitude": 37.54647328697874,
    "geom:longitude": -121.80882830559773,
    "src:alt_label": "swim-approach",
    "src:geom": "swim",
    "swim:elevations": [
      4533,
      4246,
      3839,
      3729,
      3222,
      3166,
      3053,
      2830,
      2736,
      2457,
      2292,
      2104,
      1978,
      1856,
      1781,
      1558,
      1340,
      1127,
      1049,
      818,
      654,
      548,
      428,
      302,
      176,
      150,
      23
    ],
    "swim:geom": "approach",
    "swim:timestamps": [
      1791050047,
      1791050077,
      1791050120,
      1791050131,
      1791050187,
      1791050198,
      1791050236,
      1791050272,
      1791050285,
      1791050331,
      1791050361,
      1791050392,
      1791050420,
      1791050453,
      1791050466,
      1791050502,
      1791050536,
      1791050571,
      1791050587,
      1791050626,
      1791050658,
      1791050674,
      1791050697,
      1791050723,
      1791050754,
      1791050761,
      1791050793
    ],
    "wof:geomhash": "2cb2487c36439b9daf63d7fae18bff28",
    "wof:id": 2048501239,
    "wof:repo": "sfomuseum-data-flights-2026-10"
  },
  "bbox": [
    -122.3557,
    37.49141,
    -121.252,
    37.61295
  ],
  "geometry": {"type":"LineString","coordinates":[[-121.252,37.59425],[-121.31456,37.58649],[-121.40362,37.57668],[-121.42541,37.57419],[-121.5375,37.561],[-121.56113,37.55825],[-121.63129,37.54915],[-121.69349,37.53434],[-121.71566,37.52904],[-121.79097,37.51154],[-121.83941,37.49992],[-121.88809,37.49141],[-121.93085,37.49259],[-121.9813,37.49426],[-121.99956,37.49825],[-122.04603,37.51347],[-122.09019,37.52767],[-122.13447,37.54159],[-122.15408,37.54798],[-122.20072,37.5636],[-122.23673,37.57544],[-122.2545,37.58111],[-122.27724,37.58739],[-122.30124,37.59443],[-122.32633,37.60068],[-122.33175,37.60272],[-122.3557,37.61295]]}
}
