{
  "id": 2048506933,
  "type": "Feature",
  "properties": {
    "geom:area": 0,
    "geom:bbox": "-122.457500,36.719550,-121.508910,37.700560",
    "geom:latitude": 37.23235023869169,
    "geom:longitude": -122.05370271847163,
    "src:alt_label": "swim-takeoff",
    "src:geom": "swim",
    "swim:elevations": [
      365,
      583,
      970,
      1091,
      1220,
      1256,
      2109,
      2533,
      2831,
      3486,
      3671,
      4367,
      4553,
      5046,
      5346,
      5620,
      5998,
      6187,
      6621,
      6904,
      7131,
      7345,
      7559,
      7673,
      8055,
      8158,
      8579,
      8798,
      8961,
      9266,
      9449,
      9449
    ],
    "swim:geom": "takeoff",
    "swim:timestamps": [
      1791036015,
      1791036033,
      1791036081,
      1791036115,
      1791036146,
      1791036155,
      1791036206,
      1791036231,
      1791036251,
      1791036293,
      1791036306,
      1791036355,
      1791036372,
      1791036408,
      1791036444,
      1791036467,
      1791036499,
      1791036517,
      1791036555,
      1791036579,
      1791036604,
      1791036630,
      1791036651,
      1791036663,
      1791036709,
      1791036724,
      1791036769,
      1791036805,
      1791036829,
      1791036861,
      1791036893,
      1791036936
    ],
    "wof:geomhash": "7b88b9f0eaba63e788084985613bc722",
    "wof:id": 2048506933,
    "wof:repo": "sfomuseum-data-flights-2026-10"
  },
  "bbox": [
    -122.4575,
    36.71955,
    -121.50891,
    37.70056
  ],
  "geometry": {"type":"LineString","coordinates":[[-122.36635,37.63697],[-122.3654,37.64862],[-122.36179,37.6812],[-122.38381,37.70056],[-122.4149,37.68404],[-122.41942,37.67384],[-122.43668,37.61021],[-122.44672,37.57888],[-122.45478,37.55301],[-122.4575,37.49811],[-122.44458,37.48443],[-122.36743,37.45526],[-122.3385,37.44609],[-122.27901,37.42626],[-122.22573,37.39314],[-122.19486,37.36425],[-122.15283,37.3249],[-122.12856,37.3022],[-122.07705,37.25402],[-122.04403,37.22309],[-122.0104,37.19152],[-121.97315,37.15647],[-121.94335,37.12847],[-121.92726,37.1134],[-121.85982,37.04967],[-121.83795,37.02866],[-121.76941,36.96514],[-121.71383,36.91457],[-121.67703,36.87894],[-121.6265,36.83219],[-121.57814,36.78677],[-121.50891,36.71955]]}
}
