{
  "id": 2048482835,
  "type": "Feature",
  "properties": {
    "date:inception_lower": "2026-10-01",
    "date:inception_upper": "2026-10-01",
    "edtf:cessation": "",
    "edtf:inception": "2026-10-01",
    "flysfo:actual_timestamp": -1,
    "flysfo:airline": "BA",
    "flysfo:base_airline": "",
    "flysfo:base_flight_number": "9318",
    "flysfo:date": "2026-10-01",
    "flysfo:estimated_timestamp": 1790899800,
    "flysfo:event": "A",
    "flysfo:flight_number": "BA6416",
    "flysfo:gate": "C1",
    "flysfo:journey": "PSP-SFO",
    "flysfo:scheduled_timestamp": 1790894400,
    "flysfo:timestamp": 1790899800,
    "geom:area": 0,
    "geom:bbox": "-122.370943,33.824619,-116.506042,37.617990",
    "geom:latitude": 35.7213045,
    "geom:longitude": -119.4384925,
    "iata:airline": "BA",
    "iata:base_airline": "",
    "icao:airline": "BAW",
    "icao:base_airline": "AAL",
    "lbl:latitude": 37.61799,
    "lbl:longitude": -122.370943,
    "sfomuseum:airline_id": 1159284021,
    "sfomuseum:arrival_id": 102527513,
    "sfomuseum:base_flight_id": "20261001-A-AAL-9318",
    "sfomuseum:departure_id": 102533591,
    "sfomuseum:flight_id": "20261001-A-BAW-6416",
    "sfomuseum:flight_number": [
      "BAW6416",
      "BA6416"
    ],
    "sfomuseum:placetype": "flight",
    "src:geom": "flysfo",
    "wof:belongsto": [
      1947304067,
      102527513,
      1947304383,
      102191575,
      85633793,
      102087579,
      85922583,
      554784711,
      85688637,
      1947304387,
      1947304259,
      102085387
    ],
    "wof:country": "US",
    "wof:created": 1790957059,
    "wof:geomhash": "a35a6e87f0ae0f1f716f88067ee31aa3",
    "wof:hierarchy": [
      {
        "building_id": 1947304067,
        "campus_id": 102527513,
        "concourse_id": 1947304383,
        "continent_id": 102191575,
        "country_id": 85633793,
        "county_id": 102087579,
        "custom_id": 2048482835,
        "flight_id": 2048482835,
        "locality_id": 85922583,
        "postalcode_id": 554784711,
        "region_id": 85688637,
        "venue_id": 1947304387,
        "wing_id": 1947304259
      },
      {
        "building_id": 1947304067,
        "campus_id": 102527513,
        "concourse_id": 1947304383,
        "continent_id": 102191575,
        "country_id": 85633793,
        "county_id": 102085387,
        "custom_id": 2048482835,
        "flight_id": 2048482835,
        "region_id": 85688637,
        "venue_id": 1947304387,
        "wing_id": 1947304259
      }
    ],
    "wof:id": 2048482835,
    "wof:involves": [
      102527513,
      102533591,
      1159284021,
      1947304387,
      1159283849
    ],
    "wof:lastmodified": 1790957059,
    "wof:name": "BA6416 (PSP-SFO)",
    "wof:parent_id": 1947304387,
    "wof:placetype": "custom",
    "wof:placetype_alt": [
      "flight"
    ],
    "wof:repo": "sfomuseum-data-flights-2026-10",
    "wof:superseded_by": [],
    "wof:supersedes": []
  },
  "bbox": [
    -122.370943,
    33.824619,
    -116.506042,
    37.61799
  ],
  "geometry": {"type":"MultiPoint","coordinates":[[-116.506042,33.824619],[-122.370943,37.61799]]}
}
