{
  "id": 2048489363,
  "type": "Feature",
  "properties": {
    "geom:area": 0,
    "geom:bbox": "-122.455270,36.744720,-121.577530,37.695310",
    "geom:latitude": 37.2231127028334,
    "geom:longitude": -122.09482562357108,
    "src:alt_label": "swim-takeoff",
    "src:geom": "swim",
    "swim:elevations": [
      122,
      242,
      570,
      833,
      1176,
      1242,
      1654,
      1760,
      2255,
      2709,
      3429,
      3815,
      4278,
      4683,
      4857,
      5003,
      5095,
      5165,
      5279,
      5691,
      5955,
      6116,
      6558,
      6762,
      6849,
      7077,
      7371,
      7629,
      7942,
      8209,
      8230
    ],
    "swim:geom": "takeoff",
    "swim:timestamps": [
      1790852338,
      1790852348,
      1790852380,
      1790852407,
      1790852458,
      1790852468,
      1790852517,
      1790852523,
      1790852553,
      1790852581,
      1790852632,
      1790852659,
      1790852691,
      1790852723,
      1790852740,
      1790852768,
      1790852786,
      1790852801,
      1790852826,
      1790852868,
      1790852895,
      1790852912,
      1790852968,
      1790852993,
      1790853005,
      1790853031,
      1790853069,
      1790853096,
      1790853123,
      1790853161,
      1790853184
    ],
    "wof:geomhash": "44eb25cb354e592b3435a41341b5fbc6",
    "wof:id": 2048489363,
    "wof:repo": "sfomuseum-data-flights-2026-10"
  },
  "bbox": [
    -122.45527,
    36.74472,
    -121.57753,
    37.69531
  ],
  "geometry": {"type":"LineString","coordinates":[[-122.37042,37.62703],[-122.36703,37.63266],[-122.36406,37.65494],[-122.36222,37.67495],[-122.39572,37.69531],[-122.40561,37.69035],[-122.42968,37.63983],[-122.43227,37.63296],[-122.44482,37.59608],[-122.45527,37.55996],[-122.42645,37.49608],[-122.40506,37.46335],[-122.37284,37.42636],[-122.33338,37.39292],[-122.31063,37.3736],[-122.27319,37.34198],[-122.24711,37.31994],[-122.22577,37.30179],[-122.18739,37.26917],[-122.1183,37.21036],[-122.07515,37.17363],[-122.04607,37.14877],[-121.95237,37.06878],[-121.90949,37.03203],[-121.88944,37.01482],[-121.84401,36.97583],[-121.77804,36.91904],[-121.72976,36.87746],[-121.6817,36.83615],[-121.61611,36.77833],[-121.57753,36.74472]]}
}
