{
  "id": 2048519267,
  "type": "Feature",
  "properties": {
    "date:cessation_lower": "2026-10-05",
    "date:cessation_upper": "2026-10-05",
    "date:inception_lower": "1970-01-01",
    "date:inception_upper": "1970-01-01",
    "edtf:cessation": "2026-10-05T12:24:33-07:00",
    "edtf:inception": "1970-01-01T00:00:00Z",
    "flysfo:actual_timestamp": -1,
    "flysfo:airline": "F9",
    "flysfo:date": "2026-10-05",
    "flysfo:estimated_timestamp": 1791253800,
    "flysfo:event": "A",
    "flysfo:flight_number": "F93581",
    "flysfo:gate": "B17",
    "flysfo:journey": "SNA-SFO",
    "flysfo:scheduled_timestamp": 1791254340,
    "flysfo:timestamp": 1791254340,
    "geom:area": 0,
    "geom:bbox": "-122.370943,33.677724,-117.866280,37.617990",
    "geom:latitude": 35.647857,
    "geom:longitude": -120.1186115,
    "iata:airline": "F9",
    "icao:aircraft": "A20N",
    "icao:airline": "FFT",
    "lbl:latitude": 37.61799,
    "lbl:longitude": -122.370943,
    "sfomuseum:aircraft_id": 1377564295,
    "sfomuseum:airline_id": 1159284401,
    "sfomuseum:arrival_id": 102527513,
    "sfomuseum:departure_id": 102534161,
    "sfomuseum:flight_id": "20261005-A-FFT-3581",
    "sfomuseum:flight_number": [
      "FFT3581",
      "F93581"
    ],
    "sfomuseum:placetype": "flight",
    "src:geom": "flysfo",
    "src:geom_alt": [
      "swim-approach"
    ],
    "swim:tail_number": "N337FR",
    "wof:belongsto": [
      1947304067,
      102527513,
      1947304261,
      102191575,
      85633793,
      102087579,
      85922583,
      554784711,
      85688637,
      1947304285,
      1947304259,
      102085387
    ],
    "wof:country": "US",
    "wof:created": 1791302745,
    "wof:geomhash": "01009f732d03a7803d3f7fd23cf321f4",
    "wof:hierarchy": [
      {
        "building_id": 1947304067,
        "campus_id": 102527513,
        "concourse_id": 1947304261,
        "continent_id": 102191575,
        "country_id": 85633793,
        "county_id": 102087579,
        "custom_id": 2048519267,
        "flight_id": 2048519267,
        "locality_id": 85922583,
        "postalcode_id": 554784711,
        "region_id": 85688637,
        "venue_id": 1947304285,
        "wing_id": 1947304259
      },
      {
        "building_id": 1947304067,
        "campus_id": 102527513,
        "concourse_id": 1947304261,
        "continent_id": 102191575,
        "country_id": 85633793,
        "county_id": 102085387,
        "custom_id": 2048519267,
        "flight_id": 2048519267,
        "region_id": 85688637,
        "venue_id": 1947304285,
        "wing_id": 1947304259
      }
    ],
    "wof:id": 2048519267,
    "wof:involves": [
      1377564295,
      102527513,
      102534161,
      1159284401,
      1947304285
    ],
    "wof:lastmodified": 1791303551,
    "wof:name": "F93581 (SNA-SFO)",
    "wof:parent_id": 1947304285,
    "wof:placetype": "custom",
    "wof:placetype_alt": [
      "flight"
    ],
    "wof:repo": "sfomuseum-data-flights-2026-10",
    "wof:superseded_by": [],
    "wof:supersedes": []
  },
  "bbox": [
    -122.370943,
    33.677724,
    -117.86628,
    37.61799
  ],
  "geometry": {"type":"MultiPoint","coordinates":[[-117.86628,33.677724],[-122.370943,37.61799]]}
}
