{
  "id": 2048545493,
  "type": "Feature",
  "properties": {
    "date:inception_lower": "2026-10-08",
    "date:inception_upper": "2026-10-08",
    "edtf:cessation": "",
    "edtf:inception": "2026-10-08",
    "flysfo:actual_timestamp": -1,
    "flysfo:airline": "TX",
    "flysfo:base_airline": "",
    "flysfo:base_flight_number": "6711",
    "flysfo:date": "2026-10-08",
    "flysfo:estimated_timestamp": 1791509520,
    "flysfo:event": "A",
    "flysfo:flight_number": "TX6711",
    "flysfo:gate": "A6",
    "flysfo:journey": "PPT-SFO",
    "flysfo:scheduled_timestamp": 1791507900,
    "flysfo:timestamp": 1791509520,
    "geom:area": 0,
    "geom:bbox": "-149.617144,-17.573463,-122.370943,37.617990",
    "geom:latitude": 10.0222635,
    "geom:longitude": -135.9940435,
    "iata:airline": "TX",
    "iata:base_airline": "",
    "icao:airline": "FWI",
    "icao:base_airline": "FWI",
    "lbl:latitude": 37.612674,
    "lbl:longitude": -122.389174,
    "sfomuseum:airline_id": 1779782741,
    "sfomuseum:arrival_id": 102527513,
    "sfomuseum:base_flight_id": "20261008-A-FWI-6711",
    "sfomuseum:departure_id": 102558779,
    "sfomuseum:flight_id": "20261008-A-FWI-6711",
    "sfomuseum:flight_number": [
      "FWI6711",
      "TX6711"
    ],
    "sfomuseum:placetype": "flight",
    "src:geom": "flysfo",
    "wof:belongsto": [
      1947304067,
      102527513,
      1947304073,
      102191575,
      85633793,
      102087579,
      85922583,
      554784711,
      85688637,
      1947304085,
      1947304069,
      102085387
    ],
    "wof:country": "US",
    "wof:created": 1791562003,
    "wof:geomhash": "cb635fc427df70f0d5f88d1f39ad4ded",
    "wof:hierarchy": [
      {
        "building_id": 1947304067,
        "campus_id": 102527513,
        "concourse_id": 1947304073,
        "continent_id": 102191575,
        "country_id": 85633793,
        "county_id": 102087579,
        "custom_id": 2048545493,
        "flight_id": 2048545493,
        "locality_id": 85922583,
        "postalcode_id": 554784711,
        "region_id": 85688637,
        "venue_id": 1947304085,
        "wing_id": 1947304069
      },
      {
        "building_id": 1947304067,
        "campus_id": 102527513,
        "concourse_id": 1947304073,
        "continent_id": 102191575,
        "country_id": 85633793,
        "county_id": 102085387,
        "custom_id": 2048545493,
        "flight_id": 2048545493,
        "region_id": 85688637,
        "venue_id": 1947304085,
        "wing_id": 1947304069
      }
    ],
    "wof:id": 2048545493,
    "wof:involves": [
      102527513,
      102558779,
      1779782741,
      1947304085,
      1779782741
    ],
    "wof:lastmodified": 1791562003,
    "wof:name": "TX6711 (PPT-SFO)",
    "wof:parent_id": 1947304085,
    "wof:placetype": "custom",
    "wof:placetype_alt": [
      "flight"
    ],
    "wof:repo": "sfomuseum-data-flights-2026-10",
    "wof:superseded_by": [],
    "wof:supersedes": []
  },
  "bbox": [
    -149.617144,
    -17.573463,
    -122.370943,
    37.61799
  ],
  "geometry": {"type":"MultiPoint","coordinates":[[-149.617144,-17.573463],[-122.370943,37.61799]]}
}
