{
  "id": 2048555153,
  "type": "Feature",
  "properties": {
    "date:inception_lower": "2026-10-09",
    "date:inception_upper": "2026-10-09",
    "edtf:cessation": "",
    "edtf:inception": "2026-10-09",
    "flysfo:actual_timestamp": -1,
    "flysfo:airline": "QR",
    "flysfo:base_airline": "",
    "flysfo:base_flight_number": "9338",
    "flysfo:date": "2026-10-09",
    "flysfo:estimated_timestamp": 1791601800,
    "flysfo:event": "A",
    "flysfo:flight_number": "QR2968",
    "flysfo:gate": "B12",
    "flysfo:journey": "RDM-SFO",
    "flysfo:scheduled_timestamp": 1791601800,
    "flysfo:timestamp": 1791601800,
    "geom:area": 0,
    "geom:bbox": "-122.370943,37.617990,-121.157137,44.259811",
    "geom:latitude": 40.9389005,
    "geom:longitude": -121.76404,
    "iata:airline": "QR",
    "iata:base_airline": "",
    "icao:airline": "QTR",
    "icao:base_airline": "AAL",
    "lbl:latitude": 37.61799,
    "lbl:longitude": -122.370943,
    "sfomuseum:airline_id": 1159286153,
    "sfomuseum:arrival_id": 102527513,
    "sfomuseum:base_flight_id": "20261009-A-AAL-9338",
    "sfomuseum:departure_id": 102530507,
    "sfomuseum:flight_id": "20261009-A-QTR-2968",
    "sfomuseum:flight_number": [
      "QTR2968",
      "QR2968"
    ],
    "sfomuseum:placetype": "flight",
    "src:geom": "flysfo",
    "wof:belongsto": [
      1947304067,
      102527513,
      1947304261,
      102191575,
      85633793,
      102087579,
      85922583,
      554784711,
      85688637,
      1947304263,
      1947304259,
      102085387
    ],
    "wof:country": "US",
    "wof:created": 1791648401,
    "wof:geomhash": "e570a09b358444cf621c068c13b8dbc0",
    "wof:hierarchy": [
      {
        "building_id": 1947304067,
        "campus_id": 102527513,
        "concourse_id": 1947304261,
        "continent_id": 102191575,
        "country_id": 85633793,
        "county_id": 102087579,
        "custom_id": 2048555153,
        "flight_id": 2048555153,
        "locality_id": 85922583,
        "postalcode_id": 554784711,
        "region_id": 85688637,
        "venue_id": 1947304263,
        "wing_id": 1947304259
      },
      {
        "building_id": 1947304067,
        "campus_id": 102527513,
        "concourse_id": 1947304261,
        "continent_id": 102191575,
        "country_id": 85633793,
        "county_id": 102085387,
        "custom_id": 2048555153,
        "flight_id": 2048555153,
        "region_id": 85688637,
        "venue_id": 1947304263,
        "wing_id": 1947304259
      }
    ],
    "wof:id": 2048555153,
    "wof:involves": [
      102527513,
      102530507,
      1159286153,
      1947304263,
      1159283849
    ],
    "wof:lastmodified": 1791648401,
    "wof:name": "QR2968 (RDM-SFO)",
    "wof:parent_id": 1947304263,
    "wof:placetype": "custom",
    "wof:placetype_alt": [
      "flight"
    ],
    "wof:repo": "sfomuseum-data-flights-2026-10",
    "wof:superseded_by": [],
    "wof:supersedes": []
  },
  "bbox": [
    -122.370943,
    37.61799,
    -121.157137,
    44.259811
  ],
  "geometry": {"type":"MultiPoint","coordinates":[[-121.157137,44.259811],[-122.370943,37.61799]]}
}
