{
  "id": 2048515581,
  "type": "Feature",
  "properties": {
    "geom:area": 0,
    "geom:bbox": "-122.368080,37.625440,-121.459290,38.501350",
    "geom:latitude": 38.07197308477068,
    "geom:longitude": -121.92843990542968,
    "src:alt_label": "swim-takeoff",
    "src:geom": "swim",
    "swim:elevations": [
      183,
      614,
      739,
      991,
      1124,
      1300,
      1596,
      2453,
      2998,
      3362,
      3543,
      4171,
      4560,
      4644,
      5118,
      5505,
      5860,
      6158,
      6417,
      6765,
      7068,
      7497,
      7750,
      8019,
      8115,
      8292
    ],
    "swim:geom": "takeoff",
    "swim:timestamps": [
      1791121218,
      1791121251,
      1791121261,
      1791121299,
      1791121333,
      1791121361,
      1791121385,
      1791121434,
      1791121466,
      1791121495,
      1791121516,
      1791121558,
      1791121587,
      1791121598,
      1791121640,
      1791121669,
      1791121700,
      1791121730,
      1791121754,
      1791121785,
      1791121820,
      1791121858,
      1791121882,
      1791121914,
      1791121933,
      1791121958
    ],
    "wof:geomhash": "e515bfe0fcb679d9e083453bfea7d783",
    "wof:id": 2048515581,
    "wof:repo": "sfomuseum-data-flights-2026-10"
  },
  "bbox": [
    -122.36808,
    37.62544,
    -121.45929,
    38.50135
  ],
  "geometry": {"type":"LineString","coordinates":[[-122.36808,37.62544],[-122.34693,37.6399],[-122.34077,37.64425],[-122.31608,37.66038],[-122.28778,37.67779],[-122.25787,37.69566],[-122.22597,37.71237],[-122.17564,37.7624],[-122.14351,37.7974],[-122.12717,37.83497],[-122.11866,37.86755],[-122.10056,37.93426],[-122.07177,37.97504],[-122.0555,37.99008],[-121.99477,38.04573],[-121.95235,38.08437],[-121.90439,38.12741],[-121.85624,38.17066],[-121.81782,38.2053],[-121.7683,38.24991],[-121.70973,38.30242],[-121.64509,38.36043],[-121.60504,38.39647],[-121.54772,38.44515],[-121.51002,38.47016],[-121.45929,38.50135]]}
}
