{
  "id": 2048524937,
  "type": "Feature",
  "properties": {
    "geom:area": 0,
    "geom:bbox": "-122.449860,37.363810,-121.248320,37.706750",
    "geom:latitude": 37.436246123860066,
    "geom:longitude": -121.95721446138786,
    "src:alt_label": "swim-takeoff",
    "src:geom": "swim",
    "swim:elevations": [
      354,
      593,
      1008,
      1220,
      1242,
      1847,
      2054,
      2582,
      3189,
      3342,
      3585,
      4158,
      4659,
      5075,
      5319,
      5551,
      5888,
      6141,
      6421,
      6719,
      7062,
      7127,
      7461,
      7597,
      7828,
      8009,
      8280,
      8415,
      8584
    ],
    "swim:geom": "takeoff",
    "swim:timestamps": [
      1791189987,
      1791190005,
      1791190041,
      1791190077,
      1791190082,
      1791190138,
      1791190151,
      1791190186,
      1791190227,
      1791190247,
      1791190264,
      1791190303,
      1791190338,
      1791190374,
      1791190397,
      1791190417,
      1791190450,
      1791190477,
      1791190505,
      1791190542,
      1791190587,
      1791190593,
      1791190636,
      1791190651,
      1791190677,
      1791190698,
      1791190731,
      1791190748,
      1791190778
    ],
    "wof:geomhash": "e7a10ca7e4f6743b59b29bf30b5d556a",
    "wof:id": 2048524937,
    "wof:repo": "sfomuseum-data-flights-2026-10"
  },
  "bbox": [
    -122.44986,
    37.36381,
    -121.24832,
    37.70675
  ],
  "geometry": {"type":"LineString","coordinates":[[-122.36173,37.64395],[-122.36214,37.65807],[-122.36247,37.6848],[-122.38947,37.70625],[-122.39516,37.70675],[-122.43828,37.6527],[-122.44082,37.63589],[-122.44986,37.59075],[-122.43216,37.54018],[-122.40551,37.5197],[-122.38304,37.50297],[-122.32681,37.46234],[-122.27579,37.42533],[-122.20995,37.40271],[-122.16506,37.39382],[-122.12512,37.38563],[-122.05476,37.37115],[-121.99766,37.36381],[-121.93314,37.36422],[-121.8468,37.36555],[-121.73966,37.36711],[-121.72543,37.36731],[-121.61849,37.36863],[-121.57815,37.36915],[-121.51158,37.36968],[-121.45798,37.37038],[-121.37226,37.37119],[-121.3276,37.3717],[-121.24832,37.37251]]}
}
