{
  "id": 2048547037,
  "type": "Feature",
  "properties": {
    "date:inception_lower": "2026-10-08",
    "date:inception_upper": "2026-10-08",
    "edtf:cessation": "",
    "edtf:inception": "2026-10-08",
    "flysfo:actual_timestamp": -1,
    "flysfo:airline": "UA",
    "flysfo:base_airline": "",
    "flysfo:base_flight_number": "9388",
    "flysfo:date": "2026-10-08",
    "flysfo:estimated_timestamp": 1791480600,
    "flysfo:event": "A",
    "flysfo:flight_number": "UA626",
    "flysfo:gate": "E9",
    "flysfo:journey": "BNA-SFO",
    "flysfo:scheduled_timestamp": 1791482220,
    "flysfo:timestamp": 1791482220,
    "geom:area": 0,
    "geom:bbox": "-122.370943,36.126387,-86.676652,37.617990",
    "geom:latitude": 36.8721885,
    "geom:longitude": -104.5237975,
    "iata:airline": "UA",
    "iata:base_airline": "",
    "icao:airline": "UAL",
    "icao:base_airline": "ANZ",
    "lbl:latitude": 37.619124,
    "lbl:longitude": -122.383949,
    "sfomuseum:airline_id": 1159285413,
    "sfomuseum:arrival_id": 102527513,
    "sfomuseum:base_flight_id": "20261008-A-ANZ-9388",
    "sfomuseum:departure_id": 102525035,
    "sfomuseum:flight_id": "20261008-A-UAL-626",
    "sfomuseum:flight_number": [
      "UAL626",
      "UA626"
    ],
    "sfomuseum:placetype": "flight",
    "src:geom": "flysfo",
    "wof:belongsto": [
      1947304067,
      102527513,
      1947304511,
      102191575,
      85633793,
      102087579,
      85922583,
      554784711,
      85688637,
      1947304523,
      1947304447,
      102085387
    ],
    "wof:country": "US",
    "wof:created": 1791562182,
    "wof:geomhash": "462e561a68f133085fb895c49eddc748",
    "wof:hierarchy": [
      {
        "building_id": 1947304067,
        "campus_id": 102527513,
        "concourse_id": 1947304511,
        "continent_id": 102191575,
        "country_id": 85633793,
        "county_id": 102087579,
        "custom_id": 2048547037,
        "flight_id": 2048547037,
        "locality_id": 85922583,
        "postalcode_id": 554784711,
        "region_id": 85688637,
        "venue_id": 1947304523,
        "wing_id": 1947304447
      },
      {
        "building_id": 1947304067,
        "campus_id": 102527513,
        "concourse_id": 1947304511,
        "continent_id": 102191575,
        "country_id": 85633793,
        "county_id": 102085387,
        "custom_id": 2048547037,
        "flight_id": 2048547037,
        "region_id": 85688637,
        "venue_id": 1947304523,
        "wing_id": 1947304447
      }
    ],
    "wof:id": 2048547037,
    "wof:involves": [
      102527513,
      102525035,
      1159285413,
      1947304523,
      1159283697
    ],
    "wof:lastmodified": 1791562182,
    "wof:name": "UA626 (BNA-SFO)",
    "wof:parent_id": 1947304523,
    "wof:placetype": "custom",
    "wof:placetype_alt": [
      "flight"
    ],
    "wof:repo": "sfomuseum-data-flights-2026-10",
    "wof:superseded_by": [],
    "wof:supersedes": []
  },
  "bbox": [
    -122.370943,
    36.126387,
    -86.676652,
    37.61799
  ],
  "geometry": {"type":"MultiPoint","coordinates":[[-86.676652,36.126387],[-122.370943,37.61799]]}
}
