{
  "id": 2048509569,
  "type": "Feature",
  "properties": {
    "geom:area": 0,
    "geom:bbox": "-122.758890,37.404860,-122.079520,38.376580",
    "geom:latitude": 37.77378081022719,
    "geom:longitude": -122.45227708964686,
    "src:alt_label": "swim-approach",
    "src:geom": "swim",
    "swim:elevations": [
      7559,
      7364,
      7185,
      6981,
      6596,
      6226,
      6079,
      5679,
      5597,
      5318,
      5083,
      4946,
      4605,
      4365,
      3961,
      3675,
      3444,
      3354,
      3353,
      3353,
      3353,
      3353,
      3052,
      2849,
      2741,
      2521,
      2335,
      2201,
      1996,
      1691,
      1577,
      1448,
      1297,
      1154,
      1127,
      1083,
      879,
      814,
      576,
      460,
      389,
      257,
      150,
      195
    ],
    "swim:geom": "approach",
    "swim:timestamps": [
      1791150533,
      1791150550,
      1791150567,
      1791150587,
      1791150622,
      1791150659,
      1791150673,
      1791150714,
      1791150721,
      1791150750,
      1791150775,
      1791150789,
      1791150823,
      1791150848,
      1791150893,
      1791150924,
      1791150957,
      1791150987,
      1791151009,
      1791151036,
      1791151073,
      1791151095,
      1791151130,
      1791151155,
      1791151170,
      1791151197,
      1791151218,
      1791151238,
      1791151262,
      1791151305,
      1791151321,
      1791151361,
      1791151406,
      1791151435,
      1791151458,
      1791151482,
      1791151523,
      1791151536,
      1791151588,
      1791151615,
      1791151633,
      1791151667,
      1791151698,
      1791151736
    ],
    "wof:geomhash": "a2b195e115595c556a75ce7e7709a1b8",
    "wof:id": 2048509569,
    "wof:repo": "sfomuseum-data-flights-2026-10"
  },
  "bbox": [
    -122.75889,
    37.40486,
    -122.07952,
    38.37658
  ],
  "geometry": {"type":"LineString","coordinates":[[-122.61092,38.37658],[-122.63494,38.35336],[-122.65857,38.33044],[-122.687,38.30293],[-122.73539,38.25581],[-122.75889,38.1988],[-122.7529,38.17457],[-122.73414,38.10834],[-122.7309,38.09746],[-122.71713,38.05083],[-122.70548,38.01136],[-122.69888,37.98931],[-122.68405,37.93643],[-122.66931,37.90003],[-122.61512,37.8444],[-122.577,37.80841],[-122.53723,37.77103],[-122.50317,37.73905],[-122.4793,37.71677],[-122.4504,37.68971],[-122.41119,37.65239],[-122.38781,37.6303],[-122.35357,37.59307],[-122.33793,37.56205],[-122.32902,37.54344],[-122.30921,37.51107],[-122.29381,37.48582],[-122.27955,37.46271],[-122.25758,37.43635],[-122.19262,37.41177],[-122.1672,37.40486],[-122.10611,37.41495],[-122.07952,37.45303],[-122.10121,37.47837],[-122.11848,37.49761],[-122.13571,37.51555],[-122.17597,37.5351],[-122.18995,37.54086],[-122.24118,37.56251],[-122.2656,37.57273],[-122.28053,37.57899],[-122.30712,37.59015],[-122.33082,37.60014],[-122.36132,37.61274]]}
}
