{
  "id": 2048483555,
  "type": "Feature",
  "properties": {
    "geom:area": 0,
    "geom:bbox": "-122.356720,36.719740,-121.876800,37.610950",
    "geom:latitude": 37.22851896142575,
    "geom:longitude": -122.06062429396589,
    "src:alt_label": "swim-approach",
    "src:geom": "swim",
    "swim:elevations": [
      4676,
      4503,
      4202,
      3912,
      3688,
      3502,
      3471,
      3263,
      3092,
      2774,
      2602,
      2600,
      2438,
      2438,
      2293,
      2114,
      1910,
      1829,
      1829,
      1707,
      1665,
      1433,
      1200,
      894,
      790,
      629,
      540,
      353,
      296,
      141,
      66,
      18
    ],
    "swim:geom": "approach",
    "swim:timestamps": [
      1790859413,
      1790859437,
      1790859470,
      1790859502,
      1790859526,
      1790859553,
      1790859575,
      1790859622,
      1790859644,
      1790859688,
      1790859714,
      1790859738,
      1790859769,
      1790859797,
      1790859835,
      1790859861,
      1790859888,
      1790859928,
      1790859937,
      1790859988,
      1790859993,
      1790860048,
      1790860077,
      1790860108,
      1790860131,
      1790860164,
      1790860180,
      1790860224,
      1790860240,
      1790860283,
      1790860307,
      1790860320
    ],
    "wof:geomhash": "fae517380e879c48e61785b47c542ee4",
    "wof:id": 2048483555,
    "wof:repo": "sfomuseum-data-flights-2026-10"
  },
  "bbox": [
    -122.35672,
    36.71974,
    -121.8768,
    37.61095
  ],
  "geometry": {"type":"LineString","coordinates":[[-121.8768,36.71974],[-121.89858,36.75668],[-121.91379,36.81213],[-121.92799,36.86343],[-121.93894,36.90253],[-121.95038,36.94305],[-121.96238,36.97581],[-121.98583,37.03609],[-121.99649,37.06363],[-122.0177,37.11803],[-122.03047,37.15069],[-122.04201,37.18028],[-122.05654,37.21716],[-122.06976,37.2509],[-122.08798,37.29726],[-122.09911,37.32847],[-122.08703,37.36116],[-122.0537,37.40157],[-122.04705,37.41023],[-122.05418,37.46621],[-122.05606,37.47206],[-122.11172,37.50787],[-122.14149,37.5204],[-122.17394,37.53414],[-122.19704,37.54391],[-122.23141,37.55837],[-122.24893,37.56574],[-122.28908,37.58261],[-122.30174,37.58791],[-122.33204,37.60061],[-122.34803,37.60737],[-122.35672,37.61095]]}
}
