{
  "id": 2048560379,
  "type": "Feature",
  "properties": {
    "geom:area": 0,
    "geom:bbox": "-122.385670,37.629140,-121.273310,38.160380",
    "geom:latitude": 37.98597579039051,
    "geom:longitude": -121.9492829738432,
    "src:alt_label": "swim-takeoff",
    "src:geom": "swim",
    "swim:elevations": [
      152,
      484,
      785,
      1032,
      1199,
      1350,
      1619,
      1905,
      2354,
      2734,
      3012,
      3239,
      3479,
      3685,
      3756,
      3963,
      4106,
      4619,
      5058,
      5386,
      5631,
      6035,
      6127,
      6338,
      6571,
      6882,
      6993,
      7188,
      7426
    ],
    "swim:geom": "takeoff",
    "swim:timestamps": [
      1791591913,
      1791591942,
      1791591977,
      1791592011,
      1791592046,
      1791592077,
      1791592101,
      1791592125,
      1791592163,
      1791592199,
      1791592226,
      1791592254,
      1791592287,
      1791592317,
      1791592326,
      1791592344,
      1791592356,
      1791592394,
      1791592434,
      1791592462,
      1791592483,
      1791592525,
      1791592537,
      1791592558,
      1791592582,
      1791592617,
      1791592631,
      1791592655,
      1791592683
    ],
    "wof:geomhash": "9d7c0b4e1f0da83c86c1607cac3b975e",
    "wof:id": 2048560379,
    "wof:repo": "sfomuseum-data-flights-2026-10"
  },
  "bbox": [
    -122.38567,
    37.62914,
    -121.27331,
    38.16038
  ],
  "geometry": {"type":"LineString","coordinates":[[-122.36581,37.62914],[-122.3501,37.64733],[-122.3252,37.66732],[-122.30763,37.68966],[-122.32092,37.71812],[-122.3377,37.7479],[-122.35159,37.77411],[-122.36511,37.80164],[-122.38508,37.84675],[-122.38567,37.89575],[-122.37066,37.93253],[-122.3267,37.95304],[-122.26238,37.96577],[-122.19874,37.97779],[-122.17878,37.98168],[-122.13813,37.98977],[-122.11064,37.99522],[-122.02069,38.01346],[-121.92447,38.03294],[-121.8573,38.04633],[-121.80516,38.05672],[-121.6982,38.07773],[-121.66716,38.08381],[-121.61229,38.09449],[-121.549,38.10692],[-121.45437,38.12541],[-121.41716,38.13264],[-121.35153,38.1453],[-121.27331,38.16038]]}
}
