{
  "id": 2048521575,
  "type": "Feature",
  "properties": {
    "geom:area": 0,
    "geom:bbox": "-122.366750,37.627810,-121.242670,38.426960",
    "geom:latitude": 38.02745999218229,
    "geom:longitude": -121.8050267058075,
    "src:alt_label": "swim-takeoff",
    "src:geom": "swim",
    "swim:elevations": [
      122,
      521,
      674,
      840,
      997,
      990,
      1230,
      1434,
      1748,
      1982,
      2476,
      2731,
      2842,
      3045,
      3109,
      3118,
      3454,
      3661,
      3900,
      4398,
      4545,
      4865,
      5086,
      5366,
      5628,
      5818,
      5940,
      6185,
      6349,
      6434
    ],
    "swim:geom": "takeoff",
    "swim:timestamps": [
      1791211487,
      1791211526,
      1791211550,
      1791211572,
      1791211610,
      1791211623,
      1791211648,
      1791211668,
      1791211695,
      1791211719,
      1791211768,
      1791211791,
      1791211802,
      1791211821,
      1791211856,
      1791211872,
      1791211912,
      1791211936,
      1791211962,
      1791212007,
      1791212022,
      1791212063,
      1791212090,
      1791212127,
      1791212158,
      1791212178,
      1791212195,
      1791212238,
      1791212270,
      1791212282
    ],
    "wof:geomhash": "8512a857218e7da0645f5076366ee05b",
    "wof:id": 2048521575,
    "wof:repo": "sfomuseum-data-flights-2026-10"
  },
  "bbox": [
    -122.36675,
    37.62781,
    -121.24267,
    38.42696
  ],
  "geometry": {"type":"LineString","coordinates":[[-122.36675,37.62781],[-122.33651,37.6509],[-122.31497,37.66386],[-122.29368,37.67564],[-122.25478,37.69687],[-122.23845,37.7056],[-122.20913,37.72425],[-122.18686,37.74145],[-122.15593,37.76551],[-122.12885,37.78575],[-122.06811,37.83094],[-122.04027,37.85184],[-122.02674,37.86197],[-122.00322,37.87965],[-121.95725,37.91427],[-121.93384,37.9318],[-121.87416,37.97651],[-121.83595,38.00501],[-121.79539,38.03511],[-121.72359,38.08859],[-121.69872,38.10706],[-121.63148,38.15703],[-121.5869,38.1901],[-121.52524,38.23576],[-121.47183,38.27522],[-121.43785,38.30039],[-121.40826,38.32218],[-121.32866,38.37374],[-121.26635,38.41229],[-121.24267,38.42696]]}
}
