{
  "id": 2048536533,
  "type": "Feature",
  "properties": {
    "geom:area": 0,
    "geom:bbox": "-122.358200,37.490790,-121.262160,37.613730",
    "geom:latitude": 37.545926070868546,
    "geom:longitude": -121.81505332317363,
    "src:alt_label": "swim-approach",
    "src:geom": "swim",
    "swim:elevations": [
      5006,
      4804,
      4568,
      4489,
      3940,
      3652,
      3168,
      3118,
      2888,
      2803,
      2661,
      2516,
      2375,
      2162,
      2050,
      1835,
      1769,
      1417,
      1346,
      1033,
      943,
      813,
      764,
      564,
      273,
      221,
      143,
      0
    ],
    "swim:geom": "approach",
    "swim:timestamps": [
      1791395474,
      1791395492,
      1791395513,
      1791395522,
      1791395574,
      1791395591,
      1791395637,
      1791395650,
      1791395683,
      1791395695,
      1791395716,
      1791395757,
      1791395781,
      1791395810,
      1791395829,
      1791395870,
      1791395896,
      1791395938,
      1791395945,
      1791395987,
      1791396012,
      1791396054,
      1791396061,
      1791396094,
      1791396148,
      1791396163,
      1791396187,
      1791396222
    ],
    "wof:geomhash": "bb9f544df3b894e662be472919808fac",
    "wof:id": 2048536533,
    "wof:repo": "sfomuseum-data-flights-2026-10"
  },
  "bbox": [
    -122.3582,
    37.49079,
    -121.26216,
    37.61373
  ],
  "geometry": {"type":"LineString","coordinates":[[-121.26216,37.59254],[-121.30106,37.58742],[-121.34644,37.58225],[-121.36476,37.58023],[-121.47186,37.56847],[-121.50724,37.56435],[-121.59947,37.55326],[-121.62474,37.55012],[-121.67929,37.53751],[-121.69781,37.53303],[-121.72836,37.52573],[-121.78948,37.51135],[-121.82432,37.50293],[-121.86763,37.49247],[-121.89501,37.49079],[-121.95779,37.49292],[-121.99506,37.49617],[-122.05299,37.5156],[-122.06305,37.51897],[-122.12229,37.53822],[-122.15621,37.54917],[-122.20572,37.56545],[-122.21403,37.56813],[-122.25301,37.58073],[-122.30604,37.59635],[-122.31781,37.59986],[-122.33489,37.60491],[-122.3582,37.61373]]}
}
