{
  "id": 2048494067,
  "type": "Feature",
  "properties": {
    "date:inception_lower": "2026-10-02",
    "date:inception_upper": "2026-10-02",
    "edtf:cessation": "",
    "edtf:inception": "2026-10-02",
    "flysfo:actual_timestamp": -1,
    "flysfo:airline": "UA",
    "flysfo:date": "2026-10-02",
    "flysfo:estimated_timestamp": 1790996400,
    "flysfo:event": "A",
    "flysfo:flight_number": "UA2866",
    "flysfo:gate": "E11",
    "flysfo:journey": "ATL-SFO",
    "flysfo:scheduled_timestamp": 1790996880,
    "flysfo:timestamp": 1790996880,
    "geom:area": 0,
    "geom:bbox": "-122.370943,33.636518,-84.430686,37.617990",
    "geom:latitude": 35.627254,
    "geom:longitude": -103.4008145,
    "iata:airline": "UA",
    "icao:airline": "UAL",
    "lbl:latitude": 37.619367,
    "lbl:longitude": -122.38387,
    "sfomuseum:airline_id": 1159285413,
    "sfomuseum:arrival_id": 102527513,
    "sfomuseum:departure_id": 102526927,
    "sfomuseum:flight_id": "20261002-A-UAL-2866",
    "sfomuseum:flight_number": [
      "UAL2866",
      "UA2866"
    ],
    "sfomuseum:placetype": "flight",
    "src:geom": "flysfo",
    "wof:belongsto": [
      1947304067,
      102527513,
      1947304511,
      102191575,
      85633793,
      102087579,
      85922583,
      554784711,
      85688637,
      1947304527,
      1947304447,
      102085387
    ],
    "wof:country": "US",
    "wof:created": 1791043686,
    "wof:geomhash": "ae92617dd2aca2afdb0c9096232ff0bb",
    "wof:hierarchy": [
      {
        "building_id": 1947304067,
        "campus_id": 102527513,
        "concourse_id": 1947304511,
        "continent_id": 102191575,
        "country_id": 85633793,
        "county_id": 102087579,
        "custom_id": 2048494067,
        "flight_id": 2048494067,
        "locality_id": 85922583,
        "postalcode_id": 554784711,
        "region_id": 85688637,
        "venue_id": 1947304527,
        "wing_id": 1947304447
      },
      {
        "building_id": 1947304067,
        "campus_id": 102527513,
        "concourse_id": 1947304511,
        "continent_id": 102191575,
        "country_id": 85633793,
        "county_id": 102085387,
        "custom_id": 2048494067,
        "flight_id": 2048494067,
        "region_id": 85688637,
        "venue_id": 1947304527,
        "wing_id": 1947304447
      }
    ],
    "wof:id": 2048494067,
    "wof:involves": [
      102527513,
      102526927,
      1159285413,
      1947304527
    ],
    "wof:lastmodified": 1791043686,
    "wof:name": "UA2866 (ATL-SFO)",
    "wof:parent_id": 1947304527,
    "wof:placetype": "custom",
    "wof:placetype_alt": [
      "flight"
    ],
    "wof:repo": "sfomuseum-data-flights-2026-10",
    "wof:superseded_by": [],
    "wof:supersedes": []
  },
  "bbox": [
    -122.370943,
    33.636518,
    -84.430686,
    37.61799
  ],
  "geometry": {"type":"MultiPoint","coordinates":[[-84.430686,33.636518],[-122.370943,37.61799]]}
}
