{
  "id": 2048494067,
  "type": "Feature",
  "properties": {
    "geom:area": 0,
    "geom:bbox": "-122.340680,37.492130,-121.243140,37.607050",
    "geom:latitude": 37.54608694256909,
    "geom:longitude": -121.79645416287035,
    "src:alt_label": "swim-approach",
    "src:geom": "swim",
    "swim:elevations": [
      4786,
      4341,
      4107,
      3865,
      3486,
      3419,
      3084,
      2996,
      2661,
      2633,
      2529,
      2241,
      2086,
      2052,
      1895,
      1737,
      1540,
      1327,
      1306,
      1187,
      1026,
      975,
      882,
      718,
      527,
      476,
      365,
      194,
      98
    ],
    "swim:geom": "approach",
    "swim:timestamps": [
      1790969085,
      1790969128,
      1790969150,
      1790969175,
      1790969212,
      1790969221,
      1790969276,
      1790969293,
      1790969335,
      1790969343,
      1790969376,
      1790969419,
      1790969455,
      1790969460,
      1790969486,
      1790969517,
      1790969543,
      1790969575,
      1790969582,
      1790969607,
      1790969636,
      1790969644,
      1790969660,
      1790969692,
      1790969723,
      1790969735,
      1790969760,
      1790969805,
      1790969823
    ],
    "wof:geomhash": "0bbf62dcd1feb8f0ad885acec983aae6",
    "wof:id": 2048494067,
    "wof:repo": "sfomuseum-data-flights-2026-10"
  },
  "bbox": [
    -122.34068,
    37.49213,
    -121.24314,
    37.60705
  ],
  "geometry": {"type":"LineString","coordinates":[[-121.24314,37.59551],[-121.33244,37.58436],[-121.3781,37.57952],[-121.42937,37.57391],[-121.50391,37.56502],[-121.52169,37.56292],[-121.62358,37.55065],[-121.65206,37.5442],[-121.72195,37.52773],[-121.73514,37.52455],[-121.78891,37.51152],[-121.8571,37.49511],[-121.91581,37.49213],[-121.92395,37.49234],[-121.9663,37.49345],[-122.01245,37.50254],[-122.04771,37.51385],[-122.08849,37.52731],[-122.09585,37.52971],[-122.12547,37.53924],[-122.15821,37.54977],[-122.16851,37.55316],[-122.18579,37.55878],[-122.22108,37.57032],[-122.25387,37.58078],[-122.26537,37.58431],[-122.28855,37.59089],[-122.32616,37.60219],[-122.34068,37.60705]]}
}
