{
  "id": 2048560413,
  "type": "Feature",
  "properties": {
    "geom:area": 0,
    "geom:bbox": "-122.367280,37.626690,-122.221750,38.499450",
    "geom:latitude": 38.02642899161563,
    "geom:longitude": -122.24053902285937,
    "src:alt_label": "swim-takeoff",
    "src:geom": "swim",
    "swim:elevations": [
      152,
      631,
      920,
      1097,
      1127,
      1527,
      1935,
      2443,
      2675,
      3034,
      3383,
      3383,
      3737,
      4363,
      4731,
      4950,
      5440,
      5686,
      5901,
      6329,
      6460,
      6666
    ],
    "swim:geom": "takeoff",
    "swim:timestamps": [
      1791552963,
      1791553005,
      1791553034,
      1791553078,
      1791553083,
      1791553128,
      1791553157,
      1791553191,
      1791553207,
      1791553233,
      1791553286,
      1791553290,
      1791553323,
      1791553371,
      1791553403,
      1791553418,
      1791553466,
      1791553483,
      1791553507,
      1791553556,
      1791553572,
      1791553592
    ],
    "wof:geomhash": "8e934c18bfe3eb36df3e80511f20c3ef",
    "wof:id": 2048560413,
    "wof:repo": "sfomuseum-data-flights-2026-10"
  },
  "bbox": [
    -122.36728,
    37.62669,
    -122.22175,
    38.49945
  ],
  "geometry": {"type":"LineString","coordinates":[[-122.36728,37.62669],[-122.33652,37.64376],[-122.31141,37.65259],[-122.26814,37.66858],[-122.26238,37.67067],[-122.22175,37.7084],[-122.22282,37.74562],[-122.22503,37.79003],[-122.22539,37.81129],[-122.22553,37.84715],[-122.22639,37.93022],[-122.22644,37.93569],[-122.22715,37.99514],[-122.22805,38.08039],[-122.22877,38.13962],[-122.22911,38.16773],[-122.23007,38.25707],[-122.23043,38.2875],[-122.23096,38.33328],[-122.23915,38.42856],[-122.2424,38.4604],[-122.24641,38.49945]]}
}
