{
  "id": 2048498497,
  "type": "Feature",
  "properties": {
    "geom:area": 0,
    "geom:bbox": "-122.364140,37.631920,-121.286290,38.108510",
    "geom:latitude": 37.88607655782318,
    "geom:longitude": -121.8327746564248,
    "src:alt_label": "swim-takeoff",
    "src:geom": "swim",
    "swim:elevations": [
      122,
      655,
      972,
      1224,
      1480,
      2094,
      2170,
      3000,
      3343,
      3892,
      4370,
      4758,
      5048,
      5504,
      5895,
      6335,
      6672,
      6852,
      7294,
      7645,
      7812,
      8176
    ],
    "swim:geom": "takeoff",
    "swim:timestamps": [
      1790966414,
      1790966455,
      1790966479,
      1790966512,
      1790966536,
      1790966578,
      1790966583,
      1790966629,
      1790966657,
      1790966698,
      1790966728,
      1790966755,
      1790966780,
      1790966812,
      1790966839,
      1790966868,
      1790966900,
      1790966914,
      1790966968,
      1790966998,
      1790967016,
      1790967050
    ],
    "wof:geomhash": "261afcce6312277863a3da251c49c50f",
    "wof:id": 2048498497,
    "wof:repo": "sfomuseum-data-flights-2026-10"
  },
  "bbox": [
    -122.36414,
    37.63192,
    -121.28629,
    38.10851
  ],
  "geometry": {"type":"LineString","coordinates":[[-122.36414,37.63192],[-122.33433,37.653],[-122.31382,37.6639],[-122.28102,37.68215],[-122.25205,37.69825],[-122.19294,37.72851],[-122.18601,37.73214],[-122.11966,37.76649],[-122.07724,37.78853],[-122.01077,37.82321],[-121.95857,37.84464],[-121.90826,37.86451],[-121.86074,37.88312],[-121.79793,37.9082],[-121.74445,37.92929],[-121.68652,37.95218],[-121.62122,37.97797],[-121.5915,37.98958],[-121.47465,38.03577],[-121.40674,38.06212],[-121.36463,38.07777],[-121.28629,38.10851]]}
}
