{
  "id": 2048533615,
  "type": "Feature",
  "properties": {
    "geom:area": 0,
    "geom:bbox": "-122.400370,37.627620,-121.282210,37.951020",
    "geom:latitude": 37.81172246179751,
    "geom:longitude": -121.85928675134575,
    "src:alt_label": "swim-takeoff",
    "src:geom": "swim",
    "swim:elevations": [
      159,
      566,
      668,
      904,
      987,
      1109,
      1379,
      1581,
      1705,
      2249,
      2401,
      2923,
      3138,
      3511,
      3658,
      3786,
      3999,
      4216,
      4427,
      4628,
      4790,
      4893,
      5057,
      5236,
      5586,
      5683
    ],
    "swim:geom": "takeoff",
    "swim:timestamps": [
      1791277865,
      1791277907,
      1791277917,
      1791277940,
      1791277951,
      1791277963,
      1791278001,
      1791278037,
      1791278055,
      1791278098,
      1791278112,
      1791278155,
      1791278172,
      1791278217,
      1791278244,
      1791278266,
      1791278307,
      1791278330,
      1791278356,
      1791278385,
      1791278409,
      1791278423,
      1791278446,
      1791278471,
      1791278518,
      1791278529
    ],
    "wof:geomhash": "e364a44a87ae46e87c15c4f80f397bda",
    "wof:id": 2048533615,
    "wof:repo": "sfomuseum-data-flights-2026-10"
  },
  "bbox": [
    -122.40037,
    37.62762,
    -121.28221,
    37.95102
  ],
  "geometry": {"type":"LineString","coordinates":[[-122.39595,37.62762],[-122.40037,37.65806],[-122.39063,37.66373],[-122.36676,37.67024],[-122.35555,37.67379],[-122.34324,37.67794],[-122.30115,37.69101],[-122.25298,37.70561],[-122.22624,37.71379],[-122.16713,37.74186],[-122.14653,37.74976],[-122.0777,37.76681],[-122.04973,37.77405],[-121.97377,37.79146],[-121.92338,37.8033],[-121.87902,37.81367],[-121.79212,37.83342],[-121.74167,37.84537],[-121.68541,37.85852],[-121.62031,37.87279],[-121.56486,37.88513],[-121.53129,37.89313],[-121.47782,37.9058],[-121.41985,37.9191],[-121.30752,37.945],[-121.28221,37.95102]]}
}
