{
  "id": 2048506643,
  "type": "Feature",
  "properties": {
    "geom:area": 0,
    "geom:bbox": "-122.496630,36.733120,-121.456290,37.694010",
    "geom:latitude": 37.22266599125737,
    "geom:longitude": -122.06974912822847,
    "src:alt_label": "swim-takeoff",
    "src:geom": "swim",
    "swim:elevations": [
      384,
      518,
      891,
      1245,
      1629,
      2068,
      2467,
      2899,
      3204,
      3476,
      3864,
      4241,
      4761,
      4795,
      5488,
      5880,
      6350,
      6591,
      6941,
      7334,
      7643,
      7827,
      8349,
      8745,
      8998,
      9367,
      9696,
      9815,
      10059,
      10058,
      10058,
      10058
    ],
    "swim:geom": "takeoff",
    "swim:timestamps": [
      1791058555,
      1791058567,
      1791058599,
      1791058644,
      1791058678,
      1791058700,
      1791058724,
      1791058749,
      1791058770,
      1791058797,
      1791058823,
      1791058851,
      1791058887,
      1791058890,
      1791058941,
      1791058963,
      1791059000,
      1791059022,
      1791059055,
      1791059088,
      1791059119,
      1791059133,
      1791059184,
      1791059216,
      1791059239,
      1791059272,
      1791059304,
      1791059324,
      1791059366,
      1791059373,
      1791059402,
      1791059434
    ],
    "wof:geomhash": "f1ea4e97fb182da3e3a3a58abdd4c1f4",
    "wof:id": 2048506643,
    "wof:repo": "sfomuseum-data-flights-2026-10"
  },
  "bbox": [
    -122.49663,
    36.73312,
    -121.45629,
    37.69401
  ],
  "geometry": {"type":"LineString","coordinates":[[-122.3634,37.64267],[-122.36246,37.65128],[-122.36193,37.67592],[-122.40115,37.69401],[-122.45368,37.6827],[-122.48401,37.6667],[-122.49663,37.6388],[-122.49489,37.60523],[-122.49264,37.57753],[-122.49048,37.53959],[-122.48275,37.50092],[-122.4496,37.46915],[-122.39586,37.43107],[-122.39134,37.42779],[-122.31302,37.37077],[-122.27738,37.34469],[-122.21954,37.30099],[-122.18487,37.27521],[-122.12927,37.23417],[-122.0721,37.19189],[-122.01869,37.1521],[-121.99563,37.13459],[-121.90534,37.06767],[-121.84748,37.02486],[-121.8051,36.99334],[-121.74659,36.95162],[-121.68828,36.90873],[-121.65405,36.88292],[-121.57903,36.82707],[-121.56557,36.81689],[-121.51414,36.77771],[-121.45629,36.73312]]}
}
