{
  "id": 2048542103,
  "type": "Feature",
  "properties": {
    "geom:area": 0,
    "geom:bbox": "-122.364690,37.630530,-121.257720,38.417870",
    "geom:latitude": 38.02379546340995,
    "geom:longitude": -121.81142046529051,
    "src:alt_label": "swim-takeoff",
    "src:geom": "swim",
    "swim:elevations": [
      122,
      242,
      560,
      714,
      843,
      1099,
      1407,
      1507,
      2300,
      2522,
      2811,
      3150,
      3411,
      3515,
      3794,
      4389,
      4662,
      4805,
      5006,
      5298,
      5647,
      5820,
      6235,
      6392,
      6444,
      6698,
      6958,
      7108,
      7195
    ],
    "swim:geom": "takeoff",
    "swim:timestamps": [
      1791399682,
      1791399691,
      1791399715,
      1791399737,
      1791399750,
      1791399788,
      1791399833,
      1791399841,
      1791399898,
      1791399920,
      1791399942,
      1791399966,
      1791400006,
      1791400028,
      1791400051,
      1791400093,
      1791400117,
      1791400134,
      1791400157,
      1791400189,
      1791400220,
      1791400237,
      1791400285,
      1791400302,
      1791400310,
      1791400337,
      1791400372,
      1791400397,
      1791400426
    ],
    "wof:geomhash": "a4ac814211d25c749a085abe2aa8090c",
    "wof:id": 2048542103,
    "wof:repo": "sfomuseum-data-flights-2026-10"
  },
  "bbox": [
    -122.36469,
    37.63053,
    -121.25772,
    38.41787
  ],
  "geometry": {"type":"LineString","coordinates":[[-122.36469,37.63053],[-122.35913,37.63702],[-122.3392,37.64911],[-122.32026,37.65955],[-122.30753,37.66676],[-122.27033,37.68833],[-122.21462,37.71973],[-122.20625,37.72673],[-122.13931,37.77937],[-122.11096,37.80092],[-122.08257,37.82264],[-122.0511,37.84605],[-121.99602,37.88694],[-121.96122,37.91292],[-121.92424,37.94009],[-121.85862,37.9889],[-121.82011,38.01788],[-121.79213,38.03882],[-121.75392,38.06732],[-121.70057,38.10698],[-121.64767,38.14618],[-121.61722,38.16866],[-121.5325,38.23113],[-121.50212,38.25348],[-121.48735,38.26429],[-121.43642,38.30172],[-121.37011,38.34818],[-121.31872,38.38008],[-121.25772,38.41787]]}
}
