{
  "id": 2048529341,
  "type": "Feature",
  "properties": {
    "geom:area": 0,
    "geom:bbox": "-122.360060,37.491560,-121.274810,37.614730",
    "geom:latitude": 37.54588620425217,
    "geom:longitude": -121.8222841468881,
    "src:alt_label": "swim-approach",
    "src:geom": "swim",
    "swim:elevations": [
      4583,
      4324,
      3940,
      3727,
      3283,
      3204,
      3139,
      3090,
      2795,
      2644,
      2438,
      2438,
      2194,
      2134,
      2063,
      2039,
      1676,
      1486,
      1183,
      1106,
      981,
      975,
      753,
      638,
      509,
      394,
      365,
      295,
      242,
      192,
      123,
      207
    ],
    "swim:geom": "approach",
    "swim:timestamps": [
      1791311805,
      1791311830,
      1791311869,
      1791311890,
      1791311934,
      1791311950,
      1791311975,
      1791311987,
      1791312025,
      1791312040,
      1791312084,
      1791312095,
      1791312132,
      1791312169,
      1791312204,
      1791312211,
      1791312263,
      1791312287,
      1791312321,
      1791312331,
      1791312353,
      1791312361,
      1791312413,
      1791312439,
      1791312465,
      1791312493,
      1791312502,
      1791312522,
      1791312537,
      1791312551,
      1791312575,
      1791312606
    ],
    "wof:geomhash": "23527df2c1f007190994b3eede10aef6",
    "wof:id": 2048529341,
    "wof:repo": "sfomuseum-data-flights-2026-10"
  },
  "bbox": [
    -122.36006,
    37.49156,
    -121.27481,
    37.61473
  ],
  "geometry": {"type":"LineString","coordinates":[[-121.27481,37.59106],[-121.32648,37.58503],[-121.40536,37.57646],[-121.4484,37.57157],[-121.537,37.56117],[-121.56833,37.55743],[-121.61598,37.55121],[-121.63677,37.54733],[-121.69891,37.53314],[-121.72327,37.52736],[-121.79072,37.51122],[-121.80661,37.50737],[-121.86031,37.49442],[-121.9145,37.49156],[-121.96694,37.49316],[-121.97693,37.49391],[-122.04616,37.51351],[-122.07454,37.52286],[-122.11554,37.53626],[-122.12665,37.53984],[-122.1507,37.54767],[-122.15952,37.55054],[-122.21123,37.56713],[-122.2365,37.57539],[-122.26007,37.58291],[-122.28271,37.5894],[-122.28968,37.59137],[-122.30456,37.59564],[-122.31486,37.59877],[-122.32425,37.60172],[-122.34009,37.60672],[-122.36006,37.61473]]}
}
