{
  "id": 2048546667,
  "type": "Feature",
  "properties": {
    "geom:area": 0,
    "geom:bbox": "-122.347170,37.492020,-121.267960,37.609430",
    "geom:latitude": 37.54505738561376,
    "geom:longitude": -121.8122296582153,
    "src:alt_label": "swim-approach",
    "src:geom": "swim",
    "swim:elevations": [
      4530,
      4159,
      4132,
      3971,
      3759,
      3659,
      3562,
      3163,
      2781,
      2607,
      2529,
      2436,
      2351,
      2284,
      2062,
      1946,
      1836,
      1798,
      1692,
      1388,
      1143,
      912,
      883,
      725,
      519,
      455,
      364,
      186,
      76
    ],
    "swim:geom": "approach",
    "swim:timestamps": [
      1791450314,
      1791450356,
      1791450360,
      1791450380,
      1791450408,
      1791450438,
      1791450459,
      1791450505,
      1791450534,
      1791450552,
      1791450570,
      1791450610,
      1791450636,
      1791450650,
      1791450686,
      1791450705,
      1791450728,
      1791450754,
      1791450784,
      1791450828,
      1791450855,
      1791450891,
      1791450910,
      1791450939,
      1791450974,
      1791450997,
      1791451021,
      1791451058,
      1791451090
    ],
    "wof:geomhash": "319c6377d24c4c650d415c1c50751ea0",
    "wof:id": 2048546667,
    "wof:repo": "sfomuseum-data-flights-2026-10"
  },
  "bbox": [
    -122.34717,
    37.49202,
    -121.26796,
    37.60943
  ],
  "geometry": {"type":"LineString","coordinates":[[-121.26796,37.59217],[-121.35423,37.58228],[-121.36144,37.58143],[-121.40312,37.57658],[-121.45913,37.57005],[-121.51492,37.56355],[-121.55319,37.5591],[-121.63083,37.54901],[-121.67974,37.53747],[-121.70888,37.53049],[-121.73814,37.52358],[-121.7989,37.5091],[-121.83669,37.49987],[-121.85848,37.49463],[-121.91331,37.49202],[-121.94274,37.49269],[-121.97743,37.49353],[-122.01311,37.50311],[-122.05136,37.51516],[-122.09977,37.53083],[-122.12863,37.53977],[-122.16578,37.55079],[-122.18568,37.55696],[-122.21502,37.56634],[-122.25066,37.57898],[-122.27322,37.58619],[-122.29562,37.59246],[-122.32423,37.60141],[-122.34717,37.60943]]}
}
