{
  "id": 2048487753,
  "type": "Feature",
  "properties": {
    "date:inception_lower": "2026-10-01",
    "date:inception_upper": "2026-10-01",
    "edtf:cessation": "",
    "edtf:inception": "2026-10-01",
    "flysfo:actual_timestamp": -1,
    "flysfo:airline": "DL",
    "flysfo:base_airline": "",
    "flysfo:base_flight_number": "7064",
    "flysfo:date": "2026-10-01",
    "flysfo:estimated_timestamp": -1,
    "flysfo:event": "D",
    "flysfo:flight_number": "DL6939",
    "flysfo:gate": "C4",
    "flysfo:journey": "SFO-YYC",
    "flysfo:scheduled_timestamp": 1790859600,
    "flysfo:timestamp": 1790859600,
    "geom:area": 0,
    "geom:bbox": "-122.370943,37.617990,-114.020920,51.119526",
    "geom:latitude": 44.368758,
    "geom:longitude": -118.1959315,
    "iata:airline": "DL",
    "iata:base_airline": "",
    "icao:airline": "DAL",
    "icao:base_airline": "AMX",
    "lbl:latitude": 37.614944,
    "lbl:longitude": -122.383123,
    "sfomuseum:airline_id": 1159284261,
    "sfomuseum:arrival_id": 102554947,
    "sfomuseum:base_flight_id": "20261001-D-AMX-7064",
    "sfomuseum:departure_id": 102527513,
    "sfomuseum:flight_id": "20261001-D-DAL-6939",
    "sfomuseum:flight_number": [
      "DAL6939",
      "DL6939"
    ],
    "sfomuseum:placetype": "flight",
    "src:geom": "flysfo",
    "wof:belongsto": [
      1947304067,
      102527513,
      1947304663,
      102191575,
      85633793,
      102087579,
      85922583,
      554784711,
      85688637,
      1947304667,
      1947304591,
      102085387
    ],
    "wof:country": "US",
    "wof:created": 1790957619,
    "wof:geomhash": "a7dd599440af55c5534b52449c3164ed",
    "wof:hierarchy": [
      {
        "building_id": 1947304067,
        "campus_id": 102527513,
        "concourse_id": 1947304663,
        "continent_id": 102191575,
        "country_id": 85633793,
        "county_id": 102087579,
        "custom_id": 2048487753,
        "flight_id": 2048487753,
        "locality_id": 85922583,
        "postalcode_id": 554784711,
        "region_id": 85688637,
        "venue_id": 1947304667,
        "wing_id": 1947304591
      },
      {
        "building_id": 1947304067,
        "campus_id": 102527513,
        "concourse_id": 1947304663,
        "continent_id": 102191575,
        "country_id": 85633793,
        "county_id": 102085387,
        "custom_id": 2048487753,
        "flight_id": 2048487753,
        "region_id": 85688637,
        "venue_id": 1947304667,
        "wing_id": 1947304591
      }
    ],
    "wof:id": 2048487753,
    "wof:involves": [
      102554947,
      102527513,
      1159284261,
      1947304667,
      1159283539
    ],
    "wof:lastmodified": 1790957619,
    "wof:name": "DL6939 (SFO-YYC)",
    "wof:parent_id": 1947304667,
    "wof:placetype": "custom",
    "wof:placetype_alt": [
      "flight"
    ],
    "wof:repo": "sfomuseum-data-flights-2026-10",
    "wof:superseded_by": [],
    "wof:supersedes": []
  },
  "bbox": [
    -122.370943,
    37.61799,
    -114.02092,
    51.119526
  ],
  "geometry": {"type":"MultiPoint","coordinates":[[-122.370943,37.61799],[-114.02092,51.119526]]}
}
