{
  "id": 2048493989,
  "type": "Feature",
  "properties": {
    "geom:area": 0,
    "geom:bbox": "-122.344240,37.553730,-122.169870,37.608240",
    "geom:latitude": 37.58124639911078,
    "geom:longitude": -122.25697498458588,
    "src:alt_label": "swim-approach",
    "src:geom": "swim",
    "swim:elevations": [
      964,
      748,
      539,
      486,
      281,
      241,
      88
    ],
    "swim:geom": "approach",
    "swim:timestamps": [
      1790960225,
      1790960267,
      1790960300,
      1790960314,
      1790960364,
      1790960376,
      1790960411
    ],
    "wof:geomhash": "96fc0ba90ea5d24b72232109fd8b285d",
    "wof:id": 2048493989,
    "wof:repo": "sfomuseum-data-flights-2026-10"
  },
  "bbox": [
    -122.34424,
    37.55373,
    -122.16987,
    37.60824
  ],
  "geometry": {"type":"LineString","coordinates":[[-122.16987,37.55373],[-122.21415,37.56803],[-122.24863,37.57925],[-122.26276,37.58358],[-122.30574,37.59597],[-122.31617,37.59911],[-122.34424,37.60824]]}
}
