{
  "id": 2048547121,
  "type": "Feature",
  "properties": {
    "geom:area": 0,
    "geom:bbox": "-123.494640,36.841990,-122.122560,37.613790",
    "geom:latitude": 37.26120487808809,
    "geom:longitude": -122.72188620926046,
    "src:alt_label": "swim-approach",
    "src:geom": "swim",
    "swim:elevations": [
      6001,
      5569,
      5261,
      5010,
      4709,
      4299,
      4156,
      3821,
      3329,
      3258,
      3176,
      3112,
      3050,
      3048,
      3048,
      3036,
      2896,
      2835,
      2808,
      2722,
      2711,
      2651,
      2593,
      2527,
      2512,
      2491,
      2448,
      2437,
      2427,
      2223,
      2138,
      1947,
      1742,
      1555,
      1326,
      1129,
      911,
      761,
      592,
      498,
      397,
      188,
      182,
      105,
      80
    ],
    "swim:geom": "approach",
    "swim:timestamps": [
      1791527171,
      1791527211,
      1791527240,
      1791527266,
      1791527293,
      1791527333,
      1791527346,
      1791527379,
      1791527428,
      1791527451,
      1791527481,
      1791527513,
      1791527531,
      1791527555,
      1791527602,
      1791527605,
      1791527632,
      1791527668,
      1791527674,
      1791527727,
      1791527730,
      1791527781,
      1791527813,
      1791527841,
      1791527853,
      1791527868,
      1791527889,
      1791527911,
      1791527917,
      1791527956,
      1791527983,
      1791528023,
      1791528056,
      1791528084,
      1791528114,
      1791528143,
      1791528173,
      1791528203,
      1791528237,
      1791528259,
      1791528284,
      1791528324,
      1791528328,
      1791528348,
      1791528372
    ],
    "wof:geomhash": "3d686b9c27b4fcc976eb796783be5be4",
    "wof:id": 2048547121,
    "wof:repo": "sfomuseum-data-flights-2026-10"
  },
  "bbox": [
    -123.49464,
    36.84199,
    -122.12256,
    37.61379
  ],
  "geometry": {"type":"LineString","coordinates":[[-123.49464,36.84199],[-123.41542,36.89326],[-123.36023,36.93001],[-123.3117,36.96301],[-123.26219,36.9958],[-123.1896,37.04331],[-123.16641,37.05856],[-123.10847,37.09693],[-123.02383,37.15237],[-122.98694,37.17674],[-122.94044,37.20727],[-122.89442,37.2373],[-122.86913,37.25289],[-122.8303,37.26534],[-122.7559,37.28281],[-122.75105,37.28396],[-122.70866,37.29384],[-122.651,37.3072],[-122.64144,37.30943],[-122.55557,37.32929],[-122.55081,37.33039],[-122.47143,37.34878],[-122.41951,37.3607],[-122.37528,37.37088],[-122.35501,37.37552],[-122.33229,37.38074],[-122.29938,37.38833],[-122.2666,37.39587],[-122.25818,37.3978],[-122.20518,37.40978],[-122.17111,37.41754],[-122.12555,37.43639],[-122.12256,37.47169],[-122.12816,37.50091],[-122.1327,37.52817],[-122.15185,37.54653],[-122.18129,37.55752],[-122.21163,37.56745],[-122.2443,37.57785],[-122.26541,37.58425],[-122.28716,37.5907],[-122.32101,37.6001],[-122.32427,37.60103],[-122.33997,37.60638],[-122.35764,37.61379]]}
}
