{
  "id": 2048518985,
  "type": "Feature",
  "properties": {
    "date:inception_lower": "2026-10-05",
    "date:inception_upper": "2026-10-05",
    "edtf:cessation": "",
    "edtf:inception": "2026-10-05",
    "flysfo:actual_timestamp": -1,
    "flysfo:airline": "DL",
    "flysfo:base_airline": "",
    "flysfo:base_flight_number": "4345",
    "flysfo:date": "2026-10-05",
    "flysfo:estimated_timestamp": 1791237120,
    "flysfo:event": "A",
    "flysfo:flight_number": "DL7685",
    "flysfo:gate": "A1",
    "flysfo:journey": "CPH-SFO",
    "flysfo:scheduled_timestamp": 1791236400,
    "flysfo:timestamp": 1791237120,
    "geom:area": 0,
    "geom:bbox": "-122.370943,37.617990,12.649581,55.627628",
    "geom:latitude": 46.622809000000004,
    "geom:longitude": -54.860681,
    "iata:airline": "DL",
    "iata:base_airline": "",
    "icao:airline": "DAL",
    "icao:base_airline": "AFR",
    "lbl:latitude": 37.61799,
    "lbl:longitude": -122.370943,
    "sfomuseum:airline_id": 1159284261,
    "sfomuseum:arrival_id": 102527513,
    "sfomuseum:base_flight_id": "20261005-A-AFR-4345",
    "sfomuseum:departure_id": 102544207,
    "sfomuseum:flight_id": "20261005-A-DAL-7685",
    "sfomuseum:flight_number": [
      "DAL7685",
      "DL7685"
    ],
    "sfomuseum:placetype": "flight",
    "src:geom": "flysfo",
    "wof:belongsto": [
      1947304067,
      102527513,
      1947304073,
      102191575,
      85633793,
      102087579,
      85922583,
      554784711,
      85688637,
      1947304079,
      1947304069,
      102085387
    ],
    "wof:country": "US",
    "wof:created": 1791302712,
    "wof:geomhash": "5ce04c0590c166d926aa7a8325b74dd4",
    "wof:hierarchy": [
      {
        "building_id": 1947304067,
        "campus_id": 102527513,
        "concourse_id": 1947304073,
        "continent_id": 102191575,
        "country_id": 85633793,
        "county_id": 102087579,
        "custom_id": 2048518985,
        "flight_id": 2048518985,
        "locality_id": 85922583,
        "postalcode_id": 554784711,
        "region_id": 85688637,
        "venue_id": 1947304079,
        "wing_id": 1947304069
      },
      {
        "building_id": 1947304067,
        "campus_id": 102527513,
        "concourse_id": 1947304073,
        "continent_id": 102191575,
        "country_id": 85633793,
        "county_id": 102085387,
        "custom_id": 2048518985,
        "flight_id": 2048518985,
        "region_id": 85688637,
        "venue_id": 1947304079,
        "wing_id": 1947304069
      }
    ],
    "wof:id": 2048518985,
    "wof:involves": [
      102527513,
      102544207,
      1159284261,
      1947304079,
      1159283627
    ],
    "wof:lastmodified": 1791302712,
    "wof:name": "DL7685 (CPH-SFO)",
    "wof:parent_id": 1947304079,
    "wof:placetype": "custom",
    "wof:placetype_alt": [
      "flight"
    ],
    "wof:repo": "sfomuseum-data-flights-2026-10",
    "wof:superseded_by": [],
    "wof:supersedes": []
  },
  "bbox": [
    -122.370943,
    37.61799,
    12.649581,
    55.627628
  ],
  "geometry": {"type":"MultiPoint","coordinates":[[12.649581,55.627628],[-122.370943,37.61799]]}
}
