{
  "id": 2048546525,
  "type": "Feature",
  "properties": {
    "date:cessation_lower": "2026-10-08",
    "date:cessation_upper": "2026-10-08",
    "date:inception_lower": "1970-01-01",
    "date:inception_upper": "1970-01-01",
    "edtf:cessation": "2026-10-08T03:25:33-07:00",
    "edtf:inception": "1970-01-01T00:00:00Z",
    "flysfo:actual_timestamp": -1,
    "flysfo:airline": "UA",
    "flysfo:base_airline": "",
    "flysfo:base_flight_number": "7911",
    "flysfo:date": "2026-10-08",
    "flysfo:estimated_timestamp": 1791481500,
    "flysfo:event": "A",
    "flysfo:flight_number": "UA1513",
    "flysfo:gate": "E5",
    "flysfo:journey": "FLL-SFO",
    "flysfo:scheduled_timestamp": 1791482700,
    "flysfo:timestamp": 1791482700,
    "geom:area": 0,
    "geom:bbox": "-122.370943,26.074860,-80.138518,37.617990",
    "geom:latitude": 31.846425,
    "geom:longitude": -101.2547305,
    "iata:airline": "UA",
    "iata:base_airline": "",
    "icao:aircraft": "B38M",
    "icao:airline": "UAL",
    "icao:base_airline": "AZU",
    "lbl:latitude": 37.618486,
    "lbl:longitude": -122.384457,
    "sfomuseum:aircraft_id": 1528104575,
    "sfomuseum:airline_id": 1159285413,
    "sfomuseum:arrival_id": 102527513,
    "sfomuseum:base_flight_id": "20261008-A-AZU-7911",
    "sfomuseum:departure_id": 102530841,
    "sfomuseum:flight_id": "20261008-A-UAL-1513",
    "sfomuseum:flight_number": [
      "UAL1513",
      "UA1513"
    ],
    "sfomuseum:placetype": "flight",
    "src:geom": "flysfo",
    "src:geom_alt": [
      "swim-approach"
    ],
    "swim:tail_number": "N47369",
    "wof:belongsto": [
      1947304067,
      102527513,
      1947304511,
      102191575,
      85633793,
      102087579,
      85922583,
      554784711,
      85688637,
      1947304525,
      1947304447,
      102085387
    ],
    "wof:country": "US",
    "wof:created": 1791562122,
    "wof:geomhash": "d17d7e3187ba5afa3de1a7310fca2526",
    "wof:hierarchy": [
      {
        "building_id": 1947304067,
        "campus_id": 102527513,
        "concourse_id": 1947304511,
        "continent_id": 102191575,
        "country_id": 85633793,
        "county_id": 102087579,
        "custom_id": 2048546525,
        "flight_id": 2048546525,
        "locality_id": 85922583,
        "postalcode_id": 554784711,
        "region_id": 85688637,
        "venue_id": 1947304525,
        "wing_id": 1947304447
      },
      {
        "building_id": 1947304067,
        "campus_id": 102527513,
        "concourse_id": 1947304511,
        "continent_id": 102191575,
        "country_id": 85633793,
        "county_id": 102085387,
        "custom_id": 2048546525,
        "flight_id": 2048546525,
        "region_id": 85688637,
        "venue_id": 1947304525,
        "wing_id": 1947304447
      }
    ],
    "wof:id": 2048546525,
    "wof:involves": [
      1528104575,
      102527513,
      102530841,
      1159285413,
      1947304525,
      1779770723
    ],
    "wof:lastmodified": 1791562794,
    "wof:name": "UA1513 (FLL-SFO)",
    "wof:parent_id": 1947304525,
    "wof:placetype": "custom",
    "wof:placetype_alt": [
      "flight"
    ],
    "wof:repo": "sfomuseum-data-flights-2026-10",
    "wof:superseded_by": [],
    "wof:supersedes": []
  },
  "bbox": [
    -122.370943,
    26.07486,
    -80.138518,
    37.61799
  ],
  "geometry": {"type":"MultiPoint","coordinates":[[-80.138518,26.07486],[-122.370943,37.61799]]}
}
