{
  "id": 2048520687,
  "type": "Feature",
  "properties": {
    "geom:area": 0,
    "geom:bbox": "-122.356750,37.491650,-121.260010,37.613250",
    "geom:latitude": 37.54647297107547,
    "geom:longitude": -121.81317767944778,
    "src:alt_label": "swim-approach",
    "src:geom": "swim",
    "swim:elevations": [
      4627,
      4210,
      4103,
      4049,
      3808,
      3695,
      3473,
      3229,
      3037,
      2955,
      2740,
      2481,
      2441,
      2205,
      2131,
      1949,
      1863,
      1809,
      1686,
      1524,
      1184,
      1059,
      942,
      914,
      762,
      676,
      543,
      467,
      393,
      342,
      277,
      107,
      14
    ],
    "swim:geom": "approach",
    "swim:timestamps": [
      1791229179,
      1791229226,
      1791229249,
      1791229261,
      1791229312,
      1791229327,
      1791229362,
      1791229397,
      1791229438,
      1791229451,
      1791229487,
      1791229522,
      1791229533,
      1791229574,
      1791229594,
      1791229618,
      1791229635,
      1791229674,
      1791229695,
      1791229715,
      1791229764,
      1791229791,
      1791229814,
      1791229845,
      1791229884,
      1791229902,
      1791229939,
      1791229958,
      1791229980,
      1791229994,
      1791230012,
      1791230057,
      1791230078
    ],
    "wof:geomhash": "f98c4ff90dfe18048145bdd8a35a0bcd",
    "wof:id": 2048520687,
    "wof:repo": "sfomuseum-data-flights-2026-10"
  },
  "bbox": [
    -122.35675,
    37.49165,
    -121.26001,
    37.61325
  ],
  "geometry": {"type":"LineString","coordinates":[[-121.26001,37.59341],[-121.34657,37.58396],[-121.38604,37.57897],[-121.40613,37.57653],[-121.48639,37.56726],[-121.50913,37.56461],[-121.56233,37.55843],[-121.61481,37.55211],[-121.6741,37.53887],[-121.69263,37.53448],[-121.74134,37.523],[-121.78991,37.51155],[-121.8053,37.50788],[-121.86012,37.49468],[-121.88735,37.49165],[-121.92083,37.49253],[-121.9443,37.49305],[-121.99347,37.49688],[-122.01679,37.50461],[-122.0387,37.51162],[-122.09079,37.52834],[-122.11905,37.53762],[-122.14359,37.5455],[-122.17241,37.55459],[-122.20738,37.56603],[-122.22328,37.57111],[-122.255,37.5813],[-122.26882,37.58527],[-122.28553,37.59007],[-122.29641,37.59337],[-122.30946,37.59721],[-122.34242,37.60741],[-122.35675,37.61325]]}
}
