{
  "id": 2048532559,
  "type": "Feature",
  "properties": {
    "date:inception_lower": "2026-10-06",
    "date:inception_upper": "2026-10-06",
    "edtf:cessation": "",
    "edtf:inception": "2026-10-06",
    "flysfo:actual_timestamp": -1,
    "flysfo:airline": "QF",
    "flysfo:base_airline": "",
    "flysfo:base_flight_number": "3007",
    "flysfo:date": "2026-10-06",
    "flysfo:estimated_timestamp": 1791349380,
    "flysfo:event": "D",
    "flysfo:flight_number": "QF3007",
    "flysfo:gate": "B23",
    "flysfo:journey": "SFO-CLT",
    "flysfo:scheduled_timestamp": 1791349380,
    "flysfo:timestamp": 1791349380,
    "geom:area": 0,
    "geom:bbox": "-122.370943,35.220744,-80.942777,37.617990",
    "geom:latitude": 36.419367,
    "geom:longitude": -101.65686,
    "iata:airline": "QF",
    "iata:base_airline": "",
    "icao:airline": "QFA",
    "icao:base_airline": "QFA",
    "lbl:latitude": 37.61799,
    "lbl:longitude": -122.370943,
    "sfomuseum:airline_id": 1159285043,
    "sfomuseum:arrival_id": 102528659,
    "sfomuseum:base_flight_id": "20261006-D-QFA-3007",
    "sfomuseum:departure_id": 102527513,
    "sfomuseum:flight_id": "20261006-D-QFA-3007",
    "sfomuseum:flight_number": [
      "QFA3007",
      "QF3007"
    ],
    "sfomuseum:placetype": "flight",
    "src:geom": "flysfo",
    "wof:belongsto": [
      1947304067,
      102527513,
      1947304261,
      102191575,
      85633793,
      102087579,
      85922583,
      554784711,
      85688637,
      1947304317,
      1947304259,
      102085387
    ],
    "wof:country": "US",
    "wof:created": 1791389615,
    "wof:geomhash": "6d7202e034534315a50103622977ef57",
    "wof:hierarchy": [
      {
        "building_id": 1947304067,
        "campus_id": 102527513,
        "concourse_id": 1947304261,
        "continent_id": 102191575,
        "country_id": 85633793,
        "county_id": 102087579,
        "custom_id": 2048532559,
        "flight_id": 2048532559,
        "locality_id": 85922583,
        "postalcode_id": 554784711,
        "region_id": 85688637,
        "venue_id": 1947304317,
        "wing_id": 1947304259
      },
      {
        "building_id": 1947304067,
        "campus_id": 102527513,
        "concourse_id": 1947304261,
        "continent_id": 102191575,
        "country_id": 85633793,
        "county_id": 102085387,
        "custom_id": 2048532559,
        "flight_id": 2048532559,
        "region_id": 85688637,
        "venue_id": 1947304317,
        "wing_id": 1947304259
      }
    ],
    "wof:id": 2048532559,
    "wof:involves": [
      102528659,
      102527513,
      1159285043,
      1947304317,
      1159285043
    ],
    "wof:lastmodified": 1791389615,
    "wof:name": "QF3007 (SFO-CLT)",
    "wof:parent_id": 1947304317,
    "wof:placetype": "custom",
    "wof:placetype_alt": [
      "flight"
    ],
    "wof:repo": "sfomuseum-data-flights-2026-10",
    "wof:superseded_by": [],
    "wof:supersedes": []
  },
  "bbox": [
    -122.370943,
    35.220744,
    -80.942777,
    37.61799
  ],
  "geometry": {"type":"MultiPoint","coordinates":[[-122.370943,37.61799],[-80.942777,35.220744]]}
}
