{
  "id": 2048511443,
  "type": "Feature",
  "properties": {
    "geom:area": 0,
    "geom:bbox": "-122.354160,37.491320,-121.245500,37.612200",
    "geom:latitude": 37.54663163022192,
    "geom:longitude": -121.804662825307,
    "src:alt_label": "swim-approach",
    "src:geom": "swim",
    "swim:elevations": [
      4783,
      4717,
      4287,
      4216,
      3790,
      3700,
      3390,
      3210,
      2905,
      2610,
      2562,
      2500,
      2224,
      2139,
      1924,
      1859,
      1761,
      1742,
      1630,
      1433,
      1312,
      1193,
      949,
      913,
      793,
      668,
      554,
      486,
      451,
      291,
      119,
      33
    ],
    "swim:geom": "approach",
    "swim:timestamps": [
      1791149278,
      1791149287,
      1791149337,
      1791149344,
      1791149395,
      1791149408,
      1791149445,
      1791149466,
      1791149511,
      1791149548,
      1791149560,
      1791149580,
      1791149622,
      1791149645,
      1791149693,
      1791149708,
      1791149728,
      1791149731,
      1791149751,
      1791149787,
      1791149804,
      1791149827,
      1791149873,
      1791149881,
      1791149905,
      1791149931,
      1791149952,
      1791149963,
      1791149974,
      1791150010,
      1791150054,
      1791150071
    ],
    "wof:geomhash": "5cacd29e8d6903c370fcdab92f1c0876",
    "wof:id": 2048511443,
    "wof:repo": "sfomuseum-data-flights-2026-10"
  },
  "bbox": [
    -122.35416,
    37.49132,
    -121.2455,
    37.6122
  ],
  "geometry": {"type":"LineString","coordinates":[[-121.2455,37.59508],[-121.26282,37.59274],[-121.36034,37.58164],[-121.37378,37.58003],[-121.47049,37.56883],[-121.49411,37.56609],[-121.56125,37.55826],[-121.60023,37.55359],[-121.67743,37.53821],[-121.73896,37.52353],[-121.7592,37.51861],[-121.79025,37.51133],[-121.85461,37.49584],[-121.8888,37.49132],[-121.95755,37.49307],[-121.97789,37.49399],[-122.00423,37.49997],[-122.00807,37.50125],[-122.03308,37.5093],[-122.07644,37.52336],[-122.09651,37.52985],[-122.12344,37.53868],[-122.17343,37.55484],[-122.18162,37.55754],[-122.20568,37.56528],[-122.23263,37.57412],[-122.2534,37.58067],[-122.26471,37.58411],[-122.27501,37.58694],[-122.30622,37.59621],[-122.34111,37.60707],[-122.35416,37.6122]]}
}
