{
  "id": 2048485247,
  "type": "Feature",
  "properties": {
    "date:inception_lower": "2026-10-01",
    "date:inception_upper": "2026-10-01",
    "edtf:cessation": "",
    "edtf:inception": "2026-10-01",
    "flysfo:actual_timestamp": -1,
    "flysfo:airline": "UA",
    "flysfo:base_airline": "",
    "flysfo:base_flight_number": "4222",
    "flysfo:date": "2026-10-01",
    "flysfo:estimated_timestamp": 1790904180,
    "flysfo:event": "A",
    "flysfo:flight_number": "UA8883",
    "flysfo:gate": "G9",
    "flysfo:journey": "MUC-SFO",
    "flysfo:scheduled_timestamp": 1790906400,
    "flysfo:timestamp": 1790906400,
    "geom:area": 0,
    "geom:bbox": "-122.370943,37.617990,11.776808,48.352681",
    "geom:latitude": 42.9853355,
    "geom:longitude": -55.2970675,
    "iata:airline": "UA",
    "iata:base_airline": "",
    "icao:airline": "UAL",
    "icao:base_airline": "ANZ",
    "lbl:latitude": 37.61844,
    "lbl:longitude": -122.392214,
    "sfomuseum:airline_id": 1159285413,
    "sfomuseum:arrival_id": 102527513,
    "sfomuseum:base_flight_id": "20261001-A-ANZ-4222",
    "sfomuseum:departure_id": 102549067,
    "sfomuseum:flight_id": "20261001-A-UAL-8883",
    "sfomuseum:flight_number": [
      "UAL8883",
      "UA8883"
    ],
    "sfomuseum:placetype": "flight",
    "src:geom": "flysfo",
    "wof:belongsto": [
      1947304067,
      102527513,
      1947304129,
      102191575,
      85633793,
      102087579,
      85922583,
      554784711,
      85688637,
      1947304153,
      1947304069,
      102085387
    ],
    "wof:country": "US",
    "wof:created": 1790957337,
    "wof:geomhash": "eba9741d16611c9af3d962416d546de7",
    "wof:hierarchy": [
      {
        "building_id": 1947304067,
        "campus_id": 102527513,
        "concourse_id": 1947304129,
        "continent_id": 102191575,
        "country_id": 85633793,
        "county_id": 102087579,
        "custom_id": 2048485247,
        "flight_id": 2048485247,
        "locality_id": 85922583,
        "postalcode_id": 554784711,
        "region_id": 85688637,
        "venue_id": 1947304153,
        "wing_id": 1947304069
      },
      {
        "building_id": 1947304067,
        "campus_id": 102527513,
        "concourse_id": 1947304129,
        "continent_id": 102191575,
        "country_id": 85633793,
        "county_id": 102085387,
        "custom_id": 2048485247,
        "flight_id": 2048485247,
        "region_id": 85688637,
        "venue_id": 1947304153,
        "wing_id": 1947304069
      }
    ],
    "wof:id": 2048485247,
    "wof:involves": [
      102527513,
      102549067,
      1159285413,
      1947304153,
      1159283697
    ],
    "wof:lastmodified": 1790957337,
    "wof:name": "UA8883 (MUC-SFO)",
    "wof:parent_id": 1947304153,
    "wof:placetype": "custom",
    "wof:placetype_alt": [
      "flight"
    ],
    "wof:repo": "sfomuseum-data-flights-2026-10",
    "wof:superseded_by": [],
    "wof:supersedes": []
  },
  "bbox": [
    -122.370943,
    37.61799,
    11.776808,
    48.352681
  ],
  "geometry": {"type":"MultiPoint","coordinates":[[11.776808,48.352681],[-122.370943,37.61799]]}
}
