{
  "id": 2048502457,
  "type": "Feature",
  "properties": {
    "geom:area": 0,
    "geom:bbox": "-122.363070,37.492280,-121.242680,37.615150",
    "geom:latitude": 37.54740304929483,
    "geom:longitude": -121.80778732645229,
    "src:alt_label": "swim-approach",
    "src:geom": "swim",
    "swim:elevations": [
      4585,
      4355,
      4021,
      3732,
      3555,
      3382,
      3229,
      3176,
      2961,
      2835,
      2547,
      2395,
      2191,
      1987,
      1977,
      1823,
      1653,
      1431,
      1377,
      1085,
      884,
      757,
      499,
      425,
      228,
      179,
      0
    ],
    "swim:geom": "approach",
    "swim:timestamps": [
      1791059663,
      1791059686,
      1791059720,
      1791059757,
      1791059785,
      1791059812,
      1791059841,
      1791059850,
      1791059890,
      1791059914,
      1791059957,
      1791059982,
      1791060014,
      1791060058,
      1791060061,
      1791060098,
      1791060128,
      1791060175,
      1791060186,
      1791060230,
      1791060257,
      1791060278,
      1791060326,
      1791060338,
      1791060386,
      1791060395,
      1791060444
    ],
    "wof:geomhash": "05423318aec6bfd29b5e5cc0164313dd",
    "wof:id": 2048502457,
    "wof:repo": "sfomuseum-data-flights-2026-10"
  },
  "bbox": [
    -122.36307,
    37.49228,
    -121.24268,
    37.61515
  ],
  "geometry": {"type":"LineString","coordinates":[[-121.24268,37.59556],[-121.29096,37.58919],[-121.3647,37.5812],[-121.44068,37.57232],[-121.49718,37.56573],[-121.5478,37.55989],[-121.5973,37.55398],[-121.61263,37.55212],[-121.67649,37.5384],[-121.71329,37.52963],[-121.77859,37.51411],[-121.81689,37.50496],[-121.86511,37.49358],[-121.93169,37.49228],[-121.93613,37.49237],[-121.98941,37.49592],[-122.02872,37.50799],[-122.0902,37.52795],[-122.10388,37.5324],[-122.15726,37.5496],[-122.18757,37.55935],[-122.21181,37.56728],[-122.26255,37.58362],[-122.27468,37.58693],[-122.31741,37.59924],[-122.32501,37.60135],[-122.36307,37.61515]]}
}
