{
  "id": 2048526195,
  "type": "Feature",
  "properties": {
    "geom:area": 0,
    "geom:bbox": "-122.358320,37.491310,-121.260240,37.613990",
    "geom:latitude": 37.54638919570512,
    "geom:longitude": -121.81414619028624,
    "src:alt_label": "swim-approach",
    "src:geom": "swim",
    "swim:elevations": [
      4598,
      4103,
      4002,
      3698,
      3662,
      3594,
      3417,
      3356,
      3157,
      2973,
      2701,
      2579,
      2543,
      2436,
      2317,
      2107,
      2047,
      1985,
      1848,
      1482,
      1339,
      1082,
      934,
      847,
      786,
      549,
      513,
      368,
      229,
      182,
      0
    ],
    "swim:geom": "approach",
    "swim:timestamps": [
      1791276214,
      1791276268,
      1791276279,
      1791276323,
      1791276332,
      1791276347,
      1791276381,
      1791276392,
      1791276432,
      1791276453,
      1791276496,
      1791276516,
      1791276521,
      1791276538,
      1791276557,
      1791276594,
      1791276612,
      1791276634,
      1791276666,
      1791276705,
      1791276724,
      1791276766,
      1791276798,
      1791276836,
      1791276844,
      1791276896,
      1791276916,
      1791276945,
      1791276979,
      1791276994,
      1791277031
    ],
    "wof:geomhash": "dbd813eaeb698b716357e74c436677e5",
    "wof:id": 2048526195,
    "wof:repo": "sfomuseum-data-flights-2026-10"
  },
  "bbox": [
    -122.35832,
    37.49131,
    -121.26024,
    37.61399
  ],
  "geometry": {"type":"LineString","coordinates":[[-121.26024,37.5933],[-121.37012,37.58059],[-121.39171,37.57812],[-121.4774,37.56816],[-121.49433,37.56611],[-121.5206,37.56301],[-121.57754,37.5564],[-121.59668,37.55417],[-121.65687,37.54296],[-121.6874,37.5358],[-121.74725,37.52158],[-121.77613,37.5146],[-121.78281,37.513],[-121.80648,37.5073],[-121.83185,37.50129],[-121.88207,37.49131],[-121.90687,37.49181],[-121.93746,37.49266],[-121.98126,37.49419],[-122.03165,37.50904],[-122.05615,37.51697],[-122.11135,37.5349],[-122.14912,37.54709],[-122.19159,37.56074],[-122.19931,37.5632],[-122.24565,37.57827],[-122.26208,37.58344],[-122.28725,37.59087],[-122.31649,37.59942],[-122.32884,37.60305],[-122.35832,37.61399]]}
}
