{
  "id": 2048546755,
  "type": "Feature",
  "properties": {
    "geom:area": 0,
    "geom:bbox": "-122.357220,37.467670,-121.395590,37.613440",
    "geom:latitude": 37.535979960118155,
    "geom:longitude": -121.8790031990629,
    "src:alt_label": "swim-approach",
    "src:geom": "swim",
    "swim:elevations": [
      4073,
      3756,
      3504,
      3383,
      3222,
      3079,
      2936,
      2744,
      2382,
      2239,
      2137,
      2024,
      1916,
      1898,
      1738,
      1593,
      1446,
      1283,
      1068,
      938,
      867,
      685,
      465,
      408,
      359,
      215,
      155,
      143,
      8
    ],
    "swim:geom": "approach",
    "swim:timestamps": [
      1791487817,
      1791487852,
      1791487884,
      1791487906,
      1791487949,
      1791487968,
      1791487989,
      1791488015,
      1791488064,
      1791488090,
      1791488114,
      1791488155,
      1791488188,
      1791488195,
      1791488239,
      1791488269,
      1791488290,
      1791488321,
      1791488361,
      1791488387,
      1791488401,
      1791488441,
      1791488486,
      1791488496,
      1791488509,
      1791488548,
      1791488560,
      1791488566,
      1791488593
    ],
    "wof:geomhash": "d182f3487a8c11ced52ad37a23beaf07",
    "wof:id": 2048546755,
    "wof:repo": "sfomuseum-data-flights-2026-10"
  },
  "bbox": [
    -122.35722,
    37.46767,
    -121.39559,
    37.61344
  ],
  "geometry": {"type":"LineString","coordinates":[[-121.39559,37.57753],[-121.46324,37.56962],[-121.5239,37.5625],[-121.56508,37.55783],[-121.63517,37.54823],[-121.66376,37.54148],[-121.6931,37.53449],[-121.72955,37.52568],[-121.7848,37.49335],[-121.80796,37.4701],[-121.84023,37.46767],[-121.89542,37.47876],[-121.93988,37.48592],[-121.94919,37.48753],[-122.00424,37.49998],[-122.04123,37.51195],[-122.06597,37.51999],[-122.10446,37.53241],[-122.14707,37.54632],[-122.17467,37.55522],[-122.18897,37.55979],[-122.22679,37.57212],[-122.27008,37.58603],[-122.27888,37.58874],[-122.29112,37.59192],[-122.32197,37.60103],[-122.33161,37.60422],[-122.3365,37.60578],[-122.35722,37.61344]]}
}
