{
  "id": 2048532929,
  "type": "Feature",
  "properties": {
    "geom:area": 0,
    "geom:bbox": "-122.450210,36.742670,-121.268690,37.715990",
    "geom:latitude": 37.25683877426065,
    "geom:longitude": -121.91622550576348,
    "src:alt_label": "swim-takeoff",
    "src:geom": "swim",
    "swim:elevations": [
      251,
      412,
      482,
      613,
      1252,
      1517,
      1689,
      1891,
      2320,
      2949,
      3355,
      3508,
      3709,
      4124,
      4490,
      4703,
      5155,
      5640,
      5806,
      6222,
      6450,
      6760,
      6943,
      7171,
      7421,
      7720,
      8002,
      8196,
      8543,
      8736,
      8897,
      9023
    ],
    "swim:geom": "takeoff",
    "swim:timestamps": [
      1791350781,
      1791350793,
      1791350802,
      1791350820,
      1791350877,
      1791350901,
      1791350913,
      1791350943,
      1791350982,
      1791351021,
      1791351056,
      1791351087,
      1791351106,
      1791351145,
      1791351175,
      1791351190,
      1791351226,
      1791351269,
      1791351284,
      1791351322,
      1791351346,
      1791351380,
      1791351401,
      1791351432,
      1791351462,
      1791351495,
      1791351525,
      1791351546,
      1791351591,
      1791351617,
      1791351644,
      1791351662
    ],
    "wof:geomhash": "b02916c20b11119387fff30138582da7",
    "wof:id": 2048532929,
    "wof:repo": "sfomuseum-data-flights-2026-10"
  },
  "bbox": [
    -122.45021,
    36.74267,
    -121.26869,
    37.71599
  ],
  "geometry": {"type":"LineString","coordinates":[[-122.36649,37.63306],[-122.36445,37.6422],[-122.36447,37.64935],[-122.36353,37.66491],[-122.38628,37.71311],[-122.41576,37.71599],[-122.4297,37.71131],[-122.45021,37.68467],[-122.42702,37.64287],[-122.37939,37.60907],[-122.33775,37.57743],[-122.29566,37.54487],[-122.26851,37.52404],[-122.20923,37.47844],[-122.16199,37.44204],[-122.13803,37.42362],[-122.08005,37.37872],[-122.00952,37.32411],[-121.98436,37.3046],[-121.91764,37.25285],[-121.87585,37.22027],[-121.81556,37.1733],[-121.77749,37.14363],[-121.71962,37.09846],[-121.66276,37.05383],[-121.59954,37.00396],[-121.54123,36.95835],[-121.50071,36.92594],[-121.41304,36.85681],[-121.36016,36.81506],[-121.30556,36.77178],[-121.26869,36.74267]]}
}
