{
  "id": 2048522989,
  "type": "Feature",
  "properties": {
    "geom:area": 0,
    "geom:bbox": "-122.364310,37.631310,-121.253560,38.147280",
    "geom:latitude": 37.92772268545514,
    "geom:longitude": -121.82622022112493,
    "src:alt_label": "swim-takeoff",
    "src:geom": "swim",
    "swim:elevations": [
      152,
      254,
      445,
      521,
      878,
      1132,
      1325,
      2004,
      2263,
      2648,
      2966,
      3290,
      3948,
      4088,
      4602,
      5053,
      5139,
      5431,
      5470,
      5909,
      6125,
      6446,
      6657,
      6919,
      7061,
      7166
    ],
    "swim:geom": "takeoff",
    "swim:timestamps": [
      1791204832,
      1791204843,
      1791204867,
      1791204877,
      1791204912,
      1791204945,
      1791204965,
      1791205016,
      1791205040,
      1791205067,
      1791205089,
      1791205113,
      1791205167,
      1791205177,
      1791205219,
      1791205258,
      1791205267,
      1791205319,
      1791205325,
      1791205372,
      1791205398,
      1791205435,
      1791205464,
      1791205498,
      1791205515,
      1791205530
    ],
    "wof:geomhash": "ff6614d9ae9ae54b37090ce8b3a2980d",
    "wof:id": 2048522989,
    "wof:repo": "sfomuseum-data-flights-2026-10"
  },
  "bbox": [
    -122.36431,
    37.63131,
    -121.25356,
    38.14728
  ],
  "geometry": {"type":"LineString","coordinates":[[-122.36431,37.63131],[-122.35838,37.63851],[-122.3376,37.65062],[-122.32881,37.65532],[-122.29314,37.67547],[-122.25756,37.69579],[-122.2319,37.70883],[-122.16455,37.74329],[-122.13207,37.76022],[-122.09341,37.78045],[-122.06145,37.79677],[-122.03134,37.81795],[-121.96756,37.87281],[-121.95424,37.88431],[-121.90089,37.92927],[-121.84945,37.97116],[-121.83753,37.98003],[-121.73997,38.01501],[-121.72714,38.01815],[-121.62425,38.04509],[-121.56816,38.06138],[-121.48313,38.08507],[-121.41506,38.10368],[-121.33169,38.1262],[-121.2911,38.1372],[-121.25356,38.14728]]}
}
