{
  "id": 2048484517,
  "type": "Feature",
  "properties": {
    "geom:area": 0,
    "geom:bbox": "-122.824390,37.428360,-122.134640,38.417780",
    "geom:latitude": 37.82452071669464,
    "geom:longitude": -122.51500842931652,
    "src:alt_label": "swim-approach",
    "src:geom": "swim",
    "swim:elevations": [
      7681,
      7572,
      7346,
      6944,
      6462,
      6212,
      5748,
      5580,
      5117,
      4901,
      4552,
      4316,
      3882,
      3522,
      3385,
      3353,
      3353,
      3353,
      3353,
      3306,
      3137,
      2939,
      2809,
      2595,
      2326,
      2221,
      1935,
      1663,
      1318,
      1067,
      970,
      914,
      815
    ],
    "swim:geom": "approach",
    "swim:timestamps": [
      1790923437,
      1790923453,
      1790923475,
      1790923511,
      1790923553,
      1790923574,
      1790923616,
      1790923631,
      1790923673,
      1790923691,
      1790923725,
      1790923747,
      1790923785,
      1790923825,
      1790923858,
      1790923880,
      1790923897,
      1790923940,
      1790923976,
      1790924006,
      1790924037,
      1790924063,
      1790924080,
      1790924116,
      1790924156,
      1790924167,
      1790924202,
      1790924232,
      1790924271,
      1790924297,
      1790924312,
      1790924347,
      1790924371
    ],
    "wof:geomhash": "a6e54db0ddf97b440713e6fe15cc9e30",
    "wof:id": 2048484517,
    "wof:repo": "sfomuseum-data-flights-2026-10"
  },
  "bbox": [
    -122.82439,
    37.42836,
    -122.13464,
    38.41778
  ],
  "geometry": {"type":"LineString","coordinates":[[-122.82439,38.41778],[-122.81527,38.38743],[-122.80353,38.34743],[-122.78486,38.28371],[-122.76293,38.20912],[-122.75212,38.1717],[-122.73083,38.09866],[-122.7234,38.07288],[-122.70283,38.0013],[-122.69397,37.97086],[-122.6765,37.91407],[-122.65402,37.8817],[-122.6017,37.83203],[-122.54982,37.78277],[-122.51031,37.74548],[-122.48567,37.72218],[-122.46718,37.70475],[-122.4179,37.65861],[-122.37841,37.62153],[-122.3525,37.59208],[-122.33579,37.55893],[-122.32236,37.53278],[-122.31137,37.51497],[-122.29013,37.48012],[-122.25982,37.44561],[-122.24584,37.44142],[-122.20035,37.42836],[-122.16102,37.43074],[-122.13464,37.46794],[-122.13467,37.49617],[-122.14585,37.50999],[-122.1755,37.53742],[-122.20176,37.54793]]}
}
