{
  "id": 2048526199,
  "type": "Feature",
  "properties": {
    "geom:area": 0,
    "geom:bbox": "-122.355150,37.492500,-121.245970,37.612670",
    "geom:latitude": 37.54661171749348,
    "geom:longitude": -121.8053959321482,
    "src:alt_label": "swim-approach",
    "src:geom": "swim",
    "swim:elevations": [
      4751,
      4631,
      4446,
      4117,
      3866,
      3588,
      3468,
      3194,
      3073,
      2959,
      2841,
      2641,
      2284,
      2172,
      1954,
      1874,
      1801,
      1373,
      1226,
      1016,
      975,
      866,
      709,
      516,
      492,
      391,
      271,
      181,
      89,
      23
    ],
    "swim:geom": "approach",
    "swim:timestamps": [
      1791316244,
      1791316255,
      1791316274,
      1791316308,
      1791316335,
      1791316365,
      1791316381,
      1791316437,
      1791316454,
      1791316479,
      1791316509,
      1791316532,
      1791316578,
      1791316597,
      1791316641,
      1791316660,
      1791316685,
      1791316729,
      1791316749,
      1791316792,
      1791316801,
      1791316855,
      1791316879,
      1791316918,
      1791316940,
      1791316970,
      1791317004,
      1791317034,
      1791317061,
      1791317077
    ],
    "wof:geomhash": "64286d5a8592a57cb2a9d1ba4fd03305",
    "wof:id": 2048526199,
    "wof:repo": "sfomuseum-data-flights-2026-10"
  },
  "bbox": [
    -122.35515,
    37.4925,
    -121.24597,
    37.61267
  ],
  "geometry": {"type":"LineString","coordinates":[[-121.24597,37.59477],[-121.26888,37.59157],[-121.30718,37.58687],[-121.37465,37.5797],[-121.42702,37.57371],[-121.48695,37.56664],[-121.51774,37.56305],[-121.62018,37.55096],[-121.64967,37.54458],[-121.69097,37.53458],[-121.73819,37.5236],[-121.77347,37.5151],[-121.83975,37.49928],[-121.86788,37.49258],[-121.93357,37.4925],[-121.9612,37.49318],[-121.99404,37.49714],[-122.04977,37.51482],[-122.07524,37.52305],[-122.12496,37.53911],[-122.13467,37.54224],[-122.18966,37.56008],[-122.21246,37.56742],[-122.24719,37.57864],[-122.26288,37.58352],[-122.28432,37.58981],[-122.30823,37.59703],[-122.32812,37.60291],[-122.34478,37.60849],[-122.35515,37.61267]]}
}
