{
  "id": 2048514083,
  "type": "Feature",
  "properties": {
    "date:cessation_lower": "1970-01-01",
    "date:cessation_upper": "1970-01-01",
    "date:inception_lower": "2026-10-04",
    "date:inception_upper": "2026-10-04",
    "edtf:cessation": "1970-01-01T00:00:00Z",
    "edtf:inception": "2026-10-04T07:29:27-07:00",
    "flysfo:actual_timestamp": -1,
    "flysfo:airline": "DL",
    "flysfo:base_airline": "",
    "flysfo:base_flight_number": "3084",
    "flysfo:date": "2026-10-04",
    "flysfo:estimated_timestamp": 1791147900,
    "flysfo:event": "D",
    "flysfo:flight_number": "DL1412",
    "flysfo:gate": "C5",
    "flysfo:journey": "SFO-SEA",
    "flysfo:scheduled_timestamp": 1791148500,
    "flysfo:timestamp": 1791148500,
    "geom:area": 0,
    "geom:bbox": "-122.370943,37.617990,-122.304268,47.441823",
    "geom:latitude": 42.529906499999996,
    "geom:longitude": -122.3376055,
    "iata:airline": "DL",
    "iata:base_airline": "",
    "icao:aircraft": "B738",
    "icao:airline": "DAL",
    "icao:base_airline": "KAL",
    "lbl:latitude": 37.615184,
    "lbl:longitude": -122.382965,
    "sfomuseum:aircraft_id": 1159289871,
    "sfomuseum:airline_id": 1159284261,
    "sfomuseum:arrival_id": 102533269,
    "sfomuseum:base_flight_id": "20261004-D-KAL-3084",
    "sfomuseum:departure_id": 102527513,
    "sfomuseum:flight_id": "20261004-D-DAL-1412",
    "sfomuseum:flight_number": [
      "DAL1412",
      "DL1412"
    ],
    "sfomuseum:placetype": "flight",
    "src:geom": "flysfo",
    "src:geom_alt": [
      "swim-takeoff"
    ],
    "swim:tail_number": "N3771K",
    "wof:belongsto": [
      1947304067,
      102527513,
      1947304663,
      102191575,
      85633793,
      102087579,
      85922583,
      554784711,
      85688637,
      1947304675,
      1947304591,
      102085387
    ],
    "wof:country": "US",
    "wof:created": 1791216824,
    "wof:geomhash": "4036ee3c983703867dbe0486453848b1",
    "wof:hierarchy": [
      {
        "building_id": 1947304067,
        "campus_id": 102527513,
        "concourse_id": 1947304663,
        "continent_id": 102191575,
        "country_id": 85633793,
        "county_id": 102087579,
        "custom_id": 2048514083,
        "flight_id": 2048514083,
        "locality_id": 85922583,
        "postalcode_id": 554784711,
        "region_id": 85688637,
        "venue_id": 1947304675,
        "wing_id": 1947304591
      },
      {
        "building_id": 1947304067,
        "campus_id": 102527513,
        "concourse_id": 1947304663,
        "continent_id": 102191575,
        "country_id": 85633793,
        "county_id": 102085387,
        "custom_id": 2048514083,
        "flight_id": 2048514083,
        "region_id": 85688637,
        "venue_id": 1947304675,
        "wing_id": 1947304591
      }
    ],
    "wof:id": 2048514083,
    "wof:involves": [
      1159289871,
      102533269,
      102527513,
      1159284261,
      1947304675,
      1159284625
    ],
    "wof:lastmodified": 1791217175,
    "wof:name": "DL1412 (SFO-SEA)",
    "wof:parent_id": 1947304675,
    "wof:placetype": "custom",
    "wof:placetype_alt": [
      "flight"
    ],
    "wof:repo": "sfomuseum-data-flights-2026-10",
    "wof:superseded_by": [],
    "wof:supersedes": []
  },
  "bbox": [
    -122.370943,
    37.61799,
    -122.304268,
    47.441823
  ],
  "geometry": {"type":"MultiPoint","coordinates":[[-122.370943,37.61799],[-122.304268,47.441823]]}
}
