{
  "id": 2048543089,
  "type": "Feature",
  "properties": {
    "geom:area": 0,
    "geom:bbox": "-122.360580,37.492130,-121.248120,37.614820",
    "geom:latitude": 37.54701804209956,
    "geom:longitude": -121.80928981938298,
    "src:alt_label": "swim-approach",
    "src:geom": "swim",
    "swim:elevations": [
      4598,
      4194,
      4061,
      3698,
      3359,
      3278,
      3049,
      2982,
      2784,
      2768,
      2625,
      2467,
      2343,
      2219,
      2173,
      2018,
      1815,
      1732,
      1315,
      1146,
      1050,
      917,
      879,
      718,
      577,
      554,
      393,
      379,
      248,
      217,
      149,
      72,
      0
    ],
    "swim:geom": "approach",
    "swim:timestamps": [
      1791491079,
      1791491117,
      1791491130,
      1791491171,
      1791491211,
      1791491227,
      1791491266,
      1791491281,
      1791491306,
      1791491312,
      1791491329,
      1791491367,
      1791491385,
      1791491404,
      1791491411,
      1791491446,
      1791491486,
      1791491497,
      1791491539,
      1791491563,
      1791491581,
      1791491634,
      1791491649,
      1791491673,
      1791491691,
      1791491703,
      1791491758,
      1791491763,
      1791491795,
      1791491805,
      1791491821,
      1791491847,
      1791491860
    ],
    "wof:geomhash": "5fe8c89174c14007a3986f4d9af255bc",
    "wof:id": 2048543089,
    "wof:repo": "sfomuseum-data-flights-2026-10"
  },
  "bbox": [
    -122.36058,
    37.49213,
    -121.24812,
    37.61482
  ],
  "geometry": {"type":"LineString","coordinates":[[-121.24812,37.59486],[-121.33636,37.58398],[-121.36477,37.58091],[-121.45361,37.57085],[-121.53402,37.56146],[-121.56378,37.558],[-121.6331,37.54868],[-121.65847,37.54258],[-121.70002,37.53273],[-121.71024,37.53033],[-121.73942,37.52341],[-121.80188,37.5085],[-121.83188,37.50132],[-121.86257,37.49397],[-121.87324,37.49213],[-121.92886,37.49266],[-121.9876,37.49556],[-122.004,37.50013],[-122.06194,37.51892],[-122.09179,37.52851],[-122.11388,37.53572],[-122.17079,37.55399],[-122.18537,37.55876],[-122.20901,37.56639],[-122.22641,37.57201],[-122.23772,37.57565],[-122.28182,37.58917],[-122.28569,37.59034],[-122.31137,37.59784],[-122.31931,37.60015],[-122.33162,37.60376],[-122.35135,37.61107],[-122.36058,37.61482]]}
}
