{
  "id": 2048485857,
  "type": "Feature",
  "properties": {
    "geom:area": 0,
    "geom:bbox": "-122.364920,37.630330,-121.265190,37.972400",
    "geom:latitude": 37.864706612877065,
    "geom:longitude": -121.84407519035396,
    "src:alt_label": "swim-takeoff",
    "src:geom": "swim",
    "swim:elevations": [
      152,
      183,
      670,
      803,
      951,
      1042,
      1610,
      1785,
      2178,
      2574,
      2606,
      2758,
      2976,
      3339,
      3377,
      3821,
      4092,
      4328,
      4437,
      4786,
      4907,
      5114,
      5178,
      5305,
      5403,
      5602
    ],
    "swim:geom": "takeoff",
    "swim:timestamps": [
      1790877838,
      1790877841,
      1790877892,
      1790877922,
      1790877952,
      1790877962,
      1790878017,
      1790878034,
      1790878068,
      1790878108,
      1790878116,
      1790878134,
      1790878154,
      1790878197,
      1790878202,
      1790878250,
      1790878281,
      1790878310,
      1790878321,
      1790878363,
      1790878382,
      1790878437,
      1790878459,
      1790878493,
      1790878525,
      1790878545
    ],
    "wof:geomhash": "69c5a120eb1f0e322cfdbd456ab351ff",
    "wof:id": 2048485857,
    "wof:repo": "sfomuseum-data-flights-2026-10"
  },
  "bbox": [
    -122.36492,
    37.63033,
    -121.26519,
    37.9724
  ],
  "geometry": {"type":"LineString","coordinates":[[-122.36492,37.63033],[-122.3635,37.63225],[-122.32162,37.6603],[-122.29048,37.67714],[-122.25485,37.69707],[-122.24303,37.70323],[-122.16908,37.74206],[-122.15299,37.76052],[-122.12988,37.80267],[-122.1013,37.85219],[-122.09336,37.86166],[-122.06833,37.87566],[-122.03448,37.88059],[-121.96022,37.88972],[-121.95216,37.89069],[-121.86624,37.90125],[-121.81006,37.90804],[-121.75714,37.91442],[-121.73665,37.91691],[-121.65705,37.92636],[-121.62166,37.93063],[-121.51082,37.94367],[-121.46293,37.9493],[-121.38809,37.95808],[-121.31206,37.96691],[-121.26519,37.9724]]}
}
