{
  "id": 2048559113,
  "type": "Feature",
  "properties": {
    "geom:area": 0,
    "geom:bbox": "-122.350910,37.643980,-122.114380,38.505760",
    "geom:latitude": 38.04311679005421,
    "geom:longitude": -122.17515239358629,
    "src:alt_label": "swim-takeoff",
    "src:geom": "swim",
    "swim:elevations": [
      286,
      574,
      864,
      1187,
      1224,
      1479,
      1774,
      1863,
      2396,
      2744,
      3026,
      3242,
      3490,
      3743,
      4523,
      4837,
      5148,
      5579,
      5989,
      6260,
      6616,
      6792,
      7106
    ],
    "swim:geom": "takeoff",
    "swim:timestamps": [
      1791572569,
      1791572588,
      1791572617,
      1791572665,
      1791572674,
      1791572724,
      1791572754,
      1791572763,
      1791572809,
      1791572840,
      1791572864,
      1791572893,
      1791572920,
      1791572943,
      1791572996,
      1791573015,
      1791573040,
      1791573072,
      1791573110,
      1791573137,
      1791573172,
      1791573191,
      1791573221
    ],
    "wof:geomhash": "bb8441f44be113b2a35d0ce5dfbc35fd",
    "wof:id": 2048559113,
    "wof:repo": "sfomuseum-data-flights-2026-10"
  },
  "bbox": [
    -122.35091,
    37.64398,
    -122.11438,
    38.50576
  ],
  "geometry": {"type":"LineString","coordinates":[[-122.35091,37.64398],[-122.33351,37.65288],[-122.30854,37.66619],[-122.26497,37.69126],[-122.25516,37.69637],[-122.21136,37.7377],[-122.20515,37.77522],[-122.2031,37.78656],[-122.19347,37.84504],[-122.18681,37.88715],[-122.1815,37.91981],[-122.17465,37.96122],[-122.16764,38.00324],[-122.16187,38.03888],[-122.14757,38.12528],[-122.1427,38.15485],[-122.13606,38.19546],[-122.12736,38.24789],[-122.11695,38.31066],[-122.11438,38.35672],[-122.11849,38.41798],[-122.12077,38.45189],[-122.12432,38.50576]]}
}
