{
  "id": 2048489045,
  "type": "Feature",
  "properties": {
    "date:inception_lower": "2026-10-01",
    "date:inception_upper": "2026-10-01",
    "edtf:cessation": "",
    "edtf:inception": "2026-10-01",
    "flysfo:actual_timestamp": -1,
    "flysfo:airline": "UA",
    "flysfo:base_airline": "",
    "flysfo:base_flight_number": "4218",
    "flysfo:date": "2026-10-01",
    "flysfo:estimated_timestamp": 1790880840,
    "flysfo:event": "D",
    "flysfo:flight_number": "UA1257",
    "flysfo:gate": "E3",
    "flysfo:journey": "SFO-SAN",
    "flysfo:scheduled_timestamp": 1790881200,
    "flysfo:timestamp": 1790881200,
    "geom:area": 0,
    "geom:bbox": "-122.370943,32.733534,-117.185927,37.617990",
    "geom:latitude": 35.175762,
    "geom:longitude": -119.778435,
    "iata:airline": "UA",
    "iata:base_airline": "",
    "icao:airline": "UAL",
    "icao:base_airline": "ACA",
    "lbl:latitude": 37.618578,
    "lbl:longitude": -122.385434,
    "sfomuseum:airline_id": 1159285413,
    "sfomuseum:arrival_id": 102528997,
    "sfomuseum:base_flight_id": "20261001-D-ACA-4218",
    "sfomuseum:departure_id": 102527513,
    "sfomuseum:flight_id": "20261001-D-UAL-1257",
    "sfomuseum:flight_number": [
      "UAL1257",
      "UA1257"
    ],
    "sfomuseum:placetype": "flight",
    "src:geom": "flysfo",
    "wof:belongsto": [
      1947304067,
      102527513,
      1947304451,
      102191575,
      85633793,
      102087579,
      85922583,
      554784711,
      85688637,
      1947304495,
      1947304447,
      102085387
    ],
    "wof:country": "US",
    "wof:created": 1790957768,
    "wof:geomhash": "25f5345529d944df781e36098260a435",
    "wof:hierarchy": [
      {
        "building_id": 1947304067,
        "campus_id": 102527513,
        "concourse_id": 1947304451,
        "continent_id": 102191575,
        "country_id": 85633793,
        "county_id": 102087579,
        "custom_id": 2048489045,
        "flight_id": 2048489045,
        "locality_id": 85922583,
        "postalcode_id": 554784711,
        "region_id": 85688637,
        "venue_id": 1947304495,
        "wing_id": 1947304447
      },
      {
        "building_id": 1947304067,
        "campus_id": 102527513,
        "concourse_id": 1947304451,
        "continent_id": 102191575,
        "country_id": 85633793,
        "county_id": 102085387,
        "custom_id": 2048489045,
        "flight_id": 2048489045,
        "region_id": 85688637,
        "venue_id": 1947304495,
        "wing_id": 1947304447
      }
    ],
    "wof:id": 2048489045,
    "wof:involves": [
      102528997,
      102527513,
      1159285413,
      1947304495,
      1159283597
    ],
    "wof:lastmodified": 1790957768,
    "wof:name": "UA1257 (SFO-SAN)",
    "wof:parent_id": 1947304495,
    "wof:placetype": "custom",
    "wof:placetype_alt": [
      "flight"
    ],
    "wof:repo": "sfomuseum-data-flights-2026-10",
    "wof:superseded_by": [],
    "wof:supersedes": []
  },
  "bbox": [
    -122.370943,
    32.733534,
    -117.185927,
    37.61799
  ],
  "geometry": {"type":"MultiPoint","coordinates":[[-122.370943,37.61799],[-117.185927,32.733534]]}
}
