{
  "id": 2048520373,
  "type": "Feature",
  "properties": {
    "geom:area": 0,
    "geom:bbox": "-122.355050,36.723300,-121.879410,37.610270",
    "geom:latitude": 37.216722717640806,
    "geom:longitude": -122.06615978224511,
    "src:alt_label": "swim-approach",
    "src:geom": "swim",
    "swim:elevations": [
      5522,
      5078,
      4978,
      4672,
      4344,
      3959,
      3810,
      3725,
      3553,
      3232,
      3184,
      3044,
      2917,
      2712,
      2487,
      2192,
      1951,
      1838,
      1707,
      1456,
      1337,
      1308,
      1186,
      1008,
      945,
      914,
      607,
      556,
      393,
      372,
      284,
      119,
      27
    ],
    "swim:geom": "approach",
    "swim:timestamps": [
      1791205996,
      1791206034,
      1791206044,
      1791206074,
      1791206107,
      1791206146,
      1791206188,
      1791206207,
      1791206230,
      1791206275,
      1791206281,
      1791206327,
      1791206345,
      1791206373,
      1791206406,
      1791206453,
      1791206487,
      1791206503,
      1791206526,
      1791206558,
      1791206580,
      1791206593,
      1791206623,
      1791206654,
      1791206688,
      1791206715,
      1791206758,
      1791206765,
      1791206798,
      1791206806,
      1791206831,
      1791206872,
      1791206897
    ],
    "wof:geomhash": "edceb7cc60e022ee11278bc23a7c4bd2",
    "wof:id": 2048520373,
    "wof:repo": "sfomuseum-data-flights-2026-10"
  },
  "bbox": [
    -122.35505,
    36.7233,
    -121.87941,
    37.61027
  ],
  "geometry": {"type":"LineString","coordinates":[[-121.87941,36.7233],[-121.90574,36.78363],[-121.91051,36.80053],[-121.92406,36.84884],[-121.93916,36.90277],[-121.95797,36.96442],[-121.98136,37.02508],[-121.99087,37.05145],[-122.00245,37.08147],[-122.02497,37.13696],[-122.02827,37.14444],[-122.04972,37.19689],[-122.05732,37.2172],[-122.06891,37.24796],[-122.08306,37.28449],[-122.10267,37.33417],[-122.10956,37.37002],[-122.1012,37.38606],[-122.08917,37.40804],[-122.09564,37.43888],[-122.11203,37.45813],[-122.12112,37.46955],[-122.14043,37.49355],[-122.15862,37.51592],[-122.18371,37.5383],[-122.20783,37.54832],[-122.24459,37.56385],[-122.25046,37.56608],[-122.27703,37.57748],[-122.28304,37.58024],[-122.30384,37.58873],[-122.33574,37.60216],[-122.35505,37.61027]]}
}
