{
  "id": 2048514105,
  "type": "Feature",
  "properties": {
    "geom:area": 0,
    "geom:bbox": "-122.385570,37.628140,-121.426780,38.513610",
    "geom:latitude": 38.121389175434174,
    "geom:longitude": -122.01233837714176,
    "src:alt_label": "swim-takeoff",
    "src:geom": "swim",
    "swim:elevations": [
      122,
      398,
      557,
      732,
      795,
      1168,
      1574,
      2066,
      2316,
      2588,
      3018,
      3092,
      3327,
      3518,
      3685,
      3922,
      4361,
      4602,
      4985,
      5084,
      5519,
      5708,
      6089,
      6357,
      6613,
      6781,
      6896,
      7260,
      7344,
      7434
    ],
    "swim:geom": "takeoff",
    "swim:timestamps": [
      1791182547,
      1791182570,
      1791182593,
      1791182631,
      1791182652,
      1791182687,
      1791182715,
      1791182757,
      1791182781,
      1791182808,
      1791182842,
      1791182848,
      1791182874,
      1791182908,
      1791182934,
      1791182956,
      1791182991,
      1791183017,
      1791183058,
      1791183069,
      1791183113,
      1791183132,
      1791183178,
      1791183206,
      1791183238,
      1791183259,
      1791183277,
      1791183326,
      1791183343,
      1791183363
    ],
    "wof:geomhash": "81aafaaad9aa98bc9441cb392acdc2f1",
    "wof:id": 2048514105,
    "wof:repo": "sfomuseum-data-flights-2026-10"
  },
  "bbox": [
    -122.38557,
    37.62814,
    -121.42678,
    38.51361
  ],
  "geometry": {"type":"LineString","coordinates":[[-122.36633,37.62814],[-122.35267,37.642],[-122.33617,37.65658],[-122.31129,37.68586],[-122.31592,37.70889],[-122.3381,37.74935],[-122.35503,37.78187],[-122.37947,37.83131],[-122.38557,37.86206],[-122.3844,37.89826],[-122.37336,37.94357],[-122.36679,37.94983],[-122.33119,37.97197],[-122.28057,38.00339],[-122.23765,38.02982],[-122.20134,38.05201],[-122.14188,38.08828],[-122.09656,38.11581],[-122.02455,38.1595],[-122.00474,38.17157],[-121.92317,38.22088],[-121.88812,38.24203],[-121.8009,38.29459],[-121.74675,38.32726],[-121.68485,38.36436],[-121.64297,38.38893],[-121.60529,38.41066],[-121.50409,38.46903],[-121.46799,38.4899],[-121.42678,38.51361]]}
}
