{
  "id": 2048494295,
  "type": "Feature",
  "properties": {
    "geom:area": 0,
    "geom:bbox": "-123.475710,37.306580,-122.152620,37.614520",
    "geom:latitude": 37.37822928878812,
    "geom:longitude": -122.70848857597724,
    "src:alt_label": "swim-approach",
    "src:geom": "swim",
    "swim:elevations": [
      5199,
      4755,
      4558,
      4144,
      3978,
      3546,
      3424,
      3381,
      3388,
      3313,
      3106,
      2944,
      2763,
      2706,
      2437,
      2457,
      2438,
      2438,
      2284,
      2191,
      2010,
      1847,
      1832,
      1829,
      1773,
      1661,
      1444,
      1246,
      1077,
      884,
      884,
      884,
      879,
      786,
      697,
      396,
      339,
      241,
      91,
      134
    ],
    "swim:geom": "approach",
    "swim:timestamps": [
      1790979498,
      1790979539,
      1790979555,
      1790979594,
      1790979611,
      1790979653,
      1790979671,
      1790979687,
      1790979699,
      1790979747,
      1790979777,
      1790979806,
      1790979832,
      1790979841,
      1790979895,
      1790979918,
      1790979948,
      1790979975,
      1790980005,
      1790980020,
      1790980062,
      1790980108,
      1790980111,
      1790980136,
      1790980167,
      1790980187,
      1790980217,
      1790980250,
      1790980278,
      1790980318,
      1790980333,
      1790980339,
      1790980372,
      1790980393,
      1790980411,
      1790980465,
      1790980481,
      1790980507,
      1790980544,
      1790980564
    ],
    "wof:geomhash": "6989e28fd20ce3fe7bf3c38fc8f100b2",
    "wof:id": 2048494295,
    "wof:repo": "sfomuseum-data-flights-2026-10"
  },
  "bbox": [
    -123.47571,
    37.30658,
    -122.15262,
    37.61452
  ],
  "geometry": {"type":"LineString","coordinates":[[-123.47571,37.34312],[-123.38208,37.33908],[-123.343,37.33734],[-123.25462,37.33327],[-123.21849,37.33167],[-123.12565,37.3274],[-123.08781,37.32566],[-123.0532,37.32403],[-123.0295,37.32288],[-122.94362,37.31883],[-122.8927,37.31623],[-122.84486,37.31392],[-122.80095,37.31181],[-122.78619,37.31111],[-122.69845,37.30658],[-122.65943,37.30668],[-122.61088,37.31654],[-122.5676,37.32648],[-122.51966,37.33768],[-122.49545,37.34337],[-122.43023,37.35839],[-122.36258,37.37384],[-122.35839,37.3748],[-122.32489,37.3825],[-122.28255,37.39203],[-122.25689,37.39795],[-122.22094,37.41558],[-122.18486,37.43777],[-122.16335,37.46224],[-122.15262,37.50213],[-122.16077,37.51498],[-122.1646,37.51951],[-122.18989,37.54135],[-122.21056,37.55088],[-122.22799,37.55934],[-122.28095,37.58157],[-122.29447,37.58716],[-122.31608,37.59628],[-122.34415,37.60812],[-122.35982,37.61452]]}
}
