{
  "id": 2048541535,
  "type": "Feature",
  "properties": {
    "geom:area": 0,
    "geom:bbox": "-122.447510,36.727080,-121.568890,37.716560",
    "geom:latitude": 37.22776025510136,
    "geom:longitude": -122.11058606988966,
    "src:alt_label": "swim-takeoff",
    "src:geom": "swim",
    "swim:elevations": [
      152,
      277,
      661,
      1185,
      1368,
      1803,
      2454,
      3123,
      3244,
      3640,
      3869,
      4740,
      4952,
      5702,
      5930,
      6290,
      6644,
      6820,
      7208,
      7232,
      7444,
      7742,
      7855,
      8226,
      8431,
      8792,
      9114,
      9268,
      9747,
      9449,
      9449
    ],
    "swim:geom": "takeoff",
    "swim:timestamps": [
      1791407902,
      1791407913,
      1791407950,
      1791407994,
      1791408025,
      1791408053,
      1791408082,
      1791408118,
      1791408130,
      1791408165,
      1791408186,
      1791408236,
      1791408249,
      1791408298,
      1791408316,
      1791408345,
      1791408374,
      1791408388,
      1791408418,
      1791408421,
      1791408438,
      1791408469,
      1791408483,
      1791408524,
      1791408544,
      1791408585,
      1791408621,
      1791408628,
      1791408644,
      1791408669,
      1791408706
    ],
    "wof:geomhash": "0b9b6591dd35dc7fda65481d8390e207",
    "wof:id": 2048541535,
    "wof:repo": "sfomuseum-data-flights-2026-10"
  },
  "bbox": [
    -122.44751,
    36.72708,
    -121.56889,
    37.71656
  ],
  "geometry": {"type":"LineString","coordinates":[[-122.36931,37.62836],[-122.36533,37.6358],[-122.3636,37.66624],[-122.37437,37.70463],[-122.41333,37.71656],[-122.44632,37.69611],[-122.44751,37.66127],[-122.44219,37.61603],[-122.44104,37.59964],[-122.43787,37.54773],[-122.43503,37.51383],[-122.41461,37.43077],[-122.3963,37.41359],[-122.31806,37.35116],[-122.28925,37.32758],[-122.24149,37.2883],[-122.19235,37.2477],[-122.16874,37.22822],[-122.11666,37.18529],[-122.11141,37.18096],[-122.08097,37.15578],[-122.0264,37.11017],[-122.00073,37.08832],[-121.92549,37.02609],[-121.88534,36.9935],[-121.80543,36.92687],[-121.73639,36.86724],[-121.72145,36.85506],[-121.69022,36.82989],[-121.64166,36.78844],[-121.56889,36.72708]]}
}
