{
  "id": 2048543129,
  "type": "Feature",
  "properties": {
    "geom:area": 0,
    "geom:bbox": "-122.349870,37.491290,-121.285640,37.610520",
    "geom:latitude": 37.54446861680072,
    "geom:longitude": -121.82237597581171,
    "src:alt_label": "swim-approach",
    "src:geom": "swim",
    "swim:elevations": [
      4460,
      4310,
      3863,
      3715,
      3436,
      3241,
      3137,
      3107,
      2775,
      2583,
      2457,
      2244,
      2095,
      1946,
      1877,
      1828,
      1610,
      1335,
      1159,
      1005,
      869,
      627,
      518,
      518,
      469,
      350,
      193,
      119,
      59
    ],
    "swim:geom": "approach",
    "swim:timestamps": [
      1791497663,
      1791497679,
      1791497727,
      1791497744,
      1791497786,
      1791497817,
      1791497848,
      1791497854,
      1791497904,
      1791497930,
      1791497958,
      1791497993,
      1791498014,
      1791498045,
      1791498061,
      1791498070,
      1791498108,
      1791498139,
      1791498163,
      1791498184,
      1791498231,
      1791498261,
      1791498297,
      1791498300,
      1791498317,
      1791498351,
      1791498388,
      1791498412,
      1791498425
    ],
    "wof:geomhash": "a2266b9a5ab1128350ca832519316216",
    "wof:id": 2048543129,
    "wof:repo": "sfomuseum-data-flights-2026-10"
  },
  "bbox": [
    -122.34987,
    37.49129,
    -121.28564,
    37.61052
  ],
  "geometry": {"type":"LineString","coordinates":[[-121.28564,37.58943],[-121.31797,37.58567],[-121.41478,37.57497],[-121.44818,37.57105],[-121.53058,37.5614],[-121.5863,37.55497],[-121.63877,37.54726],[-121.64828,37.54497],[-121.72642,37.52632],[-121.76644,37.51675],[-121.80924,37.50654],[-121.86288,37.49366],[-121.89494,37.49129],[-121.94208,37.49255],[-121.96761,37.4932],[-121.98157,37.4941],[-122.03502,37.5101],[-122.07648,37.52337],[-122.10847,37.53362],[-122.13403,37.54188],[-122.18637,37.55902],[-122.217,37.56893],[-122.24959,37.57924],[-122.25252,37.58018],[-122.26566,37.58419],[-122.29241,37.59206],[-122.32137,37.60051],[-122.33988,37.60636],[-122.34987,37.61052]]}
}
