{
  "id": 2048546071,
  "type": "Feature",
  "properties": {
    "geom:area": 0,
    "geom:bbox": "-122.361560,37.478220,-121.853270,37.615950",
    "geom:latitude": 37.540142749485355,
    "geom:longitude": -122.06790607937181,
    "src:alt_label": "swim-approach",
    "src:geom": "swim",
    "swim:elevations": [
      2743,
      2743,
      2590,
      2408,
      2184,
      2134,
      1889,
      1709,
      1667,
      1430,
      1347,
      1216,
      1022,
      1000,
      746,
      729,
      600,
      575,
      383,
      304,
      119,
      106
    ],
    "swim:geom": "approach",
    "swim:timestamps": [
      1791483405,
      1791483434,
      1791483478,
      1791483504,
      1791483532,
      1791483562,
      1791483596,
      1791483626,
      1791483631,
      1791483671,
      1791483686,
      1791483709,
      1791483744,
      1791483751,
      1791483800,
      1791483806,
      1791483836,
      1791483840,
      1791483889,
      1791483909,
      1791483952,
      1791483985
    ],
    "wof:geomhash": "4b2eeeb05b150f2a3ddf9c638a6f753d",
    "wof:id": 2048546071,
    "wof:repo": "sfomuseum-data-flights-2026-10"
  },
  "bbox": [
    -122.36156,
    37.47822,
    -121.85327,
    37.61595
  ],
  "geometry": {"type":"LineString","coordinates":[[-121.85327,37.60327],[-121.8707,37.57495],[-121.85578,37.52895],[-121.86496,37.50131],[-121.89089,37.47822],[-121.93222,37.48066],[-121.97886,37.49225],[-122.01677,37.50398],[-122.02281,37.50594],[-122.07272,37.52222],[-122.09119,37.52817],[-122.11807,37.53686],[-122.15593,37.54916],[-122.16366,37.55172],[-122.21194,37.56738],[-122.21742,37.56913],[-122.24357,37.57739],[-122.24703,37.57855],[-122.28973,37.59111],[-122.30605,37.5959],[-122.33898,37.60635],[-122.36156,37.61595]]}
}
