{
  "id": 2048483233,
  "type": "Feature",
  "properties": {
    "geom:area": 0,
    "geom:bbox": "-122.350730,37.491490,-121.262680,37.610940",
    "geom:latitude": 37.545589706440275,
    "geom:longitude": -121.81139396167609,
    "src:alt_label": "swim-approach",
    "src:geom": "swim",
    "swim:elevations": [
      4525,
      4250,
      4107,
      4086,
      3869,
      3344,
      3168,
      3075,
      2907,
      2742,
      2653,
      2502,
      2465,
      2301,
      2231,
      2161,
      2071,
      1927,
      1794,
      1634,
      1594,
      1302,
      1245,
      900,
      771,
      544,
      475,
      360,
      310,
      229,
      119,
      61
    ],
    "swim:geom": "approach",
    "swim:timestamps": [
      1790885003,
      1790885030,
      1790885066,
      1790885072,
      1790885105,
      1790885155,
      1790885186,
      1790885216,
      1790885244,
      1790885267,
      1790885284,
      1790885330,
      1790885341,
      1790885368,
      1790885378,
      1790885393,
      1790885414,
      1790885448,
      1790885487,
      1790885514,
      1790885524,
      1790885577,
      1790885586,
      1790885638,
      1790885658,
      1790885696,
      1790885720,
      1790885749,
      1790885762,
      1790885781,
      1790885810,
      1790885829
    ],
    "wof:geomhash": "506ba76266ab40de855c03dc60d08cd1",
    "wof:id": 2048483233,
    "wof:repo": "sfomuseum-data-flights-2026-10"
  },
  "bbox": [
    -122.35073,
    37.49149,
    -121.26268,
    37.61094
  ],
  "geometry": {"type":"LineString","coordinates":[[-121.26268,37.59254],[-121.31764,37.58577],[-121.38729,37.57816],[-121.398,37.577],[-121.45451,37.57056],[-121.53599,37.56086],[-121.58507,37.55531],[-121.63247,37.54876],[-121.6711,37.53931],[-121.70376,37.53156],[-121.72787,37.52594],[-121.79072,37.51098],[-121.80427,37.50776],[-121.8408,37.49899],[-121.85393,37.49577],[-121.87408,37.49161],[-121.90309,37.49149],[-121.94914,37.4928],[-122.00169,37.49926],[-122.03722,37.51086],[-122.0493,37.51476],[-122.11095,37.53447],[-122.12119,37.53781],[-122.18055,37.55693],[-122.20263,37.56396],[-122.24478,37.57773],[-122.26831,37.58514],[-122.29154,37.59183],[-122.30124,37.59479],[-122.31656,37.59928],[-122.33782,37.60583],[-122.35073,37.61094]]}
}
