{
  "id": 2048491671,
  "type": "Feature",
  "properties": {
    "geom:area": 0,
    "geom:bbox": "-122.850250,37.432230,-122.086030,38.507750",
    "geom:latitude": 37.822998357080124,
    "geom:longitude": -122.49142495058915,
    "src:alt_label": "swim-approach",
    "src:geom": "swim",
    "swim:elevations": [
      7590,
      7269,
      6874,
      6622,
      6307,
      6261,
      6011,
      5746,
      5650,
      5259,
      5118,
      4980,
      4760,
      4631,
      4463,
      4402,
      3963,
      3647,
      3457,
      3384,
      3353,
      3353,
      3353,
      3353,
      3259,
      3105,
      2870,
      2788,
      2595,
      2275,
      1997,
      1891,
      1705,
      1473,
      1344,
      1218,
      1219,
      1067,
      965,
      938,
      724,
      546,
      522,
      434,
      355,
      253,
      104,
      0
    ],
    "swim:geom": "approach",
    "swim:timestamps": [
      1790969330,
      1790969361,
      1790969397,
      1790969423,
      1790969454,
      1790969460,
      1790969486,
      1790969514,
      1790969526,
      1790969569,
      1790969585,
      1790969602,
      1790969626,
      1790969644,
      1790969664,
      1790969672,
      1790969723,
      1790969757,
      1790969785,
      1790969808,
      1790969839,
      1790969875,
      1790969883,
      1790969915,
      1790969967,
      1790969990,
      1790970028,
      1790970038,
      1790970066,
      1790970108,
      1790970148,
      1790970163,
      1790970188,
      1790970219,
      1790970238,
      1790970265,
      1790970283,
      1790970319,
      1790970346,
      1790970371,
      1790970411,
      1790970447,
      1790970456,
      1790970474,
      1790970493,
      1790970521,
      1790970564,
      1790970594
    ],
    "wof:geomhash": "f2bdd2edf78dc1c248c5b6a2cdabbffe",
    "wof:id": 2048491671,
    "wof:repo": "sfomuseum-data-flights-2026-10"
  },
  "bbox": [
    -122.85025,
    37.43223,
    -122.08603,
    38.50775
  ],
  "geometry": {"type":"LineString","coordinates":[[-122.85025,38.50775],[-122.83302,38.44947],[-122.81329,38.38133],[-122.79994,38.33554],[-122.78345,38.27919],[-122.78089,38.27046],[-122.7678,38.22527],[-122.75399,38.17773],[-122.74816,38.15778],[-122.72741,38.08648],[-122.72047,38.06252],[-122.71228,38.03434],[-122.70131,37.99675],[-122.69334,37.96907],[-122.6849,37.9397],[-122.68136,37.92741],[-122.62934,37.85796],[-122.58531,37.81635],[-122.54924,37.7825],[-122.5214,37.7562],[-122.4867,37.72313],[-122.44712,37.6858],[-122.43848,37.67774],[-122.40319,37.64489],[-122.35453,37.59477],[-122.34229,37.57012],[-122.32097,37.53086],[-122.31513,37.52098],[-122.29886,37.49445],[-122.25752,37.46385],[-122.20612,37.4477],[-122.18657,37.44157],[-122.15416,37.43223],[-122.11555,37.44402],[-122.10052,37.46157],[-122.08603,37.48804],[-122.09273,37.50425],[-122.12836,37.51906],[-122.1531,37.52765],[-122.17566,37.53601],[-122.21182,37.54965],[-122.24439,37.56338],[-122.25269,37.56698],[-122.26874,37.57405],[-122.28444,37.58082],[-122.30639,37.58989],[-122.33998,37.60405],[-122.36423,37.61327]]}
}
