{
  "id": 2048493971,
  "type": "Feature",
  "properties": {
    "geom:area": 0,
    "geom:bbox": "-122.357410,37.492370,-121.292710,37.613630",
    "geom:latitude": 37.54095141148054,
    "geom:longitude": -121.83197512089018,
    "src:alt_label": "swim-approach",
    "src:geom": "swim",
    "swim:elevations": [
      4627,
      4276,
      4040,
      3685,
      3283,
      3167,
      3076,
      2870,
      2610,
      2448,
      2355,
      2137,
      1981,
      1832,
      1750,
      1518,
      1314,
      1175,
      1101,
      1011,
      781,
      603,
      427,
      336,
      218,
      90,
      0
    ],
    "swim:geom": "approach",
    "swim:timestamps": [
      1791007222,
      1791007255,
      1791007276,
      1791007308,
      1791007344,
      1791007374,
      1791007398,
      1791007427,
      1791007467,
      1791007491,
      1791007509,
      1791007548,
      1791007583,
      1791007608,
      1791007645,
      1791007674,
      1791007707,
      1791007731,
      1791007746,
      1791007773,
      1791007817,
      1791007856,
      1791007887,
      1791007915,
      1791007939,
      1791007977,
      1791007994
    ],
    "wof:geomhash": "2d6b7d5c16c7264cbfdba0acd440b1ae",
    "wof:id": 2048493971,
    "wof:repo": "sfomuseum-data-flights-2026-10"
  },
  "bbox": [
    -122.35741,
    37.49237,
    -121.29271,
    37.61363
  ],
  "geometry": {"type":"LineString","coordinates":[[-121.29271,37.58878],[-121.36217,37.58135],[-121.40567,37.57645],[-121.47281,37.56866],[-121.54452,37.56024],[-121.60078,37.55371],[-121.64206,37.54671],[-121.68852,37.53555],[-121.74976,37.521],[-121.78629,37.51227],[-121.81312,37.50572],[-121.87222,37.49237],[-121.92362,37.49366],[-121.95864,37.4955],[-122.00757,37.49824],[-122.04603,37.50062],[-122.08916,37.50328],[-122.11652,37.51207],[-122.13247,37.51881],[-122.16042,37.53074],[-122.20553,37.54977],[-122.2433,37.56563],[-122.27186,37.57772],[-122.29552,37.5876],[-122.31506,37.59578],[-122.34491,37.60839],[-122.35741,37.61363]]}
}
