{
  "id": 2048493751,
  "type": "Feature",
  "properties": {
    "geom:area": 0,
    "geom:bbox": "-122.350230,37.491970,-121.268170,37.610540",
    "geom:latitude": 37.54548514657519,
    "geom:longitude": -121.81382769350674,
    "src:alt_label": "swim-approach",
    "src:geom": "swim",
    "swim:elevations": [
      4575,
      4264,
      4144,
      3666,
      3353,
      3076,
      2983,
      2968,
      2710,
      2622,
      2327,
      2219,
      2022,
      1889,
      1752,
      1709,
      1497,
      1327,
      1092,
      949,
      792,
      635,
      414,
      364,
      189,
      59
    ],
    "swim:geom": "approach",
    "swim:timestamps": [
      1790960306,
      1790960334,
      1790960346,
      1790960394,
      1790960428,
      1790960472,
      1790960512,
      1790960527,
      1790960567,
      1790960587,
      1790960629,
      1790960648,
      1790960692,
      1790960725,
      1790960755,
      1790960760,
      1790960795,
      1790960827,
      1790960864,
      1790960889,
      1790960915,
      1790960948,
      1790960989,
      1790961001,
      1790961038,
      1790961073
    ],
    "wof:geomhash": "b2442e8196c32b0d535d46029a2579b6",
    "wof:id": 2048493751,
    "wof:repo": "sfomuseum-data-flights-2026-10"
  },
  "bbox": [
    -122.35023,
    37.49197,
    -121.26817,
    37.61054
  ],
  "geometry": {"type":"LineString","coordinates":[[-121.26817,37.59205],[-121.32576,37.58545],[-121.349,37.58287],[-121.447,37.57167],[-121.51436,37.56378],[-121.60121,37.55361],[-121.67107,37.53977],[-121.69457,37.53418],[-121.75233,37.52025],[-121.77948,37.51362],[-121.83481,37.50059],[-121.85897,37.4948],[-121.91972,37.49197],[-121.96489,37.49318],[-122.00432,37.49991],[-122.01124,37.50223],[-122.05547,37.51666],[-122.09585,37.52955],[-122.14187,37.5446],[-122.17126,37.55411],[-122.20204,37.56409],[-122.23761,37.57551],[-122.27983,37.58834],[-122.29079,37.59162],[-122.32285,37.60115],[-122.35023,37.61054]]}
}
