{
  "id": 2048551455,
  "type": "Feature",
  "properties": {
    "date:inception_lower": "2026-10-08",
    "date:inception_upper": "2026-10-08",
    "edtf:cessation": "",
    "edtf:inception": "2026-10-08",
    "flysfo:actual_timestamp": -1,
    "flysfo:airline": "UA",
    "flysfo:base_airline": "",
    "flysfo:base_flight_number": "4348",
    "flysfo:date": "2026-10-08",
    "flysfo:estimated_timestamp": 1791503580,
    "flysfo:event": "D",
    "flysfo:flight_number": "UA5652",
    "flysfo:gate": "F7",
    "flysfo:journey": "SFO-FAT",
    "flysfo:scheduled_timestamp": 1791502200,
    "flysfo:timestamp": 1791503580,
    "geom:area": 0,
    "geom:bbox": "-122.370943,36.768728,-119.721272,37.617990",
    "geom:latitude": 37.193359,
    "geom:longitude": -121.0461075,
    "iata:airline": "UA",
    "iata:base_airline": "",
    "icao:airline": "UAL",
    "icao:base_airline": "ACA",
    "lbl:latitude": 37.61799,
    "lbl:longitude": -122.370943,
    "sfomuseum:airline_id": 1159285413,
    "sfomuseum:arrival_id": 102530717,
    "sfomuseum:base_flight_id": "20261008-D-ACA-4348",
    "sfomuseum:departure_id": 102527513,
    "sfomuseum:flight_id": "20261008-D-UAL-5652",
    "sfomuseum:flight_number": [
      "UAL5652",
      "UA5652"
    ],
    "sfomuseum:placetype": "flight",
    "src:geom": "flysfo",
    "wof:belongsto": [
      1947304067,
      102527513,
      1947304451,
      102191575,
      85633793,
      102087579,
      85922583,
      554784711,
      85688637,
      1947304465,
      1947304447,
      102085387
    ],
    "wof:country": "US",
    "wof:created": 1791562682,
    "wof:geomhash": "7027f9178c7d77a5f6f9a377b7a1bb37",
    "wof:hierarchy": [
      {
        "building_id": 1947304067,
        "campus_id": 102527513,
        "concourse_id": 1947304451,
        "continent_id": 102191575,
        "country_id": 85633793,
        "county_id": 102087579,
        "custom_id": 2048551455,
        "flight_id": 2048551455,
        "locality_id": 85922583,
        "postalcode_id": 554784711,
        "region_id": 85688637,
        "venue_id": 1947304465,
        "wing_id": 1947304447
      },
      {
        "building_id": 1947304067,
        "campus_id": 102527513,
        "concourse_id": 1947304451,
        "continent_id": 102191575,
        "country_id": 85633793,
        "county_id": 102085387,
        "custom_id": 2048551455,
        "flight_id": 2048551455,
        "region_id": 85688637,
        "venue_id": 1947304465,
        "wing_id": 1947304447
      }
    ],
    "wof:id": 2048551455,
    "wof:involves": [
      102530717,
      102527513,
      1159285413,
      1947304465,
      1159283597
    ],
    "wof:lastmodified": 1791562682,
    "wof:name": "UA5652 (SFO-FAT)",
    "wof:parent_id": 1947304465,
    "wof:placetype": "custom",
    "wof:placetype_alt": [
      "flight"
    ],
    "wof:repo": "sfomuseum-data-flights-2026-10",
    "wof:superseded_by": [],
    "wof:supersedes": []
  },
  "bbox": [
    -122.370943,
    36.768728,
    -119.721272,
    37.61799
  ],
  "geometry": {"type":"MultiPoint","coordinates":[[-122.370943,37.61799],[-119.721272,36.768728]]}
}
