{
  "id": 2048542459,
  "type": "Feature",
  "properties": {
    "geom:area": 0,
    "geom:bbox": "-123.503450,37.638600,-122.418240,37.732260",
    "geom:latitude": 37.70003286087428,
    "geom:longitude": -122.95770431270233,
    "src:alt_label": "swim-takeoff",
    "src:geom": "swim",
    "swim:elevations": [
      415,
      654,
      929,
      1099,
      1201,
      1452,
      1628,
      1965,
      2306,
      2582,
      2823,
      3150,
      3276,
      3306,
      3381,
      3450,
      3496,
      3694,
      3828,
      4153,
      4457,
      4741,
      4764
    ],
    "swim:geom": "takeoff",
    "swim:timestamps": [
      1791419936,
      1791419954,
      1791419989,
      1791420021,
      1791420051,
      1791420087,
      1791420110,
      1791420143,
      1791420177,
      1791420204,
      1791420228,
      1791420267,
      1791420297,
      1791420306,
      1791420327,
      1791420357,
      1791420369,
      1791420405,
      1791420420,
      1791420461,
      1791420497,
      1791420538,
      1791420542
    ],
    "wof:geomhash": "674b570b83eafceaed53bb2649f0d97b",
    "wof:id": 2048542459,
    "wof:repo": "sfomuseum-data-flights-2026-10"
  },
  "bbox": [
    -123.50345,
    37.6386,
    -122.41824,
    37.73226
  ],
  "geometry": {"type":"LineString","coordinates":[[-122.41824,37.6386],[-122.4367,37.64628],[-122.47136,37.66102],[-122.5055,37.67385],[-122.54527,37.67719],[-122.59892,37.67992],[-122.63522,37.68222],[-122.68834,37.68539],[-122.74338,37.68861],[-122.78831,37.6914],[-122.82868,37.69421],[-122.8956,37.69829],[-122.95063,37.70164],[-122.96805,37.70264],[-123.00986,37.70502],[-123.07353,37.70867],[-123.09992,37.71016],[-123.18223,37.71481],[-123.21705,37.71671],[-123.31232,37.72202],[-123.39716,37.72663],[-123.49623,37.73188],[-123.50345,37.73226]]}
}
