{
  "id": 2048506447,
  "type": "Feature",
  "properties": {
    "geom:area": 0,
    "geom:bbox": "-122.449700,36.731320,-121.506120,37.708670",
    "geom:latitude": 37.203932502573984,
    "geom:longitude": -122.1041242794627,
    "src:alt_label": "swim-takeoff",
    "src:geom": "swim",
    "swim:elevations": [
      152,
      484,
      773,
      1022,
      1070,
      1302,
      1419,
      1919,
      2216,
      2437,
      2707,
      3195,
      3296,
      3754,
      3793,
      4353,
      4598,
      4666,
      5021,
      5277,
      5611,
      5890,
      6030,
      6312,
      6489,
      6834,
      7138,
      7296,
      7536,
      7714,
      7944,
      8088,
      8199
    ],
    "swim:geom": "takeoff",
    "swim:timestamps": [
      1791025317,
      1791025344,
      1791025374,
      1791025408,
      1791025417,
      1791025456,
      1791025477,
      1791025529,
      1791025552,
      1791025570,
      1791025592,
      1791025638,
      1791025652,
      1791025708,
      1791025712,
      1791025764,
      1791025793,
      1791025802,
      1791025837,
      1791025865,
      1791025904,
      1791025938,
      1791025953,
      1791025990,
      1791026011,
      1791026057,
      1791026096,
      1791026119,
      1791026149,
      1791026176,
      1791026213,
      1791026239,
      1791026262
    ],
    "wof:geomhash": "b06aa8f3f281cdc5de4872fe762bd5ca",
    "wof:id": 2048506447,
    "wof:repo": "sfomuseum-data-flights-2026-10"
  },
  "bbox": [
    -122.4497,
    36.73132,
    -121.50612,
    37.70867
  ],
  "geometry": {"type":"LineString","coordinates":[[-122.36719,37.63186],[-122.36278,37.6531],[-122.36218,37.67774],[-122.37674,37.70287],[-122.38554,37.70629],[-122.43309,37.70867],[-122.4497,37.69086],[-122.44559,37.62752],[-122.44144,37.59777],[-122.43837,37.57463],[-122.43463,37.54623],[-122.42653,37.48625],[-122.42349,37.4664],[-122.41167,37.38148],[-122.41095,37.37519],[-122.3713,37.30449],[-122.32536,37.27621],[-122.31075,37.26671],[-122.25472,37.22962],[-122.20864,37.19923],[-122.14423,37.15682],[-122.08655,37.11883],[-122.06186,37.10249],[-121.9994,37.06124],[-121.96293,37.03702],[-121.88231,36.98349],[-121.81279,36.93735],[-121.77042,36.90913],[-121.71636,36.873],[-121.66706,36.83976],[-121.59937,36.7938],[-121.55046,36.76039],[-121.50612,36.73132]]}
}
