{
  "id": 2048536517,
  "type": "Feature",
  "properties": {
    "geom:area": 0,
    "geom:bbox": "-122.383860,36.765490,-121.901000,37.606980",
    "geom:latitude": 37.220197399495234,
    "geom:longitude": -122.16620067031921,
    "src:alt_label": "swim-approach",
    "src:geom": "swim",
    "swim:elevations": [
      5118,
      4862,
      4596,
      4475,
      4153,
      4120,
      4025,
      3814,
      3383,
      3208,
      3046,
      2858,
      2630,
      2473,
      2438,
      2438,
      2438,
      2438,
      2380,
      2287,
      2223,
      2178,
      1966,
      1847,
      1829,
      1765,
      1566,
      1375,
      1243,
      1217,
      1122,
      905,
      781,
      706,
      576,
      517,
      486,
      324,
      230,
      184,
      75
    ],
    "swim:geom": "approach",
    "swim:timestamps": [
      1791365001,
      1791365030,
      1791365065,
      1791365079,
      1791365126,
      1791365135,
      1791365162,
      1791365203,
      1791365242,
      1791365267,
      1791365306,
      1791365343,
      1791365382,
      1791365409,
      1791365451,
      1791365467,
      1791365501,
      1791365530,
      1791365567,
      1791365602,
      1791365627,
      1791365644,
      1791365697,
      1791365719,
      1791365742,
      1791365786,
      1791365816,
      1791365847,
      1791365873,
      1791365884,
      1791365924,
      1791365961,
      1791365995,
      1791366011,
      1791366042,
      1791366058,
      1791366065,
      1791366113,
      1791366143,
      1791366156,
      1791366186
    ],
    "wof:geomhash": "baa8c6808fc5ff1fb19f0bceda8c25ac",
    "wof:id": 2048536517,
    "wof:repo": "sfomuseum-data-flights-2026-10"
  },
  "bbox": [
    -122.38386,
    36.76549,
    -121.901,
    37.60698
  ],
  "geometry": {"type":"LineString","coordinates":[[-121.901,36.76549],[-121.91213,36.80828],[-121.92665,36.85913],[-121.93273,36.87999],[-121.95122,36.94635],[-121.95561,36.95943],[-121.96912,36.9938],[-121.98863,37.04276],[-122.026,37.07902],[-122.06298,37.08832],[-122.11851,37.10243],[-122.17054,37.11584],[-122.22367,37.12904],[-122.26089,37.13748],[-122.31707,37.14988],[-122.33984,37.15502],[-122.37221,37.18187],[-122.38349,37.21475],[-122.38386,37.25757],[-122.36633,37.29486],[-122.33554,37.30751],[-122.31202,37.31363],[-122.24291,37.33628],[-122.21682,37.34736],[-122.18788,37.35934],[-122.15267,37.39305],[-122.13952,37.41847],[-122.12576,37.44528],[-122.12354,37.46829],[-122.13005,37.4767],[-122.15585,37.5041],[-122.17744,37.52752],[-122.2009,37.54487],[-122.21467,37.55109],[-122.24015,37.56208],[-122.25344,37.5677],[-122.25868,37.56991],[-122.2959,37.58548],[-122.31719,37.59441],[-122.32655,37.59831],[-122.34705,37.60698]]}
}
