{
  "id": 2048546549,
  "type": "Feature",
  "properties": {
    "geom:area": 0,
    "geom:bbox": "-122.364020,37.491610,-121.243970,37.614500",
    "geom:latitude": 37.547431001487,
    "geom:longitude": -121.80874584239517,
    "src:alt_label": "swim-approach",
    "src:geom": "swim",
    "swim:elevations": [
      4682,
      4610,
      4498,
      4229,
      4098,
      3704,
      3629,
      3282,
      3238,
      3156,
      3122,
      3068,
      2979,
      2698,
      2557,
      2402,
      2367,
      2067,
      2052,
      1998,
      1830,
      1691,
      1490,
      1399,
      1256,
      1032,
      930,
      789,
      637,
      553,
      454,
      263,
      221,
      146,
      0
    ],
    "swim:geom": "approach",
    "swim:timestamps": [
      1791501204,
      1791501215,
      1791501227,
      1791501260,
      1791501277,
      1791501325,
      1791501334,
      1791501387,
      1791501399,
      1791501414,
      1791501423,
      1791501447,
      1791501468,
      1791501507,
      1791501528,
      1791501550,
      1791501553,
      1791501598,
      1791501601,
      1791501613,
      1791501654,
      1791501678,
      1791501708,
      1791501726,
      1791501753,
      1791501801,
      1791501826,
      1791501856,
      1791501894,
      1791501915,
      1791501936,
      1791501988,
      1791501994,
      1791502012,
      1791502048
    ],
    "wof:geomhash": "5e77e8fc659bb613a1769f5dff977333",
    "wof:id": 2048546549,
    "wof:repo": "sfomuseum-data-flights-2026-10"
  },
  "bbox": [
    -122.36402,
    37.49161,
    -121.24397,
    37.6145
  ],
  "geometry": {"type":"LineString","coordinates":[[-121.24397,37.59564],[-121.26496,37.59268],[-121.28797,37.58952],[-121.35247,37.58243],[-121.38453,37.579],[-121.4761,37.5682],[-121.49303,37.56605],[-121.5924,37.55457],[-121.61277,37.55222],[-121.63958,37.54733],[-121.65409,37.54378],[-121.69148,37.53487],[-121.72198,37.52765],[-121.77783,37.51421],[-121.80751,37.50715],[-121.83768,37.49991],[-121.84188,37.49888],[-121.90625,37.49161],[-121.91056,37.49178],[-121.92777,37.49227],[-121.98563,37.49517],[-122.01722,37.50438],[-122.05594,37.51678],[-122.07807,37.52392],[-122.10944,37.53381],[-122.15531,37.54907],[-122.17707,37.55606],[-122.20315,37.56441],[-122.23459,37.57482],[-122.2521,37.58012],[-122.26933,37.58523],[-122.31247,37.59793],[-122.31756,37.59935],[-122.33352,37.60414],[-122.36402,37.6145]]}
}
