{
  "id": 2048511299,
  "type": "Feature",
  "properties": {
    "geom:area": 0,
    "geom:bbox": "-122.348410,37.491290,-121.536770,37.609810",
    "geom:latitude": 37.53517393072738,
    "geom:longitude": -121.94554252117021,
    "src:alt_label": "swim-approach",
    "src:geom": "swim",
    "swim:elevations": [
      3244,
      3158,
      2970,
      2848,
      2738,
      2444,
      2228,
      2092,
      1932,
      1861,
      1723,
      1470,
      1379,
      1218,
      1099,
      1040,
      852,
      731,
      552,
      485,
      298,
      151,
      79
    ],
    "swim:geom": "approach",
    "swim:timestamps": [
      1791133063,
      1791133095,
      1791133138,
      1791133154,
      1791133170,
      1791133219,
      1791133247,
      1791133277,
      1791133311,
      1791133331,
      1791133353,
      1791133397,
      1791133411,
      1791133449,
      1791133471,
      1791133483,
      1791133516,
      1791133546,
      1791133581,
      1791133595,
      1791133641,
      1791133673,
      1791133696
    ],
    "wof:geomhash": "b7d061127d1f0395b773a50fce17d6eb",
    "wof:id": 2048511299,
    "wof:repo": "sfomuseum-data-flights-2026-10"
  },
  "bbox": [
    -122.34841,
    37.49129,
    -121.53677,
    37.60981
  ],
  "geometry": {"type":"LineString","coordinates":[[-121.53677,37.56109],[-121.60041,37.5537],[-121.67442,37.53891],[-121.70161,37.53257],[-121.72744,37.52638],[-121.80571,37.50757],[-121.84947,37.49703],[-121.89477,37.49129],[-121.94642,37.49258],[-121.97592,37.49369],[-122.00739,37.50089],[-122.06477,37.51966],[-122.08373,37.5256],[-122.1266,37.53969],[-122.14959,37.54723],[-122.16196,37.55101],[-122.19237,37.56079],[-122.22007,37.56964],[-122.2518,37.58004],[-122.26455,37.58418],[-122.3033,37.59523],[-122.33012,37.60359],[-122.34841,37.60981]]}
}
