{
  "id": 2048498245,
  "type": "Feature",
  "properties": {
    "geom:area": 0,
    "geom:bbox": "-122.363110,37.632830,-121.278480,37.959560",
    "geom:latitude": 37.83576514557149,
    "geom:longitude": -121.83521154041452,
    "src:alt_label": "swim-takeoff",
    "src:geom": "swim",
    "swim:elevations": [
      152,
      271,
      498,
      636,
      896,
      1071,
      1250,
      1633,
      1933,
      2331,
      2729,
      3061,
      3318,
      3508,
      3689,
      3855,
      4002,
      4097,
      4348,
      4429,
      4691,
      5090,
      5262,
      5557,
      5585
    ],
    "swim:geom": "takeoff",
    "swim:timestamps": [
      1790976598,
      1790976611,
      1790976628,
      1790976641,
      1790976670,
      1790976702,
      1790976729,
      1790976774,
      1790976800,
      1790976832,
      1790976862,
      1790976890,
      1790976926,
      1790976944,
      1790976986,
      1790977015,
      1790977032,
      1790977044,
      1790977076,
      1790977085,
      1790977117,
      1790977168,
      1790977189,
      1790977227,
      1790977231
    ],
    "wof:geomhash": "fe526e1c988aec2f7d21305af290b826",
    "wof:id": 2048498245,
    "wof:repo": "sfomuseum-data-flights-2026-10"
  },
  "bbox": [
    -122.36311,
    37.63283,
    -121.27848,
    37.95956
  ],
  "geometry": {"type":"LineString","coordinates":[[-122.36311,37.63283],[-122.35507,37.64211],[-122.34026,37.65019],[-122.32856,37.65598],[-122.30369,37.66965],[-122.27278,37.6873],[-122.24271,37.7034],[-122.18371,37.7333],[-122.1468,37.75285],[-122.1017,37.77648],[-122.05847,37.79894],[-122.0179,37.81887],[-121.95628,37.83523],[-121.92307,37.84147],[-121.84025,37.85688],[-121.77741,37.8684],[-121.74164,37.875],[-121.71275,37.88033],[-121.64136,37.89339],[-121.62273,37.89677],[-121.54708,37.91078],[-121.42752,37.9326],[-121.37747,37.94161],[-121.28784,37.95786],[-121.27848,37.95956]]}
}
