{
  "id": 2048493633,
  "type": "Feature",
  "properties": {
    "date:inception_lower": "2026-10-02",
    "date:inception_upper": "2026-10-02",
    "edtf:cessation": "",
    "edtf:inception": "2026-10-02",
    "flysfo:actual_timestamp": -1,
    "flysfo:airline": "EK",
    "flysfo:base_airline": "",
    "flysfo:base_flight_number": "4279",
    "flysfo:date": "2026-10-02",
    "flysfo:estimated_timestamp": 1790974860,
    "flysfo:event": "A",
    "flysfo:flight_number": "EK6330",
    "flysfo:gate": "D8",
    "flysfo:journey": "PSP-SFO",
    "flysfo:scheduled_timestamp": 1790970960,
    "flysfo:timestamp": 1790974860,
    "geom:area": 0,
    "geom:bbox": "-122.370943,33.824619,-116.506042,37.617990",
    "geom:latitude": 35.7213045,
    "geom:longitude": -119.4384925,
    "iata:airline": "EK",
    "iata:base_airline": "",
    "icao:airline": "UAE",
    "icao:base_airline": "ACA",
    "lbl:latitude": 37.617421,
    "lbl:longitude": -122.380916,
    "sfomuseum:airline_id": 1159284333,
    "sfomuseum:arrival_id": 102527513,
    "sfomuseum:base_flight_id": "20261002-A-ACA-4279",
    "sfomuseum:departure_id": 102533591,
    "sfomuseum:flight_id": "20261002-A-UAE-6330",
    "sfomuseum:flight_number": [
      "UAE6330",
      "EK6330"
    ],
    "sfomuseum:placetype": "flight",
    "src:geom": "flysfo",
    "wof:belongsto": [
      1947304067,
      102527513,
      1947304595,
      102191575,
      85633793,
      102087579,
      85922583,
      554784711,
      85688637,
      1947304617,
      1947304591,
      102085387
    ],
    "wof:country": "US",
    "wof:created": 1791043638,
    "wof:geomhash": "a35a6e87f0ae0f1f716f88067ee31aa3",
    "wof:hierarchy": [
      {
        "building_id": 1947304067,
        "campus_id": 102527513,
        "concourse_id": 1947304595,
        "continent_id": 102191575,
        "country_id": 85633793,
        "county_id": 102087579,
        "custom_id": 2048493633,
        "flight_id": 2048493633,
        "locality_id": 85922583,
        "postalcode_id": 554784711,
        "region_id": 85688637,
        "venue_id": 1947304617,
        "wing_id": 1947304591
      },
      {
        "building_id": 1947304067,
        "campus_id": 102527513,
        "concourse_id": 1947304595,
        "continent_id": 102191575,
        "country_id": 85633793,
        "county_id": 102085387,
        "custom_id": 2048493633,
        "flight_id": 2048493633,
        "region_id": 85688637,
        "venue_id": 1947304617,
        "wing_id": 1947304591
      }
    ],
    "wof:id": 2048493633,
    "wof:involves": [
      102527513,
      102533591,
      1159284333,
      1947304617,
      1159283597
    ],
    "wof:lastmodified": 1791043638,
    "wof:name": "EK6330 (PSP-SFO)",
    "wof:parent_id": 1947304617,
    "wof:placetype": "custom",
    "wof:placetype_alt": [
      "flight"
    ],
    "wof:repo": "sfomuseum-data-flights-2026-10",
    "wof:superseded_by": [],
    "wof:supersedes": []
  },
  "bbox": [
    -122.370943,
    33.824619,
    -116.506042,
    37.61799
  ],
  "geometry": {"type":"MultiPoint","coordinates":[[-116.506042,33.824619],[-122.370943,37.61799]]}
}
