{
  "id": 2048494405,
  "type": "Feature",
  "properties": {
    "geom:area": 0,
    "geom:bbox": "-122.758090,37.528500,-122.088080,38.506260",
    "geom:latitude": 37.87525749870527,
    "geom:longitude": -122.48044883785708,
    "src:alt_label": "swim-approach",
    "src:geom": "swim",
    "swim:elevations": [
      7312,
      7223,
      6792,
      6648,
      6247,
      6179,
      5764,
      5502,
      5372,
      5048,
      4727,
      4666,
      4382,
      3974,
      3693,
      3495,
      3421,
      3353,
      3353,
      3320,
      3260,
      2987,
      2775,
      2743,
      2686,
      2470,
      2283,
      2130,
      1659,
      1537,
      1041,
      906,
      794,
      582,
      549,
      416,
      350,
      185,
      0
    ],
    "swim:geom": "approach",
    "swim:timestamps": [
      1790944796,
      1790944806,
      1790944855,
      1790944872,
      1790944918,
      1790944926,
      1790944975,
      1790945005,
      1790945020,
      1790945058,
      1790945095,
      1790945104,
      1790945138,
      1790945183,
      1790945212,
      1790945237,
      1790945259,
      1790945298,
      1790945334,
      1790945356,
      1790945374,
      1790945420,
      1790945455,
      1790945480,
      1790945514,
      1790945547,
      1790945573,
      1790945594,
      1790945638,
      1790945648,
      1790945687,
      1790945711,
      1790945733,
      1790945763,
      1790945801,
      1790945842,
      1790945852,
      1790945880,
      1790945922
    ],
    "wof:geomhash": "5b2d9481fbe3f831453164999dcc3c99",
    "wof:id": 2048494405,
    "wof:repo": "sfomuseum-data-flights-2026-10"
  },
  "bbox": [
    -122.75809,
    37.5285,
    -122.08808,
    38.50626
  ],
  "geometry": {"type":"LineString","coordinates":[[-122.68855,38.50626],[-122.69383,38.48769],[-122.71835,38.40085],[-122.72639,38.37175],[-122.74867,38.29167],[-122.75252,38.27774],[-122.75809,38.19291],[-122.74309,38.14124],[-122.73598,38.11661],[-122.71761,38.05269],[-122.6998,37.99119],[-122.69576,37.97732],[-122.67933,37.92272],[-122.63248,37.86129],[-122.59309,37.82404],[-122.56183,37.79448],[-122.53443,37.76846],[-122.49361,37.73],[-122.44685,37.70899],[-122.41472,37.70133],[-122.38786,37.69517],[-122.32018,37.68029],[-122.26904,37.66948],[-122.23216,37.66133],[-122.18446,37.64815],[-122.13876,37.63587],[-122.10471,37.6258],[-122.08808,37.60989],[-122.09558,37.566],[-122.09849,37.5571],[-122.12894,37.5285],[-122.15747,37.53373],[-122.17422,37.55032],[-122.20236,37.56402],[-122.24296,37.57728],[-122.28651,37.58989],[-122.29647,37.59225],[-122.32238,37.59947],[-122.3575,37.61369]]}
}
