{
  "id": 2048541995,
  "type": "Feature",
  "properties": {
    "geom:area": 0,
    "geom:bbox": "-122.362970,37.633220,-121.258770,38.417490",
    "geom:latitude": 38.07037802305542,
    "geom:longitude": -121.88773682634611,
    "src:alt_label": "swim-takeoff",
    "src:geom": "swim",
    "swim:elevations": [
      183,
      696,
      1026,
      1163,
      1349,
      1417,
      1938,
      2084,
      2586,
      2875,
      3110,
      3156,
      3556,
      3921,
      4024,
      4391,
      4610,
      4897,
      5097,
      5239,
      5381,
      5824,
      6063,
      6299,
      6447,
      6725,
      6765,
      7059,
      7346,
      7488,
      7554
    ],
    "swim:geom": "takeoff",
    "swim:timestamps": [
      1791361473,
      1791361520,
      1791361554,
      1791361581,
      1791361613,
      1791361622,
      1791361668,
      1791361682,
      1791361726,
      1791361755,
      1791361773,
      1791361777,
      1791361821,
      1791361852,
      1791361865,
      1791361903,
      1791361926,
      1791361957,
      1791361983,
      1791362000,
      1791362016,
      1791362068,
      1791362098,
      1791362127,
      1791362144,
      1791362183,
      1791362194,
      1791362236,
      1791362275,
      1791362294,
      1791362301
    ],
    "wof:geomhash": "d1a8467f7df8e82910e4c79821c60128",
    "wof:id": 2048541995,
    "wof:repo": "sfomuseum-data-flights-2026-10"
  },
  "bbox": [
    -122.36297,
    37.63322,
    -121.25877,
    38.41749
  ],
  "geometry": {"type":"LineString","coordinates":[[-122.36297,37.63322],[-122.32373,37.65821],[-122.293,37.67554],[-122.27852,37.69728],[-122.28224,37.73288],[-122.28362,37.74373],[-122.29116,37.80323],[-122.29343,37.82119],[-122.30046,37.88249],[-122.28176,37.91976],[-122.25392,37.93411],[-122.24766,37.93668],[-122.17495,37.96575],[-122.12313,37.99053],[-122.10155,38.00118],[-122.0361,38.03336],[-121.99462,38.05291],[-121.93796,38.07944],[-121.88997,38.10195],[-121.85844,38.11702],[-121.82873,38.13143],[-121.72611,38.17906],[-121.66661,38.20656],[-121.61075,38.23272],[-121.57619,38.24898],[-121.49612,38.28656],[-121.4749,38.29646],[-121.38719,38.33846],[-121.31019,38.38572],[-121.27251,38.40901],[-121.25877,38.41749]]}
}
