{
  "id": 2048549705,
  "type": "Feature",
  "properties": {
    "date:inception_lower": "2026-10-08",
    "date:inception_upper": "2026-10-08",
    "edtf:cessation": "",
    "edtf:inception": "2026-10-08",
    "flysfo:actual_timestamp": -1,
    "flysfo:airline": "DL",
    "flysfo:base_airline": "",
    "flysfo:base_flight_number": "8403",
    "flysfo:date": "2026-10-08",
    "flysfo:estimated_timestamp": 1791494820,
    "flysfo:event": "D",
    "flysfo:flight_number": "DL9647",
    "flysfo:gate": "A8",
    "flysfo:journey": "SFO-AMS",
    "flysfo:scheduled_timestamp": 1791492300,
    "flysfo:timestamp": 1791494820,
    "geom:area": 0,
    "geom:bbox": "-122.370943,37.617990,4.782907,52.314791",
    "geom:latitude": 44.9663905,
    "geom:longitude": -58.794018,
    "iata:airline": "DL",
    "iata:base_airline": "",
    "icao:airline": "DAL",
    "icao:base_airline": "AFR",
    "lbl:latitude": 37.612048,
    "lbl:longitude": -122.389573,
    "sfomuseum:airline_id": 1159284261,
    "sfomuseum:arrival_id": 102542801,
    "sfomuseum:base_flight_id": "20261008-D-AFR-8403",
    "sfomuseum:departure_id": 102527513,
    "sfomuseum:flight_id": "20261008-D-DAL-9647",
    "sfomuseum:flight_number": [
      "DAL9647",
      "DL9647"
    ],
    "sfomuseum:placetype": "flight",
    "src:geom": "flysfo",
    "wof:belongsto": [
      1947304067,
      102527513,
      1947304073,
      102191575,
      85633793,
      102087579,
      85922583,
      554784711,
      85688637,
      1947304097,
      1947304069,
      102085387
    ],
    "wof:country": "US",
    "wof:created": 1791562485,
    "wof:geomhash": "b03e5f5c78933bb0f626aa81ed57f330",
    "wof:hierarchy": [
      {
        "building_id": 1947304067,
        "campus_id": 102527513,
        "concourse_id": 1947304073,
        "continent_id": 102191575,
        "country_id": 85633793,
        "county_id": 102087579,
        "custom_id": 2048549705,
        "flight_id": 2048549705,
        "locality_id": 85922583,
        "postalcode_id": 554784711,
        "region_id": 85688637,
        "venue_id": 1947304097,
        "wing_id": 1947304069
      },
      {
        "building_id": 1947304067,
        "campus_id": 102527513,
        "concourse_id": 1947304073,
        "continent_id": 102191575,
        "country_id": 85633793,
        "county_id": 102085387,
        "custom_id": 2048549705,
        "flight_id": 2048549705,
        "region_id": 85688637,
        "venue_id": 1947304097,
        "wing_id": 1947304069
      }
    ],
    "wof:id": 2048549705,
    "wof:involves": [
      102542801,
      102527513,
      1159284261,
      1947304097,
      1159283627
    ],
    "wof:lastmodified": 1791562485,
    "wof:name": "DL9647 (SFO-AMS)",
    "wof:parent_id": 1947304097,
    "wof:placetype": "custom",
    "wof:placetype_alt": [
      "flight"
    ],
    "wof:repo": "sfomuseum-data-flights-2026-10",
    "wof:superseded_by": [],
    "wof:supersedes": []
  },
  "bbox": [
    -122.370943,
    37.61799,
    4.782907,
    52.314791
  ],
  "geometry": {"type":"MultiPoint","coordinates":[[-122.370943,37.61799],[4.782907,52.314791]]}
}
