{
  "id": 2048560135,
  "type": "Feature",
  "properties": {
    "geom:area": 0,
    "geom:bbox": "-122.586040,37.631380,-121.273540,38.408210",
    "geom:latitude": 38.063512962772506,
    "geom:longitude": -122.04119638842225,
    "src:alt_label": "swim-takeoff",
    "src:geom": "swim",
    "swim:elevations": [
      260,
      575,
      1030,
      1213,
      1336,
      1672,
      2128,
      2454,
      2613,
      2743,
      2743,
      2731,
      2740,
      2932,
      3370,
      3576,
      3660,
      3689,
      3833,
      3945,
      4117,
      4401,
      4723,
      4825,
      4911,
      5278,
      5605,
      5668,
      5852,
      5911,
      6008,
      6111,
      6359,
      6434
    ],
    "swim:geom": "takeoff",
    "swim:timestamps": [
      1791554993,
      1791555022,
      1791555079,
      1791555116,
      1791555133,
      1791555164,
      1791555206,
      1791555236,
      1791555253,
      1791555278,
      1791555327,
      1791555357,
      1791555375,
      1791555409,
      1791555447,
      1791555472,
      1791555490,
      1791555498,
      1791555525,
      1791555545,
      1791555570,
      1791555602,
      1791555646,
      1791555674,
      1791555692,
      1791555734,
      1791555776,
      1791555788,
      1791555827,
      1791555836,
      1791555854,
      1791555872,
      1791555911,
      1791555930
    ],
    "wof:geomhash": "913fcc83944ff1012811af0eea33fd60",
    "wof:id": 2048560135,
    "wof:repo": "sfomuseum-data-flights-2026-10"
  },
  "bbox": [
    -122.58604,
    37.63138,
    -121.27354,
    38.40821
  ],
  "geometry": {"type":"LineString","coordinates":[[-122.40532,37.63138],[-122.43388,37.64312],[-122.49191,37.66833],[-122.53761,37.68962],[-122.55347,37.7055],[-122.57731,37.74138],[-122.58604,37.79221],[-122.56614,37.82931],[-122.55445,37.8498],[-122.53598,37.88202],[-122.49513,37.94222],[-122.45342,37.96853],[-122.42861,37.9826],[-122.37488,38.00348],[-122.31331,38.024],[-122.271,38.03898],[-122.24072,38.0495],[-122.22564,38.05483],[-122.17375,38.07266],[-122.13482,38.08483],[-122.07976,38.09287],[-122.00862,38.10242],[-121.91309,38.13117],[-121.85291,38.15488],[-121.81181,38.17191],[-121.71895,38.20929],[-121.62263,38.24629],[-121.59503,38.2569],[-121.503,38.29231],[-121.48235,38.30031],[-121.44081,38.31632],[-121.39709,38.33497],[-121.31278,38.38409],[-121.27354,38.40821]]}
}
