{
  "id": 2048549935,
  "type": "Feature",
  "properties": {
    "geom:area": 0,
    "geom:bbox": "-122.572710,37.065140,-121.270460,37.678240",
    "geom:latitude": 37.331785456293446,
    "geom:longitude": -122.03204820967999,
    "src:alt_label": "swim-takeoff",
    "src:geom": "swim",
    "swim:elevations": [
      183,
      500,
      712,
      1088,
      1459,
      1822,
      2295,
      2479,
      2695,
      2744,
      2743,
      2811,
      3432,
      3762,
      3830,
      4114,
      4757,
      4993,
      5439,
      5709,
      6055,
      6119,
      6329,
      6608,
      6768,
      7077,
      7245,
      7504,
      7848,
      7973,
      8043,
      8282,
      8400
    ],
    "swim:geom": "takeoff",
    "swim:timestamps": [
      1791471733,
      1791471772,
      1791471797,
      1791471831,
      1791471859,
      1791471884,
      1791471912,
      1791471927,
      1791471953,
      1791471963,
      1791472011,
      1791472025,
      1791472092,
      1791472136,
      1791472142,
      1791472171,
      1791472212,
      1791472231,
      1791472273,
      1791472299,
      1791472336,
      1791472344,
      1791472368,
      1791472394,
      1791472414,
      1791472455,
      1791472479,
      1791472513,
      1791472551,
      1791472573,
      1791472583,
      1791472612,
      1791472629
    ],
    "wof:geomhash": "252a1c8e62be3659520c4911086860a5",
    "wof:id": 2048549935,
    "wof:repo": "sfomuseum-data-flights-2026-10"
  },
  "bbox": [
    -122.57271,
    37.06514,
    -121.27046,
    37.67824
  ],
  "geometry": {"type":"LineString","coordinates":[[-122.38167,37.62156],[-122.41172,37.63442],[-122.43601,37.6452],[-122.47455,37.66242],[-122.50805,37.67824],[-122.54462,37.67813],[-122.56997,37.65418],[-122.57271,37.6356],[-122.55878,37.60415],[-122.55119,37.59233],[-122.51628,37.53653],[-122.50626,37.52011],[-122.44177,37.44657],[-122.35318,37.42831],[-122.34064,37.42608],[-122.27948,37.41453],[-122.18926,37.39623],[-122.14993,37.3881],[-122.06511,37.35441],[-122.02093,37.32198],[-121.95627,37.27489],[-121.94306,37.26528],[-121.90048,37.23423],[-121.85195,37.19911],[-121.8167,37.17386],[-121.73449,37.1234],[-121.67379,37.10984],[-121.58273,37.10042],[-121.4814,37.0889],[-121.42184,37.08263],[-121.39422,37.07927],[-121.31568,37.07043],[-121.27046,37.06514]]}
}
