{
  "id": 2048516599,
  "type": "Feature",
  "properties": {
    "date:inception_lower": "2026-10-04",
    "date:inception_upper": "2026-10-04",
    "edtf:cessation": "",
    "edtf:inception": "2026-10-04",
    "flysfo:actual_timestamp": -1,
    "flysfo:airline": "VA",
    "flysfo:base_airline": "",
    "flysfo:base_flight_number": "3334",
    "flysfo:date": "2026-10-04",
    "flysfo:estimated_timestamp": 1791165480,
    "flysfo:event": "D",
    "flysfo:flight_number": "VA8453",
    "flysfo:gate": "F19",
    "flysfo:journey": "SFO-PDX",
    "flysfo:scheduled_timestamp": 1791165900,
    "flysfo:timestamp": 1791165900,
    "geom:area": 0,
    "geom:bbox": "-122.597389,37.617990,-122.370943,45.586144",
    "geom:latitude": 41.602067,
    "geom:longitude": -122.484166,
    "iata:airline": "VA",
    "iata:base_airline": "",
    "icao:airline": "VOZ",
    "icao:base_airline": "ACA",
    "lbl:latitude": 37.620929,
    "lbl:longitude": -122.390272,
    "sfomuseum:airline_id": 1159285485,
    "sfomuseum:arrival_id": 102532251,
    "sfomuseum:base_flight_id": "20261004-D-ACA-3334",
    "sfomuseum:departure_id": 102527513,
    "sfomuseum:flight_id": "20261004-D-VOZ-8453",
    "sfomuseum:flight_number": [
      "VOZ8453",
      "VA8453"
    ],
    "sfomuseum:placetype": "flight",
    "src:geom": "flysfo",
    "wof:belongsto": [
      1947304067,
      102527513,
      1947304451,
      102191575,
      85633793,
      102087579,
      85922583,
      554784711,
      85688637,
      1947304487,
      1947304447,
      102085387
    ],
    "wof:country": "US",
    "wof:created": 1791217111,
    "wof:geomhash": "a0e250e9237d15725a2a6f51d6b7a6b6",
    "wof:hierarchy": [
      {
        "building_id": 1947304067,
        "campus_id": 102527513,
        "concourse_id": 1947304451,
        "continent_id": 102191575,
        "country_id": 85633793,
        "county_id": 102087579,
        "custom_id": 2048516599,
        "flight_id": 2048516599,
        "locality_id": 85922583,
        "postalcode_id": 554784711,
        "region_id": 85688637,
        "venue_id": 1947304487,
        "wing_id": 1947304447
      },
      {
        "building_id": 1947304067,
        "campus_id": 102527513,
        "concourse_id": 1947304451,
        "continent_id": 102191575,
        "country_id": 85633793,
        "county_id": 102085387,
        "custom_id": 2048516599,
        "flight_id": 2048516599,
        "region_id": 85688637,
        "venue_id": 1947304487,
        "wing_id": 1947304447
      }
    ],
    "wof:id": 2048516599,
    "wof:involves": [
      102532251,
      102527513,
      1159285485,
      1947304487,
      1159283597
    ],
    "wof:lastmodified": 1791217111,
    "wof:name": "VA8453 (SFO-PDX)",
    "wof:parent_id": 1947304487,
    "wof:placetype": "custom",
    "wof:placetype_alt": [
      "flight"
    ],
    "wof:repo": "sfomuseum-data-flights-2026-10",
    "wof:superseded_by": [],
    "wof:supersedes": []
  },
  "bbox": [
    -122.597389,
    37.61799,
    -122.370943,
    45.586144
  ],
  "geometry": {"type":"MultiPoint","coordinates":[[-122.370943,37.61799],[-122.597389,45.586144]]}
}
