{
  "id": 2048551141,
  "type": "Feature",
  "properties": {
    "geom:area": 0,
    "geom:bbox": "-122.386130,37.640430,-121.249670,38.164940",
    "geom:latitude": 37.99316247125687,
    "geom:longitude": -121.93266872425609,
    "src:alt_label": "swim-takeoff",
    "src:geom": "swim",
    "swim:elevations": [
      279,
      673,
      864,
      1063,
      1220,
      1434,
      1630,
      1721,
      2303,
      2583,
      2819,
      2984,
      3176,
      3332,
      3468,
      3693,
      4016,
      4322,
      4697,
      4914,
      5062,
      5287,
      5374,
      5726,
      5891,
      6016,
      6208,
      6341,
      6502,
      6770,
      6798
    ],
    "swim:geom": "takeoff",
    "swim:timestamps": [
      1791503055,
      1791503092,
      1791503112,
      1791503139,
      1791503170,
      1791503213,
      1791503244,
      1791503253,
      1791503307,
      1791503334,
      1791503359,
      1791503377,
      1791503392,
      1791503422,
      1791503445,
      1791503473,
      1791503503,
      1791503527,
      1791503564,
      1791503606,
      1791503634,
      1791503667,
      1791503676,
      1791503718,
      1791503746,
      1791503767,
      1791503798,
      1791503816,
      1791503838,
      1791503875,
      1791503883
    ],
    "wof:geomhash": "d9279c029038b3e2283f730bd7547567",
    "wof:id": 2048551141,
    "wof:repo": "sfomuseum-data-flights-2026-10"
  },
  "bbox": [
    -122.38613,
    37.64043,
    -121.24967,
    38.16494
  ],
  "geometry": {"type":"LineString","coordinates":[[-122.3562,37.64043],[-122.32831,37.66306],[-122.31643,37.67614],[-122.31224,37.69773],[-122.32286,37.72331],[-122.34615,37.76386],[-122.36346,37.79836],[-122.36889,37.80907],[-122.38613,37.87732],[-122.38268,37.91298],[-122.35965,37.93969],[-122.33205,37.95136],[-122.30723,37.9559],[-122.25622,37.96589],[-122.21241,37.97501],[-122.15768,37.98616],[-122.09838,37.99822],[-122.051,38.00837],[-121.97835,38.02233],[-121.89192,38.03918],[-121.83093,38.0516],[-121.75815,38.06587],[-121.73797,38.06989],[-121.64274,38.08856],[-121.57912,38.10106],[-121.52813,38.111],[-121.45467,38.12532],[-121.41129,38.13368],[-121.35764,38.14403],[-121.26789,38.16138],[-121.24967,38.16494]]}
}
