{
  "id": 2048537319,
  "type": "Feature",
  "properties": {
    "date:inception_lower": "2026-10-07",
    "date:inception_upper": "2026-10-07",
    "edtf:cessation": "",
    "edtf:inception": "2026-10-07",
    "flysfo:actual_timestamp": -1,
    "flysfo:airline": "LX",
    "flysfo:base_airline": "",
    "flysfo:base_flight_number": "4510",
    "flysfo:date": "2026-10-07",
    "flysfo:estimated_timestamp": 1791419160,
    "flysfo:event": "A",
    "flysfo:flight_number": "LX3319",
    "flysfo:gate": "D8",
    "flysfo:journey": "SLC-SFO",
    "flysfo:scheduled_timestamp": 1791419100,
    "flysfo:timestamp": 1791419160,
    "geom:area": 0,
    "geom:bbox": "-122.370943,37.617990,-111.980566,40.782170",
    "geom:latitude": 39.20008,
    "geom:longitude": -117.1757545,
    "iata:airline": "LX",
    "iata:base_airline": "",
    "icao:airline": "SWR",
    "icao:base_airline": "ACA",
    "lbl:latitude": 37.617421,
    "lbl:longitude": -122.380916,
    "sfomuseum:airline_id": 1159286475,
    "sfomuseum:arrival_id": 102527513,
    "sfomuseum:base_flight_id": "20261007-A-ACA-4510",
    "sfomuseum:departure_id": 102527363,
    "sfomuseum:flight_id": "20261007-A-SWR-3319",
    "sfomuseum:flight_number": [
      "SWR3319",
      "LX3319"
    ],
    "sfomuseum:placetype": "flight",
    "src:geom": "flysfo",
    "wof:belongsto": [
      1947304067,
      102527513,
      1947304595,
      102191575,
      85633793,
      102087579,
      85922583,
      554784711,
      85688637,
      1947304617,
      1947304591,
      102085387
    ],
    "wof:country": "US",
    "wof:created": 1791475628,
    "wof:geomhash": "24b8b627208edff0ed857058cce4fc5a",
    "wof:hierarchy": [
      {
        "building_id": 1947304067,
        "campus_id": 102527513,
        "concourse_id": 1947304595,
        "continent_id": 102191575,
        "country_id": 85633793,
        "county_id": 102087579,
        "custom_id": 2048537319,
        "flight_id": 2048537319,
        "locality_id": 85922583,
        "postalcode_id": 554784711,
        "region_id": 85688637,
        "venue_id": 1947304617,
        "wing_id": 1947304591
      },
      {
        "building_id": 1947304067,
        "campus_id": 102527513,
        "concourse_id": 1947304595,
        "continent_id": 102191575,
        "country_id": 85633793,
        "county_id": 102085387,
        "custom_id": 2048537319,
        "flight_id": 2048537319,
        "region_id": 85688637,
        "venue_id": 1947304617,
        "wing_id": 1947304591
      }
    ],
    "wof:id": 2048537319,
    "wof:involves": [
      102527513,
      102527363,
      1159286475,
      1947304617,
      1159283597
    ],
    "wof:lastmodified": 1791475628,
    "wof:name": "LX3319 (SLC-SFO)",
    "wof:parent_id": 1947304617,
    "wof:placetype": "custom",
    "wof:placetype_alt": [
      "flight"
    ],
    "wof:repo": "sfomuseum-data-flights-2026-10",
    "wof:superseded_by": [],
    "wof:supersedes": []
  },
  "bbox": [
    -122.370943,
    37.61799,
    -111.980566,
    40.78217
  ],
  "geometry": {"type":"MultiPoint","coordinates":[[-111.980566,40.78217],[-122.370943,37.61799]]}
}
