{
  "id": 2048525155,
  "type": "Feature",
  "properties": {
    "geom:area": 0,
    "geom:bbox": "-122.363670,37.632500,-121.257890,38.039750",
    "geom:latitude": 37.87598296397118,
    "geom:longitude": -121.8253873246788,
    "src:alt_label": "swim-takeoff",
    "src:geom": "swim",
    "swim:elevations": [
      152,
      302,
      846,
      1002,
      1232,
      1290,
      1671,
      1989,
      2296,
      2615,
      3019,
      3303,
      3532,
      4200,
      4469,
      4862,
      5051,
      5539,
      5679,
      5868,
      6325,
      6474,
      6702,
      6928
    ],
    "swim:geom": "takeoff",
    "swim:timestamps": [
      1791197212,
      1791197230,
      1791197275,
      1791197289,
      1791197323,
      1791197328,
      1791197361,
      1791197387,
      1791197411,
      1791197433,
      1791197463,
      1791197495,
      1791197520,
      1791197575,
      1791197599,
      1791197635,
      1791197651,
      1791197697,
      1791197712,
      1791197734,
      1791197786,
      1791197804,
      1791197836,
      1791197875
    ],
    "wof:geomhash": "5e40eb2f6d75b664616a019d311cc245",
    "wof:id": 2048525155,
    "wof:repo": "sfomuseum-data-flights-2026-10"
  },
  "bbox": [
    -122.36367,
    37.6325,
    -121.25789,
    38.03975
  ],
  "geometry": {"type":"LineString","coordinates":[[-122.36367,37.6325],[-122.35229,37.64393],[-122.31197,37.66433],[-122.29971,37.67033],[-122.26537,37.69045],[-122.26004,37.69375],[-122.21765,37.71611],[-122.18236,37.73457],[-122.14903,37.75204],[-122.11738,37.76806],[-122.07584,37.78989],[-122.02882,37.81424],[-121.98737,37.83341],[-121.8899,37.87208],[-121.84509,37.88979],[-121.77853,37.91605],[-121.74771,37.92852],[-121.6602,37.96299],[-121.62914,37.97251],[-121.58168,37.98129],[-121.46637,38.00129],[-121.42456,38.00853],[-121.3506,38.02269],[-121.25789,38.03975]]}
}
