{
  "id": 2048493711,
  "type": "Feature",
  "properties": {
    "date:cessation_lower": "2026-10-02",
    "date:cessation_upper": "2026-10-02",
    "date:inception_lower": "1970-01-01",
    "date:inception_upper": "1970-01-01",
    "edtf:cessation": "2026-10-02T09:57:36-07:00",
    "edtf:inception": "1970-01-01T00:00:00Z",
    "flysfo:actual_timestamp": -1,
    "flysfo:airline": "UA",
    "flysfo:base_airline": "",
    "flysfo:base_flight_number": "9132",
    "flysfo:date": "2026-10-02",
    "flysfo:estimated_timestamp": 1790986260,
    "flysfo:event": "A",
    "flysfo:flight_number": "UA1227",
    "flysfo:gate": "G7",
    "flysfo:journey": "EWR-SFO",
    "flysfo:scheduled_timestamp": 1790983140,
    "flysfo:timestamp": 1790986260,
    "geom:area": 0,
    "geom:bbox": "-122.370943,37.617990,-74.177526,40.691243",
    "geom:latitude": 39.1546165,
    "geom:longitude": -98.2742345,
    "iata:airline": "UA",
    "iata:base_airline": "",
    "icao:aircraft": "B789",
    "icao:airline": "UAL",
    "icao:base_airline": "ANZ",
    "lbl:latitude": 37.618057,
    "lbl:longitude": -122.392508,
    "sfomuseum:aircraft_id": 1159293215,
    "sfomuseum:airline_id": 1159285413,
    "sfomuseum:arrival_id": 102527513,
    "sfomuseum:base_flight_id": "20261002-A-ANZ-9132",
    "sfomuseum:departure_id": 102530049,
    "sfomuseum:flight_id": "20261002-A-UAL-1227",
    "sfomuseum:flight_number": [
      "UAL1227",
      "UA1227"
    ],
    "sfomuseum:placetype": "flight",
    "src:geom": "flysfo",
    "src:geom_alt": [
      "swim-approach"
    ],
    "swim:tail_number": "N25982",
    "wof:belongsto": [
      1947304067,
      102527513,
      1947304129,
      102191575,
      85633793,
      102087579,
      85922583,
      554784711,
      85688637,
      1947304149,
      1947304069,
      102085387
    ],
    "wof:country": "US",
    "wof:created": 1791043647,
    "wof:geomhash": "5afbf99c4360a00cfc0890f48cccf304",
    "wof:hierarchy": [
      {
        "building_id": 1947304067,
        "campus_id": 102527513,
        "concourse_id": 1947304129,
        "continent_id": 102191575,
        "country_id": 85633793,
        "county_id": 102087579,
        "custom_id": 2048493711,
        "flight_id": 2048493711,
        "locality_id": 85922583,
        "postalcode_id": 554784711,
        "region_id": 85688637,
        "venue_id": 1947304149,
        "wing_id": 1947304069
      },
      {
        "building_id": 1947304067,
        "campus_id": 102527513,
        "concourse_id": 1947304129,
        "continent_id": 102191575,
        "country_id": 85633793,
        "county_id": 102085387,
        "custom_id": 2048493711,
        "flight_id": 2048493711,
        "region_id": 85688637,
        "venue_id": 1947304149,
        "wing_id": 1947304069
      }
    ],
    "wof:id": 2048493711,
    "wof:involves": [
      102530049,
      1159285413,
      1947304149,
      1159283697,
      1159293215,
      102527513
    ],
    "wof:lastmodified": 1791044296,
    "wof:name": "UA1227 (EWR-SFO)",
    "wof:parent_id": 1947304149,
    "wof:placetype": "custom",
    "wof:placetype_alt": [
      "flight"
    ],
    "wof:repo": "sfomuseum-data-flights-2026-10",
    "wof:superseded_by": [],
    "wof:supersedes": []
  },
  "bbox": [
    -122.370943,
    37.61799,
    -74.177526,
    40.691243
  ],
  "geometry": {"type":"MultiPoint","coordinates":[[-74.177526,40.691243],[-122.370943,37.61799]]}
}
