{
  "id": 2048484793,
  "type": "Feature",
  "properties": {
    "geom:area": 0,
    "geom:bbox": "-122.750940,37.414480,-122.135370,38.411340",
    "geom:latitude": 37.822543675156474,
    "geom:longitude": -122.47723911643669,
    "src:alt_label": "swim-approach",
    "src:geom": "swim",
    "swim:elevations": [
      7754,
      7675,
      7434,
      7177,
      6694,
      6487,
      6131,
      5858,
      5365,
      5150,
      4917,
      4477,
      4208,
      4003,
      3789,
      3567,
      3417,
      3354,
      3353,
      3353,
      3353,
      3341,
      3283,
      3028,
      2919,
      2801,
      2494,
      2383,
      1993,
      1794,
      1565,
      1522,
      1493,
      1231,
      947,
      901,
      611,
      474,
      369,
      277,
      231,
      103,
      0
    ],
    "swim:geom": "approach",
    "swim:timestamps": [
      1790879332,
      1790879349,
      1790879385,
      1790879409,
      1790879453,
      1790879471,
      1790879505,
      1790879531,
      1790879575,
      1790879594,
      1790879618,
      1790879661,
      1790879686,
      1790879706,
      1790879727,
      1790879752,
      1790879784,
      1790879807,
      1790879842,
      1790879876,
      1790879904,
      1790879933,
      1790879946,
      1790879990,
      1790880010,
      1790880031,
      1790880085,
      1790880098,
      1790880144,
      1790880176,
      1790880208,
      1790880226,
      1790880259,
      1790880282,
      1790880320,
      1790880335,
      1790880370,
      1790880413,
      1790880442,
      1790880472,
      1790880486,
      1790880522,
      1790880546
    ],
    "wof:geomhash": "1d8cc7f6c3e8d5822d70fbbae18f3c20",
    "wof:id": 2048484793,
    "wof:repo": "sfomuseum-data-flights-2026-10"
  },
  "bbox": [
    -122.75094,
    37.41448,
    -122.13537,
    38.41134
  ],
  "geometry": {"type":"LineString","coordinates":[[-122.52508,38.41134],[-122.55281,38.39007],[-122.61412,38.34229],[-122.65314,38.31213],[-122.7262,38.25559],[-122.74905,38.22845],[-122.75094,38.17026],[-122.73804,38.12633],[-122.71679,38.05263],[-122.708,38.02213],[-122.69695,37.98395],[-122.67716,37.91625],[-122.6526,37.88112],[-122.62614,37.85579],[-122.59911,37.83032],[-122.56653,37.7996],[-122.52663,37.76184],[-122.50094,37.73745],[-122.46104,37.69962],[-122.42718,37.66785],[-122.40085,37.64305],[-122.37334,37.61659],[-122.3655,37.60323],[-122.33738,37.55742],[-122.32448,37.53691],[-122.31117,37.51528],[-122.27789,37.46105],[-122.27037,37.44882],[-122.22235,37.4199],[-122.17809,37.41448],[-122.14527,37.43639],[-122.13537,37.4544],[-122.13853,37.49007],[-122.15578,37.51143],[-122.18852,37.53902],[-122.20194,37.54579],[-122.23294,37.55896],[-122.26524,37.57261],[-122.28654,37.58158],[-122.30826,37.59067],[-122.31849,37.59494],[-122.34371,37.60556],[-122.35863,37.61202]]}
}
