{
  "id": 2048546503,
  "type": "Feature",
  "properties": {
    "geom:area": 0,
    "geom:bbox": "-122.212600,36.721170,-121.877700,37.552500",
    "geom:latitude": 37.175679644145426,
    "geom:longitude": -122.05910417493573,
    "src:alt_label": "swim-approach",
    "src:geom": "swim",
    "swim:elevations": [
      5329,
      5047,
      4704,
      4643,
      4586,
      4457,
      4047,
      3746,
      3460,
      3168,
      3111,
      3045,
      3015,
      2914,
      2809,
      2634,
      2489,
      2226,
      2057,
      1840,
      1818,
      1705,
      1609,
      1525,
      1524,
      1524,
      1477,
      1299,
      1216,
      1127,
      1006,
      945,
      848,
      740
    ],
    "swim:geom": "approach",
    "swim:timestamps": [
      1791473271,
      1791473302,
      1791473338,
      1791473347,
      1791473355,
      1791473374,
      1791473419,
      1791473448,
      1791473476,
      1791473512,
      1791473538,
      1791473560,
      1791473576,
      1791473597,
      1791473620,
      1791473648,
      1791473672,
      1791473719,
      1791473751,
      1791473788,
      1791473796,
      1791473835,
      1791473851,
      1791473878,
      1791473890,
      1791473897,
      1791473935,
      1791473968,
      1791473986,
      1791474022,
      1791474058,
      1791474082,
      1791474104,
      1791474129
    ],
    "wof:geomhash": "48f0fc3830d86fdcc3a31acbd4aaddec",
    "wof:id": 2048546503,
    "wof:repo": "sfomuseum-data-flights-2026-10"
  },
  "bbox": [
    -122.2126,
    36.72117,
    -121.8777,
    37.5525
  ],
  "geometry": {"type":"LineString","coordinates":[[-121.8777,36.72117],[-121.90195,36.77111],[-121.91936,36.83138],[-121.92347,36.84604],[-121.92699,36.85862],[-121.93483,36.88701],[-121.95318,36.95241],[-121.96986,36.99484],[-121.98447,37.03299],[-122.00428,37.08361],[-122.0178,37.11788],[-122.02867,37.14525],[-122.04108,37.16241],[-122.06815,37.17536],[-122.09962,37.18646],[-122.1371,37.19963],[-122.15878,37.2212],[-122.18025,37.27158],[-122.19523,37.30664],[-122.20186,37.34589],[-122.19668,37.35289],[-122.15694,37.37833],[-122.14133,37.38771],[-122.11553,37.404],[-122.10893,37.41365],[-122.10574,37.41975],[-122.08864,37.45202],[-122.08604,37.4801],[-122.09873,37.49161],[-122.12448,37.51214],[-122.15402,37.52804],[-122.17365,37.53647],[-122.19247,37.5442],[-122.2126,37.5525]]}
}
