{
  "id": 2048555823,
  "type": "Feature",
  "properties": {
    "geom:area": 0,
    "geom:bbox": "-122.357680,37.491410,-121.249750,37.613720",
    "geom:latitude": 37.54673083114766,
    "geom:longitude": -121.8086090160824,
    "src:alt_label": "swim-approach",
    "src:geom": "swim",
    "swim:elevations": [
      4636,
      4406,
      4183,
      3871,
      3486,
      3239,
      3108,
      3052,
      2801,
      2551,
      2467,
      2158,
      1985,
      1925,
      1829,
      1782,
      1652,
      1544,
      1328,
      1201,
      1006,
      878,
      608,
      424,
      334,
      178,
      144,
      48
    ],
    "swim:geom": "approach",
    "swim:timestamps": [
      1791541124,
      1791541148,
      1791541171,
      1791541201,
      1791541240,
      1791541264,
      1791541301,
      1791541321,
      1791541358,
      1791541394,
      1791541417,
      1791541468,
      1791541492,
      1791541501,
      1791541536,
      1791541566,
      1791541590,
      1791541624,
      1791541667,
      1791541692,
      1791541729,
      1791541748,
      1791541789,
      1791541824,
      1791541846,
      1791541885,
      1791541894,
      1791541921
    ],
    "wof:geomhash": "3e1290b7ed05542c6522fa78882c705b",
    "wof:id": 2048555823,
    "wof:repo": "sfomuseum-data-flights-2026-10"
  },
  "bbox": [
    -122.35768,
    37.49141,
    -121.24975,
    37.61372
  ],
  "geometry": {"type":"LineString","coordinates":[[-121.24975,37.59449],[-121.29764,37.58845],[-121.34388,37.58345],[-121.40523,37.5765],[-121.48295,37.56742],[-121.53092,37.56164],[-121.60028,37.55371],[-121.63642,37.54793],[-121.6972,37.53358],[-121.75459,37.51979],[-121.79036,37.5112],[-121.8667,37.49317],[-121.9008,37.49141],[-121.91272,37.49182],[-121.96103,37.49308],[-122.00277,37.49936],[-122.03229,37.50907],[-122.07227,37.52203],[-122.11908,37.53722],[-122.14506,37.54569],[-122.18418,37.55822],[-122.20369,37.56467],[-122.24358,37.57758],[-122.27719,37.58748],[-122.29567,37.59314],[-122.32803,37.60271],[-122.33491,37.60497],[-122.35768,37.61372]]}
}
