{
  "id": 2048547679,
  "type": "Feature",
  "properties": {
    "geom:area": 0,
    "geom:bbox": "-122.359500,37.638360,-121.302850,37.955150",
    "geom:latitude": 37.83427051292038,
    "geom:longitude": -121.84421986667861,
    "src:alt_label": "swim-takeoff",
    "src:geom": "swim",
    "swim:elevations": [
      213,
      519,
      661,
      1008,
      1152,
      1450,
      1852,
      2199,
      2598,
      2978,
      3174,
      3368,
      3545,
      3857,
      4184,
      4371,
      4739,
      4922,
      5158,
      5261,
      5429,
      5715,
      5846
    ],
    "swim:geom": "takeoff",
    "swim:timestamps": [
      1791462346,
      1791462382,
      1791462402,
      1791462439,
      1791462463,
      1791462496,
      1791462527,
      1791462558,
      1791462593,
      1791462625,
      1791462647,
      1791462687,
      1791462709,
      1791462739,
      1791462769,
      1791462788,
      1791462830,
      1791462849,
      1791462880,
      1791462895,
      1791462919,
      1791462955,
      1791462974
    ],
    "wof:geomhash": "4923d6645e926a4772033109095faf9d",
    "wof:id": 2048547679,
    "wof:repo": "sfomuseum-data-flights-2026-10"
  },
  "bbox": [
    -122.3595,
    37.63836,
    -121.30285,
    37.95515
  ],
  "geometry": {"type":"LineString","coordinates":[[-122.3595,37.63836],[-122.32843,37.65699],[-122.3076,37.66828],[-122.2692,37.68977],[-122.24049,37.70464],[-122.1955,37.72766],[-122.15362,37.74927],[-122.11139,37.77091],[-122.06224,37.7964],[-122.01678,37.81897],[-121.98136,37.83015],[-121.90721,37.84422],[-121.86422,37.85235],[-121.80468,37.86346],[-121.74336,37.87478],[-121.70408,37.88194],[-121.61569,37.89825],[-121.57618,37.90551],[-121.5114,37.91719],[-121.47729,37.92336],[-121.42527,37.93289],[-121.34496,37.9475],[-121.30285,37.95515]]}
}
