{
  "id": 2048483805,
  "type": "Feature",
  "properties": {
    "geom:area": 0,
    "geom:bbox": "-122.361100,37.437980,-121.267060,37.615530",
    "geom:latitude": 37.52482979462299,
    "geom:longitude": -121.82069693817176,
    "src:alt_label": "swim-approach",
    "src:geom": "swim",
    "swim:elevations": [
      4392,
      3957,
      3648,
      3351,
      3283,
      3200,
      3158,
      2907,
      2818,
      2650,
      2438,
      2438,
      2438,
      2314,
      2194,
      2101,
      2057,
      1818,
      1360,
      1340,
      1250,
      1028,
      999,
      730,
      609,
      547,
      382,
      199,
      113,
      0
    ],
    "swim:geom": "approach",
    "swim:timestamps": [
      1790843669,
      1790843713,
      1790843753,
      1790843786,
      1790843792,
      1790843823,
      1790843865,
      1790843907,
      1790843921,
      1790843945,
      1790843996,
      1790844015,
      1790844044,
      1790844073,
      1790844100,
      1790844148,
      1790844155,
      1790844183,
      1790844236,
      1790844242,
      1790844257,
      1790844297,
      1790844304,
      1790844356,
      1790844381,
      1790844394,
      1790844429,
      1790844476,
      1790844501,
      1790844526
    ],
    "wof:geomhash": "57f901be201d64c0f11c17cf546f7550",
    "wof:id": 2048483805,
    "wof:repo": "sfomuseum-data-flights-2026-10"
  },
  "bbox": [
    -122.3611,
    37.43798,
    -121.26706,
    37.61553
  ],
  "geometry": {"type":"LineString","coordinates":[[-121.26706,37.59168],[-121.35725,37.58072],[-121.4382,37.57185],[-121.50332,37.56438],[-121.51494,37.563],[-121.5732,37.5562],[-121.63985,37.54683],[-121.68545,37.51623],[-121.69964,37.50429],[-121.72299,37.48464],[-121.7781,37.44925],[-121.80434,37.44696],[-121.84419,37.44432],[-121.88595,37.44112],[-121.92362,37.43798],[-121.98533,37.45654],[-121.99419,37.4603],[-122.02878,37.47498],[-122.09332,37.5023],[-122.1002,37.50525],[-122.1167,37.51227],[-122.16215,37.53145],[-122.16914,37.53439],[-122.22142,37.55641],[-122.24558,37.56667],[-122.25754,37.57163],[-122.28679,37.58396],[-122.32364,37.59946],[-122.34221,37.60731],[-122.3611,37.61553]]}
}
