{
  "id": 2048531929,
  "type": "Feature",
  "properties": {
    "date:cessation_lower": "1970-01-01",
    "date:cessation_upper": "1970-01-01",
    "date:inception_lower": "2026-10-06",
    "date:inception_upper": "2026-10-06",
    "edtf:cessation": "1970-01-01T00:00:00Z",
    "edtf:inception": "2026-10-06T02:39:21-07:00",
    "flysfo:actual_timestamp": -1,
    "flysfo:airline": "DL",
    "flysfo:base_airline": "",
    "flysfo:base_flight_number": "3617",
    "flysfo:date": "2026-10-06",
    "flysfo:estimated_timestamp": 1791301800,
    "flysfo:event": "D",
    "flysfo:flight_number": "DL606",
    "flysfo:gate": "C5",
    "flysfo:journey": "SFO-JFK",
    "flysfo:scheduled_timestamp": 1791302100,
    "flysfo:timestamp": 1791302100,
    "geom:area": 0,
    "geom:bbox": "-122.370943,37.617990,-73.787845,40.643286",
    "geom:latitude": 39.130638000000005,
    "geom:longitude": -98.07939400000001,
    "iata:airline": "DL",
    "iata:base_airline": "",
    "icao:aircraft": "B752",
    "icao:airline": "DAL",
    "icao:base_airline": "AMX",
    "lbl:latitude": 37.615184,
    "lbl:longitude": -122.382965,
    "sfomuseum:aircraft_id": 1159289939,
    "sfomuseum:airline_id": 1159284261,
    "sfomuseum:arrival_id": 102534365,
    "sfomuseum:base_flight_id": "20261006-D-AMX-3617",
    "sfomuseum:departure_id": 102527513,
    "sfomuseum:flight_id": "20261006-D-DAL-606",
    "sfomuseum:flight_number": [
      "DAL606",
      "DL606"
    ],
    "sfomuseum:placetype": "flight",
    "src:geom": "flysfo",
    "src:geom_alt": [
      "swim-takeoff"
    ],
    "swim:tail_number": "N711ZX",
    "wof:belongsto": [
      1947304067,
      102527513,
      1947304663,
      102191575,
      85633793,
      102087579,
      85922583,
      554784711,
      85688637,
      1947304675,
      1947304591,
      102085387
    ],
    "wof:country": "US",
    "wof:created": 1791389543,
    "wof:geomhash": "1348792a172720778d3219cc18ccd8ee",
    "wof:hierarchy": [
      {
        "building_id": 1947304067,
        "campus_id": 102527513,
        "concourse_id": 1947304663,
        "continent_id": 102191575,
        "country_id": 85633793,
        "county_id": 102087579,
        "custom_id": 2048531929,
        "flight_id": 2048531929,
        "locality_id": 85922583,
        "postalcode_id": 554784711,
        "region_id": 85688637,
        "venue_id": 1947304675,
        "wing_id": 1947304591
      },
      {
        "building_id": 1947304067,
        "campus_id": 102527513,
        "concourse_id": 1947304663,
        "continent_id": 102191575,
        "country_id": 85633793,
        "county_id": 102085387,
        "custom_id": 2048531929,
        "flight_id": 2048531929,
        "region_id": 85688637,
        "venue_id": 1947304675,
        "wing_id": 1947304591
      }
    ],
    "wof:id": 2048531929,
    "wof:involves": [
      102527513,
      1159284261,
      1947304675,
      1159283539,
      1159289939,
      102534365
    ],
    "wof:lastmodified": 1791389844,
    "wof:name": "DL606 (SFO-JFK)",
    "wof:parent_id": 1947304675,
    "wof:placetype": "custom",
    "wof:placetype_alt": [
      "flight"
    ],
    "wof:repo": "sfomuseum-data-flights-2026-10",
    "wof:superseded_by": [],
    "wof:supersedes": []
  },
  "bbox": [
    -122.370943,
    37.61799,
    -73.787845,
    40.643286
  ],
  "geometry": {"type":"MultiPoint","coordinates":[[-122.370943,37.61799],[-73.787845,40.643286]]}
}
