{
  "id": 2048541827,
  "type": "Feature",
  "properties": {
    "geom:area": 0,
    "geom:bbox": "-122.385370,37.628280,-121.251550,38.164550",
    "geom:latitude": 37.98907819678564,
    "geom:longitude": -121.9406772348463,
    "src:alt_label": "swim-takeoff",
    "src:geom": "swim",
    "swim:elevations": [
      122,
      311,
      833,
      1066,
      1098,
      1418,
      1720,
      2286,
      2403,
      2943,
      3137,
      3552,
      3707,
      4045,
      4306,
      4705,
      4899,
      5127,
      5211,
      5459,
      5867,
      6111,
      6232,
      6433,
      6761,
      6993,
      7121
    ],
    "swim:geom": "takeoff",
    "swim:timestamps": [
      1791414320,
      1791414338,
      1791414384,
      1791414416,
      1791414429,
      1791414465,
      1791414494,
      1791414537,
      1791414546,
      1791414585,
      1791414604,
      1791414658,
      1791414684,
      1791414712,
      1791414736,
      1791414769,
      1791414796,
      1791414836,
      1791414848,
      1791414880,
      1791414925,
      1791414955,
      1791414969,
      1791414997,
      1791415040,
      1791415071,
      1791415089
    ],
    "wof:geomhash": "8f8fc37c113a956aafc2b67d78621575",
    "wof:id": 2048541827,
    "wof:repo": "sfomuseum-data-flights-2026-10"
  },
  "bbox": [
    -122.38537,
    37.62828,
    -121.25155,
    38.16455
  ],
  "geometry": {"type":"LineString","coordinates":[[-122.36636,37.62828],[-122.35671,37.64096],[-122.32434,37.66928],[-122.30498,37.69403],[-122.30633,37.70724],[-122.33332,37.74236],[-122.3521,37.77569],[-122.37908,37.82877],[-122.38415,37.84041],[-122.38537,37.89611],[-122.38017,37.92162],[-122.2974,37.96495],[-122.24601,37.97304],[-122.18668,37.98353],[-122.13765,37.99371],[-122.06703,38.00845],[-122.00712,38.02078],[-121.91411,38.03956],[-121.88477,38.04487],[-121.80413,38.05881],[-121.68887,38.08054],[-121.6112,38.09537],[-121.57431,38.10245],[-121.5009,38.11658],[-121.38497,38.13884],[-121.30139,38.15498],[-121.25155,38.16455]]}
}
