{
  "id": 2048538713,
  "type": "Feature",
  "properties": {
    "geom:area": 0,
    "geom:bbox": "-122.539390,36.789990,-121.265350,37.706280",
    "geom:latitude": 37.27054175136228,
    "geom:longitude": -121.9895349766122,
    "src:alt_label": "swim-takeoff",
    "src:geom": "swim",
    "swim:elevations": [
      122,
      516,
      604,
      838,
      1276,
      1653,
      2266,
      2795,
      3202,
      3223,
      3545,
      4080,
      4403,
      4699,
      5101,
      5494,
      5728,
      6131,
      6220,
      6533,
      6631,
      6796,
      6914,
      7093,
      7200,
      7588,
      7661,
      7916,
      8197,
      8392,
      8473,
      8756,
      8912,
      9227,
      9269
    ],
    "swim:geom": "takeoff",
    "swim:timestamps": [
      1791363901,
      1791363931,
      1791363948,
      1791363973,
      1791364003,
      1791364027,
      1791364077,
      1791364104,
      1791364138,
      1791364143,
      1791364180,
      1791364222,
      1791364245,
      1791364270,
      1791364305,
      1791364342,
      1791364367,
      1791364406,
      1791364418,
      1791364453,
      1791364462,
      1791364482,
      1791364498,
      1791364528,
      1791364542,
      1791364586,
      1791364597,
      1791364630,
      1791364669,
      1791364708,
      1791364720,
      1791364763,
      1791364783,
      1791364827,
      1791364831
    ],
    "wof:geomhash": "9ae4ff80bfc8623017cd25d998a672ed",
    "wof:id": 2048538713,
    "wof:repo": "sfomuseum-data-flights-2026-10"
  },
  "bbox": [
    -122.53939,
    36.78999,
    -121.26535,
    37.70628
  ],
  "geometry": {"type":"LineString","coordinates":[[-122.37386,37.6215],[-122.36523,37.64293],[-122.36399,37.65792],[-122.36286,37.68295],[-122.3867,37.70628],[-122.41635,37.70135],[-122.47847,37.66781],[-122.51555,37.64858],[-122.53939,37.61174],[-122.53896,37.6056],[-122.50097,37.56128],[-122.43621,37.51821],[-122.40138,37.4946],[-122.36149,37.46752],[-122.30546,37.42946],[-122.24361,37.38736],[-122.20011,37.3577],[-122.1326,37.31163],[-122.11123,37.29702],[-122.0485,37.25404],[-122.03179,37.24262],[-121.9942,37.21935],[-121.95892,37.20539],[-121.89075,37.18359],[-121.8558,37.1726],[-121.75287,37.13883],[-121.72833,37.12601],[-121.66493,37.08103],[-121.59021,37.02659],[-121.51456,36.97189],[-121.49047,36.95433],[-121.40339,36.89083],[-121.36277,36.86099],[-121.27303,36.79564],[-121.26535,36.78999]]}
}
