{
  "id": 2048493939,
  "type": "Feature",
  "properties": {
    "geom:area": 0,
    "geom:bbox": "-122.753670,37.420750,-122.118840,38.495360",
    "geom:latitude": 37.84899367689327,
    "geom:longitude": -122.47715171703021,
    "src:alt_label": "swim-approach",
    "src:geom": "swim",
    "swim:elevations": [
      7189,
      7167,
      6900,
      6829,
      6669,
      6551,
      6348,
      6247,
      6027,
      5760,
      5270,
      5237,
      4821,
      4398,
      4150,
      4031,
      3661,
      3482,
      3349,
      3353,
      3353,
      3353,
      3353,
      3331,
      3189,
      2856,
      2680,
      2611,
      2374,
      2049,
      1847,
      1805,
      1629,
      1546,
      1499,
      1313,
      1215,
      1036,
      743,
      701,
      496,
      441,
      302,
      159,
      63
    ],
    "swim:geom": "approach",
    "swim:timestamps": [
      1790953796,
      1790953800,
      1790953856,
      1790953869,
      1790953901,
      1790953927,
      1790953966,
      1790953986,
      1790954021,
      1790954049,
      1790954097,
      1790954101,
      1790954141,
      1790954186,
      1790954211,
      1790954223,
      1790954263,
      1790954282,
      1790954325,
      1790954348,
      1790954371,
      1790954426,
      1790954450,
      1790954476,
      1790954492,
      1790954543,
      1790954569,
      1790954582,
      1790954620,
      1790954663,
      1790954694,
      1790954698,
      1790954724,
      1790954736,
      1790954777,
      1790954813,
      1790954827,
      1790954852,
      1790954898,
      1790954915,
      1790954955,
      1790954970,
      1790955002,
      1790955039,
      1790955078
    ],
    "wof:geomhash": "b527741202db27568bb18c52351c1cd0",
    "wof:id": 2048493939,
    "wof:repo": "sfomuseum-data-flights-2026-10"
  },
  "bbox": [
    -122.75367,
    37.42075,
    -122.11884,
    38.49536
  ],
  "geometry": {"type":"LineString","coordinates":[[-122.48854,38.49536],[-122.49428,38.48985],[-122.57316,38.41383],[-122.59211,38.3954],[-122.63616,38.3527],[-122.67065,38.31912],[-122.72468,38.2664],[-122.75041,38.23693],[-122.75367,38.1791],[-122.74067,38.13245],[-122.71737,38.05151],[-122.71546,38.04481],[-122.69614,37.97793],[-122.67294,37.90708],[-122.64407,37.87244],[-122.62849,37.85772],[-122.57587,37.80743],[-122.5517,37.78457],[-122.49983,37.73567],[-122.47424,37.7117],[-122.45139,37.68982],[-122.40002,37.64156],[-122.37801,37.62104],[-122.35744,37.59651],[-122.34949,37.57926],[-122.31892,37.52733],[-122.30956,37.50029],[-122.31304,37.48669],[-122.30312,37.44941],[-122.24714,37.43188],[-122.20671,37.42119],[-122.20108,37.42075],[-122.16704,37.43061],[-122.1522,37.43717],[-122.11884,37.46911],[-122.12616,37.50242],[-122.13499,37.51258],[-122.15729,37.52697],[-122.20427,37.54693],[-122.22027,37.55367],[-122.25816,37.56959],[-122.27205,37.57546],[-122.29902,37.58682],[-122.32914,37.59926],[-122.35967,37.61226]]}
}
