{
  "id": 2048526815,
  "type": "Feature",
  "properties": {
    "date:inception_lower": "2026-10-06",
    "date:inception_upper": "2026-10-06",
    "edtf:cessation": "",
    "edtf:inception": "2026-10-06",
    "flysfo:actual_timestamp": -1,
    "flysfo:airline": "AM",
    "flysfo:base_airline": "",
    "flysfo:base_flight_number": "5893",
    "flysfo:date": "2026-10-06",
    "flysfo:estimated_timestamp": 1791326700,
    "flysfo:event": "A",
    "flysfo:flight_number": "AM3948",
    "flysfo:gate": "C3",
    "flysfo:journey": "LAX-SFO",
    "flysfo:scheduled_timestamp": 1791327240,
    "flysfo:timestamp": 1791327240,
    "geom:area": 0,
    "geom:bbox": "-122.370943,33.942593,-118.389510,37.617990",
    "geom:latitude": 35.780291500000004,
    "geom:longitude": -120.38022649999999,
    "iata:airline": "AM",
    "iata:base_airline": "",
    "icao:airline": "AMX",
    "icao:base_airline": "KLM",
    "lbl:latitude": 37.615398,
    "lbl:longitude": -122.383426,
    "sfomuseum:airline_id": 1159283539,
    "sfomuseum:arrival_id": 102527513,
    "sfomuseum:base_flight_id": "20261006-A-KLM-5893",
    "sfomuseum:departure_id": 102533795,
    "sfomuseum:flight_id": "20261006-A-AMX-3948",
    "sfomuseum:flight_number": [
      "AMX3948",
      "AM3948"
    ],
    "sfomuseum:placetype": "flight",
    "src:geom": "flysfo",
    "wof:belongsto": [
      1947304067,
      102527513,
      1947304663,
      102191575,
      85633793,
      102087579,
      85922583,
      554784711,
      85688637,
      1947304671,
      1947304591,
      102085387
    ],
    "wof:country": "US",
    "wof:created": 1791388949,
    "wof:geomhash": "f16008bc2ad68c6d1bc593247c6c74a9",
    "wof:hierarchy": [
      {
        "building_id": 1947304067,
        "campus_id": 102527513,
        "concourse_id": 1947304663,
        "continent_id": 102191575,
        "country_id": 85633793,
        "county_id": 102087579,
        "custom_id": 2048526815,
        "flight_id": 2048526815,
        "locality_id": 85922583,
        "postalcode_id": 554784711,
        "region_id": 85688637,
        "venue_id": 1947304671,
        "wing_id": 1947304591
      },
      {
        "building_id": 1947304067,
        "campus_id": 102527513,
        "concourse_id": 1947304663,
        "continent_id": 102191575,
        "country_id": 85633793,
        "county_id": 102085387,
        "custom_id": 2048526815,
        "flight_id": 2048526815,
        "region_id": 85688637,
        "venue_id": 1947304671,
        "wing_id": 1947304591
      }
    ],
    "wof:id": 2048526815,
    "wof:involves": [
      102527513,
      102533795,
      1159283539,
      1947304671,
      1159284613
    ],
    "wof:lastmodified": 1791388949,
    "wof:name": "AM3948 (LAX-SFO)",
    "wof:parent_id": 1947304671,
    "wof:placetype": "custom",
    "wof:placetype_alt": [
      "flight"
    ],
    "wof:repo": "sfomuseum-data-flights-2026-10",
    "wof:superseded_by": [],
    "wof:supersedes": []
  },
  "bbox": [
    -122.370943,
    33.942593,
    -118.38951,
    37.61799
  ],
  "geometry": {"type":"MultiPoint","coordinates":[[-118.38951,33.942593],[-122.370943,37.61799]]}
}
