{
  "id": 2048491669,
  "type": "Feature",
  "properties": {
    "geom:area": 0,
    "geom:bbox": "-122.357180,36.752520,-121.897020,37.611240",
    "geom:latitude": 37.24242194327176,
    "geom:longitude": -122.09837107257137,
    "src:alt_label": "swim-approach",
    "src:geom": "swim",
    "swim:elevations": [
      5427,
      5378,
      5079,
      4725,
      4390,
      4307,
      4054,
      3813,
      3735,
      3462,
      3171,
      2934,
      2791,
      2565,
      2437,
      2348,
      2070,
      1861,
      1826,
      1829,
      1829,
      1616,
      1483,
      1419,
      1266,
      1033,
      884,
      800,
      618,
      485,
      291,
      148,
      88,
      26
    ],
    "swim:geom": "approach",
    "swim:timestamps": [
      1790961112,
      1790961124,
      1790961162,
      1790961199,
      1790961233,
      1790961241,
      1790961270,
      1790961314,
      1790961334,
      1790961382,
      1790961418,
      1790961448,
      1790961467,
      1790961502,
      1790961529,
      1790961549,
      1790961583,
      1790961626,
      1790961639,
      1790961665,
      1790961701,
      1790961745,
      1790961775,
      1790961790,
      1790961819,
      1790961860,
      1790961890,
      1790961910,
      1790961951,
      1790961970,
      1790962015,
      1790962048,
      1790962070,
      1790962091
    ],
    "wof:geomhash": "27f538ae58703663f05b97798a0d18b6",
    "wof:id": 2048491669,
    "wof:repo": "sfomuseum-data-flights-2026-10"
  },
  "bbox": [
    -122.35718,
    36.75252,
    -121.89702,
    37.61124
  ],
  "geometry": {"type":"LineString","coordinates":[[-121.89702,36.75252],[-121.9024,36.77159],[-121.91913,36.83155],[-121.93453,36.88645],[-121.94899,36.93793],[-121.95219,36.94917],[-121.96862,36.99153],[-121.99335,37.05051],[-122.01633,37.06961],[-122.07014,37.10931],[-122.10939,37.13864],[-122.14214,37.1635],[-122.16242,37.17931],[-122.19994,37.20886],[-122.22316,37.23402],[-122.21903,37.2562],[-122.19735,37.29386],[-122.16254,37.33702],[-122.14817,37.34728],[-122.11934,37.36536],[-122.07937,37.39119],[-122.05224,37.43744],[-122.04918,37.47097],[-122.06332,37.48291],[-122.09548,37.50076],[-122.14504,37.52197],[-122.17969,37.53647],[-122.20267,37.54647],[-122.24469,37.56379],[-122.26292,37.5713],[-122.30197,37.58773],[-122.32643,37.59819],[-122.34253,37.60502],[-122.35718,37.61124]]}
}
