{
  "id": 2048556287,
  "type": "Feature",
  "properties": {
    "geom:area": 0,
    "geom:bbox": "-123.485300,37.263020,-122.127840,37.615310",
    "geom:latitude": 37.4031976688134,
    "geom:longitude": -122.71371174118595,
    "src:alt_label": "swim-approach",
    "src:geom": "swim",
    "swim:elevations": [
      5603,
      5332,
      5120,
      4726,
      4602,
      4237,
      4087,
      3798,
      3558,
      3271,
      3216,
      3139,
      3098,
      3045,
      3048,
      3048,
      3048,
      3048,
      2987,
      2891,
      2833,
      2742,
      2600,
      2490,
      2440,
      2423,
      2328,
      2105,
      2004,
      1830,
      1763,
      1589,
      1430,
      1352,
      1310,
      1219,
      1223,
      1189,
      1133,
      939,
      746,
      577,
      492,
      383,
      294,
      194,
      88,
      158
    ],
    "swim:geom": "approach",
    "swim:timestamps": [
      1791540039,
      1791540072,
      1791540098,
      1791540146,
      1791540161,
      1791540206,
      1791540227,
      1791540263,
      1791540291,
      1791540325,
      1791540338,
      1791540368,
      1791540377,
      1791540406,
      1791540446,
      1791540450,
      1791540473,
      1791540482,
      1791540508,
      1791540525,
      1791540548,
      1791540591,
      1791540626,
      1791540647,
      1791540669,
      1791540677,
      1791540699,
      1791540738,
      1791540756,
      1791540805,
      1791540833,
      1791540864,
      1791540894,
      1791540916,
      1791540932,
      1791540964,
      1791540996,
      1791541015,
      1791541027,
      1791541071,
      1791541105,
      1791541129,
      1791541158,
      1791541191,
      1791541212,
      1791541240,
      1791541264,
      1791541290
    ],
    "wof:geomhash": "39e327520403316c5a71377c56a71ed1",
    "wof:id": 2048556287,
    "wof:repo": "sfomuseum-data-flights-2026-10"
  },
  "bbox": [
    -123.4853,
    37.26302,
    -122.12784,
    37.61531
  ],
  "geometry": {"type":"LineString","coordinates":[[-123.4853,37.54596],[-123.42546,37.51836],[-123.3773,37.49627],[-123.29174,37.45681],[-123.26541,37.44468],[-123.18671,37.40819],[-123.15098,37.39158],[-123.08987,37.36331],[-123.04326,37.34155],[-122.98724,37.31557],[-122.96656,37.30594],[-122.91839,37.28342],[-122.90641,37.27781],[-122.86071,37.26302],[-122.7988,37.27253],[-122.79194,37.27406],[-122.75555,37.28274],[-122.7422,37.286],[-122.70172,37.296],[-122.67531,37.3021],[-122.64201,37.30957],[-122.58219,37.3234],[-122.53459,37.33422],[-122.50702,37.34067],[-122.47762,37.3476],[-122.46562,37.35038],[-122.43602,37.35721],[-122.38379,37.36895],[-122.35931,37.37465],[-122.29603,37.38931],[-122.25888,37.3979],[-122.21996,37.40648],[-122.18313,37.41577],[-122.16057,37.42997],[-122.14728,37.44118],[-122.12784,37.46501],[-122.13564,37.49203],[-122.14637,37.50824],[-122.15253,37.5177],[-122.1916,37.54055],[-122.22058,37.55353],[-122.24011,37.56206],[-122.26372,37.57192],[-122.28926,37.58272],[-122.30629,37.58972],[-122.32761,37.59876],[-122.34653,37.60676],[-122.36386,37.61531]]}
}
