{
  "id": 2048529449,
  "type": "Feature",
  "properties": {
    "date:cessation_lower": "2026-10-06",
    "date:cessation_upper": "2026-10-06",
    "date:inception_lower": "1970-01-01",
    "date:inception_upper": "1970-01-01",
    "edtf:cessation": "2026-10-06T07:36:16-07:00",
    "edtf:inception": "1970-01-01T00:00:00Z",
    "flysfo:actual_timestamp": -1,
    "flysfo:airline": "UA",
    "flysfo:base_airline": "",
    "flysfo:base_flight_number": "6156",
    "flysfo:date": "2026-10-06",
    "flysfo:estimated_timestamp": 1791322980,
    "flysfo:event": "A",
    "flysfo:flight_number": "UA2611",
    "flysfo:gate": "F11",
    "flysfo:journey": "IAH-SFO",
    "flysfo:scheduled_timestamp": 1791323340,
    "flysfo:timestamp": 1791323340,
    "geom:area": 0,
    "geom:bbox": "-122.370943,29.977186,-95.338444,37.617990",
    "geom:latitude": 33.797588,
    "geom:longitude": -108.8546935,
    "iata:airline": "UA",
    "iata:base_airline": "",
    "icao:aircraft": "B739",
    "icao:airline": "UAL",
    "icao:base_airline": "UAE",
    "lbl:latitude": 37.620244,
    "lbl:longitude": -122.387813,
    "sfomuseum:aircraft_id": 1377564285,
    "sfomuseum:airline_id": 1159285413,
    "sfomuseum:arrival_id": 102527513,
    "sfomuseum:base_flight_id": "20261006-A-UAE-6156",
    "sfomuseum:departure_id": 102534097,
    "sfomuseum:flight_id": "20261006-A-UAL-2611",
    "sfomuseum:flight_number": [
      "UAL2611",
      "UA2611"
    ],
    "sfomuseum:placetype": "flight",
    "src:geom": "flysfo",
    "src:geom_alt": [
      "swim-approach"
    ],
    "swim:tail_number": "N62895",
    "wof:belongsto": [
      1947304067,
      102527513,
      1947304451,
      102191575,
      85633793,
      102087579,
      85922583,
      554784711,
      85688637,
      1947304463,
      1947304447,
      102085387
    ],
    "wof:country": "US",
    "wof:created": 1791389258,
    "wof:geomhash": "25dc9d98eae1cd54f40654c6c4fb6929",
    "wof:hierarchy": [
      {
        "building_id": 1947304067,
        "campus_id": 102527513,
        "concourse_id": 1947304451,
        "continent_id": 102191575,
        "country_id": 85633793,
        "county_id": 102087579,
        "custom_id": 2048529449,
        "flight_id": 2048529449,
        "locality_id": 85922583,
        "postalcode_id": 554784711,
        "region_id": 85688637,
        "venue_id": 1947304463,
        "wing_id": 1947304447
      },
      {
        "building_id": 1947304067,
        "campus_id": 102527513,
        "concourse_id": 1947304451,
        "continent_id": 102191575,
        "country_id": 85633793,
        "county_id": 102085387,
        "custom_id": 2048529449,
        "flight_id": 2048529449,
        "region_id": 85688637,
        "venue_id": 1947304463,
        "wing_id": 1947304447
      }
    ],
    "wof:id": 2048529449,
    "wof:involves": [
      1377564285,
      102527513,
      102534097,
      1159285413,
      1947304463,
      1159284333
    ],
    "wof:lastmodified": 1791389831,
    "wof:name": "UA2611 (IAH-SFO)",
    "wof:parent_id": 1947304463,
    "wof:placetype": "custom",
    "wof:placetype_alt": [
      "flight"
    ],
    "wof:repo": "sfomuseum-data-flights-2026-10",
    "wof:superseded_by": [],
    "wof:supersedes": []
  },
  "bbox": [
    -122.370943,
    29.977186,
    -95.338444,
    37.61799
  ],
  "geometry": {"type":"MultiPoint","coordinates":[[-95.338444,29.977186],[-122.370943,37.61799]]}
}
