{
  "id": 2048556253,
  "type": "Feature",
  "properties": {
    "geom:area": 0,
    "geom:bbox": "-122.356520,37.491450,-121.245440,37.613320",
    "geom:latitude": 37.546868408394744,
    "geom:longitude": -121.80585806590774,
    "src:alt_label": "swim-approach",
    "src:geom": "swim",
    "swim:elevations": [
      4597,
      4314,
      4124,
      3831,
      3453,
      3374,
      3177,
      3107,
      3058,
      2869,
      2673,
      2496,
      2453,
      2256,
      2193,
      2130,
      1863,
      1854,
      1544,
      1395,
      1275,
      1125,
      1040,
      785,
      748,
      642,
      586,
      485,
      366,
      239,
      173,
      56
    ],
    "swim:geom": "approach",
    "swim:timestamps": [
      1791574826,
      1791574856,
      1791574876,
      1791574905,
      1791574948,
      1791574956,
      1791574976,
      1791575006,
      1791575028,
      1791575061,
      1791575091,
      1791575123,
      1791575135,
      1791575163,
      1791575173,
      1791575196,
      1791575248,
      1791575251,
      1791575305,
      1791575330,
      1791575351,
      1791575387,
      1791575402,
      1791575458,
      1791575464,
      1791575488,
      1791575496,
      1791575522,
      1791575546,
      1791575578,
      1791575592,
      1791575628
    ],
    "wof:geomhash": "d377ca9cb9581ea13ba86a70a27e4242",
    "wof:id": 2048556253,
    "wof:repo": "sfomuseum-data-flights-2026-10"
  },
  "bbox": [
    -122.35652,
    37.49145,
    -121.24544,
    37.61332
  ],
  "geometry": {"type":"LineString","coordinates":[[-121.24544,37.59514],[-121.30497,37.58774],[-121.34542,37.58326],[-121.40297,37.57667],[-121.4877,37.56675],[-121.5019,37.56504],[-121.54226,37.56051],[-121.59857,37.5538],[-121.637,37.54777],[-121.68931,37.53538],[-121.73738,37.52391],[-121.78857,37.51166],[-121.80602,37.50737],[-121.84827,37.49736],[-121.86305,37.49392],[-121.89963,37.49145],[-121.97637,37.49386],[-121.98058,37.49436],[-122.04902,37.51446],[-122.07879,37.52399],[-122.10228,37.53172],[-122.13845,37.54358],[-122.15282,37.5482],[-122.20616,37.5656],[-122.21191,37.5674],[-122.23522,37.57464],[-122.24318,37.57721],[-122.26774,37.5851],[-122.28985,37.5915],[-122.31604,37.59916],[-122.32794,37.60288],[-122.35652,37.61332]]}
}
