{
  "id": 2048521595,
  "type": "Feature",
  "properties": {
    "geom:area": 0,
    "geom:bbox": "-122.526920,37.622640,-121.249390,38.047230",
    "geom:latitude": 37.88702105136369,
    "geom:longitude": -121.89071948749381,
    "src:alt_label": "swim-takeoff",
    "src:geom": "swim",
    "swim:elevations": [
      3272,
      3366,
      3513,
      3993,
      4363,
      4514,
      4978,
      5144,
      5348,
      5691,
      6095,
      6339,
      6596,
      6725,
      6773,
      6929,
      7101,
      7210,
      152,
      541,
      676,
      916,
      1237,
      1654,
      2247,
      2664,
      2984,
      3224
    ],
    "swim:geom": "takeoff",
    "swim:timestamps": [
      1791183624,
      1791183638,
      1791183664,
      1791183706,
      1791183738,
      1791183752,
      1791183799,
      1791183821,
      1791183841,
      1791183877,
      1791183927,
      1791183957,
      1791183988,
      1791184011,
      1791184019,
      1791184044,
      1791184062,
      1791184089,
      1791269713,
      1791269750,
      1791269769,
      1791269803,
      1791269835,
      1791269866,
      1791269908,
      1791269938,
      1791269958,
      1791269977
    ],
    "wof:geomhash": "392c625e96a1a0e107744c18f1a90e48",
    "wof:id": 2048521595,
    "wof:repo": "sfomuseum-data-flights-2026-10"
  },
  "bbox": [
    -122.52692,
    37.62264,
    -121.24939,
    38.04723
  ],
  "geometry": {"type":"LineString","coordinates":[[-122.3248,37.95274],[-122.29914,37.95758],[-122.24734,37.96793],[-122.16135,37.98527],[-122.09189,37.98843],[-122.06186,37.98862],[-121.95752,37.9893],[-121.90705,37.98968],[-121.86031,37.9899],[-121.77483,37.99029],[-121.65493,37.99171],[-121.58391,38.00088],[-121.50571,38.01177],[-121.44821,38.01972],[-121.4305,38.0222],[-121.36615,38.03102],[-121.31835,38.03755],[-121.24939,38.04723],[-122.38431,37.62264],[-122.41542,37.63621],[-122.43384,37.6443],[-122.47275,37.66107],[-122.51253,37.68159],[-122.52501,37.71874],[-122.52692,37.77334],[-122.50829,37.80929],[-122.47844,37.8221],[-122.44677,37.82783]]}
}
