{
  "id": 2048507587,
  "type": "Feature",
  "properties": {
    "geom:area": 0,
    "geom:bbox": "-122.361340,37.491480,-121.246100,37.614870",
    "geom:latitude": 37.54699141659108,
    "geom:longitude": -121.80869712985717,
    "src:alt_label": "swim-approach",
    "src:geom": "swim",
    "swim:elevations": [
      4779,
      4729,
      4339,
      3937,
      3866,
      3617,
      3450,
      3356,
      3291,
      2982,
      2779,
      2545,
      2491,
      2201,
      1994,
      1888,
      1827,
      1804,
      1685,
      1377,
      945,
      855,
      841,
      516,
      503,
      312,
      150,
      113,
      247
    ],
    "swim:geom": "approach",
    "swim:timestamps": [
      1791124105,
      1791124111,
      1791124146,
      1791124196,
      1791124215,
      1791124281,
      1791124304,
      1791124318,
      1791124325,
      1791124368,
      1791124404,
      1791124432,
      1791124441,
      1791124497,
      1791124527,
      1791124551,
      1791124569,
      1791124606,
      1791124623,
      1791124661,
      1791124717,
      1791124736,
      1791124742,
      1791124796,
      1791124801,
      1791124848,
      1791124885,
      1791124899,
      1791124926
    ],
    "wof:geomhash": "70f6a180d97ede9c8353873689003637",
    "wof:id": 2048507587,
    "wof:repo": "sfomuseum-data-flights-2026-10"
  },
  "bbox": [
    -122.36134,
    37.49148,
    -121.2461,
    37.61487
  ],
  "geometry": {"type":"LineString","coordinates":[[-121.2461,37.59507],[-121.25728,37.59357],[-121.32144,37.5859],[-121.41479,37.57523],[-121.44813,37.57131],[-121.55663,37.55869],[-121.59163,37.55456],[-121.6119,37.55226],[-121.62281,37.55081],[-121.68513,37.5362],[-121.73766,37.52368],[-121.77621,37.51449],[-121.78898,37.51142],[-121.86602,37.49286],[-121.90861,37.49148],[-121.94233,37.49249],[-121.96758,37.49323],[-122.01962,37.5047],[-122.0418,37.51207],[-122.09036,37.52778],[-122.16047,37.55042],[-122.18401,37.55805],[-122.19081,37.56026],[-122.25171,37.58005],[-122.25706,37.58175],[-122.30005,37.59352],[-122.32989,37.60195],[-122.3405,37.60641],[-122.36134,37.61487]]}
}
