{
  "id": 2048552347,
  "type": "Feature",
  "properties": {
    "geom:area": 0,
    "geom:bbox": "-122.357780,37.491190,-121.255490,37.614060",
    "geom:latitude": 37.546327284376574,
    "geom:longitude": -121.81157016223615,
    "src:alt_label": "swim-approach",
    "src:geom": "swim",
    "swim:elevations": [
      4703,
      4584,
      4163,
      4012,
      3892,
      3672,
      3377,
      3272,
      3111,
      3053,
      2811,
      2583,
      2377,
      2174,
      2109,
      1921,
      1835,
      1430,
      1250,
      1098,
      921,
      895,
      850,
      767,
      704,
      602,
      549,
      421,
      375,
      184,
      156,
      0
    ],
    "swim:geom": "approach",
    "swim:timestamps": [
      1791574315,
      1791574326,
      1791574374,
      1791574388,
      1791574403,
      1791574427,
      1791574462,
      1791574488,
      1791574523,
      1791574532,
      1791574562,
      1791574599,
      1791574644,
      1791574672,
      1791574681,
      1791574727,
      1791574751,
      1791574791,
      1791574820,
      1791574844,
      1791574884,
      1791574905,
      1791574944,
      1791574956,
      1791574969,
      1791574990,
      1791575025,
      1791575061,
      1791575073,
      1791575128,
      1791575135,
      1791575173
    ],
    "wof:geomhash": "8e5774eed82249174c859d21c37f649d",
    "wof:id": 2048552347,
    "wof:repo": "sfomuseum-data-flights-2026-10"
  },
  "bbox": [
    -122.35778,
    37.49119,
    -121.25549,
    37.61406
  ],
  "geometry": {"type":"LineString","coordinates":[[-121.25549,37.59363],[-121.2767,37.59081],[-121.368,37.58035],[-121.3944,37.57736],[-121.42281,37.57412],[-121.4678,37.56884],[-121.53447,37.56105],[-121.58045,37.55573],[-121.63911,37.54725],[-121.65338,37.54378],[-121.70219,37.53207],[-121.75958,37.51836],[-121.82709,37.50222],[-121.86906,37.49241],[-121.88268,37.49119],[-121.95141,37.49289],[-121.98526,37.49476],[-122.04003,37.51177],[-122.07803,37.52393],[-122.10578,37.53293],[-122.14655,37.54609],[-122.16281,37.55144],[-122.18986,37.56021],[-122.19855,37.56309],[-122.20845,37.56613],[-122.22377,37.57086],[-122.25028,37.57955],[-122.27771,37.58809],[-122.28649,37.59054],[-122.32647,37.6023],[-122.33132,37.60378],[-122.35778,37.61406]]}
}
