{
  "id": 2048537267,
  "type": "Feature",
  "properties": {
    "geom:area": 0,
    "geom:bbox": "-122.360600,36.744830,-121.891560,37.612600",
    "geom:latitude": 37.23169417344577,
    "geom:longitude": -122.08827353063958,
    "src:alt_label": "swim-approach",
    "src:geom": "swim",
    "swim:elevations": [
      5327,
      5169,
      5009,
      4453,
      4335,
      4121,
      3708,
      3416,
      3053,
      2979,
      2886,
      2689,
      2643,
      2286,
      2143,
      2099,
      1929,
      1828,
      1801,
      1557,
      1463,
      1350,
      1217,
      1097,
      894,
      792,
      672,
      551,
      480,
      407,
      244,
      155,
      0
    ],
    "swim:geom": "approach",
    "swim:timestamps": [
      1791375838,
      1791375856,
      1791375873,
      1791375928,
      1791375942,
      1791375963,
      1791376005,
      1791376034,
      1791376077,
      1791376094,
      1791376113,
      1791376158,
      1791376170,
      1791376226,
      1791376246,
      1791376255,
      1791376280,
      1791376301,
      1791376330,
      1791376369,
      1791376388,
      1791376413,
      1791376452,
      1791376482,
      1791376526,
      1791376548,
      1791376579,
      1791376614,
      1791376632,
      1791376650,
      1791376700,
      1791376726,
      1791376764
    ],
    "wof:geomhash": "fdbb8e995bb91d82453ab94d15a7d12f",
    "wof:id": 2048537267,
    "wof:repo": "sfomuseum-data-flights-2026-10"
  },
  "bbox": [
    -122.3606,
    36.74483,
    -121.89156,
    37.6126
  ],
  "geometry": {"type":"LineString","coordinates":[[-121.89156,36.74483],[-121.90308,36.77419],[-121.91103,36.80208],[-121.93635,36.89239],[-121.9425,36.91425],[-121.95173,36.9473],[-121.97701,37.01334],[-121.99403,37.05759],[-122.01969,37.12326],[-122.02903,37.14685],[-122.03945,37.17317],[-122.06659,37.22623],[-122.08167,37.23558],[-122.1459,37.27196],[-122.16983,37.28528],[-122.18009,37.29102],[-122.19592,37.31512],[-122.18392,37.33577],[-122.16289,37.3634],[-122.14121,37.40234],[-122.13112,37.421],[-122.12299,37.44743],[-122.12604,37.48385],[-122.14661,37.5068],[-122.17605,37.53444],[-122.19398,37.54261],[-122.21927,37.55328],[-122.24638,37.56461],[-122.26058,37.57065],[-122.27508,37.57674],[-122.31289,37.59269],[-122.33267,37.60109],[-122.3606,37.6126]]}
}
