{
  "id": 2048545223,
  "type": "Feature",
  "properties": {
    "geom:area": 0,
    "geom:bbox": "-122.783170,37.424790,-122.112720,38.515080",
    "geom:latitude": 37.825310696966234,
    "geom:longitude": -122.49372899756142,
    "src:alt_label": "swim-approach",
    "src:geom": "swim",
    "swim:elevations": [
      7315,
      7230,
      7005,
      6867,
      6763,
      6629,
      6425,
      6202,
      5993,
      5788,
      5656,
      5610,
      5310,
      5146,
      5061,
      4887,
      4723,
      4539,
      4083,
      3937,
      3774,
      3626,
      3550,
      3476,
      3353,
      3353,
      3353,
      3353,
      3353,
      3283,
      2997,
      2625,
      2278,
      1997,
      1807,
      1682,
      1546,
      1455,
      1342,
      1246,
      1158,
      1128,
      961,
      823,
      699,
      612,
      456,
      449,
      363,
      321,
      180,
      143,
      0
    ],
    "swim:geom": "approach",
    "swim:timestamps": [
      1791486778,
      1791486790,
      1791486830,
      1791486848,
      1791486860,
      1791486874,
      1791486900,
      1791486925,
      1791486952,
      1791486979,
      1791487011,
      1791487027,
      1791487064,
      1791487089,
      1791487099,
      1791487127,
      1791487152,
      1791487172,
      1791487216,
      1791487230,
      1791487272,
      1791487294,
      1791487308,
      1791487324,
      1791487364,
      1791487378,
      1791487403,
      1791487412,
      1791487421,
      1791487449,
      1791487482,
      1791487526,
      1791487556,
      1791487585,
      1791487613,
      1791487636,
      1791487666,
      1791487684,
      1791487726,
      1791487762,
      1791487798,
      1791487808,
      1791487836,
      1791487884,
      1791487917,
      1791487940,
      1791487978,
      1791487981,
      1791488002,
      1791488018,
      1791488064,
      1791488076,
      1791488118
    ],
    "wof:geomhash": "b6301d57bdfedb15825fad4b5b873263",
    "wof:id": 2048545223,
    "wof:repo": "sfomuseum-data-flights-2026-10"
  },
  "bbox": [
    -122.78317,
    37.42479,
    -122.11272,
    38.51508
  ],
  "geometry": {"type":"LineString","coordinates":[[-122.78317,38.51508],[-122.782,38.49255],[-122.77831,38.42298],[-122.77667,38.3916],[-122.7756,38.37073],[-122.7743,38.34587],[-122.77194,38.30157],[-122.76968,38.25859],[-122.76522,38.21365],[-122.75192,38.1703],[-122.73707,38.11935],[-122.73025,38.09541],[-122.71495,38.04205],[-122.70446,38.00591],[-122.70002,37.99096],[-122.68869,37.95133],[-122.67855,37.91625],[-122.66423,37.88949],[-122.61309,37.84295],[-122.59704,37.82777],[-122.54957,37.78226],[-122.52594,37.75993],[-122.5114,37.74616],[-122.49436,37.73004],[-122.45376,37.69196],[-122.44068,37.67963],[-122.41748,37.65779],[-122.40905,37.64988],[-122.40102,37.64233],[-122.37442,37.61724],[-122.34991,37.58614],[-122.32659,37.53983],[-122.3084,37.50895],[-122.28998,37.4792],[-122.26034,37.45812],[-122.23059,37.4473],[-122.19175,37.43318],[-122.16878,37.42479],[-122.11644,37.42659],[-122.11272,37.45662],[-122.13252,37.48244],[-122.1384,37.48846],[-122.15565,37.50626],[-122.18582,37.53692],[-122.21424,37.55126],[-122.2356,37.56005],[-122.26676,37.57321],[-122.26899,37.57414],[-122.28374,37.58041],[-122.29401,37.58467],[-122.32393,37.59726],[-122.33189,37.60063],[-122.36047,37.61204]]}
}
