{
  "id": 2048559115,
  "type": "Feature",
  "properties": {
    "geom:area": 0,
    "geom:bbox": "-123.464550,37.422890,-122.400720,37.671500",
    "geom:latitude": 37.559879038504114,
    "geom:longitude": -122.93063906956012,
    "src:alt_label": "swim-takeoff",
    "src:geom": "swim",
    "swim:elevations": [
      305,
      749,
      926,
      1099,
      1216,
      1375,
      1575,
      1738,
      2053,
      2393,
      2733,
      3070,
      3170,
      3219,
      3269,
      3355,
      3490,
      3817,
      4071,
      4294,
      4576,
      4894,
      5044,
      5142,
      5286,
      5704,
      5746
    ],
    "swim:geom": "takeoff",
    "swim:timestamps": [
      1791589755,
      1791589796,
      1791589813,
      1791589857,
      1791589882,
      1791589906,
      1791589921,
      1791589933,
      1791589962,
      1791589995,
      1791590029,
      1791590062,
      1791590076,
      1791590090,
      1791590105,
      1791590126,
      1791590147,
      1791590187,
      1791590216,
      1791590240,
      1791590270,
      1791590306,
      1791590322,
      1791590338,
      1791590350,
      1791590394,
      1791590400
    ],
    "wof:geomhash": "8a5f15e4c66b154ba4865b77193eb820",
    "wof:id": 2048559115,
    "wof:repo": "sfomuseum-data-flights-2026-10"
  },
  "bbox": [
    -123.46455,
    37.42289,
    -122.40072,
    37.6715
  ],
  "geometry": {"type":"LineString","coordinates":[[-122.40072,37.62931],[-122.43592,37.64489],[-122.45053,37.65096],[-122.49073,37.66943],[-122.52192,37.6715],[-122.55556,37.66199],[-122.57723,37.6559],[-122.59487,37.6513],[-122.63635,37.64048],[-122.68449,37.62809],[-122.73379,37.61534],[-122.78466,37.60203],[-122.80802,37.5959],[-122.83093,37.58993],[-122.85687,37.58312],[-122.89512,37.57313],[-122.93424,37.56298],[-123.01541,37.54185],[-123.07279,37.52687],[-123.12254,37.51382],[-123.1868,37.49685],[-123.26167,37.47699],[-123.29674,37.46765],[-123.33108,37.45849],[-123.35706,37.45161],[-123.45144,37.42641],[-123.46455,37.42289]]}
}
