{
  "id": 2048487081,
  "type": "Feature",
  "properties": {
    "geom:area": 0,
    "geom:bbox": "-122.468180,36.719940,-121.438170,37.710470",
    "geom:latitude": 37.21588062505127,
    "geom:longitude": -122.05314355734669,
    "src:alt_label": "swim-takeoff",
    "src:geom": "swim",
    "swim:elevations": [
      183,
      403,
      474,
      582,
      845,
      1346,
      1812,
      1980,
      2518,
      2917,
      2977,
      3259,
      3433,
      3775,
      4368,
      4674,
      5112,
      5214,
      5469,
      6024,
      6303,
      6555,
      6893,
      7199,
      7360,
      7561,
      7904,
      8124,
      8349,
      8566,
      8756,
      8997,
      9053
    ],
    "swim:geom": "takeoff",
    "swim:timestamps": [
      1790877703,
      1790877723,
      1790877738,
      1790877759,
      1790877790,
      1790877829,
      1790877864,
      1790877878,
      1790877922,
      1790877957,
      1790877962,
      1790878001,
      1790878021,
      1790878053,
      1790878102,
      1790878126,
      1790878168,
      1790878179,
      1790878202,
      1790878250,
      1790878281,
      1790878310,
      1790878348,
      1790878377,
      1790878394,
      1790878426,
      1790878456,
      1790878485,
      1790878516,
      1790878550,
      1790878577,
      1790878611,
      1790878622
    ],
    "wof:geomhash": "d205aa0cdb61d1b41885f3e996a164b9",
    "wof:id": 2048487081,
    "wof:repo": "sfomuseum-data-flights-2026-10"
  },
  "bbox": [
    -122.46818,
    36.71994,
    -121.43817,
    37.71047
  ],
  "geometry": {"type":"LineString","coordinates":[[-122.36556,37.63272],[-122.36079,37.64833],[-122.36119,37.66254],[-122.36184,37.68333],[-122.38892,37.71047],[-122.43998,37.69245],[-122.44646,37.65007],[-122.44844,37.6321],[-122.45848,37.5759],[-122.46702,37.53045],[-122.46818,37.52413],[-122.44983,37.4722],[-122.42319,37.45224],[-122.37732,37.41812],[-122.30602,37.36577],[-122.2713,37.34025],[-122.20919,37.29445],[-122.19324,37.28269],[-122.15813,37.25667],[-122.0843,37.20196],[-122.03526,37.16554],[-121.98893,37.13108],[-121.92685,37.08485],[-121.87647,37.04728],[-121.84864,37.02646],[-121.793,36.98509],[-121.74033,36.94711],[-121.69022,36.91002],[-121.63355,36.8676],[-121.57227,36.82204],[-121.5216,36.7837],[-121.45867,36.73561],[-121.43817,36.71994]]}
}
