{
  "id": 2048521029,
  "type": "Feature",
  "properties": {
    "geom:area": 0,
    "geom:bbox": "-123.433290,37.328740,-122.143410,37.612430",
    "geom:latitude": 37.40378281850607,
    "geom:longitude": -122.68763967488502,
    "src:alt_label": "swim-approach",
    "src:geom": "swim",
    "swim:elevations": [
      4924,
      4653,
      4586,
      4185,
      3927,
      3551,
      3381,
      3186,
      3082,
      3078,
      3050,
      3048,
      3048,
      3048,
      3048,
      3016,
      2766,
      2553,
      2298,
      2102,
      1977,
      1939,
      1932,
      1855,
      1550,
      1437,
      1191,
      983,
      703,
      575,
      515,
      407,
      275,
      197,
      136,
      39,
      2
    ],
    "swim:geom": "approach",
    "swim:timestamps": [
      1791226798,
      1791226827,
      1791226836,
      1791226877,
      1791226907,
      1791226945,
      1791226970,
      1791226998,
      1791227012,
      1791227067,
      1791227084,
      1791227105,
      1791227133,
      1791227186,
      1791227210,
      1791227222,
      1791227259,
      1791227295,
      1791227337,
      1791227368,
      1791227398,
      1791227413,
      1791227435,
      1791227456,
      1791227485,
      1791227504,
      1791227531,
      1791227565,
      1791227604,
      1791227635,
      1791227646,
      1791227673,
      1791227710,
      1791227735,
      1791227753,
      1791227780,
      1791227790
    ],
    "wof:geomhash": "b87e3b0c2494fb696fdf8326ce57c9c3",
    "wof:id": 2048521029,
    "wof:repo": "sfomuseum-data-flights-2026-10"
  },
  "bbox": [
    -123.43329,
    37.32874,
    -122.14341,
    37.61243
  ],
  "geometry": {"type":"LineString","coordinates":[[-123.43329,37.43401],[-123.36834,37.41408],[-123.35045,37.40857],[-123.26146,37.38101],[-123.19978,37.36214],[-123.12189,37.33823],[-123.06955,37.32874],[-123.00773,37.33078],[-122.97707,37.33324],[-122.86047,37.34366],[-122.82327,37.34688],[-122.77643,37.35098],[-122.71568,37.35618],[-122.60809,37.36524],[-122.5643,37.36918],[-122.54388,37.37094],[-122.48117,37.37611],[-122.42033,37.3811],[-122.34921,37.38678],[-122.29803,37.39105],[-122.25092,37.398],[-122.22849,37.40354],[-122.19846,37.41182],[-122.17761,37.42655],[-122.15943,37.45247],[-122.14958,37.47025],[-122.14341,37.49773],[-122.1627,37.5281],[-122.20786,37.54762],[-122.23988,37.56185],[-122.2505,37.56618],[-122.27389,37.57602],[-122.30187,37.5879],[-122.31979,37.59552],[-122.33246,37.60085],[-122.35275,37.60936],[-122.36034,37.61243]]}
}
