{
  "id": 2048508313,
  "type": "Feature",
  "properties": {
    "date:inception_lower": "2026-10-04",
    "date:inception_upper": "2026-10-04",
    "edtf:cessation": "",
    "edtf:inception": "2026-10-04",
    "flysfo:actual_timestamp": -1,
    "flysfo:airline": "NH",
    "flysfo:base_airline": "",
    "flysfo:base_flight_number": "4143",
    "flysfo:date": "2026-10-04",
    "flysfo:estimated_timestamp": 1791137400,
    "flysfo:event": "A",
    "flysfo:flight_number": "NH7303",
    "flysfo:gate": "F5",
    "flysfo:journey": "SLC-SFO",
    "flysfo:scheduled_timestamp": 1791137520,
    "flysfo:timestamp": 1791137520,
    "geom:area": 0,
    "geom:bbox": "-122.370943,37.617990,-111.980566,40.782170",
    "geom:latitude": 39.20008,
    "geom:longitude": -117.1757545,
    "iata:airline": "NH",
    "iata:base_airline": "",
    "icao:airline": "ANA",
    "icao:base_airline": "ACA",
    "lbl:latitude": 37.620164,
    "lbl:longitude": -122.387194,
    "sfomuseum:airline_id": 1159283875,
    "sfomuseum:arrival_id": 102527513,
    "sfomuseum:base_flight_id": "20261004-A-ACA-4143",
    "sfomuseum:departure_id": 102527363,
    "sfomuseum:flight_id": "20261004-A-ANA-7303",
    "sfomuseum:flight_number": [
      "ANA7303",
      "NH7303"
    ],
    "sfomuseum:placetype": "flight",
    "src:geom": "flysfo",
    "wof:belongsto": [
      1914600839,
      102527513,
      1914600845,
      102191575,
      85633793,
      102087579,
      85922583,
      554784711,
      85688637,
      1930457221,
      1914600841,
      102085387
    ],
    "wof:country": "US",
    "wof:created": 1791216162,
    "wof:geomhash": "24b8b627208edff0ed857058cce4fc5a",
    "wof:hierarchy": [
      {
        "building_id": 1914600839,
        "campus_id": 102527513,
        "concourse_id": 1914600845,
        "continent_id": 102191575,
        "country_id": 85633793,
        "county_id": 102087579,
        "custom_id": 2048508313,
        "flight_id": 2048508313,
        "locality_id": 85922583,
        "postalcode_id": 554784711,
        "region_id": 85688637,
        "venue_id": 1930457221,
        "wing_id": 1914600841
      },
      {
        "building_id": 1914600839,
        "campus_id": 102527513,
        "concourse_id": 1914600845,
        "continent_id": 102191575,
        "country_id": 85633793,
        "county_id": 102085387,
        "custom_id": 2048508313,
        "flight_id": 2048508313,
        "region_id": 85688637,
        "venue_id": 1930457221,
        "wing_id": 1914600841
      }
    ],
    "wof:id": 2048508313,
    "wof:involves": [
      102527513,
      102527363,
      1159283875,
      1930457221,
      1159283597
    ],
    "wof:lastmodified": 1791216162,
    "wof:name": "NH7303 (SLC-SFO)",
    "wof:parent_id": 1930457221,
    "wof:placetype": "custom",
    "wof:placetype_alt": [
      "flight"
    ],
    "wof:repo": "sfomuseum-data-flights-2026-10",
    "wof:superseded_by": [],
    "wof:supersedes": []
  },
  "bbox": [
    -122.370943,
    37.61799,
    -111.980566,
    40.78217
  ],
  "geometry": {"type":"MultiPoint","coordinates":[[-111.980566,40.78217],[-122.370943,37.61799]]}
}
