{
  "id": 2048531415,
  "type": "Feature",
  "properties": {
    "geom:area": 0,
    "geom:bbox": "-122.550940,36.725710,-122.260040,37.714690",
    "geom:latitude": 37.23769442540014,
    "geom:longitude": -122.46019152186909,
    "src:alt_label": "swim-takeoff",
    "src:geom": "swim",
    "swim:elevations": [
      407,
      452,
      686,
      778,
      819,
      1271,
      1861,
      2009,
      2835,
      3197,
      3437,
      3676,
      3986,
      4458,
      5028,
      5644,
      5976,
      6354,
      6737,
      7105,
      7540,
      7746,
      8183,
      8484,
      8620,
      8875,
      9218
    ],
    "swim:geom": "takeoff",
    "swim:timestamps": [
      1791307647,
      1791307656,
      1791307698,
      1791307712,
      1791307722,
      1791307757,
      1791307798,
      1791307808,
      1791307858,
      1791307885,
      1791307913,
      1791307931,
      1791307953,
      1791307984,
      1791308020,
      1791308062,
      1791308085,
      1791308111,
      1791308140,
      1791308169,
      1791308205,
      1791308226,
      1791308269,
      1791308302,
      1791308318,
      1791308344,
      1791308387
    ],
    "wof:geomhash": "a7633b0e318085e5980955adf45117db",
    "wof:id": 2048531415,
    "wof:repo": "sfomuseum-data-flights-2026-10"
  },
  "bbox": [
    -122.55094,
    36.72571,
    -122.26004,
    37.71469
  ],
  "geometry": {"type":"LineString","coordinates":[[-122.36283,37.64163],[-122.36256,37.64796],[-122.36188,37.68466],[-122.3673,37.69865],[-122.37584,37.70759],[-122.42489,37.71469],[-122.46,37.67413],[-122.46157,37.66132],[-122.47111,37.59833],[-122.47671,37.56205],[-122.48252,37.52221],[-122.48696,37.49459],[-122.49241,37.45968],[-122.50041,37.41],[-122.50982,37.35136],[-122.52127,37.27948],[-122.52763,37.23922],[-122.53479,37.19353],[-122.54274,37.14265],[-122.55094,37.09041],[-122.55009,37.02316],[-122.52607,36.98809],[-122.45721,36.92101],[-122.40232,36.86686],[-122.3764,36.84105],[-122.33174,36.79716],[-122.26004,36.72571]]}
}
