{
  "id": 2048484707,
  "type": "Feature",
  "properties": {
    "geom:area": 0,
    "geom:bbox": "-122.416940,36.742650,-121.890620,37.612950",
    "geom:latitude": 37.139008152349376,
    "geom:longitude": -122.20248919595186,
    "src:alt_label": "swim-approach",
    "src:geom": "swim",
    "swim:elevations": [
      5558,
      5284,
      4788,
      4526,
      4271,
      3995,
      3805,
      3645,
      3521,
      3480,
      3263,
      3129,
      3049,
      3048,
      3048,
      3049,
      3048,
      3048,
      3048,
      3055,
      3048,
      3048,
      3022,
      2974,
      2886,
      2738,
      2593,
      2511,
      2438,
      2438,
      2216,
      2046,
      1969,
      1828,
      1829,
      1829,
      1651,
      1483,
      1251,
      1219,
      1219,
      1203,
      990,
      913,
      637,
      591,
      421,
      270,
      215,
      181
    ],
    "swim:geom": "approach",
    "swim:timestamps": [
      1790863784,
      1790863808,
      1790863853,
      1790863877,
      1790863905,
      1790863941,
      1790863973,
      1790864005,
      1790864036,
      1790864046,
      1790864086,
      1790864108,
      1790864140,
      1790864177,
      1790864208,
      1790864236,
      1790864251,
      1790864291,
      1790864311,
      1790864343,
      1790864390,
      1790864420,
      1790864430,
      1790864442,
      1790864461,
      1790864488,
      1790864514,
      1790864530,
      1790864566,
      1790864588,
      1790864634,
      1790864666,
      1790864681,
      1790864727,
      1790864734,
      1790864816,
      1790864856,
      1790864885,
      1790864918,
      1790864943,
      1790864997,
      1790865008,
      1790865047,
      1790865061,
      1790865116,
      1790865129,
      1790865164,
      1790865197,
      1790865213,
      1790865273
    ],
    "wof:geomhash": "551f1f19a5b714d8b54d6ec71534698f",
    "wof:id": 2048484707,
    "wof:repo": "sfomuseum-data-flights-2026-10"
  },
  "bbox": [
    -122.41694,
    36.74265,
    -121.89062,
    37.61295
  ],
  "geometry": {"type":"LineString","coordinates":[[-121.89062,36.74265],[-121.90544,36.78356],[-121.92743,36.86084],[-121.94955,36.89938],[-121.99906,36.92303],[-122.06984,36.92059],[-122.1301,36.91582],[-122.18461,36.91128],[-122.23385,36.90715],[-122.24815,36.90402],[-122.27408,36.86633],[-122.26183,36.84252],[-122.22638,36.82125],[-122.17822,36.83744],[-122.14102,36.85943],[-122.10886,36.87883],[-122.09718,36.8932],[-122.11371,36.93587],[-122.13478,36.95248],[-122.16793,36.9788],[-122.2166,37.01777],[-122.24721,37.04276],[-122.25582,37.05199],[-122.26578,37.06336],[-122.2821,37.08196],[-122.3048,37.10794],[-122.32716,37.13348],[-122.34057,37.1487],[-122.37023,37.18293],[-122.38739,37.20457],[-122.40533,37.2562],[-122.41694,37.29176],[-122.41449,37.30883],[-122.38831,37.35649],[-122.38432,37.36373],[-122.33633,37.44688],[-122.28497,37.454],[-122.24779,37.44838],[-122.20473,37.4466],[-122.17167,37.4464],[-122.12686,37.486],[-122.12847,37.49675],[-122.15723,37.52668],[-122.17188,37.53343],[-122.22986,37.55764],[-122.24324,37.56302],[-122.27821,37.57772],[-122.30547,37.58942],[-122.31747,37.59432],[-122.36027,37.61295]]}
}
