{
  "id": 2048489835,
  "type": "Feature",
  "properties": {
    "date:inception_lower": "2026-10-01",
    "date:inception_upper": "2026-10-01",
    "edtf:cessation": "",
    "edtf:inception": "2026-10-01",
    "flysfo:actual_timestamp": -1,
    "flysfo:airline": "VS",
    "flysfo:base_airline": "",
    "flysfo:base_flight_number": "8759",
    "flysfo:date": "2026-10-01",
    "flysfo:estimated_timestamp": 1790911440,
    "flysfo:event": "D",
    "flysfo:flight_number": "VS6804",
    "flysfo:gate": "A2",
    "flysfo:journey": "SFO-CDG",
    "flysfo:scheduled_timestamp": 1790910600,
    "flysfo:timestamp": 1790911440,
    "geom:area": 0,
    "geom:bbox": "-122.370943,37.617990,2.542809,49.007854",
    "geom:latitude": 43.312922,
    "geom:longitude": -59.914066999999996,
    "iata:airline": "VS",
    "iata:base_airline": "",
    "icao:airline": "VIR",
    "icao:base_airline": "DAL",
    "lbl:latitude": 37.61799,
    "lbl:longitude": -122.370943,
    "sfomuseum:airline_id": 1159285483,
    "sfomuseum:arrival_id": 102544459,
    "sfomuseum:base_flight_id": "20261001-D-DAL-8759",
    "sfomuseum:departure_id": 102527513,
    "sfomuseum:flight_id": "20261001-D-VIR-6804",
    "sfomuseum:flight_number": [
      "VIR6804",
      "VS6804"
    ],
    "sfomuseum:placetype": "flight",
    "src:geom": "flysfo",
    "wof:belongsto": [
      1947304067,
      102527513,
      1947304073,
      102191575,
      85633793,
      102087579,
      85922583,
      554784711,
      85688637,
      1947304075,
      1947304069,
      102085387
    ],
    "wof:country": "US",
    "wof:created": 1790957857,
    "wof:geomhash": "ad7dd7ece479a882a3440fb19be6ff4c",
    "wof:hierarchy": [
      {
        "building_id": 1947304067,
        "campus_id": 102527513,
        "concourse_id": 1947304073,
        "continent_id": 102191575,
        "country_id": 85633793,
        "county_id": 102087579,
        "custom_id": 2048489835,
        "flight_id": 2048489835,
        "locality_id": 85922583,
        "postalcode_id": 554784711,
        "region_id": 85688637,
        "venue_id": 1947304075,
        "wing_id": 1947304069
      },
      {
        "building_id": 1947304067,
        "campus_id": 102527513,
        "concourse_id": 1947304073,
        "continent_id": 102191575,
        "country_id": 85633793,
        "county_id": 102085387,
        "custom_id": 2048489835,
        "flight_id": 2048489835,
        "region_id": 85688637,
        "venue_id": 1947304075,
        "wing_id": 1947304069
      }
    ],
    "wof:id": 2048489835,
    "wof:involves": [
      102544459,
      102527513,
      1159285483,
      1947304075,
      1159284261
    ],
    "wof:lastmodified": 1790957857,
    "wof:name": "VS6804 (SFO-CDG)",
    "wof:parent_id": 1947304075,
    "wof:placetype": "custom",
    "wof:placetype_alt": [
      "flight"
    ],
    "wof:repo": "sfomuseum-data-flights-2026-10",
    "wof:superseded_by": [],
    "wof:supersedes": []
  },
  "bbox": [
    -122.370943,
    37.61799,
    2.542809,
    49.007854
  ],
  "geometry": {"type":"MultiPoint","coordinates":[[-122.370943,37.61799],[2.542809,49.007854]]}
}
