{
  "id": 2048529473,
  "type": "Feature",
  "properties": {
    "geom:area": 0,
    "geom:bbox": "-122.755040,37.435850,-122.124090,38.371860",
    "geom:latitude": 37.79751067762824,
    "geom:longitude": -122.47643123241869,
    "src:alt_label": "swim-approach",
    "src:geom": "swim",
    "swim:elevations": [
      7376,
      7286,
      6809,
      6556,
      6261,
      5782,
      5541,
      5271,
      4867,
      4764,
      4334,
      3919,
      3695,
      3479,
      3378,
      3353,
      3353,
      3353,
      3324,
      3224,
      3017,
      2945,
      2761,
      2578,
      2519,
      2312,
      1919,
      1768,
      1543,
      1463,
      1374,
      1195,
      852,
      822,
      670,
      515,
      364,
      282,
      204,
      2
    ],
    "swim:geom": "approach",
    "swim:timestamps": [
      1791276714,
      1791276724,
      1791276766,
      1791276788,
      1791276816,
      1791276862,
      1791276887,
      1791276916,
      1791276955,
      1791276964,
      1791277009,
      1791277047,
      1791277070,
      1791277098,
      1791277127,
      1791277146,
      1791277190,
      1791277222,
      1791277256,
      1791277272,
      1791277312,
      1791277323,
      1791277354,
      1791277388,
      1791277395,
      1791277422,
      1791277467,
      1791277487,
      1791277519,
      1791277539,
      1791277560,
      1791277593,
      1791277645,
      1791277655,
      1791277687,
      1791277725,
      1791277767,
      1791277788,
      1791277808,
      1791277855
    ],
    "wof:geomhash": "2b5bf98ccf5a0af9c927327246d184bf",
    "wof:id": 2048529473,
    "wof:repo": "sfomuseum-data-flights-2026-10"
  },
  "bbox": [
    -122.75504,
    37.43585,
    -122.12409,
    38.37186
  ],
  "geometry": {"type":"LineString","coordinates":[[-122.61639,38.37186],[-122.63,38.35868],[-122.69316,38.29697],[-122.72499,38.26603],[-122.75504,38.22243],[-122.74294,38.14003],[-122.73062,38.097],[-122.71625,38.04807],[-122.69683,37.98113],[-122.69246,37.96603],[-122.66456,37.89434],[-122.61464,37.84412],[-122.58426,37.81551],[-122.54808,37.78144],[-122.51164,37.74683],[-122.49016,37.72662],[-122.44202,37.68113],[-122.41054,37.65166],[-122.37876,37.62087],[-122.36684,37.60514],[-122.34117,37.56353],[-122.33441,37.55224],[-122.31534,37.52109],[-122.29408,37.48651],[-122.2898,37.47942],[-122.26819,37.45671],[-122.21078,37.43635],[-122.18392,37.43585],[-122.14822,37.45454],[-122.12893,37.46716],[-122.12409,37.48485],[-122.14454,37.50869],[-122.18343,37.53821],[-122.19167,37.54183],[-122.21941,37.55333],[-122.25343,37.56769],[-122.28802,37.5819],[-122.30454,37.58909],[-122.32013,37.59571],[-122.35634,37.61093]]}
}
