{
  "id": 2048520431,
  "type": "Feature",
  "properties": {
    "geom:area": 0,
    "geom:bbox": "-122.343620,37.490900,-121.276480,37.607960",
    "geom:latitude": 37.54466294917011,
    "geom:longitude": -121.8145365934594,
    "src:alt_label": "swim-approach",
    "src:geom": "swim",
    "swim:elevations": [
      4557,
      4410,
      4007,
      3939,
      3550,
      3449,
      3190,
      3035,
      2946,
      2784,
      2532,
      2436,
      2278,
      2130,
      2101,
      1899,
      1797,
      1624,
      1534,
      1281,
      956,
      873,
      710,
      618,
      383,
      327,
      201,
      93
    ],
    "swim:geom": "approach",
    "swim:timestamps": [
      1791196193,
      1791196207,
      1791196247,
      1791196253,
      1791196293,
      1791196303,
      1791196331,
      1791196352,
      1791196400,
      1791196435,
      1791196467,
      1791196498,
      1791196527,
      1791196554,
      1791196561,
      1791196611,
      1791196644,
      1791196675,
      1791196686,
      1791196724,
      1791196754,
      1791196793,
      1791196820,
      1791196838,
      1791196887,
      1791196895,
      1791196928,
      1791196955
    ],
    "wof:geomhash": "ab65f08f1396950bb9ac6c97e6119faa",
    "wof:id": 2048520431,
    "wof:repo": "sfomuseum-data-flights-2026-10"
  },
  "bbox": [
    -122.34362,
    37.4909,
    -121.27648,
    37.60796
  ],
  "geometry": {"type":"LineString","coordinates":[[-121.27648,37.59154],[-121.30422,37.58804],[-121.38503,37.57929],[-121.39757,37.57783],[-121.47713,37.56848],[-121.49533,37.56617],[-121.55162,37.55903],[-121.59156,37.55429],[-121.66942,37.54028],[-121.72046,37.52777],[-121.76468,37.51717],[-121.80628,37.50722],[-121.84425,37.49854],[-121.8793,37.49159],[-121.88954,37.4909],[-121.95825,37.49363],[-122.00282,37.4984],[-122.04167,37.51135],[-122.05466,37.51625],[-122.10374,37.53268],[-122.14202,37.54471],[-122.18911,37.55967],[-122.21829,37.5692],[-122.23732,37.57539],[-122.28621,37.59075],[-122.29334,37.59282],[-122.32102,37.6007],[-122.34362,37.60796]]}
}
