{
  "id": 2048502451,
  "type": "Feature",
  "properties": {
    "geom:area": 0,
    "geom:bbox": "-122.643470,37.377070,-122.108800,37.871700",
    "geom:latitude": 37.57547017586787,
    "geom:longitude": -122.3307651634825,
    "src:alt_label": "swim-approach",
    "src:geom": "swim",
    "swim:elevations": [
      4232,
      3804,
      3700,
      3577,
      3360,
      3352,
      3353,
      3353,
      3218,
      3154,
      3016,
      2835,
      2743,
      2557,
      2464,
      2207,
      2101,
      1895,
      1816,
      1655,
      1614,
      1494,
      1454,
      1400,
      1315,
      1168,
      1055,
      844,
      711,
      554,
      271,
      243,
      102,
      68,
      0
    ],
    "swim:geom": "approach",
    "swim:timestamps": [
      1791047019,
      1791047063,
      1791047087,
      1791047105,
      1791047154,
      1791047179,
      1791047197,
      1791047235,
      1791047277,
      1791047291,
      1791047315,
      1791047343,
      1791047387,
      1791047428,
      1791047447,
      1791047484,
      1791047502,
      1791047548,
      1791047567,
      1791047597,
      1791047606,
      1791047636,
      1791047652,
      1791047670,
      1791047707,
      1791047740,
      1791047765,
      1791047798,
      1791047826,
      1791047857,
      1791047905,
      1791047911,
      1791047943,
      1791047951,
      1791047970
    ],
    "wof:geomhash": "82bfccae3cb5182c4a06aa124f5bd8cc",
    "wof:id": 2048502451,
    "wof:repo": "sfomuseum-data-flights-2026-10"
  },
  "bbox": [
    -122.64347,
    37.37707,
    -122.1088,
    37.8717
  ],
  "geometry": {"type":"LineString","coordinates":[[-122.64347,37.8717],[-122.58645,37.81728],[-122.55685,37.78943],[-122.53594,37.7697],[-122.48218,37.7191],[-122.45751,37.69595],[-122.44117,37.68096],[-122.40647,37.6482],[-122.36835,37.61129],[-122.35749,37.59848],[-122.34305,37.57449],[-122.32985,37.54539],[-122.30349,37.5015],[-122.3107,37.45748],[-122.31734,37.43662],[-122.2952,37.40484],[-122.27251,37.39679],[-122.21496,37.37707],[-122.1909,37.37814],[-122.15657,37.3976],[-122.14681,37.40368],[-122.12652,37.43091],[-122.11769,37.44741],[-122.1088,37.46595],[-122.12516,37.49888],[-122.14998,37.52254],[-122.17624,37.535],[-122.21232,37.5504],[-122.24145,37.56249],[-122.27272,37.57561],[-122.31346,37.59277],[-122.31796,37.59464],[-122.34249,37.60512],[-122.34906,37.6079],[-122.36188,37.61415]]}
}
