{
  "id": 2048515837,
  "type": "Feature",
  "properties": {
    "geom:area": 0,
    "geom:bbox": "-122.547000,36.737000,-121.335110,37.705150",
    "geom:latitude": 37.22981272450698,
    "geom:longitude": -122.04991768208764,
    "src:alt_label": "swim-takeoff",
    "src:geom": "swim",
    "swim:elevations": [
      122,
      434,
      768,
      986,
      1250,
      1743,
      2258,
      2745,
      2905,
      3306,
      3684,
      4218,
      4483,
      5219,
      5467,
      5808,
      6141,
      6482,
      6825,
      7216,
      7386,
      7716,
      7881,
      8100,
      8256,
      8562,
      8857,
      9081,
      9200,
      9264,
      9328,
      9468,
      9657,
      9724,
      9845,
      9933,
      9949,
      10127
    ],
    "swim:geom": "takeoff",
    "swim:timestamps": [
      1791111744,
      1791111775,
      1791111800,
      1791111824,
      1791111862,
      1791111918,
      1791111950,
      1791111983,
      1791111993,
      1791112022,
      1791112054,
      1791112092,
      1791112112,
      1791112161,
      1791112184,
      1791112208,
      1791112235,
      1791112266,
      1791112302,
      1791112339,
      1791112356,
      1791112393,
      1791112402,
      1791112434,
      1791112457,
      1791112497,
      1791112536,
      1791112557,
      1791112573,
      1791112587,
      1791112595,
      1791112621,
      1791112665,
      1791112682,
      1791112716,
      1791112735,
      1791112741,
      1791112782
    ],
    "wof:geomhash": "7db48f7082ba0f74fd59e829a566f805",
    "wof:id": 2048515837,
    "wof:repo": "sfomuseum-data-flights-2026-10"
  },
  "bbox": [
    -122.547,
    36.737,
    -121.33511,
    37.70515
  ],
  "geometry": {"type":"LineString","coordinates":[[-122.36858,37.62947],[-122.36403,37.6524],[-122.36329,37.67221],[-122.36601,37.69164],[-122.40458,37.70515],[-122.48446,37.68645],[-122.50869,37.65145],[-122.52305,37.61021],[-122.52768,37.59705],[-122.54029,37.56045],[-122.547,37.51517],[-122.50438,37.47238],[-122.47512,37.45625],[-122.40143,37.41141],[-122.36682,37.38951],[-122.33074,37.3667],[-122.29008,37.34184],[-122.24289,37.3126],[-122.18682,37.27748],[-122.1281,37.24068],[-122.10022,37.22314],[-122.0404,37.1851],[-122.02511,37.17614],[-121.97012,37.14113],[-121.93107,37.11651],[-121.86238,37.07298],[-121.79469,37.02967],[-121.75717,37.00657],[-121.73048,36.98964],[-121.70527,36.97358],[-121.69083,36.9645],[-121.64468,36.93482],[-121.5631,36.8827],[-121.5328,36.86351],[-121.46665,36.82118],[-121.43026,36.79786],[-121.41755,36.78974],[-121.33511,36.737]]}
}
