{
  "id": 2048541919,
  "type": "Feature",
  "properties": {
    "geom:area": 0,
    "geom:bbox": "-122.439840,37.199700,-121.293450,37.705620",
    "geom:latitude": 37.387394732206744,
    "geom:longitude": -121.99386902043372,
    "src:alt_label": "swim-takeoff",
    "src:geom": "swim",
    "swim:elevations": [
      152,
      544,
      660,
      1046,
      1224,
      1474,
      1966,
      2839,
      3118,
      3690,
      3851,
      4089,
      4463,
      4587,
      4903,
      5153,
      5535,
      5789,
      5879,
      6123,
      6405,
      6599,
      6849,
      7184,
      7450,
      7642,
      7857,
      8034,
      8280,
      8341
    ],
    "swim:geom": "takeoff",
    "swim:timestamps": [
      1791374728,
      1791374757,
      1791374766,
      1791374811,
      1791374847,
      1791374876,
      1791374905,
      1791374958,
      1791374974,
      1791375028,
      1791375042,
      1791375069,
      1791375102,
      1791375114,
      1791375144,
      1791375167,
      1791375208,
      1791375232,
      1791375241,
      1791375267,
      1791375298,
      1791375318,
      1791375346,
      1791375386,
      1791375418,
      1791375445,
      1791375476,
      1791375499,
      1791375538,
      1791375547
    ],
    "wof:geomhash": "00357f6b1e0272669e93c3e04c5095d0",
    "wof:id": 2048541919,
    "wof:repo": "sfomuseum-data-flights-2026-10"
  },
  "bbox": [
    -122.43984,
    37.1997,
    -121.29345,
    37.70562
  ],
  "geometry": {"type":"LineString","coordinates":[[-122.36653,37.63219],[-122.36166,37.65467],[-122.36213,37.66209],[-122.37025,37.69735],[-122.41007,37.70562],[-122.4346,37.67891],[-122.43984,37.64345],[-122.43016,37.57679],[-122.42689,37.55675],[-122.41634,37.48468],[-122.41354,37.46412],[-122.39458,37.42653],[-122.33561,37.406],[-122.3114,37.40271],[-122.25018,37.39344],[-122.20253,37.38459],[-122.11608,37.36741],[-122.06221,37.35666],[-122.04233,37.35266],[-121.98476,37.34105],[-121.91153,37.32639],[-121.86491,37.31702],[-121.79923,37.30381],[-121.70432,37.28455],[-121.62348,37.26815],[-121.55583,37.25426],[-121.47683,37.23744],[-121.41803,37.22531],[-121.31808,37.20468],[-121.29345,37.1997]]}
}
