{
  "id": 2048502677,
  "type": "Feature",
  "properties": {
    "geom:area": 0,
    "geom:bbox": "-122.360650,36.724370,-121.879800,37.615470",
    "geom:latitude": 37.21377151347459,
    "geom:longitude": -122.0999761393368,
    "src:alt_label": "swim-approach",
    "src:geom": "swim",
    "swim:elevations": [
      1848,
      1642,
      1476,
      1374,
      1152,
      1069,
      932,
      914,
      871,
      773,
      735,
      575,
      356,
      241,
      208,
      57,
      0,
      4706,
      4582,
      4445,
      4177,
      4144,
      3889,
      3694,
      3555,
      3518,
      3399,
      3250,
      3079,
      2812,
      2503,
      2490,
      2471,
      2440,
      2385,
      2313,
      2030,
      1916,
      1582,
      1547,
      1351,
      1211,
      1131,
      1073,
      1041
    ],
    "swim:geom": "approach",
    "swim:timestamps": [
      1791010826,
      1791010856,
      1791010881,
      1791010899,
      1791010944,
      1791010967,
      1791010995,
      1791011033,
      1791011048,
      1791011066,
      1791011072,
      1791011106,
      1791011158,
      1791011188,
      1791011198,
      1791011243,
      1791011256,
      1791096567,
      1791096582,
      1791096597,
      1791096627,
      1791096631,
      1791096658,
      1791096686,
      1791096710,
      1791096716,
      1791096743,
      1791096767,
      1791096791,
      1791096826,
      1791096865,
      1791096870,
      1791096915,
      1791096933,
      1791096954,
      1791096969,
      1791097015,
      1791097027,
      1791097077,
      1791097083,
      1791097104,
      1791097132,
      1791097149,
      1791097161,
      1791097170
    ],
    "wof:geomhash": "b028529c8785958e301c32990ddbe0b8",
    "wof:id": 2048502677,
    "wof:repo": "sfomuseum-data-flights-2026-10"
  },
  "bbox": [
    -122.36065,
    36.72437,
    -121.8798,
    37.61547
  ],
  "geometry": {"type":"LineString","coordinates":[[-122.14825,37.32699],[-122.13848,37.35972],[-122.13999,37.38732],[-122.14458,37.40686],[-122.15456,37.45441],[-122.15947,37.4763],[-122.16518,37.50159],[-122.17624,37.53398],[-122.1898,37.54259],[-122.20797,37.55078],[-122.21405,37.55337],[-122.24825,37.56774],[-122.29439,37.58702],[-122.31532,37.59596],[-122.32201,37.59883],[-122.3524,37.61154],[-122.36065,37.61547],[-121.8798,36.72437],[-121.89378,36.7479],[-121.90221,36.77374],[-121.91677,36.82517],[-121.91851,36.83129],[-121.93155,36.87779],[-121.94434,36.92337],[-121.95611,36.96126],[-121.95973,36.97043],[-121.97496,37.00911],[-121.98853,37.04428],[-122.00163,37.07793],[-122.02032,37.12564],[-122.04162,37.18016],[-122.0442,37.18679],[-122.06727,37.24545],[-122.07608,37.26792],[-122.08565,37.29236],[-122.09258,37.31004],[-122.11353,37.36271],[-122.11866,37.37563],[-122.13767,37.43125],[-122.13999,37.43784],[-122.14785,37.46072],[-122.15763,37.49077],[-122.16322,37.50795],[-122.167,37.51943],[-122.17024,37.52757]]}
}
