{
  "id": 2048553085,
  "type": "Feature",
  "properties": {
    "geom:area": 0,
    "geom:bbox": "-123.111140,37.386600,-122.103690,38.435330",
    "geom:latitude": 37.832476432690385,
    "geom:longitude": -122.53293143994279,
    "src:alt_label": "swim-approach",
    "src:geom": "swim",
    "swim:elevations": [
      7559,
      7350,
      7173,
      6825,
      6678,
      6458,
      6393,
      6173,
      5892,
      5621,
      5188,
      4956,
      4699,
      4450,
      4342,
      4118,
      3755,
      3479,
      3353,
      3353,
      3353,
      3353,
      3353,
      3353,
      3353,
      3285,
      3150,
      3086,
      2981,
      2845,
      2683,
      2544,
      2289,
      2128,
      1990,
      1734,
      1590,
      1426,
      1153,
      1049,
      946,
      880,
      821,
      730,
      601,
      560,
      380,
      275,
      182,
      116,
      0
    ],
    "swim:geom": "approach",
    "swim:timestamps": [
      1791537709,
      1791537732,
      1791537752,
      1791537797,
      1791537812,
      1791537836,
      1791537846,
      1791537871,
      1791537904,
      1791537933,
      1791537982,
      1791538010,
      1791538039,
      1791538076,
      1791538094,
      1791538121,
      1791538162,
      1791538186,
      1791538225,
      1791538258,
      1791538282,
      1791538310,
      1791538329,
      1791538377,
      1791538397,
      1791538414,
      1791538443,
      1791538452,
      1791538474,
      1791538500,
      1791538525,
      1791538549,
      1791538585,
      1791538606,
      1791538632,
      1791538677,
      1791538698,
      1791538735,
      1791538764,
      1791538783,
      1791538808,
      1791538822,
      1791538835,
      1791538856,
      1791538885,
      1791538895,
      1791538936,
      1791538958,
      1791538978,
      1791538995,
      1791539019
    ],
    "wof:geomhash": "31afb0b6e17422219cc0bc3ae9538fbb",
    "wof:id": 2048553085,
    "wof:repo": "sfomuseum-data-flights-2026-10"
  },
  "bbox": [
    -123.11114,
    37.3866,
    -122.10369,
    38.43533
  ],
  "geometry": {"type":"LineString","coordinates":[[-123.11114,38.43533],[-123.06669,38.40903],[-123.02855,38.38551],[-122.94494,38.33416],[-122.91652,38.31664],[-122.87201,38.28925],[-122.85473,38.27862],[-122.80916,38.25048],[-122.76431,38.20392],[-122.74701,38.15507],[-122.72299,38.07175],[-122.71005,38.0268],[-122.69621,37.97878],[-122.6781,37.91857],[-122.66353,37.89305],[-122.62993,37.85823],[-122.57775,37.80931],[-122.54923,37.7825],[-122.50573,37.74163],[-122.47272,37.71045],[-122.44922,37.68833],[-122.42203,37.66268],[-122.40309,37.64483],[-122.35877,37.60019],[-122.34774,37.5769],[-122.33813,37.55772],[-122.32062,37.52688],[-122.31448,37.51678],[-122.30018,37.49422],[-122.28267,37.4668],[-122.26625,37.44088],[-122.25118,37.41663],[-122.21641,37.3866],[-122.18625,37.38761],[-122.15076,37.39641],[-122.11485,37.43665],[-122.10369,37.45905],[-122.10614,37.49708],[-122.13409,37.51957],[-122.15597,37.52853],[-122.18033,37.53906],[-122.19283,37.54433],[-122.20447,37.54927],[-122.22256,37.55687],[-122.24744,37.56736],[-122.25644,37.57121],[-122.29077,37.58564],[-122.30957,37.59352],[-122.32559,37.60027],[-122.34043,37.60655],[-122.35889,37.61349]]}
}
