{
  "id": 2048514897,
  "type": "Feature",
  "properties": {
    "geom:area": 0,
    "geom:bbox": "-123.490870,37.628080,-122.392170,37.772750",
    "geom:latitude": 37.70998627906898,
    "geom:longitude": -122.93819199680959,
    "src:alt_label": "swim-takeoff",
    "src:geom": "swim",
    "swim:elevations": [
      122,
      184,
      637,
      805,
      1006,
      1099,
      1221,
      1333,
      1434,
      1541,
      1696,
      2137,
      2461,
      2722,
      2996,
      3059,
      3309,
      3796,
      3997,
      4332,
      4559,
      4731
    ],
    "swim:geom": "takeoff",
    "swim:timestamps": [
      1791162025,
      1791162035,
      1791162071,
      1791162101,
      1791162137,
      1791162171,
      1791162202,
      1791162232,
      1791162262,
      1791162292,
      1791162307,
      1791162352,
      1791162385,
      1791162418,
      1791162448,
      1791162457,
      1791162487,
      1791162538,
      1791162559,
      1791162589,
      1791162619,
      1791162637
    ],
    "wof:geomhash": "5a2b3cf971786bead8f2f28b160a014b",
    "wof:id": 2048514897,
    "wof:repo": "sfomuseum-data-flights-2026-10"
  },
  "bbox": [
    -123.49087,
    37.62808,
    -122.39217,
    37.77275
  ],
  "geometry": {"type":"LineString","coordinates":[[-122.39217,37.62808],[-122.40121,37.63182],[-122.43802,37.64709],[-122.46823,37.65982],[-122.50618,37.67509],[-122.55221,37.67873],[-122.59776,37.68083],[-122.64692,37.68358],[-122.70072,37.68674],[-122.75887,37.69022],[-122.78896,37.692],[-122.87946,37.69751],[-122.9451,37.70616],[-123.01336,37.71541],[-123.07622,37.72327],[-123.09531,37.72554],[-123.15969,37.73327],[-123.27061,37.74659],[-123.31712,37.75204],[-123.38397,37.75995],[-123.45024,37.76795],[-123.49087,37.77275]]}
}
