{
  "id": 2048560361,
  "type": "Feature",
  "properties": {
    "geom:area": 0,
    "geom:bbox": "-122.533920,36.721970,-121.299690,37.668650",
    "geom:latitude": 37.20432193960346,
    "geom:longitude": -122.00111449065837,
    "src:alt_label": "swim-takeoff",
    "src:geom": "swim",
    "swim:elevations": [
      183,
      213,
      596,
      914,
      1011,
      1210,
      1336,
      1863,
      2254,
      2959,
      3186,
      3649,
      4060,
      4350,
      4437,
      4743,
      5120,
      5434,
      5802,
      5791,
      5854,
      6074,
      6316,
      6517,
      6944,
      7074,
      7198,
      7407,
      7732,
      7837,
      8090,
      8381,
      8447
    ],
    "swim:geom": "takeoff",
    "swim:timestamps": [
      1791552268,
      1791552271,
      1791552305,
      1791552338,
      1791552363,
      1791552404,
      1791552427,
      1791552462,
      1791552482,
      1791552528,
      1791552543,
      1791552596,
      1791552625,
      1791552658,
      1791552666,
      1791552693,
      1791552727,
      1791552765,
      1791552801,
      1791552828,
      1791552863,
      1791552885,
      1791552911,
      1791552937,
      1791552987,
      1791553005,
      1791553022,
      1791553050,
      1791553103,
      1791553119,
      1791553157,
      1791553191,
      1791553203
    ],
    "wof:geomhash": "038a1a05d95be9799a1ab3aaf9d1a27d",
    "wof:id": 2048560361,
    "wof:repo": "sfomuseum-data-flights-2026-10"
  },
  "bbox": [
    -122.53392,
    36.72197,
    -121.29969,
    37.66865
  ],
  "geometry": {"type":"LineString","coordinates":[[-122.38472,37.62289],[-122.38689,37.62383],[-122.41276,37.63548],[-122.43831,37.64633],[-122.45973,37.65605],[-122.50689,37.66865],[-122.53392,37.6523],[-122.52921,37.60862],[-122.51514,37.5837],[-122.49039,37.52653],[-122.48215,37.50869],[-122.41558,37.45262],[-122.37175,37.42402],[-122.31888,37.38975],[-122.30611,37.38146],[-122.26235,37.35316],[-122.20315,37.31486],[-122.13667,37.27169],[-122.07176,37.22954],[-122.02247,37.19753],[-121.96026,37.15695],[-121.91858,37.12979],[-121.87035,37.09821],[-121.82152,37.06625],[-121.72709,37.0044],[-121.69366,36.98254],[-121.65913,36.95986],[-121.60589,36.92472],[-121.50065,36.85556],[-121.46938,36.8348],[-121.39094,36.78296],[-121.32345,36.73798],[-121.29969,36.72197]]}
}
