{
  "id": 2048493821,
  "type": "Feature",
  "properties": {
    "geom:area": 0,
    "geom:bbox": "-122.359000,37.491950,-121.263880,37.614540",
    "geom:latitude": 37.546170012166044,
    "geom:longitude": -121.81637842019913,
    "src:alt_label": "swim-approach",
    "src:geom": "swim",
    "swim:elevations": [
      4641,
      4339,
      4159,
      4025,
      3778,
      3517,
      3383,
      3030,
      2824,
      2666,
      2486,
      2391,
      2263,
      2184,
      2011,
      1941,
      1906,
      1836,
      1829,
      1829,
      1679,
      1524,
      1481,
      1322,
      883,
      735,
      558,
      375,
      327,
      133,
      39,
      74
    ],
    "swim:geom": "approach",
    "swim:timestamps": [
      1790971702,
      1790971731,
      1790971753,
      1790971771,
      1790971817,
      1790971857,
      1790971873,
      1790971918,
      1790971946,
      1790971967,
      1790971996,
      1790972035,
      1790972057,
      1790972072,
      1790972102,
      1790972123,
      1790972133,
      1790972156,
      1790972184,
      1790972193,
      1790972232,
      1790972272,
      1790972291,
      1790972310,
      1790972365,
      1790972383,
      1790972408,
      1790972430,
      1790972469,
      1790972516,
      1790972537,
      1790972546
    ],
    "wof:geomhash": "bd8327ccdef463625a38c70118efc494",
    "wof:id": 2048493821,
    "wof:repo": "sfomuseum-data-flights-2026-10"
  },
  "bbox": [
    -122.359,
    37.49195,
    -121.26388,
    37.61454
  ],
  "geometry": {"type":"LineString","coordinates":[[-121.26388,37.59263],[-121.32306,37.58576],[-121.36563,37.58098],[-121.40134,37.57692],[-121.48485,37.56709],[-121.55201,37.5594],[-121.57875,37.55625],[-121.65106,37.54453],[-121.69382,37.53441],[-121.72569,37.52672],[-121.77058,37.51598],[-121.82631,37.50256],[-121.85662,37.49532],[-121.87695,37.49209],[-121.91787,37.49195],[-121.94799,37.49275],[-121.96116,37.49315],[-121.99195,37.49641],[-122.0233,37.50615],[-122.03327,37.50934],[-122.07156,37.52163],[-122.10967,37.53415],[-122.12693,37.53979],[-122.14492,37.5456],[-122.19611,37.56215],[-122.21284,37.56753],[-122.23578,37.575],[-122.25577,37.58149],[-122.29038,37.59122],[-122.33429,37.60508],[-122.35204,37.61139],[-122.359,37.61454]]}
}
