{
  "id": 2048525147,
  "type": "Feature",
  "properties": {
    "date:cessation_lower": "1970-01-01",
    "date:cessation_upper": "1970-01-01",
    "date:inception_lower": "2026-10-05",
    "date:inception_upper": "2026-10-05",
    "edtf:cessation": "1970-01-01T00:00:00Z",
    "edtf:inception": "2026-10-05T14:49:58-07:00",
    "flysfo:actual_timestamp": -1,
    "flysfo:airline": "UA",
    "flysfo:base_airline": "",
    "flysfo:base_flight_number": "7937",
    "flysfo:date": "2026-10-05",
    "flysfo:estimated_timestamp": 1791260700,
    "flysfo:event": "D",
    "flysfo:flight_number": "UA2469",
    "flysfo:gate": "F19",
    "flysfo:journey": "SFO-FLL",
    "flysfo:scheduled_timestamp": 1791260700,
    "flysfo:timestamp": 1791260700,
    "geom:area": 0,
    "geom:bbox": "-122.370943,26.074860,-80.138518,37.617990",
    "geom:latitude": 31.846425,
    "geom:longitude": -101.2547305,
    "iata:airline": "UA",
    "iata:base_airline": "",
    "icao:aircraft": "B38M",
    "icao:airline": "UAL",
    "icao:base_airline": "AZU",
    "lbl:latitude": 37.620929,
    "lbl:longitude": -122.390272,
    "sfomuseum:aircraft_id": 1528104575,
    "sfomuseum:airline_id": 1159285413,
    "sfomuseum:arrival_id": 102530841,
    "sfomuseum:base_flight_id": "20261005-D-AZU-7937",
    "sfomuseum:departure_id": 102527513,
    "sfomuseum:flight_id": "20261005-D-UAL-2469",
    "sfomuseum:flight_number": [
      "UAL2469",
      "UA2469"
    ],
    "sfomuseum:placetype": "flight",
    "src:geom": "flysfo",
    "src:geom_alt": [
      "swim-takeoff"
    ],
    "swim:tail_number": "N17337",
    "wof:belongsto": [
      1947304067,
      102527513,
      1947304451,
      102191575,
      85633793,
      102087579,
      85922583,
      554784711,
      85688637,
      1947304487,
      1947304447,
      102085387
    ],
    "wof:country": "US",
    "wof:created": 1791303421,
    "wof:geomhash": "2155b19e54308f477f2a379762b2f6c8",
    "wof:hierarchy": [
      {
        "building_id": 1947304067,
        "campus_id": 102527513,
        "concourse_id": 1947304451,
        "continent_id": 102191575,
        "country_id": 85633793,
        "county_id": 102087579,
        "custom_id": 2048525147,
        "flight_id": 2048525147,
        "locality_id": 85922583,
        "postalcode_id": 554784711,
        "region_id": 85688637,
        "venue_id": 1947304487,
        "wing_id": 1947304447
      },
      {
        "building_id": 1947304067,
        "campus_id": 102527513,
        "concourse_id": 1947304451,
        "continent_id": 102191575,
        "country_id": 85633793,
        "county_id": 102085387,
        "custom_id": 2048525147,
        "flight_id": 2048525147,
        "region_id": 85688637,
        "venue_id": 1947304487,
        "wing_id": 1947304447
      }
    ],
    "wof:id": 2048525147,
    "wof:involves": [
      1779770723,
      1528104575,
      102530841,
      102527513,
      1159285413,
      1947304487
    ],
    "wof:lastmodified": 1791303582,
    "wof:name": "UA2469 (SFO-FLL)",
    "wof:parent_id": 1947304487,
    "wof:placetype": "custom",
    "wof:placetype_alt": [
      "flight"
    ],
    "wof:repo": "sfomuseum-data-flights-2026-10",
    "wof:superseded_by": [],
    "wof:supersedes": []
  },
  "bbox": [
    -122.370943,
    26.07486,
    -80.138518,
    37.61799
  ],
  "geometry": {"type":"MultiPoint","coordinates":[[-122.370943,37.61799],[-80.138518,26.07486]]}
}
