{
  "id": 2048551347,
  "type": "Feature",
  "properties": {
    "geom:area": 0,
    "geom:bbox": "-122.446880,36.719400,-121.456620,37.678470",
    "geom:latitude": 37.18656695644758,
    "geom:longitude": -122.05500068986156,
    "src:alt_label": "swim-takeoff",
    "src:geom": "swim",
    "swim:elevations": [
      122,
      267,
      680,
      848,
      1047,
      1065,
      1090,
      1450,
      1905,
      2046,
      2708,
      2937,
      3342,
      3733,
      3957,
      4137,
      4415,
      4765,
      5079,
      5228,
      5535,
      5991,
      6176,
      6361,
      6731,
      6765,
      6958,
      7029,
      7065,
      7284,
      7372,
      7414,
      7535,
      7715,
      7954,
      8153,
      8217,
      8541,
      8602
    ],
    "swim:geom": "takeoff",
    "swim:timestamps": [
      1791500278,
      1791500291,
      1791500326,
      1791500346,
      1791500397,
      1791500400,
      1791500403,
      1791500452,
      1791500485,
      1791500495,
      1791500538,
      1791500552,
      1791500583,
      1791500617,
      1791500640,
      1791500656,
      1791500685,
      1791500720,
      1791500753,
      1791500769,
      1791500797,
      1791500844,
      1791500865,
      1791500885,
      1791500934,
      1791500938,
      1791500962,
      1791500976,
      1791500981,
      1791501012,
      1791501026,
      1791501032,
      1791501051,
      1791501077,
      1791501118,
      1791501148,
      1791501163,
      1791501208,
      1791501218
    ],
    "wof:geomhash": "7646424fcf6c033a719dd19ac9a8c5c1",
    "wof:id": 2048551347,
    "wof:repo": "sfomuseum-data-flights-2026-10"
  },
  "bbox": [
    -122.44688,
    36.7194,
    -121.45662,
    37.67847
  ],
  "geometry": {"type":"LineString","coordinates":[[-122.36883,37.62933],[-122.36429,37.6382],[-122.36249,37.664],[-122.36401,37.67847],[-122.4113,37.67529],[-122.41411,37.67328],[-122.41666,37.67097],[-122.42689,37.61577],[-122.43127,37.5732],[-122.43285,37.56066],[-122.43967,37.50386],[-122.44188,37.48567],[-122.44688,37.4453],[-122.42212,37.40541],[-122.39168,37.38384],[-122.37061,37.36882],[-122.33119,37.34106],[-122.27991,37.30512],[-122.23131,37.2709],[-122.20817,37.25453],[-122.1653,37.22432],[-122.09314,37.17332],[-122.06018,37.14996],[-122.02807,37.12722],[-121.94992,37.07159],[-121.94268,37.06643],[-121.90434,37.03924],[-121.88106,37.02268],[-121.87282,37.01682],[-121.81976,36.97892],[-121.79628,36.96219],[-121.78606,36.95478],[-121.75321,36.93132],[-121.70824,36.89986],[-121.6364,36.84958],[-121.58344,36.81161],[-121.55655,36.79215],[-121.47414,36.73222],[-121.45662,36.7194]]}
}
