{
  "id": 2048520525,
  "type": "Feature",
  "properties": {
    "date:inception_lower": "2026-10-05",
    "date:inception_upper": "2026-10-05",
    "edtf:cessation": "",
    "edtf:inception": "2026-10-05",
    "flysfo:actual_timestamp": -1,
    "flysfo:airline": "UA",
    "flysfo:base_airline": "",
    "flysfo:base_flight_number": "4371",
    "flysfo:date": "2026-10-05",
    "flysfo:estimated_timestamp": 1791208500,
    "flysfo:event": "A",
    "flysfo:flight_number": "UA1954",
    "flysfo:gate": "D5",
    "flysfo:journey": "RNO-SFO",
    "flysfo:scheduled_timestamp": 1791209820,
    "flysfo:timestamp": 1791209820,
    "geom:area": 0,
    "geom:bbox": "-122.370943,37.617990,-119.772167,39.505219",
    "geom:latitude": 38.5616045,
    "geom:longitude": -121.07155499999999,
    "iata:airline": "UA",
    "iata:base_airline": "",
    "icao:airline": "UAL",
    "icao:base_airline": "ACA",
    "lbl:latitude": 37.616825,
    "lbl:longitude": -122.381021,
    "sfomuseum:airline_id": 1159285413,
    "sfomuseum:arrival_id": 102527513,
    "sfomuseum:base_flight_id": "20261005-A-ACA-4371",
    "sfomuseum:departure_id": 102525535,
    "sfomuseum:flight_id": "20261005-A-UAL-1954",
    "sfomuseum:flight_number": [
      "UAL1954",
      "UA1954"
    ],
    "sfomuseum:placetype": "flight",
    "src:geom": "flysfo",
    "wof:belongsto": [
      1947304067,
      102527513,
      1947304595,
      102191575,
      85633793,
      102087579,
      85922583,
      554784711,
      85688637,
      1947304607,
      1947304591,
      102085387
    ],
    "wof:country": "US",
    "wof:created": 1791302891,
    "wof:geomhash": "a4d4dc469296ca0f5ad383dc766835b1",
    "wof:hierarchy": [
      {
        "building_id": 1947304067,
        "campus_id": 102527513,
        "concourse_id": 1947304595,
        "continent_id": 102191575,
        "country_id": 85633793,
        "county_id": 102087579,
        "custom_id": 2048520525,
        "flight_id": 2048520525,
        "locality_id": 85922583,
        "postalcode_id": 554784711,
        "region_id": 85688637,
        "venue_id": 1947304607,
        "wing_id": 1947304591
      },
      {
        "building_id": 1947304067,
        "campus_id": 102527513,
        "concourse_id": 1947304595,
        "continent_id": 102191575,
        "country_id": 85633793,
        "county_id": 102085387,
        "custom_id": 2048520525,
        "flight_id": 2048520525,
        "region_id": 85688637,
        "venue_id": 1947304607,
        "wing_id": 1947304591
      }
    ],
    "wof:id": 2048520525,
    "wof:involves": [
      102527513,
      102525535,
      1159285413,
      1947304607,
      1159283597
    ],
    "wof:lastmodified": 1791302891,
    "wof:name": "UA1954 (RNO-SFO)",
    "wof:parent_id": 1947304607,
    "wof:placetype": "custom",
    "wof:placetype_alt": [
      "flight"
    ],
    "wof:repo": "sfomuseum-data-flights-2026-10",
    "wof:superseded_by": [],
    "wof:supersedes": []
  },
  "bbox": [
    -122.370943,
    37.61799,
    -119.772167,
    39.505219
  ],
  "geometry": {"type":"MultiPoint","coordinates":[[-119.772167,39.505219],[-122.370943,37.61799]]}
}
