{
  "id": 2048538111,
  "type": "Feature",
  "properties": {
    "geom:area": 0,
    "geom:bbox": "-122.361540,37.491420,-121.258370,37.615990",
    "geom:latitude": 37.54663407365633,
    "geom:longitude": -121.81504285102082,
    "src:alt_label": "swim-approach",
    "src:geom": "swim",
    "swim:elevations": [
      4668,
      4461,
      4003,
      3756,
      3303,
      3269,
      3157,
      2863,
      2653,
      2480,
      2346,
      2194,
      2074,
      1959,
      1846,
      1594,
      1372,
      1289,
      1096,
      983,
      778,
      688,
      496,
      390,
      189,
      75,
      0
    ],
    "swim:geom": "approach",
    "swim:timestamps": [
      1791397511,
      1791397531,
      1791397577,
      1791397600,
      1791397646,
      1791397651,
      1791397688,
      1791397729,
      1791397754,
      1791397798,
      1791397818,
      1791397841,
      1791397868,
      1791397893,
      1791397926,
      1791397966,
      1791398005,
      1791398017,
      1791398054,
      1791398077,
      1791398117,
      1791398137,
      1791398171,
      1791398198,
      1791398245,
      1791398275,
      1791398295
    ],
    "wof:geomhash": "97fdbba494793d5bf19ab6875af028b0",
    "wof:id": 2048538111,
    "wof:repo": "sfomuseum-data-flights-2026-10"
  },
  "bbox": [
    -122.36154,
    37.49142,
    -121.25837,
    37.61599
  ],
  "geometry": {"type":"LineString","coordinates":[[-121.25837,37.5932],[-121.29992,37.58791],[-121.39599,37.57779],[-121.44416,37.57229],[-121.53893,37.56082],[-121.54897,37.55958],[-121.6205,37.5509],[-121.69038,37.53513],[-121.73123,37.52538],[-121.79922,37.50917],[-121.82802,37.5022],[-121.86222,37.49398],[-121.90075,37.49142],[-121.93838,37.49257],[-121.98467,37.495],[-122.03618,37.51052],[-122.08371,37.5258],[-122.09759,37.53021],[-122.14015,37.54406],[-122.16567,37.55225],[-122.20746,37.56586],[-122.22787,37.5723],[-122.2608,37.58279],[-122.28446,37.5897],[-122.32415,37.60143],[-122.34745,37.60954],[-122.36154,37.61599]]}
}
