{
  "id": 2048494679,
  "type": "Feature",
  "properties": {
    "date:inception_lower": "2026-10-02",
    "date:inception_upper": "2026-10-02",
    "edtf:cessation": "",
    "edtf:inception": "2026-10-02",
    "flysfo:actual_timestamp": -1,
    "flysfo:airline": "VA",
    "flysfo:base_airline": "",
    "flysfo:base_flight_number": "7003",
    "flysfo:date": "2026-10-02",
    "flysfo:estimated_timestamp": 1790968320,
    "flysfo:event": "A",
    "flysfo:flight_number": "VA8310",
    "flysfo:gate": "F14",
    "flysfo:journey": "BOS-SFO",
    "flysfo:scheduled_timestamp": 1790964900,
    "flysfo:timestamp": 1790968320,
    "geom:area": 0,
    "geom:bbox": "-122.370943,37.617990,-71.014750,42.362322",
    "geom:latitude": 39.990156,
    "geom:longitude": -96.6928465,
    "iata:airline": "VA",
    "iata:base_airline": "",
    "icao:airline": "VOZ",
    "icao:base_airline": "ANA",
    "lbl:latitude": 37.620304,
    "lbl:longitude": -122.388827,
    "sfomuseum:airline_id": 1159285485,
    "sfomuseum:arrival_id": 102527513,
    "sfomuseum:base_flight_id": "20261002-A-ANA-7003",
    "sfomuseum:departure_id": 102530741,
    "sfomuseum:flight_id": "20261002-A-VOZ-8310",
    "sfomuseum:flight_number": [
      "VOZ8310",
      "VA8310"
    ],
    "sfomuseum:placetype": "flight",
    "src:geom": "flysfo",
    "wof:belongsto": [
      1947304067,
      102527513,
      1947304451,
      102191575,
      85633793,
      102087579,
      85922583,
      554784711,
      85688637,
      1947304453,
      1947304447,
      102085387
    ],
    "wof:country": "US",
    "wof:created": 1791043754,
    "wof:geomhash": "9cccd37636918a32bc446a92e7ba93ba",
    "wof:hierarchy": [
      {
        "building_id": 1947304067,
        "campus_id": 102527513,
        "concourse_id": 1947304451,
        "continent_id": 102191575,
        "country_id": 85633793,
        "county_id": 102087579,
        "custom_id": 2048494679,
        "flight_id": 2048494679,
        "locality_id": 85922583,
        "postalcode_id": 554784711,
        "region_id": 85688637,
        "venue_id": 1947304453,
        "wing_id": 1947304447
      },
      {
        "building_id": 1947304067,
        "campus_id": 102527513,
        "concourse_id": 1947304451,
        "continent_id": 102191575,
        "country_id": 85633793,
        "county_id": 102085387,
        "custom_id": 2048494679,
        "flight_id": 2048494679,
        "region_id": 85688637,
        "venue_id": 1947304453,
        "wing_id": 1947304447
      }
    ],
    "wof:id": 2048494679,
    "wof:involves": [
      102527513,
      102530741,
      1159285485,
      1947304453,
      1159283875
    ],
    "wof:lastmodified": 1791043754,
    "wof:name": "VA8310 (BOS-SFO)",
    "wof:parent_id": 1947304453,
    "wof:placetype": "custom",
    "wof:placetype_alt": [
      "flight"
    ],
    "wof:repo": "sfomuseum-data-flights-2026-10",
    "wof:superseded_by": [],
    "wof:supersedes": []
  },
  "bbox": [
    -122.370943,
    37.61799,
    -71.01475,
    42.362322
  ],
  "geometry": {"type":"MultiPoint","coordinates":[[-71.01475,42.362322],[-122.370943,37.61799]]}
}
