{
  "id": 2048530229,
  "type": "Feature",
  "properties": {
    "geom:area": 0,
    "geom:bbox": "-122.525960,37.625190,-121.252740,37.974580",
    "geom:latitude": 37.86664144937072,
    "geom:longitude": -121.98887881128913,
    "src:alt_label": "swim-takeoff",
    "src:geom": "swim",
    "swim:elevations": [
      152,
      391,
      516,
      614,
      876,
      929,
      1335,
      1706,
      1821,
      2179,
      2504,
      2750,
      3034,
      3249,
      3293,
      3411,
      3565,
      3818,
      3900,
      4360,
      4543,
      4602,
      4786,
      5096,
      5371,
      5453,
      5713,
      5826,
      5905
    ],
    "swim:geom": "takeoff",
    "swim:timestamps": [
      1791277040,
      1791277059,
      1791277085,
      1791277120,
      1791277167,
      1791277172,
      1791277217,
      1791277256,
      1791277272,
      1791277312,
      1791277344,
      1791277367,
      1791277392,
      1791277429,
      1791277444,
      1791277471,
      1791277513,
      1791277549,
      1791277560,
      1791277610,
      1791277642,
      1791277651,
      1791277684,
      1791277728,
      1791277767,
      1791277779,
      1791277820,
      1791277848,
      1791277865
    ],
    "wof:geomhash": "3f29f7cffd5ef984f658a24525962761",
    "wof:id": 2048530229,
    "wof:repo": "sfomuseum-data-flights-2026-10"
  },
  "bbox": [
    -122.52596,
    37.62519,
    -121.25274,
    37.97458
  ],
  "geometry": {"type":"LineString","coordinates":[[-122.39069,37.62519],[-122.40858,37.63271],[-122.43187,37.64288],[-122.46918,37.65907],[-122.52122,37.69281],[-122.5229,37.69781],[-122.52596,37.75125],[-122.51974,37.79957],[-122.50164,37.81353],[-122.44065,37.83547],[-122.38835,37.84332],[-122.34998,37.84813],[-122.30778,37.85328],[-122.24433,37.86076],[-122.2181,37.86389],[-122.16452,37.87017],[-122.0777,37.88044],[-121.99765,37.88985],[-121.97461,37.8925],[-121.86163,37.90566],[-121.78916,37.91409],[-121.76697,37.91662],[-121.69145,37.92528],[-121.58495,37.93747],[-121.49157,37.94802],[-121.46241,37.95123],[-121.36417,37.96228],[-121.29572,37.96983],[-121.25274,37.97458]]}
}
