{
  "id": 2048481213,
  "type": "Feature",
  "properties": {
    "geom:area": 0,
    "geom:bbox": "-122.351030,37.491380,-121.252870,37.611020",
    "geom:latitude": 37.546237197084444,
    "geom:longitude": -121.80668023852289,
    "src:alt_label": "swim-approach",
    "src:geom": "swim",
    "swim:elevations": [
      4509,
      4454,
      4426,
      4125,
      3854,
      3715,
      3433,
      3230,
      3084,
      2922,
      2773,
      2733,
      2597,
      2441,
      2135,
      2134,
      2029,
      1823,
      1524,
      1439,
      1083,
      914,
      806,
      721,
      521,
      487,
      389,
      344,
      270,
      233,
      121,
      47
    ],
    "swim:geom": "approach",
    "swim:timestamps": [
      1790891906,
      1790891910,
      1790891914,
      1790891945,
      1790891974,
      1790891989,
      1790892019,
      1790892045,
      1790892087,
      1790892115,
      1790892141,
      1790892160,
      1790892183,
      1790892210,
      1790892263,
      1790892283,
      1790892314,
      1790892345,
      1790892383,
      1790892391,
      1790892443,
      1790892477,
      1790892497,
      1790892511,
      1790892547,
      1790892559,
      1790892583,
      1790892596,
      1790892612,
      1790892624,
      1790892648,
      1790892663
    ],
    "wof:geomhash": "271f3211b8f9aa52653d2fc863fb6814",
    "wof:id": 2048481213,
    "wof:repo": "sfomuseum-data-flights-2026-10"
  },
  "bbox": [
    -122.35103,
    37.49138,
    -121.25287,
    37.61102
  ],
  "geometry": {"type":"LineString","coordinates":[[-121.25287,37.59423],[-121.2611,37.59312],[-121.26934,37.592],[-121.33403,37.5844],[-121.39245,37.5779],[-121.42206,37.57451],[-121.48197,37.56758],[-121.53254,37.56166],[-121.61039,37.55257],[-121.65838,37.54278],[-121.70043,37.53267],[-121.73101,37.5254],[-121.7658,37.51704],[-121.80477,37.50774],[-121.88179,37.49138],[-121.91219,37.49183],[-121.95829,37.49312],[-122,37.49875],[-122.04921,37.51462],[-122.05893,37.51773],[-122.12501,37.5392],[-122.16701,37.55272],[-122.1923,37.56093],[-122.2093,37.56637],[-122.24956,37.57949],[-122.26107,37.58319],[-122.28279,37.58932],[-122.29394,37.59254],[-122.30816,37.5969],[-122.3188,37.59995],[-122.33927,37.6064],[-122.35103,37.61102]]}
}
