{
  "id": 2048484291,
  "type": "Feature",
  "properties": {
    "geom:area": 0,
    "geom:bbox": "-122.358160,37.493060,-121.244390,37.613910",
    "geom:latitude": 37.54319902508724,
    "geom:longitude": -121.80836557376855,
    "src:alt_label": "swim-approach",
    "src:geom": "swim",
    "swim:elevations": [
      4838,
      4626,
      4335,
      3984,
      3683,
      3544,
      3392,
      3127,
      3074,
      2810,
      2594,
      2471,
      2274,
      2142,
      1933,
      1769,
      1621,
      1451,
      1274,
      1181,
      1063,
      914,
      729,
      555,
      424,
      296,
      176,
      67,
      2
    ],
    "swim:geom": "approach",
    "swim:timestamps": [
      1790909849,
      1790909870,
      1790909897,
      1790909930,
      1790909960,
      1790909972,
      1790909987,
      1790910017,
      1790910035,
      1790910080,
      1790910107,
      1790910137,
      1790910167,
      1790910193,
      1790910236,
      1790910266,
      1790910290,
      1790910323,
      1790910356,
      1790910369,
      1790910394,
      1790910424,
      1790910454,
      1790910484,
      1790910514,
      1790910544,
      1790910574,
      1790910604,
      1790910616
    ],
    "wof:geomhash": "adef181780da899d19e8d05987c7b01f",
    "wof:id": 2048484291,
    "wof:repo": "sfomuseum-data-flights-2026-10"
  },
  "bbox": [
    -122.35816,
    37.49306,
    -121.24439,
    37.61391
  ],
  "geometry": {"type":"LineString","coordinates":[[-121.24439,37.59513],[-121.28737,37.58937],[-121.34241,37.58348],[-121.40899,37.57612],[-121.46865,37.56914],[-121.49236,37.56635],[-121.52185,37.56298],[-121.5802,37.55625],[-121.6137,37.55224],[-121.68945,37.53532],[-121.7338,37.52466],[-121.78207,37.51319],[-121.82827,37.50215],[-121.86741,37.49306],[-121.93077,37.49414],[-121.9742,37.49656],[-122.00827,37.49847],[-122.05457,37.5012],[-122.10016,37.50561],[-122.11739,37.51227],[-122.14729,37.52454],[-122.18299,37.54047],[-122.21918,37.55545],[-122.25161,37.56916],[-122.28016,37.58123],[-122.30517,37.59168],[-122.32769,37.60119],[-122.34935,37.61036],[-122.35816,37.61391]]}
}
