{
  "id": 2048484291,
  "type": "Feature",
  "properties": {
    "date:cessation_lower": "2026-10-02",
    "date:cessation_upper": "2026-10-02",
    "date:inception_lower": "1970-01-01",
    "date:inception_upper": "1970-01-01",
    "edtf:cessation": "2026-10-01T20:10:16-07:00",
    "edtf:inception": "1970-01-01T00:00:00Z",
    "flysfo:actual_timestamp": -1,
    "flysfo:airline": "WN",
    "flysfo:date": "2026-10-01",
    "flysfo:estimated_timestamp": 1790936160,
    "flysfo:event": "A",
    "flysfo:flight_number": "WN4327",
    "flysfo:gate": "D4",
    "flysfo:journey": "MDW-SFO",
    "flysfo:scheduled_timestamp": 1790924100,
    "flysfo:timestamp": 1790936160,
    "geom:area": 0,
    "geom:bbox": "-122.370943,37.617990,-87.745903,41.787532",
    "geom:latitude": 39.702760999999995,
    "geom:longitude": -105.058423,
    "iata:airline": "WN",
    "icao:aircraft": "B38M",
    "icao:airline": "SWA",
    "lbl:latitude": 37.616969,
    "lbl:longitude": -122.381363,
    "sfomuseum:aircraft_id": 1528104575,
    "sfomuseum:airline_id": 1159285591,
    "sfomuseum:arrival_id": 102527513,
    "sfomuseum:departure_id": 102531205,
    "sfomuseum:flight_id": "20261001-A-SWA-4327",
    "sfomuseum:flight_number": [
      "SWA4327",
      "WN4327"
    ],
    "sfomuseum:placetype": "flight",
    "src:geom": "flysfo",
    "src:geom_alt": [
      "swim-approach"
    ],
    "swim:tail_number": "N8883Q",
    "wof:belongsto": [
      1947304067,
      102527513,
      1947304595,
      102191575,
      85633793,
      102087579,
      85922583,
      554784711,
      85688637,
      1947304599,
      1947304591,
      102085387
    ],
    "wof:country": "US",
    "wof:created": 1790957227,
    "wof:geomhash": "bbd014edfd8455b7d9e062bec23e52e6",
    "wof:hierarchy": [
      {
        "building_id": 1947304067,
        "campus_id": 102527513,
        "concourse_id": 1947304595,
        "continent_id": 102191575,
        "country_id": 85633793,
        "county_id": 102087579,
        "custom_id": 2048484291,
        "flight_id": 2048484291,
        "locality_id": 85922583,
        "postalcode_id": 554784711,
        "region_id": 85688637,
        "venue_id": 1947304599,
        "wing_id": 1947304591
      },
      {
        "building_id": 1947304067,
        "campus_id": 102527513,
        "concourse_id": 1947304595,
        "continent_id": 102191575,
        "country_id": 85633793,
        "county_id": 102085387,
        "custom_id": 2048484291,
        "flight_id": 2048484291,
        "region_id": 85688637,
        "venue_id": 1947304599,
        "wing_id": 1947304591
      }
    ],
    "wof:id": 2048484291,
    "wof:involves": [
      1528104575,
      102527513,
      102531205,
      1159285591,
      1947304599
    ],
    "wof:lastmodified": 1790957924,
    "wof:name": "WN4327 (MDW-SFO)",
    "wof:parent_id": 1947304599,
    "wof:placetype": "custom",
    "wof:placetype_alt": [
      "flight"
    ],
    "wof:repo": "sfomuseum-data-flights-2026-10",
    "wof:superseded_by": [],
    "wof:supersedes": []
  },
  "bbox": [
    -122.370943,
    37.61799,
    -87.745903,
    41.787532
  ],
  "geometry": {"type":"MultiPoint","coordinates":[[-87.745903,41.787532],[-122.370943,37.61799]]}
}
