{
  "id": 2048484245,
  "type": "Feature",
  "properties": {
    "geom:area": 0,
    "geom:bbox": "-122.360540,37.490710,-121.277300,37.614650",
    "geom:latitude": 37.54566269301033,
    "geom:longitude": -121.82375400213348,
    "src:alt_label": "swim-approach",
    "src:geom": "swim",
    "swim:elevations": [
      4533,
      4273,
      3935,
      3635,
      3512,
      3249,
      3062,
      2886,
      2694,
      2528,
      2523,
      2440,
      2200,
      2103,
      2052,
      1950,
      1900,
      1736,
      1616,
      1439,
      1252,
      1084,
      1020,
      756,
      636,
      511,
      441,
      326,
      246,
      151,
      66,
      0
    ],
    "swim:geom": "approach",
    "swim:timestamps": [
      1790884078,
      1790884105,
      1790884137,
      1790884168,
      1790884178,
      1790884206,
      1790884253,
      1790884288,
      1790884315,
      1790884344,
      1790884347,
      1790884366,
      1790884407,
      1790884425,
      1790884437,
      1790884464,
      1790884479,
      1790884515,
      1790884536,
      1790884573,
      1790884601,
      1790884640,
      1790884654,
      1790884708,
      1790884736,
      1790884763,
      1790884778,
      1790884805,
      1790884823,
      1790884853,
      1790884871,
      1790884891
    ],
    "wof:geomhash": "c1aa826b1facbe78c45e69cfe6738224",
    "wof:id": 2048484245,
    "wof:repo": "sfomuseum-data-flights-2026-10"
  },
  "bbox": [
    -122.36054,
    37.49071,
    -121.2773,
    37.61465
  ],
  "geometry": {"type":"LineString","coordinates":[[-121.2773,37.59076],[-121.33148,37.58459],[-121.39614,37.57756],[-121.45736,37.57041],[-121.47775,37.56804],[-121.53112,37.5618],[-121.61952,37.55135],[-121.67678,37.53813],[-121.7205,37.52783],[-121.76525,37.5172],[-121.76994,37.5161],[-121.79994,37.50907],[-121.85989,37.49433],[-121.88566,37.49071],[-121.9033,37.49102],[-121.94233,37.49229],[-121.96189,37.49308],[-122.00559,37.50008],[-122.02883,37.50796],[-122.0711,37.52132],[-122.10282,37.53159],[-122.14438,37.54575],[-122.15771,37.54996],[-122.21098,37.56692],[-122.23704,37.57543],[-122.26167,37.58328],[-122.27561,37.58678],[-122.29758,37.59351],[-122.31185,37.59773],[-122.33482,37.60478],[-122.34777,37.60954],[-122.36054,37.61465]]}
}
