{
  "id": 2048518895,
  "type": "Feature",
  "properties": {
    "geom:area": 0,
    "geom:bbox": "-122.360440,37.492660,-121.267970,37.615040",
    "geom:latitude": 37.5423928072486,
    "geom:longitude": -121.82123224775539,
    "src:alt_label": "swim-approach",
    "src:geom": "swim",
    "swim:elevations": [
      5058,
      4774,
      4638,
      4440,
      4282,
      3915,
      3853,
      3677,
      3516,
      3246,
      3055,
      2884,
      2591,
      2375,
      2101,
      2095,
      2039,
      1939,
      1829,
      1808,
      1457,
      1326,
      1041,
      881,
      731,
      692,
      507,
      393,
      269,
      193,
      0
    ],
    "swim:geom": "approach",
    "swim:timestamps": [
      1791242811,
      1791242841,
      1791242857,
      1791242881,
      1791242899,
      1791242933,
      1791242942,
      1791242965,
      1791242987,
      1791243026,
      1791243048,
      1791243068,
      1791243104,
      1791243134,
      1791243174,
      1791243182,
      1791243201,
      1791243223,
      1791243257,
      1791243273,
      1791243325,
      1791243341,
      1791243387,
      1791243418,
      1791243444,
      1791243453,
      1791243500,
      1791243529,
      1791243562,
      1791243580,
      1791243625
    ],
    "wof:geomhash": "86968630c52d1bc57a61a2aaafa27b90",
    "wof:id": 2048518895,
    "wof:repo": "sfomuseum-data-flights-2026-10"
  },
  "bbox": [
    -122.36044,
    37.49266,
    -121.26797,
    37.61504
  ],
  "geometry": {"type":"LineString","coordinates":[[-121.26797,37.59179],[-121.32432,37.58541],[-121.35311,37.58264],[-121.39694,37.57777],[-121.42957,37.574],[-121.49163,37.56589],[-121.50818,37.56412],[-121.54938,37.55933],[-121.58966,37.55461],[-121.65638,37.54325],[-121.69176,37.53471],[-121.72459,37.52677],[-121.78417,37.51229],[-121.83362,37.50077],[-121.90029,37.49266],[-121.91178,37.49362],[-121.94147,37.49518],[-121.97363,37.49697],[-122.02053,37.49891],[-122.04336,37.49984],[-122.11065,37.50933],[-122.12751,37.51678],[-122.17286,37.53592],[-122.19862,37.5468],[-122.21884,37.55535],[-122.22613,37.55843],[-122.26074,37.57306],[-122.28333,37.58252],[-122.30957,37.59349],[-122.32428,37.5997],[-122.36044,37.61504]]}
}
