{
  "id": 2048534347,
  "type": "Feature",
  "properties": {
    "geom:area": 0,
    "geom:bbox": "-122.360150,37.491690,-121.279100,37.614480",
    "geom:latitude": 37.545560973585324,
    "geom:longitude": -121.82442221014504,
    "src:alt_label": "swim-approach",
    "src:geom": "swim",
    "swim:elevations": [
      4408,
      4092,
      3995,
      3556,
      3398,
      3179,
      3054,
      2735,
      2618,
      2514,
      2365,
      2189,
      2042,
      1877,
      1830,
      1801,
      1352,
      1201,
      1072,
      914,
      914,
      606,
      545,
      416,
      337,
      238,
      130,
      0
    ],
    "swim:geom": "approach",
    "swim:timestamps": [
      1791415254,
      1791415287,
      1791415296,
      1791415343,
      1791415361,
      1791415388,
      1791415428,
      1791415467,
      1791415485,
      1791415500,
      1791415551,
      1791415580,
      1791415613,
      1791415640,
      1791415661,
      1791415686,
      1791415732,
      1791415753,
      1791415777,
      1791415826,
      1791415838,
      1791415886,
      1791415904,
      1791415946,
      1791415968,
      1791415996,
      1791416021,
      1791416053
    ],
    "wof:geomhash": "21ca83266d36cca26395d5e787ebe07c",
    "wof:id": 2048534347,
    "wof:repo": "sfomuseum-data-flights-2026-10"
  },
  "bbox": [
    -122.36015,
    37.49169,
    -121.2791,
    37.61448
  ],
  "geometry": {"type":"LineString","coordinates":[[-121.2791,37.59043],[-121.34542,37.58291],[-121.36348,37.58085],[-121.45856,37.56994],[-121.49228,37.56604],[-121.54519,37.5598],[-121.61942,37.55092],[-121.68445,37.53624],[-121.71434,37.52926],[-121.73865,37.5233],[-121.81426,37.50546],[-121.8549,37.4958],[-121.89984,37.49169],[-121.93686,37.49271],[-121.96442,37.49341],[-121.9975,37.49802],[-122.05854,37.51762],[-122.08488,37.52618],[-122.11239,37.5353],[-122.16412,37.55184],[-122.17607,37.55562],[-122.22377,37.57113],[-122.2417,37.57686],[-122.27905,37.58832],[-122.29668,37.59354],[-122.31963,37.59971],[-122.33847,37.60595],[-122.36015,37.61448]]}
}
