{
  "id": 2048559339,
  "type": "Feature",
  "properties": {
    "geom:area": 0,
    "geom:bbox": "-123.337880,37.638160,-122.415800,38.519560",
    "geom:latitude": 38.03834890555561,
    "geom:longitude": -122.90951090380015,
    "src:alt_label": "swim-takeoff",
    "src:geom": "swim",
    "swim:elevations": [
      382,
      791,
      1064,
      1089,
      1232,
      1371,
      1849,
      2276,
      2660,
      3043,
      3204,
      3340,
      3517,
      3692,
      4056,
      4447,
      4778,
      5122,
      5514,
      5858,
      6144,
      6439,
      6694,
      6774,
      7132,
      7330
    ],
    "swim:geom": "takeoff",
    "swim:timestamps": [
      1791605003,
      1791605037,
      1791605068,
      1791605074,
      1791605102,
      1791605135,
      1791605174,
      1791605207,
      1791605241,
      1791605272,
      1791605289,
      1791605310,
      1791605340,
      1791605375,
      1791605408,
      1791605441,
      1791605474,
      1791605507,
      1791605541,
      1791605571,
      1791605601,
      1791605631,
      1791605661,
      1791605673,
      1791605705,
      1791605736
    ],
    "wof:geomhash": "c5609b7292d2655e82e1f73c49ffdca5",
    "wof:id": 2048559339,
    "wof:repo": "sfomuseum-data-flights-2026-10"
  },
  "bbox": [
    -123.33788,
    37.63816,
    -122.4158,
    38.51956
  ],
  "geometry": {"type":"LineString","coordinates":[[-122.4158,37.63816],[-122.44773,37.65099],[-122.47585,37.66338],[-122.4818,37.66585],[-122.51071,37.67928],[-122.54737,37.70069],[-122.59524,37.72889],[-122.63702,37.75347],[-122.68199,37.77991],[-122.72427,37.80465],[-122.7467,37.81898],[-122.7721,37.84203],[-122.80493,37.88136],[-122.84638,37.93167],[-122.88747,37.98151],[-122.9293,38.03173],[-122.97204,38.08284],[-123.01572,38.1349],[-123.06133,38.18934],[-123.10217,38.23804],[-123.14369,38.2875],[-123.1859,38.33758],[-123.22865,38.388],[-123.24602,38.40826],[-123.29169,38.463],[-123.33788,38.51956]]}
}
