{
  "id": 2048518353,
  "type": "Feature",
  "properties": {
    "geom:area": 0,
    "geom:bbox": "-122.368440,37.491310,-121.292120,37.619140",
    "geom:latitude": 37.545690739823215,
    "geom:longitude": -121.83541919601208,
    "src:alt_label": "swim-approach",
    "src:geom": "swim",
    "swim:elevations": [
      4398,
      4218,
      3756,
      3639,
      3351,
      3131,
      3097,
      2825,
      2676,
      2534,
      2376,
      2315,
      2153,
      1926,
      1802,
      1738,
      1553,
      1337,
      1178,
      909,
      831,
      593,
      428,
      309,
      260,
      41,
      523
    ],
    "swim:geom": "approach",
    "swim:timestamps": [
      1791209423,
      1791209439,
      1791209487,
      1791209498,
      1791209531,
      1791209574,
      1791209583,
      1791209631,
      1791209648,
      1791209675,
      1791209721,
      1791209742,
      1791209768,
      1791209812,
      1791209843,
      1791209851,
      1791209884,
      1791209920,
      1791209945,
      1791209991,
      1791210003,
      1791210050,
      1791210079,
      1791210104,
      1791210120,
      1791210170,
      1791210192
    ],
    "wof:geomhash": "5c146fac82eadfddaa28baa7d88894e8",
    "wof:id": 2048518353,
    "wof:repo": "sfomuseum-data-flights-2026-10"
  },
  "bbox": [
    -122.36844,
    37.49131,
    -121.29212,
    37.61914
  ],
  "geometry": {"type":"LineString","coordinates":[[-121.29212,37.58907],[-121.32512,37.58557],[-121.42092,37.57454],[-121.44409,37.57185],[-121.50958,37.56428],[-121.59132,37.55465],[-121.60727,37.5528],[-121.68844,37.53559],[-121.71615,37.52901],[-121.75917,37.51857],[-121.82929,37.50193],[-121.85808,37.4949],[-121.89254,37.49131],[-121.95286,37.4928],[-121.99441,37.497],[-122.00478,37.50003],[-122.04575,37.51339],[-122.09175,37.52832],[-122.12403,37.53883],[-122.1798,37.5569],[-122.19367,37.56149],[-122.24554,37.57812],[-122.27525,37.58715],[-122.29799,37.5938],[-122.31117,37.59784],[-122.35231,37.61149],[-122.36844,37.61914]]}
}
