{
  "id": 2048506489,
  "type": "Feature",
  "properties": {
    "geom:area": 0,
    "geom:bbox": "-122.557150,36.749980,-122.362660,37.705520",
    "geom:latitude": 37.25668219011309,
    "geom:longitude": -122.4758134076807,
    "src:alt_label": "swim-takeoff",
    "src:geom": "swim",
    "swim:elevations": [
      322,
      811,
      1153,
      1271,
      1633,
      2103,
      2679,
      3198,
      3315,
      3477,
      3591,
      4242,
      4771,
      4930,
      5090,
      5643,
      5689,
      5838,
      6307,
      6652,
      6945,
      7216,
      7594,
      8156,
      8198,
      8411,
      8473,
      8788,
      9131,
      9175
    ],
    "swim:geom": "takeoff",
    "swim:timestamps": [
      1791054464,
      1791054505,
      1791054538,
      1791054560,
      1791054596,
      1791054624,
      1791054656,
      1791054688,
      1791054696,
      1791054713,
      1791054722,
      1791054765,
      1791054807,
      1791054819,
      1791054831,
      1791054867,
      1791054871,
      1791054883,
      1791054920,
      1791054948,
      1791054972,
      1791054993,
      1791055022,
      1791055076,
      1791055080,
      1791055104,
      1791055113,
      1791055153,
      1791055192,
      1791055205
    ],
    "wof:geomhash": "33136f06ff401ed4248acca126365f2f",
    "wof:id": 2048506489,
    "wof:repo": "sfomuseum-data-flights-2026-10"
  },
  "bbox": [
    -122.55715,
    36.74998,
    -122.36266,
    37.70552
  ],
  "geometry": {"type":"LineString","coordinates":[[-122.36417,37.63562],[-122.36266,37.66681],[-122.36429,37.69194],[-122.38566,37.70552],[-122.43122,37.68633],[-122.43915,37.65198],[-122.44613,37.60985],[-122.45417,37.56772],[-122.45628,37.55732],[-122.46102,37.53324],[-122.46363,37.52023],[-122.47611,37.45705],[-122.48862,37.39336],[-122.49237,37.37459],[-122.49606,37.35577],[-122.50755,37.29725],[-122.50872,37.29118],[-122.5123,37.27255],[-122.52422,37.21164],[-122.53326,37.16512],[-122.54086,37.12584],[-122.54777,37.09035],[-122.55715,37.04207],[-122.52692,36.95489],[-122.52311,36.94942],[-122.49587,36.91219],[-122.48526,36.89788],[-122.43823,36.8335],[-122.39186,36.77028],[-122.37696,36.74998]]}
}
