{
  "id": 2048533655,
  "type": "Feature",
  "properties": {
    "geom:area": 0,
    "geom:bbox": "-122.526830,37.626810,-121.705890,38.505940",
    "geom:latitude": 38.05074182798738,
    "geom:longitude": -122.16893523990768,
    "src:alt_label": "swim-takeoff",
    "src:geom": "swim",
    "swim:elevations": [
      176,
      413,
      856,
      1062,
      1089,
      1313,
      1398,
      1668,
      1746,
      2132,
      2271,
      2809,
      2923,
      3245,
      3540,
      3705,
      3873,
      4175,
      4367,
      4637,
      4753,
      4899,
      5093,
      5217,
      5508,
      5798,
      5930,
      6049,
      6324,
      6404
    ],
    "swim:geom": "takeoff",
    "swim:timestamps": [
      1791311770,
      1791311793,
      1791311848,
      1791311877,
      1791311886,
      1791311934,
      1791311947,
      1791311975,
      1791311984,
      1791312022,
      1791312034,
      1791312084,
      1791312095,
      1791312124,
      1791312157,
      1791312190,
      1791312217,
      1791312263,
      1791312283,
      1791312317,
      1791312334,
      1791312353,
      1791312373,
      1791312391,
      1791312427,
      1791312469,
      1791312489,
      1791312502,
      1791312537,
      1791312551
    ],
    "wof:geomhash": "50a86f67f321a61f85bcabda8aeba5f9",
    "wof:id": 2048533655,
    "wof:repo": "sfomuseum-data-flights-2026-10"
  },
  "bbox": [
    -122.52683,
    37.62681,
    -121.70589,
    38.50594
  ],
  "geometry": {"type":"LineString","coordinates":[[-122.39452,37.62681],[-122.41559,37.63568],[-122.46823,37.65861],[-122.49672,37.67088],[-122.50598,37.67511],[-122.52476,37.72342],[-122.5248,37.73919],[-122.52683,37.77558],[-122.5254,37.7873],[-122.48453,37.82725],[-122.46977,37.83927],[-122.40334,37.88712],[-122.38806,37.89731],[-122.348,37.92378],[-122.30112,37.95485],[-122.25079,37.98799],[-122.20681,38.01714],[-122.12825,38.06924],[-122.09795,38.09402],[-122.05063,38.14368],[-122.02678,38.16897],[-122.00032,38.19678],[-121.97128,38.22758],[-121.94508,38.25524],[-121.89243,38.31069],[-121.83062,38.37577],[-121.80004,38.40768],[-121.7808,38.42788],[-121.7268,38.48404],[-121.70589,38.50594]]}
}
