{
  "id": 2048529353,
  "type": "Feature",
  "properties": {
    "geom:area": 0,
    "geom:bbox": "-122.662680,37.540460,-122.086330,38.357750",
    "geom:latitude": 37.88442354759221,
    "geom:longitude": -122.37882653075876,
    "src:alt_label": "swim-approach",
    "src:geom": "swim",
    "swim:elevations": [
      8443,
      8021,
      7652,
      7360,
      7203,
      6896,
      6648,
      6434,
      5859,
      5557,
      5376,
      5068,
      4715,
      4475,
      4124,
      4008,
      3534,
      3454,
      3410,
      3347,
      3183,
      2895,
      2677,
      2463,
      2442,
      2287,
      1989,
      1863,
      1688,
      1299,
      1220,
      1215,
      1014,
      916,
      746,
      706,
      522,
      357,
      273,
      226,
      126,
      0
    ],
    "swim:geom": "approach",
    "swim:timestamps": [
      1791330495,
      1791330531,
      1791330562,
      1791330586,
      1791330600,
      1791330628,
      1791330649,
      1791330667,
      1791330718,
      1791330745,
      1791330763,
      1791330793,
      1791330828,
      1791330852,
      1791330888,
      1791330900,
      1791330958,
      1791330982,
      1791331000,
      1791331025,
      1791331076,
      1791331108,
      1791331138,
      1791331168,
      1791331171,
      1791331189,
      1791331226,
      1791331242,
      1791331260,
      1791331306,
      1791331333,
      1791331352,
      1791331388,
      1791331420,
      1791331468,
      1791331478,
      1791331517,
      1791331556,
      1791331586,
      1791331598,
      1791331625,
      1791331655
    ],
    "wof:geomhash": "09470faa1105c2bc3fd805b02012abb4",
    "wof:id": 2048529353,
    "wof:repo": "sfomuseum-data-flights-2026-10"
  },
  "bbox": [
    -122.66268,
    37.54046,
    -122.08633,
    38.35775
  ],
  "geometry": {"type":"LineString","coordinates":[[-122.14053,38.35775],[-122.20917,38.31952],[-122.26736,38.28723],[-122.31253,38.26193],[-122.33815,38.24767],[-122.3892,38.21922],[-122.42779,38.19778],[-122.46116,38.17907],[-122.55335,38.12751],[-122.59458,38.09458],[-122.60801,38.06527],[-122.6274,38.01612],[-122.64946,37.95969],[-122.66268,37.9212],[-122.63896,37.86728],[-122.62295,37.85257],[-122.54902,37.7825],[-122.51869,37.75719],[-122.49024,37.74663],[-122.45199,37.73538],[-122.38438,37.71608],[-122.34193,37.70397],[-122.30335,37.69215],[-122.26386,37.67981],[-122.26005,37.67837],[-122.23758,37.66993],[-122.19085,37.65212],[-122.17192,37.64471],[-122.14945,37.63546],[-122.09395,37.60901],[-122.08633,37.58105],[-122.09508,37.56177],[-122.12794,37.54448],[-122.16222,37.54046],[-122.21174,37.55235],[-122.2211,37.55632],[-122.25868,37.57214],[-122.29037,37.58545],[-122.31049,37.5939],[-122.31907,37.59753],[-122.33913,37.60596],[-122.36074,37.61457]]}
}
