{
  "id": 2048533333,
  "type": "Feature",
  "properties": {
    "date:inception_lower": "2026-10-06",
    "date:inception_upper": "2026-10-06",
    "edtf:cessation": "",
    "edtf:inception": "2026-10-06",
    "flysfo:actual_timestamp": -1,
    "flysfo:airline": "UA",
    "flysfo:base_airline": "",
    "flysfo:base_flight_number": "5113",
    "flysfo:date": "2026-10-06",
    "flysfo:estimated_timestamp": 1791299640,
    "flysfo:event": "D",
    "flysfo:flight_number": "UA2259",
    "flysfo:gate": "E12",
    "flysfo:journey": "SFO-YVR",
    "flysfo:scheduled_timestamp": 1791300180,
    "flysfo:timestamp": 1791300180,
    "geom:area": 0,
    "geom:bbox": "-123.179200,37.617990,-122.370943,49.193330",
    "geom:latitude": 43.40566,
    "geom:longitude": -122.7750715,
    "iata:airline": "UA",
    "iata:base_airline": "",
    "icao:airline": "UAL",
    "icao:base_airline": "ACA",
    "lbl:latitude": 37.619531,
    "lbl:longitude": -122.384262,
    "sfomuseum:airline_id": 1159285413,
    "sfomuseum:arrival_id": 102555307,
    "sfomuseum:base_flight_id": "20261006-D-ACA-5113",
    "sfomuseum:departure_id": 102527513,
    "sfomuseum:flight_id": "20261006-D-UAL-2259",
    "sfomuseum:flight_number": [
      "UAL2259",
      "UA2259"
    ],
    "sfomuseum:placetype": "flight",
    "src:geom": "flysfo",
    "wof:belongsto": [
      1947304067,
      102527513,
      1947304511,
      102191575,
      85633793,
      102087579,
      85922583,
      554784711,
      85688637,
      1947304531,
      1947304447,
      102085387
    ],
    "wof:country": "US",
    "wof:created": 1791389702,
    "wof:geomhash": "af4ccf784d832b160f78d13fe8b8589a",
    "wof:hierarchy": [
      {
        "building_id": 1947304067,
        "campus_id": 102527513,
        "concourse_id": 1947304511,
        "continent_id": 102191575,
        "country_id": 85633793,
        "county_id": 102087579,
        "custom_id": 2048533333,
        "flight_id": 2048533333,
        "locality_id": 85922583,
        "postalcode_id": 554784711,
        "region_id": 85688637,
        "venue_id": 1947304531,
        "wing_id": 1947304447
      },
      {
        "building_id": 1947304067,
        "campus_id": 102527513,
        "concourse_id": 1947304511,
        "continent_id": 102191575,
        "country_id": 85633793,
        "county_id": 102085387,
        "custom_id": 2048533333,
        "flight_id": 2048533333,
        "region_id": 85688637,
        "venue_id": 1947304531,
        "wing_id": 1947304447
      }
    ],
    "wof:id": 2048533333,
    "wof:involves": [
      102555307,
      102527513,
      1159285413,
      1947304531,
      1159283597
    ],
    "wof:lastmodified": 1791389702,
    "wof:name": "UA2259 (SFO-YVR)",
    "wof:parent_id": 1947304531,
    "wof:placetype": "custom",
    "wof:placetype_alt": [
      "flight"
    ],
    "wof:repo": "sfomuseum-data-flights-2026-10",
    "wof:superseded_by": [],
    "wof:supersedes": []
  },
  "bbox": [
    -123.1792,
    37.61799,
    -122.370943,
    49.19333
  ],
  "geometry": {"type":"MultiPoint","coordinates":[[-122.370943,37.61799],[-123.1792,49.19333]]}
}
