{
  "id": 2048492377,
  "type": "Feature",
  "properties": {
    "geom:area": 0,
    "geom:bbox": "-122.755130,37.418200,-122.084210,38.516670",
    "geom:latitude": 37.85596382183107,
    "geom:longitude": -122.4618734331874,
    "src:alt_label": "swim-approach",
    "src:geom": "swim",
    "swim:elevations": [
      8050,
      8046,
      7922,
      7771,
      7626,
      7563,
      7405,
      7126,
      6921,
      6397,
      6230,
      5867,
      5454,
      5163,
      4706,
      4549,
      4080,
      3742,
      3448,
      3353,
      3353,
      3353,
      3353,
      3353,
      3166,
      3141,
      2625,
      2385,
      2196,
      1895,
      1827,
      1829,
      1601,
      1311,
      1249,
      1219,
      1213,
      968,
      831,
      792,
      792,
      694,
      508,
      404,
      308,
      167,
      109,
      54,
      0
    ],
    "swim:geom": "approach",
    "swim:timestamps": [
      1790929886,
      1790929890,
      1790929914,
      1790929946,
      1790929976,
      1790929990,
      1790930024,
      1790930061,
      1790930079,
      1790930121,
      1790930135,
      1790930169,
      1790930209,
      1790930230,
      1790930271,
      1790930286,
      1790930336,
      1790930366,
      1790930389,
      1790930417,
      1790930430,
      1790930484,
      1790930499,
      1790930529,
      1790930576,
      1790930580,
      1790930637,
      1790930663,
      1790930684,
      1790930727,
      1790930756,
      1790930768,
      1790930801,
      1790930841,
      1790930859,
      1790930891,
      1790930910,
      1790930967,
      1790930991,
      1790931021,
      1790931035,
      1790931067,
      1790931114,
      1790931143,
      1790931171,
      1790931205,
      1790931223,
      1790931238,
      1790931250
    ],
    "wof:geomhash": "d09c51ae56a905f045cc260aecef887d",
    "wof:id": 2048492377,
    "wof:repo": "sfomuseum-data-flights-2026-10"
  },
  "bbox": [
    -122.75513,
    37.4182,
    -122.08421,
    38.51667
  ],
  "geometry": {"type":"LineString","coordinates":[[-122.43957,38.51667],[-122.44568,38.51123],[-122.48301,38.47808],[-122.53252,38.43411],[-122.57952,38.39209],[-122.6002,38.3732],[-122.65192,38.32712],[-122.70657,38.2784],[-122.73381,38.2536],[-122.75513,38.18489],[-122.74804,38.16019],[-122.73106,38.10176],[-122.7122,38.03649],[-122.70211,38.00151],[-122.68266,37.93346],[-122.67448,37.90913],[-122.61136,37.84191],[-122.57253,37.80522],[-122.54263,37.7769],[-122.50806,37.7442],[-122.49261,37.72955],[-122.43718,37.67735],[-122.42333,37.66435],[-122.39408,37.63669],[-122.35962,37.59116],[-122.35739,37.58731],[-122.32027,37.5299],[-122.30488,37.50456],[-122.29208,37.4838],[-122.25242,37.4537],[-122.21585,37.44248],[-122.20015,37.43765],[-122.15982,37.42493],[-122.11005,37.4182],[-122.09316,37.43063],[-122.08421,37.45941],[-122.09507,37.476],[-122.13453,37.51627],[-122.15669,37.52665],[-122.18383,37.53833],[-122.19521,37.54302],[-122.22116,37.55409],[-122.25844,37.5697],[-122.28129,37.57933],[-122.30229,37.58819],[-122.32858,37.5992],[-122.34183,37.60477],[-122.35273,37.60929],[-122.36134,37.61315]]}
}
