{
  "id": 2048530273,
  "type": "Feature",
  "properties": {
    "geom:area": 0,
    "geom:bbox": "-122.384580,37.629190,-121.271160,38.452710",
    "geom:latitude": 38.133971978133374,
    "geom:longitude": -121.95480195465007,
    "src:alt_label": "swim-takeoff",
    "src:geom": "swim",
    "swim:elevations": [
      152,
      316,
      568,
      733,
      945,
      1165,
      1423,
      1799,
      2020,
      2559,
      2863,
      3058,
      3277,
      3474,
      3523,
      3990,
      4316,
      4469,
      4843,
      5095,
      5238,
      5469,
      5627,
      5707,
      6010,
      6157,
      6390,
      6606,
      6669,
      6920,
      7045
    ],
    "swim:geom": "takeoff",
    "swim:timestamps": [
      1791324303,
      1791324315,
      1791324340,
      1791324379,
      1791324417,
      1791324437,
      1791324459,
      1791324494,
      1791324515,
      1791324565,
      1791324589,
      1791324607,
      1791324643,
      1791324685,
      1791324694,
      1791324740,
      1791324775,
      1791324793,
      1791324833,
      1791324860,
      1791324876,
      1791324908,
      1791324934,
      1791324945,
      1791324982,
      1791325005,
      1791325040,
      1791325075,
      1791325088,
      1791325125,
      1791325152
    ],
    "wof:geomhash": "c6b299919983c0ff41a7ee2b7ec19e92",
    "wof:id": 2048530273,
    "wof:repo": "sfomuseum-data-flights-2026-10"
  },
  "bbox": [
    -122.38458,
    37.62919,
    -121.27116,
    38.45271
  ],
  "geometry": {"type":"LineString","coordinates":[[-122.36589,37.62919],[-122.3592,37.63775],[-122.34284,37.6536],[-122.31321,37.68085],[-122.32329,37.72064],[-122.33505,37.74235],[-122.34812,37.76725],[-122.36844,37.80877],[-122.38117,37.83444],[-122.38458,37.9028],[-122.37816,37.93564],[-122.35866,37.95548],[-122.30759,37.98672],[-122.24114,38.02747],[-122.22588,38.03672],[-122.14643,38.08516],[-122.08505,38.12246],[-122.05366,38.1415],[-121.97926,38.18659],[-121.92972,38.21654],[-121.90095,38.23393],[-121.84023,38.27064],[-121.79085,38.3003],[-121.76799,38.3116],[-121.68289,38.33732],[-121.62866,38.35271],[-121.54543,38.37618],[-121.46108,38.39988],[-121.43016,38.40855],[-121.33872,38.43395],[-121.27116,38.45271]]}
}
