{
  "id": 2048537887,
  "type": "Feature",
  "properties": {
    "geom:area": 0,
    "geom:bbox": "-122.357630,36.743560,-121.893180,37.611430",
    "geom:latitude": 37.2221994974953,
    "geom:longitude": -122.07444141592504,
    "src:alt_label": "swim-approach",
    "src:geom": "swim",
    "swim:elevations": [
      4552,
      4417,
      4001,
      3621,
      3208,
      3112,
      2868,
      2723,
      2464,
      2443,
      2438,
      2456,
      2438,
      2424,
      2113,
      1828,
      1670,
      1520,
      1447,
      1351,
      1277,
      1147,
      1015,
      727,
      528,
      429,
      398,
      250,
      213,
      60,
      2
    ],
    "swim:geom": "approach",
    "swim:timestamps": [
      1791405414,
      1791405425,
      1791405463,
      1791405493,
      1791405529,
      1791405553,
      1791405597,
      1791405617,
      1791405658,
      1791405676,
      1791405699,
      1791405748,
      1791405769,
      1791405805,
      1791405837,
      1791405867,
      1791405891,
      1791405926,
      1791405946,
      1791405968,
      1791405982,
      1791406004,
      1791406024,
      1791406062,
      1791406108,
      1791406132,
      1791406150,
      1791406189,
      1791406201,
      1791406252,
      1791406264
    ],
    "wof:geomhash": "ed487f87e746b5f455baa28652d565de",
    "wof:id": 2048537887,
    "wof:repo": "sfomuseum-data-flights-2026-10"
  },
  "bbox": [
    -122.35763,
    36.74356,
    -121.89318,
    37.61143
  ],
  "geometry": {"type":"LineString","coordinates":[[-121.89318,36.74356],[-121.89996,36.76227],[-121.91717,36.82235],[-121.93061,36.87039],[-121.94671,36.92826],[-121.95778,36.96314],[-121.98164,37.02402],[-121.99244,37.05174],[-122.0137,37.10608],[-122.02274,37.12953],[-122.03441,37.1594],[-122.05997,37.22483],[-122.07059,37.25182],[-122.08843,37.29738],[-122.10394,37.33646],[-122.11822,37.37298],[-122.12864,37.40303],[-122.14232,37.44293],[-122.14978,37.46498],[-122.15801,37.48791],[-122.16291,37.50105],[-122.17091,37.52125],[-122.18175,37.53509],[-122.21307,37.55058],[-122.25169,37.56664],[-122.27073,37.5749],[-122.28393,37.58031],[-122.31033,37.59151],[-122.31841,37.59487],[-122.35088,37.60854],[-122.35763,37.61143]]}
}
