{
  "id": 2048493721,
  "type": "Feature",
  "properties": {
    "geom:area": 0,
    "geom:bbox": "-122.355760,37.491480,-121.266070,37.612960",
    "geom:latitude": 37.54204748397786,
    "geom:longitude": -121.81789671079243,
    "src:alt_label": "swim-approach",
    "src:geom": "swim",
    "swim:elevations": [
      4441,
      4275,
      4090,
      3850,
      3390,
      3318,
      3194,
      3142,
      3077,
      2960,
      2737,
      2547,
      2435,
      2313,
      2096,
      2001,
      1831,
      1829,
      1767,
      1662,
      1433,
      991,
      807,
      693,
      530,
      449,
      222,
      95,
      32
    ],
    "swim:geom": "approach",
    "swim:timestamps": [
      1790937478,
      1790937497,
      1790937515,
      1790937545,
      1790937598,
      1790937606,
      1790937622,
      1790937635,
      1790937662,
      1790937685,
      1790937718,
      1790937745,
      1790937771,
      1790937795,
      1790937839,
      1790937854,
      1790937893,
      1790937916,
      1790937950,
      1790937966,
      1790937994,
      1790938044,
      1790938078,
      1790938098,
      1790938130,
      1790938146,
      1790938198,
      1790938224,
      1790938242
    ],
    "wof:geomhash": "04c012c6b63499a4dafcc4969646b929",
    "wof:id": 2048493721,
    "wof:repo": "sfomuseum-data-flights-2026-10"
  },
  "bbox": [
    -122.35576,
    37.49148,
    -121.26607,
    37.61296
  ],
  "geometry": {"type":"LineString","coordinates":[[-121.26607,37.59244],[-121.3052,37.58755],[-121.34121,37.58359],[-121.39877,37.57719],[-121.49947,37.56557],[-121.51456,37.56377],[-121.54476,37.56017],[-121.56953,37.55716],[-121.61867,37.5513],[-121.65844,37.54261],[-121.71121,37.53014],[-121.75263,37.52037],[-121.78977,37.5114],[-121.82405,37.50317],[-121.88607,37.49148],[-121.90866,37.49266],[-121.96468,37.49588],[-121.99693,37.49779],[-122.04154,37.50029],[-122.0643,37.5014],[-122.10157,37.50601],[-122.16302,37.53194],[-122.20128,37.54795],[-122.22462,37.55775],[-122.2586,37.57208],[-122.27384,37.57856],[-122.31904,37.59758],[-122.34134,37.60682],[-122.35576,37.61296]]}
}
