{
  "id": 2048542343,
  "type": "Feature",
  "properties": {
    "geom:area": 0,
    "geom:bbox": "-122.529320,37.632190,-121.543580,38.505940",
    "geom:latitude": 38.0607386755715,
    "geom:longitude": -122.09552028411534,
    "src:alt_label": "swim-takeoff",
    "src:geom": "swim",
    "swim:elevations": [
      338,
      572,
      803,
      894,
      1002,
      1439,
      1757,
      2062,
      2257,
      2831,
      3006,
      3326,
      3384,
      3691,
      3833,
      4120,
      4279,
      4450,
      4492,
      4849,
      4982,
      5176,
      5492,
      5771,
      5903,
      6197,
      6351,
      6635
    ],
    "swim:geom": "takeoff",
    "swim:timestamps": [
      1791383185,
      1791383204,
      1791383231,
      1791383254,
      1791383289,
      1791383336,
      1791383363,
      1791383393,
      1791383411,
      1791383458,
      1791383472,
      1791383512,
      1791383521,
      1791383578,
      1791383600,
      1791383636,
      1791383655,
      1791383672,
      1791383675,
      1791383721,
      1791383741,
      1791383765,
      1791383809,
      1791383844,
      1791383866,
      1791383905,
      1791383926,
      1791383965
    ],
    "wof:geomhash": "e344d33c3cef76842071b562b4d8c03a",
    "wof:id": 2048542343,
    "wof:repo": "sfomuseum-data-flights-2026-10"
  },
  "bbox": [
    -122.52932,
    37.63219,
    -121.54358,
    38.50594
  ],
  "geometry": {"type":"LineString","coordinates":[[-122.40668,37.63219],[-122.42504,37.64021],[-122.45057,37.65096],[-122.47455,37.66112],[-122.51657,37.68131],[-122.52932,37.73944],[-122.52737,37.77431],[-122.50676,37.8107],[-122.4796,37.82301],[-122.408,37.85588],[-122.38892,37.86904],[-122.33286,37.90748],[-122.31961,37.91665],[-122.22947,37.97991],[-122.19254,38.00563],[-122.1301,38.04804],[-122.0953,38.07162],[-122.06577,38.09196],[-122.05976,38.09613],[-121.97621,38.15313],[-121.94003,38.17855],[-121.89536,38.20967],[-121.81203,38.26688],[-121.74535,38.31276],[-121.70531,38.34542],[-121.64195,38.40783],[-121.60758,38.44199],[-121.54358,38.50594]]}
}
