{
  "id": 2048488721,
  "type": "Feature",
  "properties": {
    "date:cessation_lower": "1970-01-01",
    "date:cessation_upper": "1970-01-01",
    "date:inception_lower": "2026-10-01",
    "date:inception_upper": "2026-10-01",
    "edtf:cessation": "1970-01-01T00:00:00Z",
    "edtf:inception": "2026-10-01T13:42:25-07:00",
    "flysfo:actual_timestamp": -1,
    "flysfo:airline": "WN",
    "flysfo:date": "2026-10-01",
    "flysfo:estimated_timestamp": 1790910000,
    "flysfo:event": "D",
    "flysfo:flight_number": "WN3788",
    "flysfo:gate": "D3",
    "flysfo:journey": "SFO-SAN",
    "flysfo:scheduled_timestamp": 1790910000,
    "flysfo:timestamp": 1790910000,
    "geom:area": 0,
    "geom:bbox": "-122.370943,32.733534,-117.185927,37.617990",
    "geom:latitude": 35.175762,
    "geom:longitude": -119.778435,
    "iata:airline": "WN",
    "icao:aircraft": "B38M",
    "icao:airline": "SWA",
    "lbl:latitude": 37.617092,
    "lbl:longitude": -122.381656,
    "sfomuseum:aircraft_id": 1528104575,
    "sfomuseum:airline_id": 1159285591,
    "sfomuseum:arrival_id": 102528997,
    "sfomuseum:departure_id": 102527513,
    "sfomuseum:flight_id": "20261001-D-SWA-3788",
    "sfomuseum:flight_number": [
      "SWA3788",
      "WN3788"
    ],
    "sfomuseum:placetype": "flight",
    "src:geom": "flysfo",
    "src:geom_alt": [
      "swim-takeoff"
    ],
    "swim:tail_number": "N8723Q",
    "wof:belongsto": [
      1947304067,
      102527513,
      1947304595,
      102191575,
      85633793,
      102087579,
      85922583,
      554784711,
      85688637,
      1947304597,
      1947304591,
      102085387
    ],
    "wof:country": "US",
    "wof:created": 1790957731,
    "wof:geomhash": "25f5345529d944df781e36098260a435",
    "wof:hierarchy": [
      {
        "building_id": 1947304067,
        "campus_id": 102527513,
        "concourse_id": 1947304595,
        "continent_id": 102191575,
        "country_id": 85633793,
        "county_id": 102087579,
        "custom_id": 2048488721,
        "flight_id": 2048488721,
        "locality_id": 85922583,
        "postalcode_id": 554784711,
        "region_id": 85688637,
        "venue_id": 1947304597,
        "wing_id": 1947304591
      },
      {
        "building_id": 1947304067,
        "campus_id": 102527513,
        "concourse_id": 1947304595,
        "continent_id": 102191575,
        "country_id": 85633793,
        "county_id": 102085387,
        "custom_id": 2048488721,
        "flight_id": 2048488721,
        "region_id": 85688637,
        "venue_id": 1947304597,
        "wing_id": 1947304591
      }
    ],
    "wof:id": 2048488721,
    "wof:involves": [
      1159285591,
      1947304597,
      1528104575,
      102528997,
      102527513
    ],
    "wof:lastmodified": 1790957949,
    "wof:name": "WN3788 (SFO-SAN)",
    "wof:parent_id": 1947304597,
    "wof:placetype": "custom",
    "wof:placetype_alt": [
      "flight"
    ],
    "wof:repo": "sfomuseum-data-flights-2026-10",
    "wof:superseded_by": [],
    "wof:supersedes": []
  },
  "bbox": [
    -122.370943,
    32.733534,
    -117.185927,
    37.61799
  ],
  "geometry": {"type":"MultiPoint","coordinates":[[-122.370943,37.61799],[-117.185927,32.733534]]}
}
