{
  "id": 2048494973,
  "type": "Feature",
  "properties": {
    "geom:area": 0,
    "geom:bbox": "-122.386150,37.631440,-121.254140,37.991420",
    "geom:latitude": 37.93571672682023,
    "geom:longitude": -121.94145325568685,
    "src:alt_label": "swim-takeoff",
    "src:geom": "swim",
    "swim:elevations": [
      183,
      547,
      643,
      743,
      1032,
      1075,
      1304,
      1553,
      1850,
      1979,
      2412,
      2774,
      3057,
      3094,
      3159,
      3321,
      3445,
      3596,
      3692,
      3746,
      3873,
      4094,
      4267,
      4380,
      4512,
      4759,
      4912,
      5054,
      5258,
      5389
    ],
    "swim:geom": "takeoff",
    "swim:timestamps": [
      1790982706,
      1790982738,
      1790982762,
      1790982784,
      1790982838,
      1790982841,
      1790982866,
      1790982889,
      1790982920,
      1790982933,
      1790982979,
      1790983014,
      1790983045,
      1790983051,
      1790983060,
      1790983091,
      1790983129,
      1790983166,
      1790983193,
      1790983207,
      1790983239,
      1790983272,
      1790983299,
      1790983317,
      1790983337,
      1790983377,
      1790983406,
      1790983433,
      1790983464,
      1790983486
    ],
    "wof:geomhash": "5c3f37e0f3abaef4740d8bdb0c0b4082",
    "wof:id": 2048494973,
    "wof:repo": "sfomuseum-data-flights-2026-10"
  },
  "bbox": [
    -122.38615,
    37.63144,
    -121.25414,
    37.99142
  ],
  "geometry": {"type":"LineString","coordinates":[[-122.36439,37.63144],[-122.34491,37.65124],[-122.32649,37.66665],[-122.31128,37.68439],[-122.33559,37.74415],[-122.33747,37.74761],[-122.35309,37.77737],[-122.36672,37.80561],[-122.3846,37.84302],[-122.38615,37.86142],[-122.37954,37.92224],[-122.33321,37.95063],[-122.2835,37.96061],[-122.27354,37.96265],[-122.25836,37.96582],[-122.20168,37.97733],[-122.12826,37.98828],[-122.05013,37.98878],[-121.98955,37.98922],[-121.95741,37.98938],[-121.88107,37.9898],[-121.79936,37.9902],[-121.73318,37.99061],[-121.68892,37.99079],[-121.6386,37.99097],[-121.53783,37.99119],[-121.46226,37.99129],[-121.39205,37.99133],[-121.31152,37.99135],[-121.25414,37.99142]]}
}
