{
  "id": 2048484725,
  "type": "Feature",
  "properties": {
    "geom:area": 0,
    "geom:bbox": "-122.846610,37.406790,-122.130210,38.493890",
    "geom:latitude": 37.8207269824819,
    "geom:longitude": -122.50158240725357,
    "src:alt_label": "swim-approach",
    "src:geom": "swim",
    "swim:elevations": [
      7590,
      7241,
      7132,
      7077,
      6621,
      6337,
      6121,
      5999,
      5468,
      5289,
      4933,
      4705,
      4481,
      4208,
      3926,
      3843,
      3627,
      3597,
      3560,
      3372,
      3353,
      3353,
      3335,
      3182,
      2962,
      2771,
      2593,
      2359,
      2245,
      1966,
      1710,
      1654,
      1484,
      1135,
      1060,
      973,
      824,
      669,
      634,
      428,
      317,
      271,
      186,
      121,
      113
    ],
    "swim:geom": "approach",
    "swim:timestamps": [
      1790855559,
      1790855596,
      1790855607,
      1790855612,
      1790855661,
      1790855692,
      1790855715,
      1790855730,
      1790855785,
      1790855804,
      1790855843,
      1790855870,
      1790855896,
      1790855928,
      1790855964,
      1790855972,
      1790856016,
      1790856056,
      1790856070,
      1790856108,
      1790856123,
      1790856166,
      1790856196,
      1790856221,
      1790856261,
      1790856294,
      1790856317,
      1790856345,
      1790856360,
      1790856398,
      1790856442,
      1790856455,
      1790856481,
      1790856535,
      1790856550,
      1790856567,
      1790856596,
      1790856628,
      1790856638,
      1790856675,
      1790856704,
      1790856720,
      1790856741,
      1790856759,
      1790856799
    ],
    "wof:geomhash": "3f2e69c06777140f0abb210412c1fad8",
    "wof:id": 2048484725,
    "wof:repo": "sfomuseum-data-flights-2026-10"
  },
  "bbox": [
    -122.84661,
    37.40679,
    -122.13021,
    38.49389
  ],
  "geometry": {"type":"LineString","coordinates":[[-122.84661,38.49389],[-122.82707,38.4279],[-122.82094,38.40736],[-122.81831,38.39832],[-122.79345,38.31333],[-122.77763,38.259],[-122.76644,38.22026],[-122.75913,38.19528],[-122.73267,38.10476],[-122.72329,38.07267],[-122.7053,38.01005],[-122.69295,37.96733],[-122.68143,37.92762],[-122.65469,37.88266],[-122.61054,37.84064],[-122.60046,37.83117],[-122.54749,37.78085],[-122.5047,37.74042],[-122.49079,37.7272],[-122.45379,37.69247],[-122.43972,37.67927],[-122.39859,37.64069],[-122.37064,37.61325],[-122.35577,37.58666],[-122.32991,37.54509],[-122.3089,37.51091],[-122.29502,37.4882],[-122.27772,37.46027],[-122.26718,37.44603],[-122.22302,37.42298],[-122.16658,37.40679],[-122.15002,37.41021],[-122.13021,37.43265],[-122.15611,37.48864],[-122.16437,37.50164],[-122.17355,37.51637],[-122.19068,37.53943],[-122.22202,37.5544],[-122.23284,37.5588],[-122.27063,37.57478],[-122.29687,37.58572],[-122.30825,37.59068],[-122.32332,37.59699],[-122.33482,37.60182],[-122.36281,37.61312]]}
}
