{
  "id": 2048546535,
  "type": "Feature",
  "properties": {
    "geom:area": 0,
    "geom:bbox": "-122.358910,37.491550,-121.283770,37.614080",
    "geom:latitude": 37.54536302741978,
    "geom:longitude": -121.8261155834728,
    "src:alt_label": "swim-approach",
    "src:geom": "swim",
    "swim:elevations": [
      4508,
      4309,
      4175,
      4025,
      3859,
      3695,
      3477,
      3280,
      3210,
      3003,
      2726,
      2627,
      2595,
      2260,
      2070,
      1910,
      1841,
      1673,
      1502,
      1371,
      1249,
      1130,
      1044,
      823,
      732,
      609,
      469,
      421,
      340,
      226,
      119,
      0
    ],
    "swim:geom": "approach",
    "swim:timestamps": [
      1791493167,
      1791493187,
      1791493207,
      1791493235,
      1791493275,
      1791493300,
      1791493346,
      1791493373,
      1791493383,
      1791493411,
      1791493448,
      1791493467,
      1791493471,
      1791493520,
      1791493548,
      1791493587,
      1791493602,
      1791493633,
      1791493662,
      1791493680,
      1791493702,
      1791493731,
      1791493744,
      1791493796,
      1791493814,
      1791493846,
      1791493876,
      1791493891,
      1791493912,
      1791493943,
      1791493966,
      1791493992
    ],
    "wof:geomhash": "e4f1da3d89f2915581a23c111a52e2a2",
    "wof:id": 2048546535,
    "wof:repo": "sfomuseum-data-flights-2026-10"
  },
  "bbox": [
    -122.35891,
    37.49155,
    -121.28377,
    37.61408
  ],
  "geometry": {"type":"LineString","coordinates":[[-121.28377,37.59014],[-121.32525,37.58551],[-121.36958,37.58048],[-121.42531,37.57414],[-121.50053,37.56523],[-121.54194,37.56038],[-121.61676,37.55166],[-121.6567,37.54302],[-121.67215,37.53937],[-121.71215,37.5299],[-121.76492,37.51734],[-121.79149,37.51098],[-121.79733,37.50962],[-121.86501,37.49343],[-121.904,37.49155],[-121.95856,37.49314],[-121.98015,37.49419],[-122.02041,37.50532],[-122.05717,37.51712],[-122.08056,37.52456],[-122.10723,37.53333],[-122.13923,37.54374],[-122.15192,37.54788],[-122.19803,37.56285],[-122.21415,37.56808],[-122.24169,37.5769],[-122.26607,37.58448],[-122.2781,37.58796],[-122.29477,37.59286],[-122.32002,37.60024],[-122.33941,37.60621],[-122.35891,37.61408]]}
}
