{
  "id": 2048544287,
  "type": "Feature",
  "properties": {
    "date:inception_lower": "2026-10-08",
    "date:inception_upper": "2026-10-08",
    "edtf:cessation": "",
    "edtf:inception": "2026-10-08",
    "flysfo:actual_timestamp": -1,
    "flysfo:airline": "NZ",
    "flysfo:base_airline": "",
    "flysfo:base_flight_number": "2267",
    "flysfo:date": "2026-10-08",
    "flysfo:estimated_timestamp": 1791468420,
    "flysfo:event": "A",
    "flysfo:flight_number": "NZ9526",
    "flysfo:gate": "E3",
    "flysfo:journey": "MFR-SFO",
    "flysfo:scheduled_timestamp": 1791469620,
    "flysfo:timestamp": 1791469620,
    "geom:area": 0,
    "geom:bbox": "-122.874456,37.617990,-122.370943,42.369651",
    "geom:latitude": 39.9938205,
    "geom:longitude": -122.6226995,
    "iata:airline": "NZ",
    "iata:base_airline": "",
    "icao:airline": "ANZ",
    "icao:base_airline": "AVA",
    "lbl:latitude": 37.618578,
    "lbl:longitude": -122.385434,
    "sfomuseum:airline_id": 1159283697,
    "sfomuseum:arrival_id": 102527513,
    "sfomuseum:base_flight_id": "20261008-A-AVA-2267",
    "sfomuseum:departure_id": 102527187,
    "sfomuseum:flight_id": "20261008-A-ANZ-9526",
    "sfomuseum:flight_number": [
      "ANZ9526",
      "NZ9526"
    ],
    "sfomuseum:placetype": "flight",
    "src:geom": "flysfo",
    "wof:belongsto": [
      1947304067,
      102527513,
      1947304451,
      102191575,
      85633793,
      102087579,
      85922583,
      554784711,
      85688637,
      1947304495,
      1947304447,
      102085387
    ],
    "wof:country": "US",
    "wof:created": 1791561852,
    "wof:geomhash": "10bf27aabb5200ef4863b11f6c2a5d60",
    "wof:hierarchy": [
      {
        "building_id": 1947304067,
        "campus_id": 102527513,
        "concourse_id": 1947304451,
        "continent_id": 102191575,
        "country_id": 85633793,
        "county_id": 102087579,
        "custom_id": 2048544287,
        "flight_id": 2048544287,
        "locality_id": 85922583,
        "postalcode_id": 554784711,
        "region_id": 85688637,
        "venue_id": 1947304495,
        "wing_id": 1947304447
      },
      {
        "building_id": 1947304067,
        "campus_id": 102527513,
        "concourse_id": 1947304451,
        "continent_id": 102191575,
        "country_id": 85633793,
        "county_id": 102085387,
        "custom_id": 2048544287,
        "flight_id": 2048544287,
        "region_id": 85688637,
        "venue_id": 1947304495,
        "wing_id": 1947304447
      }
    ],
    "wof:id": 2048544287,
    "wof:involves": [
      102527513,
      102527187,
      1159283697,
      1947304495,
      1159285749
    ],
    "wof:lastmodified": 1791561852,
    "wof:name": "NZ9526 (MFR-SFO)",
    "wof:parent_id": 1947304495,
    "wof:placetype": "custom",
    "wof:placetype_alt": [
      "flight"
    ],
    "wof:repo": "sfomuseum-data-flights-2026-10",
    "wof:superseded_by": [],
    "wof:supersedes": []
  },
  "bbox": [
    -122.874456,
    37.61799,
    -122.370943,
    42.369651
  ],
  "geometry": {"type":"MultiPoint","coordinates":[[-122.874456,42.369651],[-122.370943,37.61799]]}
}
