{
  "id": 2048537717,
  "type": "Feature",
  "properties": {
    "geom:area": 0,
    "geom:bbox": "-122.354130,37.493970,-121.249670,37.612270",
    "geom:latitude": 37.54250625750143,
    "geom:longitude": -121.80883240496088,
    "src:alt_label": "swim-approach",
    "src:geom": "swim",
    "swim:elevations": [
      4641,
      4256,
      3935,
      3652,
      3560,
      2987,
      2661,
      2527,
      2164,
      1940,
      1699,
      1423,
      1306,
      1001,
      878,
      822,
      594,
      467,
      348,
      300,
      190,
      35
    ],
    "swim:geom": "approach",
    "swim:timestamps": [
      1791417973,
      1791418012,
      1791418044,
      1791418074,
      1791418083,
      1791418175,
      1791418219,
      1791418252,
      1791418317,
      1791418369,
      1791418432,
      1791418476,
      1791418500,
      1791418556,
      1791418583,
      1791418595,
      1791418641,
      1791418673,
      1791418706,
      1791418718,
      1791418746,
      1791418791
    ],
    "wof:geomhash": "e4ad34f05142e59fb0b68cd9d921b854",
    "wof:id": 2048537717,
    "wof:repo": "sfomuseum-data-flights-2026-10"
  },
  "bbox": [
    -122.35413,
    37.49397,
    -121.24967,
    37.61227
  ],
  "geometry": {"type":"LineString","coordinates":[[-121.24967,37.5944],[-121.32902,37.58476],[-121.39483,37.57734],[-121.4555,37.57029],[-121.47363,37.5683],[-121.64522,37.54561],[-121.71671,37.52839],[-121.76676,37.51661],[-121.85581,37.49535],[-121.92827,37.49397],[-122.01511,37.49885],[-122.07394,37.50218],[-122.10427,37.50735],[-122.16268,37.5317],[-122.18835,37.54249],[-122.19996,37.54744],[-122.2442,37.56605],[-122.27222,37.57783],[-122.29608,37.58789],[-122.30464,37.5915],[-122.32433,37.5997],[-122.35413,37.61227]]}
}
