{
  "id": 2048491787,
  "type": "Feature",
  "properties": {
    "geom:area": 0,
    "geom:bbox": "-122.361080,37.491790,-121.262160,37.614670",
    "geom:latitude": 37.54648068537697,
    "geom:longitude": -121.81642596043899,
    "src:alt_label": "swim-approach",
    "src:geom": "swim",
    "swim:elevations": [
      4587,
      4323,
      4105,
      4019,
      3712,
      3558,
      3449,
      3229,
      3059,
      2836,
      2615,
      2507,
      2431,
      2207,
      2132,
      2039,
      1958,
      1908,
      1710,
      1669,
      1575,
      1437,
      1358,
      1150,
      956,
      791,
      756,
      602,
      457,
      395,
      322,
      156,
      0
    ],
    "swim:geom": "approach",
    "swim:timestamps": [
      1790975865,
      1790975895,
      1790975930,
      1790975946,
      1790975993,
      1790976009,
      1790976023,
      1790976047,
      1790976071,
      1790976107,
      1790976142,
      1790976162,
      1790976202,
      1790976238,
      1790976267,
      1790976298,
      1790976319,
      1790976334,
      1790976382,
      1790976391,
      1790976409,
      1790976434,
      1790976452,
      1790976494,
      1790976530,
      1790976565,
      1790976575,
      1790976602,
      1790976628,
      1790976648,
      1790976663,
      1790976702,
      1790976739
    ],
    "wof:geomhash": "0a27a50a0b5cf2dcd9274f6a27932698",
    "wof:id": 2048491787,
    "wof:repo": "sfomuseum-data-flights-2026-10"
  },
  "bbox": [
    -122.36108,
    37.49179,
    -121.26216,
    37.61467
  ],
  "geometry": {"type":"LineString","coordinates":[[-121.26216,37.59289],[-121.32232,37.5859],[-121.38998,37.57847],[-121.41802,37.57513],[-121.49767,37.56554],[-121.52499,37.56218],[-121.54623,37.55974],[-121.58633,37.55532],[-121.62465,37.5503],[-121.67653,37.53834],[-121.72615,37.52654],[-121.75289,37.52007],[-121.80136,37.50863],[-121.84388,37.49842],[-121.87725,37.49194],[-121.91437,37.49179],[-121.93945,37.4925],[-121.9572,37.49301],[-122.01159,37.50232],[-122.02148,37.5055],[-122.04133,37.51191],[-122.068,37.52065],[-122.08719,37.52687],[-122.13217,37.54153],[-122.16973,37.55358],[-122.20634,37.56549],[-122.21609,37.56866],[-122.24493,37.57793],[-122.27141,37.58599],[-122.28972,37.5916],[-122.30212,37.59526],[-122.33367,37.60454],[-122.36108,37.61467]]}
}
