{
  "id": 2048512259,
  "type": "Feature",
  "properties": {
    "geom:area": 0,
    "geom:bbox": "-122.363830,37.631920,-121.245890,38.425400",
    "geom:latitude": 38.05367333283258,
    "geom:longitude": -121.8298370610328,
    "src:alt_label": "swim-takeoff",
    "src:geom": "swim",
    "swim:elevations": [
      183,
      490,
      760,
      858,
      1022,
      1235,
      1617,
      1734,
      2174,
      2585,
      2699,
      2840,
      3161,
      3205,
      3366,
      3475,
      3705,
      3798,
      4019,
      4354,
      4577,
      4749,
      4934,
      5082,
      5322,
      5457,
      5726
    ],
    "swim:geom": "takeoff",
    "swim:timestamps": [
      1791121397,
      1791121423,
      1791121462,
      1791121475,
      1791121516,
      1791121554,
      1791121587,
      1791121598,
      1791121640,
      1791121678,
      1791121688,
      1791121703,
      1791121738,
      1791121748,
      1791121780,
      1791121801,
      1791121858,
      1791121882,
      1791121906,
      1791121948,
      1791121975,
      1791121999,
      1791122035,
      1791122060,
      1791122098,
      1791122122,
      1791122159
    ],
    "wof:geomhash": "823802e38a45d0c2d6235474210e5e99",
    "wof:id": 2048512259,
    "wof:repo": "sfomuseum-data-flights-2026-10"
  },
  "bbox": [
    -122.36383,
    37.63192,
    -121.24589,
    38.4254
  ],
  "geometry": {"type":"LineString","coordinates":[[-122.36383,37.63192],[-122.34456,37.64638],[-122.30744,37.66752],[-122.29452,37.67482],[-122.25598,37.70316],[-122.23262,37.74545],[-122.21149,37.78448],[-122.20396,37.79872],[-122.17679,37.85014],[-122.13549,37.88767],[-122.12242,37.89571],[-122.10229,37.90804],[-122.05453,37.93713],[-122.04001,37.94589],[-121.99124,37.97539],[-121.9572,37.99592],[-121.85543,38.05744],[-121.81041,38.0846],[-121.76314,38.11301],[-121.68085,38.16238],[-121.62725,38.19447],[-121.57923,38.22328],[-121.50584,38.26718],[-121.45478,38.29748],[-121.37306,38.34608],[-121.3239,38.37669],[-121.24589,38.4254]]}
}
