{
  "id": 2048502165,
  "type": "Feature",
  "properties": {
    "geom:area": 0,
    "geom:bbox": "-122.354160,36.769730,-121.901760,37.609880",
    "geom:latitude": 37.23322538411769,
    "geom:longitude": -122.07795013667506,
    "src:alt_label": "swim-approach",
    "src:geom": "swim",
    "swim:elevations": [
      5163,
      4882,
      4654,
      4412,
      3941,
      3847,
      3393,
      3283,
      3072,
      2828,
      2774,
      2603,
      2438,
      2316,
      2029,
      1921,
      1672,
      1451,
      1463,
      1279,
      1043,
      784,
      587,
      475,
      345,
      154,
      62,
      43
    ],
    "swim:geom": "approach",
    "swim:timestamps": [
      1791027926,
      1791027953,
      1791027977,
      1791027998,
      1791028046,
      1791028056,
      1791028101,
      1791028113,
      1791028158,
      1791028195,
      1791028205,
      1791028227,
      1791028252,
      1791028275,
      1791028315,
      1791028331,
      1791028375,
      1791028407,
      1791028414,
      1791028455,
      1791028483,
      1791028523,
      1791028548,
      1791028568,
      1791028600,
      1791028644,
      1791028676,
      1791028681
    ],
    "wof:geomhash": "2ced1edc11c5b904e797bb2867bf9497",
    "wof:id": 2048502165,
    "wof:repo": "sfomuseum-data-flights-2026-10"
  },
  "bbox": [
    -122.35416,
    36.76973,
    -121.90176,
    37.60988
  ],
  "geometry": {"type":"LineString","coordinates":[[-121.90176,36.76973],[-121.9146,36.81568],[-121.92593,36.85584],[-121.93571,36.89121],[-121.95995,36.96919],[-121.96557,36.98367],[-121.99303,37.05475],[-121.99971,37.07203],[-122.02583,37.13856],[-122.04585,37.18939],[-122.05081,37.20218],[-122.06239,37.23167],[-122.07533,37.26456],[-122.08661,37.29365],[-122.10638,37.34365],[-122.11458,37.36384],[-122.13378,37.4184],[-122.14713,37.45765],[-122.14995,37.46583],[-122.16586,37.51165],[-122.18519,37.53557],[-122.22376,37.55469],[-122.24715,37.56443],[-122.26509,37.57174],[-122.29298,37.58394],[-122.32712,37.59861],[-122.35018,37.60821],[-122.35416,37.60988]]}
}
