{
  "id": 2048501303,
  "type": "Feature",
  "properties": {
    "geom:area": 0,
    "geom:bbox": "-122.358830,37.491380,-121.295730,37.614340",
    "geom:latitude": 37.54482204361369,
    "geom:longitude": -121.83207766636586,
    "src:alt_label": "swim-approach",
    "src:geom": "swim",
    "swim:elevations": [
      4585,
      4397,
      4191,
      3992,
      3659,
      3414,
      3223,
      2937,
      2812,
      2551,
      2473,
      2411,
      2188,
      1873,
      1828,
      1644,
      1582,
      1310,
      1119,
      868,
      709,
      675,
      456,
      333,
      240,
      3,
      0
    ],
    "swim:geom": "approach",
    "swim:timestamps": [
      1791023694,
      1791023720,
      1791023746,
      1791023769,
      1791023811,
      1791023845,
      1791023867,
      1791023905,
      1791023922,
      1791023967,
      1791023988,
      1791024006,
      1791024037,
      1791024086,
      1791024103,
      1791024147,
      1791024157,
      1791024192,
      1791024224,
      1791024267,
      1791024295,
      1791024300,
      1791024340,
      1791024364,
      1791024391,
      1791024447,
      1791024451
    ],
    "wof:geomhash": "0a79182694100e715b2d07d4bbf3e0b1",
    "wof:id": 2048501303,
    "wof:repo": "sfomuseum-data-flights-2026-10"
  },
  "bbox": [
    -122.35883,
    37.49138,
    -121.29573,
    37.61434
  ],
  "geometry": {"type":"LineString","coordinates":[[-121.29573,37.58845],[-121.3441,37.58324],[-121.38965,37.57801],[-121.43271,37.57304],[-121.50721,37.56434],[-121.56635,37.55759],[-121.60514,37.55298],[-121.66868,37.54011],[-121.69673,37.53334],[-121.76937,37.51607],[-121.8038,37.50784],[-121.8317,37.50121],[-121.8823,37.49138],[-121.95988,37.49319],[-121.98572,37.49512],[-122.049,37.51479],[-122.06225,37.51906],[-122.10841,37.53392],[-122.14546,37.54577],[-122.19217,37.56101],[-122.22151,37.57048],[-122.22716,37.57232],[-122.27032,37.58593],[-122.29299,37.59231],[-122.31503,37.59756],[-122.35645,37.61326],[-122.35883,37.61434]]}
}
