{
  "id": 2048545199,
  "type": "Feature",
  "properties": {
    "date:inception_lower": "2026-10-08",
    "date:inception_upper": "2026-10-08",
    "edtf:cessation": "",
    "edtf:inception": "2026-10-08",
    "flysfo:actual_timestamp": -1,
    "flysfo:airline": "DL",
    "flysfo:base_airline": "",
    "flysfo:base_flight_number": "8726",
    "flysfo:date": "2026-10-08",
    "flysfo:estimated_timestamp": 1791491460,
    "flysfo:event": "A",
    "flysfo:flight_number": "DL8726",
    "flysfo:gate": "A1",
    "flysfo:journey": "CDG-SFO",
    "flysfo:scheduled_timestamp": 1791489000,
    "flysfo:timestamp": 1791491460,
    "geom:area": 0,
    "geom:bbox": "-122.370943,37.617990,2.542809,49.007854",
    "geom:latitude": 43.312922,
    "geom:longitude": -59.914066999999996,
    "iata:airline": "DL",
    "iata:base_airline": "",
    "icao:airline": "DAL",
    "icao:base_airline": "DAL",
    "lbl:latitude": 37.61799,
    "lbl:longitude": -122.370943,
    "sfomuseum:airline_id": 1159284261,
    "sfomuseum:arrival_id": 102527513,
    "sfomuseum:base_flight_id": "20261008-A-DAL-8726",
    "sfomuseum:departure_id": 102544459,
    "sfomuseum:flight_id": "20261008-A-DAL-8726",
    "sfomuseum:flight_number": [
      "DAL8726",
      "DL8726"
    ],
    "sfomuseum:placetype": "flight",
    "src:geom": "flysfo",
    "wof:belongsto": [
      1947304067,
      102527513,
      1947304073,
      102191575,
      85633793,
      102087579,
      85922583,
      554784711,
      85688637,
      1947304079,
      1947304069,
      102085387
    ],
    "wof:country": "US",
    "wof:created": 1791561963,
    "wof:geomhash": "07d689097487ceb3bc0a07973d8c4b93",
    "wof:hierarchy": [
      {
        "building_id": 1947304067,
        "campus_id": 102527513,
        "concourse_id": 1947304073,
        "continent_id": 102191575,
        "country_id": 85633793,
        "county_id": 102087579,
        "custom_id": 2048545199,
        "flight_id": 2048545199,
        "locality_id": 85922583,
        "postalcode_id": 554784711,
        "region_id": 85688637,
        "venue_id": 1947304079,
        "wing_id": 1947304069
      },
      {
        "building_id": 1947304067,
        "campus_id": 102527513,
        "concourse_id": 1947304073,
        "continent_id": 102191575,
        "country_id": 85633793,
        "county_id": 102085387,
        "custom_id": 2048545199,
        "flight_id": 2048545199,
        "region_id": 85688637,
        "venue_id": 1947304079,
        "wing_id": 1947304069
      }
    ],
    "wof:id": 2048545199,
    "wof:involves": [
      102527513,
      102544459,
      1159284261,
      1947304079,
      1159284261
    ],
    "wof:lastmodified": 1791561963,
    "wof:name": "DL8726 (CDG-SFO)",
    "wof:parent_id": 1947304079,
    "wof:placetype": "custom",
    "wof:placetype_alt": [
      "flight"
    ],
    "wof:repo": "sfomuseum-data-flights-2026-10",
    "wof:superseded_by": [],
    "wof:supersedes": []
  },
  "bbox": [
    -122.370943,
    37.61799,
    2.542809,
    49.007854
  ],
  "geometry": {"type":"MultiPoint","coordinates":[[2.542809,49.007854],[-122.370943,37.61799]]}
}
