{
  "id": 2048510357,
  "type": "Feature",
  "properties": {
    "date:inception_lower": "2026-10-04",
    "date:inception_upper": "2026-10-04",
    "edtf:cessation": "",
    "edtf:inception": "2026-10-04",
    "flysfo:actual_timestamp": -1,
    "flysfo:airline": "OM",
    "flysfo:base_airline": "",
    "flysfo:base_flight_number": "8929",
    "flysfo:date": "2026-10-04",
    "flysfo:estimated_timestamp": 1791135000,
    "flysfo:event": "A",
    "flysfo:flight_number": "OM5870",
    "flysfo:gate": "A6",
    "flysfo:journey": "HKG-SFO",
    "flysfo:scheduled_timestamp": 1791136500,
    "flysfo:timestamp": 1791136500,
    "geom:area": 0,
    "geom:bbox": "-122.370943,22.307471,113.927436,37.617990",
    "geom:latitude": 29.9627305,
    "geom:longitude": -4.221753499999998,
    "iata:airline": "OM",
    "iata:base_airline": "",
    "icao:airline": "MGL",
    "icao:base_airline": "AAL",
    "lbl:latitude": 37.612674,
    "lbl:longitude": -122.389174,
    "sfomuseum:airline_id": 1159285729,
    "sfomuseum:arrival_id": 102527513,
    "sfomuseum:base_flight_id": "20261004-A-AAL-8929",
    "sfomuseum:departure_id": 102541737,
    "sfomuseum:flight_id": "20261004-A-MGL-5870",
    "sfomuseum:flight_number": [
      "MGL5870",
      "OM5870"
    ],
    "sfomuseum:placetype": "flight",
    "src:geom": "flysfo",
    "wof:belongsto": [
      1947304067,
      102527513,
      1947304073,
      102191575,
      85633793,
      102087579,
      85922583,
      554784711,
      85688637,
      1947304085,
      1947304069,
      102085387
    ],
    "wof:country": "US",
    "wof:created": 1791216398,
    "wof:geomhash": "300aa0b6d6fd1fa7d09bf740f0e0c265",
    "wof:hierarchy": [
      {
        "building_id": 1947304067,
        "campus_id": 102527513,
        "concourse_id": 1947304073,
        "continent_id": 102191575,
        "country_id": 85633793,
        "county_id": 102087579,
        "custom_id": 2048510357,
        "flight_id": 2048510357,
        "locality_id": 85922583,
        "postalcode_id": 554784711,
        "region_id": 85688637,
        "venue_id": 1947304085,
        "wing_id": 1947304069
      },
      {
        "building_id": 1947304067,
        "campus_id": 102527513,
        "concourse_id": 1947304073,
        "continent_id": 102191575,
        "country_id": 85633793,
        "county_id": 102085387,
        "custom_id": 2048510357,
        "flight_id": 2048510357,
        "region_id": 85688637,
        "venue_id": 1947304085,
        "wing_id": 1947304069
      }
    ],
    "wof:id": 2048510357,
    "wof:involves": [
      102527513,
      102541737,
      1159285729,
      1947304085,
      1159283849
    ],
    "wof:lastmodified": 1791216398,
    "wof:name": "OM5870 (HKG-SFO)",
    "wof:parent_id": 1947304085,
    "wof:placetype": "custom",
    "wof:placetype_alt": [
      "flight"
    ],
    "wof:repo": "sfomuseum-data-flights-2026-10",
    "wof:superseded_by": [],
    "wof:supersedes": []
  },
  "bbox": [
    -122.370943,
    22.307471,
    113.927436,
    37.61799
  ],
  "geometry": {"type":"MultiPoint","coordinates":[[113.927436,22.307471],[-122.370943,37.61799]]}
}
