{
  "id": 2048535535,
  "type": "Feature",
  "properties": {
    "geom:area": 0,
    "geom:bbox": "-122.361200,36.753630,-121.895950,37.612320",
    "geom:latitude": 37.24508951683861,
    "geom:longitude": -122.0717961812356,
    "src:alt_label": "swim-approach",
    "src:geom": "swim",
    "swim:elevations": [
      5432,
      5249,
      5071,
      4745,
      4552,
      4393,
      4318,
      4036,
      3788,
      3476,
      3301,
      3079,
      2873,
      2617,
      2322,
      2012,
      1901,
      1812,
      1471,
      1242,
      1065,
      974,
      945,
      950,
      829,
      782,
      671,
      640,
      615,
      424,
      365,
      210,
      173,
      89,
      170
    ],
    "swim:geom": "approach",
    "swim:timestamps": [
      1791398960,
      1791398987,
      1791399010,
      1791399049,
      1791399076,
      1791399109,
      1791399127,
      1791399167,
      1791399198,
      1791399233,
      1791399256,
      1791399286,
      1791399313,
      1791399349,
      1791399378,
      1791399417,
      1791399436,
      1791399450,
      1791399499,
      1791399529,
      1791399558,
      1791399571,
      1791399616,
      1791399643,
      1791399677,
      1791399691,
      1791399715,
      1791399721,
      1791399724,
      1791399770,
      1791399788,
      1791399833,
      1791399846,
      1791399874,
      1791399901
    ],
    "wof:geomhash": "530da1a58a0a574d8766b80d88b0ef31",
    "wof:id": 2048535535,
    "wof:repo": "sfomuseum-data-flights-2026-10"
  },
  "bbox": [
    -122.3612,
    36.75363,
    -121.89595,
    37.61232
  ],
  "geometry": {"type":"LineString","coordinates":[[-121.89595,36.75363],[-121.90957,36.79741],[-121.91954,36.83209],[-121.93611,36.89126],[-121.94723,36.9318],[-121.96286,36.97733],[-121.97177,37.00042],[-121.99134,37.04989],[-122.00574,37.08707],[-122.0224,37.12976],[-122.03295,37.15721],[-122.04717,37.19287],[-122.05973,37.22483],[-122.07525,37.26534],[-122.08783,37.29682],[-122.10484,37.34008],[-122.11253,37.35987],[-122.11268,37.37481],[-122.0767,37.41962],[-122.06265,37.44894],[-122.07757,37.47544],[-122.08754,37.48654],[-122.12682,37.51425],[-122.15235,37.52515],[-122.18526,37.5389],[-122.19848,37.54446],[-122.22076,37.55386],[-122.22621,37.55618],[-122.22901,37.55737],[-122.26992,37.57454],[-122.28354,37.58032],[-122.31611,37.59399],[-122.32456,37.59751],[-122.34338,37.60548],[-122.3612,37.61232]]}
}
