{
  "id": 2048527981,
  "type": "Feature",
  "properties": {
    "geom:area": 0,
    "geom:bbox": "-122.352160,37.491860,-121.247640,37.611350",
    "geom:latitude": 37.54651375674137,
    "geom:longitude": -121.80463447190009,
    "src:alt_label": "swim-approach",
    "src:geom": "swim",
    "swim:elevations": [
      4679,
      4213,
      4095,
      3595,
      3371,
      3140,
      3049,
      2959,
      2957,
      2698,
      2598,
      2316,
      2222,
      2055,
      1937,
      1889,
      1810,
      1721,
      1524,
      1522,
      1251,
      1069,
      973,
      822,
      736,
      632,
      460,
      377,
      236,
      62
    ],
    "swim:geom": "approach",
    "swim:timestamps": [
      1791286989,
      1791287034,
      1791287045,
      1791287095,
      1791287118,
      1791287155,
      1791287183,
      1791287215,
      1791287228,
      1791287275,
      1791287288,
      1791287333,
      1791287348,
      1791287383,
      1791287416,
      1791287435,
      1791287468,
      1791287483,
      1791287517,
      1791287526,
      1791287566,
      1791287605,
      1791287626,
      1791287663,
      1791287677,
      1791287702,
      1791287745,
      1791287765,
      1791287800,
      1791287848
    ],
    "wof:geomhash": "e8eb5ab04ab41cc87c04361665077548",
    "wof:id": 2048527981,
    "wof:repo": "sfomuseum-data-flights-2026-10"
  },
  "bbox": [
    -122.35216,
    37.49186,
    -121.24764,
    37.61135
  ],
  "geometry": {"type":"LineString","coordinates":[[-121.24764,37.59487],[-121.33887,37.58376],[-121.36078,37.58137],[-121.46072,37.57016],[-121.50454,37.56497],[-121.57511,37.55654],[-121.62394,37.55002],[-121.67319,37.53929],[-121.69205,37.53487],[-121.75759,37.51898],[-121.77531,37.51472],[-121.83712,37.49989],[-121.85737,37.49504],[-121.90472,37.49186],[-121.94996,37.49283],[-121.97517,37.49357],[-122.01504,37.50375],[-122.03101,37.50864],[-122.06621,37.52004],[-122.075,37.52286],[-122.1114,37.53475],[-122.14757,37.54661],[-122.16689,37.55282],[-122.19946,37.56341],[-122.21224,37.56752],[-122.23477,37.57472],[-122.27152,37.5861],[-122.28735,37.59081],[-122.31557,37.59911],[-122.35216,37.61135]]}
}
