{
  "id": 2048508195,
  "type": "Feature",
  "properties": {
    "date:cessation_lower": "2026-10-04",
    "date:cessation_upper": "2026-10-04",
    "date:inception_lower": "1970-01-01",
    "date:inception_upper": "1970-01-01",
    "edtf:cessation": "2026-10-04T03:56:46-07:00",
    "edtf:inception": "1970-01-01T00:00:00Z",
    "flysfo:actual_timestamp": -1,
    "flysfo:airline": "AC",
    "flysfo:base_airline": "",
    "flysfo:base_flight_number": "4703",
    "flysfo:date": "2026-10-04",
    "flysfo:estimated_timestamp": 1791137160,
    "flysfo:event": "A",
    "flysfo:flight_number": "AC757",
    "flysfo:gate": "",
    "flysfo:journey": "YUL-SFO",
    "flysfo:scheduled_timestamp": 1791137820,
    "flysfo:timestamp": 1791137820,
    "geom:area": 0,
    "geom:bbox": "-122.370943,37.617990,-73.744749,45.462004",
    "geom:latitude": 41.539997,
    "geom:longitude": -98.057846,
    "iata:airline": "AC",
    "iata:base_airline": "",
    "icao:aircraft": "BCS3",
    "icao:airline": "ACA",
    "icao:base_airline": "ANZ",
    "lbl:latitude": 37.61799,
    "lbl:longitude": -122.370943,
    "sfomuseum:aircraft_id": 1813375783,
    "sfomuseum:airline_id": 1159283597,
    "sfomuseum:arrival_id": 102527513,
    "sfomuseum:base_flight_id": "20261004-A-ANZ-4703",
    "sfomuseum:departure_id": 102554351,
    "sfomuseum:flight_id": "20261004-A-ACA-757",
    "sfomuseum:flight_number": [
      "ACA757",
      "AC757"
    ],
    "sfomuseum:placetype": "flight",
    "src:geom": "flysfo",
    "src:geom_alt": [
      "swim-approach"
    ],
    "swim:tail_number": "CGYLQ",
    "wof:belongsto": [],
    "wof:country": "US",
    "wof:created": 1791216145,
    "wof:geomhash": "d6fced31e2f30d79d54c9b38b6916cc7",
    "wof:hierarchy": [
      {
        "custom_id": 2048508195,
        "flight_id": 2048508195
      }
    ],
    "wof:id": 2048508195,
    "wof:involves": [
      1813375783,
      102527513,
      102554351,
      1159283597,
      1159283697
    ],
    "wof:lastmodified": 1791217139,
    "wof:name": "AC757 (YUL-SFO)",
    "wof:parent_id": -1,
    "wof:placetype": "custom",
    "wof:placetype_alt": [
      "flight"
    ],
    "wof:repo": "sfomuseum-data-flights-2026-10",
    "wof:superseded_by": [],
    "wof:supersedes": []
  },
  "bbox": [
    -122.370943,
    37.61799,
    -73.744749,
    45.462004
  ],
  "geometry": {"type":"MultiPoint","coordinates":[[-73.744749,45.462004],[-122.370943,37.61799]]}
}
