{
  "id": 2048555317,
  "type": "Feature",
  "properties": {
    "geom:area": 0,
    "geom:bbox": "-122.354340,37.497660,-121.248670,37.612220",
    "geom:latitude": 37.551061549839964,
    "geom:longitude": -121.80423773600234,
    "src:alt_label": "swim-approach",
    "src:geom": "swim",
    "swim:elevations": [
      4604,
      4482,
      4265,
      4228,
      3897,
      3847,
      3804,
      3708,
      3555,
      3510,
      3314,
      3166,
      3010,
      2871,
      2739,
      2613,
      2538,
      2244,
      2131,
      2134,
      2124,
      1753,
      1731,
      1580,
      1267,
      1205,
      1079,
      976,
      893,
      836,
      671,
      573,
      477,
      365,
      133,
      98,
      27
    ],
    "swim:geom": "approach",
    "swim:timestamps": [
      1791539347,
      1791539363,
      1791539395,
      1791539402,
      1791539457,
      1791539465,
      1791539471,
      1791539490,
      1791539518,
      1791539526,
      1791539574,
      1791539601,
      1791539625,
      1791539650,
      1791539666,
      1791539685,
      1791539701,
      1791539757,
      1791539786,
      1791539809,
      1791539821,
      1791539879,
      1791539898,
      1791539913,
      1791539964,
      1791539978,
      1791539996,
      1791540016,
      1791540031,
      1791540039,
      1791540078,
      1791540102,
      1791540122,
      1791540152,
      1791540197,
      1791540206,
      1791540221
    ],
    "wof:geomhash": "e8ade5ee94c6a06863b520455f6ab9f2",
    "wof:id": 2048555317,
    "wof:repo": "sfomuseum-data-flights-2026-10"
  },
  "bbox": [
    -122.35434,
    37.49766,
    -121.24867,
    37.61222
  ],
  "geometry": {"type":"LineString","coordinates":[[-121.24867,37.59474],[-121.279,37.59064],[-121.34002,37.58379],[-121.35209,37.58254],[-121.44728,37.57158],[-121.46103,37.5699],[-121.47054,37.56878],[-121.49973,37.56523],[-121.54433,37.55998],[-121.55636,37.55857],[-121.6268,37.55702],[-121.66346,37.57181],[-121.69611,37.58047],[-121.72654,37.56723],[-121.73531,37.54976],[-121.74357,37.52921],[-121.75756,37.51651],[-121.83636,37.50534],[-121.87437,37.50218],[-121.90464,37.49998],[-121.92098,37.49878],[-121.99685,37.49766],[-122.02089,37.50504],[-122.03917,37.51117],[-122.10487,37.53254],[-122.12229,37.53829],[-122.14493,37.54564],[-122.16763,37.55294],[-122.18369,37.55793],[-122.1926,37.56091],[-122.22921,37.57283],[-122.25015,37.57968],[-122.26716,37.58483],[-122.29447,37.59269],[-122.33375,37.60422],[-122.34176,37.60718],[-122.35434,37.61222]]}
}
