{
  "id": 2048510959,
  "type": "Feature",
  "properties": {
    "geom:area": 0,
    "geom:bbox": "-122.358660,36.725350,-121.894030,37.611860",
    "geom:latitude": 37.2189077473396,
    "geom:longitude": -122.07101110810528,
    "src:alt_label": "swim-approach",
    "src:geom": "swim",
    "swim:elevations": [
      5114,
      5044,
      4915,
      4725,
      4621,
      4334,
      4233,
      3871,
      3782,
      3511,
      3232,
      3231,
      3231,
      3169,
      3034,
      2832,
      2784,
      2438,
      1933,
      1888,
      1618,
      1530,
      1524,
      1484,
      1342,
      1276,
      934,
      764,
      444,
      327,
      280,
      203,
      142,
      0
    ],
    "swim:geom": "approach",
    "swim:timestamps": [
      1791133461,
      1791133471,
      1791133489,
      1791133520,
      1791133536,
      1791133577,
      1791133591,
      1791133641,
      1791133653,
      1791133688,
      1791133738,
      1791133765,
      1791133775,
      1791133797,
      1791133817,
      1791133850,
      1791133862,
      1791133900,
      1791133947,
      1791133953,
      1791133990,
      1791134012,
      1791134038,
      1791134057,
      1791134086,
      1791134117,
      1791134149,
      1791134164,
      1791134197,
      1791134229,
      1791134240,
      1791134269,
      1791134286,
      1791134322
    ],
    "wof:geomhash": "d48be32e5bc989755228b78ba7a69fb3",
    "wof:id": 2048510959,
    "wof:repo": "sfomuseum-data-flights-2026-10"
  },
  "bbox": [
    -122.35866,
    36.72535,
    -121.89403,
    37.61186
  ],
  "geometry": {"type":"LineString","coordinates":[[-121.89403,36.72535],[-121.89513,36.74082],[-121.90195,36.76955],[-121.91526,36.81757],[-121.92208,36.84224],[-121.93958,36.90442],[-121.9454,36.92522],[-121.97128,36.99878],[-121.97825,37.01681],[-121.99713,37.06547],[-122.0247,37.1358],[-122.03819,37.17053],[-122.04289,37.18255],[-122.05286,37.20795],[-122.06195,37.23099],[-122.07748,37.26969],[-122.08325,37.28434],[-122.09966,37.32767],[-122.12088,37.38082],[-122.12314,37.38731],[-122.13526,37.4283],[-122.1329,37.45232],[-122.13014,37.48197],[-122.13828,37.50105],[-122.16089,37.52599],[-122.19168,37.54172],[-122.22348,37.55499],[-122.23785,37.56103],[-122.26864,37.57399],[-122.29407,37.58468],[-122.30249,37.58821],[-122.32268,37.59678],[-122.334,37.60157],[-122.35866,37.61186]]}
}
