{
  "id": 2048546147,
  "type": "Feature",
  "properties": {
    "geom:area": 0,
    "geom:bbox": "-122.382930,36.765010,-121.900750,37.613100",
    "geom:latitude": 37.2680128054646,
    "geom:longitude": -122.1620137488682,
    "src:alt_label": "swim-approach",
    "src:geom": "swim",
    "swim:elevations": [
      5208,
      5144,
      4804,
      4666,
      4382,
      3993,
      3910,
      3656,
      3492,
      3294,
      3045,
      2952,
      2738,
      2743,
      2743,
      2659,
      2389,
      2239,
      2135,
      2105,
      1952,
      1831,
      1829,
      1829,
      1818,
      1737,
      1535,
      1524,
      1524,
      1493,
      1363,
      1154,
      1090,
      1003,
      862,
      673,
      548,
      400,
      287,
      182,
      155,
      112,
      0
    ],
    "swim:geom": "approach",
    "swim:timestamps": [
      1791448888,
      1791448896,
      1791448936,
      1791448951,
      1791448984,
      1791449034,
      1791449042,
      1791449080,
      1791449103,
      1791449132,
      1791449167,
      1791449181,
      1791449215,
      1791449244,
      1791449263,
      1791449291,
      1791449333,
      1791449358,
      1791449395,
      1791449420,
      1791449454,
      1791449487,
      1791449496,
      1791449521,
      1791449571,
      1791449583,
      1791449628,
      1791449654,
      1791449693,
      1791449715,
      1791449744,
      1791449783,
      1791449803,
      1791449829,
      1791449865,
      1791449902,
      1791449937,
      1791449968,
      1791449992,
      1791450022,
      1791450028,
      1791450042,
      1791450069
    ],
    "wof:geomhash": "e554fd20b11fde6b4bd2561aef0383b5",
    "wof:id": 2048546147,
    "wof:repo": "sfomuseum-data-flights-2026-10"
  },
  "bbox": [
    -122.38293,
    36.76501,
    -121.90075,
    37.6131
  ],
  "geometry": {"type":"LineString","coordinates":[[-121.90075,36.76501],[-121.90434,36.77818],[-121.92083,36.83719],[-121.92679,36.859],[-121.94049,36.90761],[-121.96371,36.97884],[-121.96884,36.99085],[-122.01272,37.03511],[-122.04276,37.06039],[-122.07946,37.09124],[-122.12424,37.12893],[-122.14148,37.14354],[-122.18089,37.17762],[-122.21147,37.20425],[-122.23076,37.2209],[-122.25914,37.24523],[-122.3015,37.28194],[-122.32633,37.30358],[-122.36176,37.33413],[-122.38293,37.35654],[-122.37802,37.39377],[-122.35352,37.42287],[-122.34276,37.42509],[-122.30924,37.42],[-122.244,37.40657],[-122.22783,37.40529],[-122.16705,37.4005],[-122.13641,37.40935],[-122.09311,37.43352],[-122.08124,37.45336],[-122.09446,37.47798],[-122.12047,37.50733],[-122.13628,37.51812],[-122.15896,37.52758],[-122.19213,37.54192],[-122.22635,37.55604],[-122.25779,37.56941],[-122.28482,37.58082],[-122.30373,37.58875],[-122.32662,37.59818],[-122.33102,37.59999],[-122.34122,37.60433],[-122.36082,37.6131]]}
}
