{
  "id": 2048520023,
  "type": "Feature",
  "properties": {
    "date:cessation_lower": "2026-10-05",
    "date:cessation_upper": "2026-10-05",
    "date:inception_lower": "1970-01-01",
    "date:inception_upper": "1970-01-01",
    "edtf:cessation": "2026-10-05T16:38:40-07:00",
    "edtf:inception": "1970-01-01T00:00:00Z",
    "flysfo:actual_timestamp": -1,
    "flysfo:airline": "WN",
    "flysfo:date": "2026-10-05",
    "flysfo:estimated_timestamp": 1791269040,
    "flysfo:event": "A",
    "flysfo:flight_number": "WN1640",
    "flysfo:gate": "D10",
    "flysfo:journey": "LAS-SFO",
    "flysfo:scheduled_timestamp": 1791267600,
    "flysfo:timestamp": 1791269040,
    "geom:area": 0,
    "geom:bbox": "-122.370943,36.081003,-115.156440,37.617990",
    "geom:latitude": 36.8494965,
    "geom:longitude": -118.7636915,
    "iata:airline": "WN",
    "icao:aircraft": "B737",
    "icao:airline": "SWA",
    "lbl:latitude": 37.617908,
    "lbl:longitude": -122.381084,
    "sfomuseum:aircraft_id": 1159289869,
    "sfomuseum:airline_id": 1159285591,
    "sfomuseum:arrival_id": 102527513,
    "sfomuseum:departure_id": 102527209,
    "sfomuseum:flight_id": "20261005-A-SWA-1640",
    "sfomuseum:flight_number": [
      "SWA1640",
      "WN1640"
    ],
    "sfomuseum:placetype": "flight",
    "src:geom": "flysfo",
    "src:geom_alt": [
      "swim-approach"
    ],
    "swim:tail_number": "N7847A",
    "wof:belongsto": [
      1947304067,
      102527513,
      1947304595,
      102191575,
      85633793,
      102087579,
      85922583,
      554784711,
      85688637,
      1947304603,
      1947304591,
      102085387
    ],
    "wof:country": "US",
    "wof:created": 1791302832,
    "wof:geomhash": "fcf5095e8d1a14d003993bc5070a7f0f",
    "wof:hierarchy": [
      {
        "building_id": 1947304067,
        "campus_id": 102527513,
        "concourse_id": 1947304595,
        "continent_id": 102191575,
        "country_id": 85633793,
        "county_id": 102087579,
        "custom_id": 2048520023,
        "flight_id": 2048520023,
        "locality_id": 85922583,
        "postalcode_id": 554784711,
        "region_id": 85688637,
        "venue_id": 1947304603,
        "wing_id": 1947304591
      },
      {
        "building_id": 1947304067,
        "campus_id": 102527513,
        "concourse_id": 1947304595,
        "continent_id": 102191575,
        "country_id": 85633793,
        "county_id": 102085387,
        "custom_id": 2048520023,
        "flight_id": 2048520023,
        "region_id": 85688637,
        "venue_id": 1947304603,
        "wing_id": 1947304591
      }
    ],
    "wof:id": 2048520023,
    "wof:involves": [
      1159285591,
      1947304603,
      1159289869,
      102527513,
      102527209
    ],
    "wof:lastmodified": 1791303555,
    "wof:name": "WN1640 (LAS-SFO)",
    "wof:parent_id": 1947304603,
    "wof:placetype": "custom",
    "wof:placetype_alt": [
      "flight"
    ],
    "wof:repo": "sfomuseum-data-flights-2026-10",
    "wof:superseded_by": [],
    "wof:supersedes": []
  },
  "bbox": [
    -122.370943,
    36.081003,
    -115.15644,
    37.61799
  ],
  "geometry": {"type":"MultiPoint","coordinates":[[-115.15644,36.081003],[-122.370943,37.61799]]}
}
