{
  "id": 2048521641,
  "type": "Feature",
  "properties": {
    "geom:area": 0,
    "geom:bbox": "-122.526460,37.624250,-121.249700,37.975380",
    "geom:latitude": 37.866624071341874,
    "geom:longitude": -121.98772204919709,
    "src:alt_label": "swim-takeoff",
    "src:geom": "swim",
    "swim:elevations": [
      152,
      383,
      519,
      615,
      821,
      1051,
      1540,
      1635,
      1982,
      2197,
      2483,
      2787,
      3050,
      3387,
      3676,
      3993,
      4283,
      4638,
      4816,
      5020,
      5149,
      5301,
      5458,
      5594,
      5656,
      5844,
      5932,
      6116,
      6351,
      6665,
      6772
    ],
    "swim:geom": "takeoff",
    "swim:timestamps": [
      1791268137,
      1791268162,
      1791268192,
      1791268213,
      1791268244,
      1791268271,
      1791268316,
      1791268325,
      1791268358,
      1791268376,
      1791268400,
      1791268427,
      1791268448,
      1791268494,
      1791268528,
      1791268556,
      1791268583,
      1791268618,
      1791268640,
      1791268664,
      1791268683,
      1791268724,
      1791268762,
      1791268788,
      1791268800,
      1791268826,
      1791268835,
      1791268864,
      1791268896,
      1791268944,
      1791268961
    ],
    "wof:geomhash": "fe3b86cf671312405b8c076998a5abbf",
    "wof:id": 2048521641,
    "wof:repo": "sfomuseum-data-flights-2026-10"
  },
  "bbox": [
    -122.52646,
    37.62425,
    -121.2497,
    37.97538
  ],
  "geometry": {"type":"LineString","coordinates":[[-122.38819,37.62425],[-122.40931,37.63332],[-122.43834,37.64573],[-122.46156,37.65619],[-122.49867,37.67242],[-122.52264,37.69775],[-122.52597,37.7529],[-122.52646,37.76431],[-122.51403,37.80503],[-122.48968,37.81848],[-122.4531,37.8312],[-122.40908,37.84085],[-122.37403,37.84513],[-122.29335,37.85496],[-122.22867,37.86282],[-122.1747,37.86928],[-122.12173,37.87558],[-122.05371,37.88356],[-122.00969,37.88876],[-121.96027,37.89449],[-121.91998,37.89925],[-121.83112,37.90956],[-121.74295,37.91967],[-121.67995,37.92701],[-121.65063,37.93037],[-121.58619,37.93768],[-121.56389,37.94017],[-121.49211,37.94822],[-121.41217,37.95727],[-121.29118,37.97076],[-121.2497,37.97538]]}
}
