{
  "id": 2048501729,
  "type": "Feature",
  "properties": {
    "geom:area": 0,
    "geom:bbox": "-122.352040,37.490950,-121.245470,37.611390",
    "geom:latitude": 37.542308070005646,
    "geom:longitude": -121.80575590683539,
    "src:alt_label": "swim-approach",
    "src:geom": "swim",
    "swim:elevations": [
      4550,
      4337,
      3954,
      3670,
      3445,
      3167,
      3067,
      2977,
      2517,
      2438,
      2417,
      2310,
      2102,
      2038,
      1810,
      1688,
      1496,
      1307,
      1164,
      1002,
      881,
      738,
      716,
      462,
      353,
      241,
      143,
      60
    ],
    "swim:geom": "approach",
    "swim:timestamps": [
      1791074217,
      1791074238,
      1791074277,
      1791074307,
      1791074328,
      1791074367,
      1791074397,
      1791074418,
      1791074457,
      1791074478,
      1791074518,
      1791074537,
      1791074576,
      1791074588,
      1791074636,
      1791074654,
      1791074687,
      1791074720,
      1791074744,
      1791074786,
      1791074814,
      1791074847,
      1791074854,
      1791074903,
      1791074927,
      1791074954,
      1791074984,
      1791075011
    ],
    "wof:geomhash": "070e582b6c95e7635e7fbe85658c8b2b",
    "wof:id": 2048501729,
    "wof:repo": "sfomuseum-data-flights-2026-10"
  },
  "bbox": [
    -122.35204,
    37.49095,
    -121.24547,
    37.61139
  ],
  "geometry": {"type":"LineString","coordinates":[[-121.24547,37.59463],[-121.28873,37.58888],[-121.37007,37.57931],[-121.43399,37.57218],[-121.47809,37.56726],[-121.55455,37.55863],[-121.60644,37.55234],[-121.64183,37.54624],[-121.70655,37.53078],[-121.73942,37.52292],[-121.79783,37.50897],[-121.82631,37.50208],[-121.88105,37.49095],[-121.89803,37.49184],[-121.96382,37.496],[-121.98848,37.49726],[-122.03371,37.49961],[-122.07724,37.50212],[-122.10579,37.50708],[-122.14943,37.52605],[-122.17843,37.53831],[-122.21233,37.55256],[-122.21946,37.5556],[-122.26924,37.57658],[-122.29018,37.58536],[-122.31061,37.59401],[-122.33228,37.60312],[-122.35204,37.61139]]}
}
