{
  "id": 2048488799,
  "type": "Feature",
  "properties": {
    "date:inception_lower": "2026-10-01",
    "date:inception_upper": "2026-10-01",
    "edtf:cessation": "",
    "edtf:inception": "2026-10-01",
    "flysfo:actual_timestamp": -1,
    "flysfo:airline": "LX",
    "flysfo:base_airline": "",
    "flysfo:base_flight_number": "4396",
    "flysfo:date": "2026-10-01",
    "flysfo:estimated_timestamp": 1790912520,
    "flysfo:event": "D",
    "flysfo:flight_number": "LX3346",
    "flysfo:gate": "F5",
    "flysfo:journey": "SFO-BUR",
    "flysfo:scheduled_timestamp": 1790912160,
    "flysfo:timestamp": 1790912520,
    "geom:area": 0,
    "geom:bbox": "-122.370943,34.196704,-118.353322,37.617990",
    "geom:latitude": 35.907347,
    "geom:longitude": -120.3621325,
    "iata:airline": "LX",
    "iata:base_airline": "",
    "icao:airline": "SWR",
    "icao:base_airline": "ACA",
    "lbl:latitude": 37.620164,
    "lbl:longitude": -122.387194,
    "sfomuseum:airline_id": 1159286475,
    "sfomuseum:arrival_id": 1746879083,
    "sfomuseum:base_flight_id": "20261001-D-ACA-4396",
    "sfomuseum:departure_id": 102527513,
    "sfomuseum:flight_id": "20261001-D-SWR-3346",
    "sfomuseum:flight_number": [
      "SWR3346",
      "LX3346"
    ],
    "sfomuseum:placetype": "flight",
    "src:geom": "flysfo",
    "wof:belongsto": [
      1914600839,
      102527513,
      1914600845,
      102191575,
      85633793,
      102087579,
      85922583,
      554784711,
      85688637,
      1930457221,
      1914600841,
      102085387
    ],
    "wof:country": "US",
    "wof:created": 1790957740,
    "wof:geomhash": "5b5841a3ebf3c57d9843115edfb8ee6b",
    "wof:hierarchy": [
      {
        "building_id": 1914600839,
        "campus_id": 102527513,
        "concourse_id": 1914600845,
        "continent_id": 102191575,
        "country_id": 85633793,
        "county_id": 102087579,
        "custom_id": 2048488799,
        "flight_id": 2048488799,
        "locality_id": 85922583,
        "postalcode_id": 554784711,
        "region_id": 85688637,
        "venue_id": 1930457221,
        "wing_id": 1914600841
      },
      {
        "building_id": 1914600839,
        "campus_id": 102527513,
        "concourse_id": 1914600845,
        "continent_id": 102191575,
        "country_id": 85633793,
        "county_id": 102085387,
        "custom_id": 2048488799,
        "flight_id": 2048488799,
        "region_id": 85688637,
        "venue_id": 1930457221,
        "wing_id": 1914600841
      }
    ],
    "wof:id": 2048488799,
    "wof:involves": [
      1746879083,
      102527513,
      1159286475,
      1930457221,
      1159283597
    ],
    "wof:lastmodified": 1790957740,
    "wof:name": "LX3346 (SFO-BUR)",
    "wof:parent_id": 1930457221,
    "wof:placetype": "custom",
    "wof:placetype_alt": [
      "flight"
    ],
    "wof:repo": "sfomuseum-data-flights-2026-10",
    "wof:superseded_by": [],
    "wof:supersedes": []
  },
  "bbox": [
    -122.370943,
    34.196704,
    -118.353322,
    37.61799
  ],
  "geometry": {"type":"MultiPoint","coordinates":[[-122.370943,37.61799],[-118.353322,34.196704]]}
}
