{
  "id": 2048518909,
  "type": "Feature",
  "properties": {
    "geom:area": 0,
    "geom:bbox": "-122.357670,37.492060,-121.291770,37.613460",
    "geom:latitude": 37.54103913004221,
    "geom:longitude": -121.83149340718919,
    "src:alt_label": "swim-approach",
    "src:geom": "swim",
    "swim:elevations": [
      4813,
      4734,
      4295,
      3965,
      3676,
      3327,
      3109,
      2948,
      2864,
      2711,
      2409,
      2289,
      2255,
      2147,
      2018,
      1805,
      1706,
      1336,
      1269,
      1107,
      978,
      855,
      699,
      580,
      426,
      337,
      212,
      89,
      130
    ],
    "swim:geom": "approach",
    "swim:timestamps": [
      1791243895,
      1791243906,
      1791243948,
      1791243977,
      1791244007,
      1791244046,
      1791244074,
      1791244101,
      1791244112,
      1791244141,
      1791244192,
      1791244212,
      1791244224,
      1791244245,
      1791244263,
      1791244306,
      1791244321,
      1791244378,
      1791244387,
      1791244433,
      1791244460,
      1791244481,
      1791244513,
      1791244537,
      1791244572,
      1791244598,
      1791244639,
      1791244669,
      1791244684
    ],
    "wof:geomhash": "a269f25386566d739b9e44f3c48c4f90",
    "wof:id": 2048518909,
    "wof:repo": "sfomuseum-data-flights-2026-10"
  },
  "bbox": [
    -122.35767,
    37.49206,
    -121.29177,
    37.61346
  ],
  "geometry": {"type":"LineString","coordinates":[[-121.29177,37.58901],[-121.31237,37.5867],[-121.38866,37.57843],[-121.44051,37.57242],[-121.49431,37.56609],[-121.56324,37.55802],[-121.6116,37.55202],[-121.65739,37.54295],[-121.67625,37.53857],[-121.72211,37.52761],[-121.80318,37.50817],[-121.83291,37.50106],[-121.85051,37.49681],[-121.87952,37.49206],[-121.90546,37.49233],[-121.9662,37.49595],[-121.98739,37.49726],[-122.0687,37.50199],[-122.08155,37.50279],[-122.13759,37.5209],[-122.16732,37.53358],[-122.19044,37.54334],[-122.22348,37.55729],[-122.24683,37.56716],[-122.27725,37.57991],[-122.29584,37.58771],[-122.32608,37.60045],[-122.34798,37.60969],[-122.35767,37.61346]]}
}
