{
  "id": 2048498583,
  "type": "Feature",
  "properties": {
    "date:inception_lower": "2026-10-02",
    "date:inception_upper": "2026-10-02",
    "edtf:cessation": "",
    "edtf:inception": "2026-10-02",
    "flysfo:actual_timestamp": -1,
    "flysfo:airline": "UA",
    "flysfo:date": "2026-10-02",
    "flysfo:estimated_timestamp": 1790948640,
    "flysfo:event": "D",
    "flysfo:flight_number": "UA5192",
    "flysfo:gate": "F5",
    "flysfo:journey": "SFO-OTH",
    "flysfo:scheduled_timestamp": 1790947800,
    "flysfo:timestamp": 1790948640,
    "geom:area": 0,
    "geom:bbox": "-124.243730,37.617990,-122.370943,43.417060",
    "geom:latitude": 40.517525,
    "geom:longitude": -123.30733649999999,
    "iata:airline": "UA",
    "icao:airline": "UAL",
    "lbl:latitude": 37.620164,
    "lbl:longitude": -122.387194,
    "sfomuseum:airline_id": 1159285413,
    "sfomuseum:arrival_id": 102530081,
    "sfomuseum:departure_id": 102527513,
    "sfomuseum:flight_id": "20261002-D-UAL-5192",
    "sfomuseum:flight_number": [
      "UAL5192",
      "UA5192"
    ],
    "sfomuseum:placetype": "flight",
    "src:geom": "flysfo",
    "wof:belongsto": [
      1914600839,
      102527513,
      1914600845,
      102191575,
      85633793,
      102087579,
      85922583,
      554784711,
      85688637,
      1930457221,
      1914600841,
      102085387
    ],
    "wof:country": "US",
    "wof:created": 1791044181,
    "wof:geomhash": "35bbc0945da54b0b429931c4fc7f97cd",
    "wof:hierarchy": [
      {
        "building_id": 1914600839,
        "campus_id": 102527513,
        "concourse_id": 1914600845,
        "continent_id": 102191575,
        "country_id": 85633793,
        "county_id": 102087579,
        "custom_id": 2048498583,
        "flight_id": 2048498583,
        "locality_id": 85922583,
        "postalcode_id": 554784711,
        "region_id": 85688637,
        "venue_id": 1930457221,
        "wing_id": 1914600841
      },
      {
        "building_id": 1914600839,
        "campus_id": 102527513,
        "concourse_id": 1914600845,
        "continent_id": 102191575,
        "country_id": 85633793,
        "county_id": 102085387,
        "custom_id": 2048498583,
        "flight_id": 2048498583,
        "region_id": 85688637,
        "venue_id": 1930457221,
        "wing_id": 1914600841
      }
    ],
    "wof:id": 2048498583,
    "wof:involves": [
      102530081,
      102527513,
      1159285413,
      1930457221
    ],
    "wof:lastmodified": 1791044181,
    "wof:name": "UA5192 (SFO-OTH)",
    "wof:parent_id": 1930457221,
    "wof:placetype": "custom",
    "wof:placetype_alt": [
      "flight"
    ],
    "wof:repo": "sfomuseum-data-flights-2026-10",
    "wof:superseded_by": [],
    "wof:supersedes": []
  },
  "bbox": [
    -124.24373,
    37.61799,
    -122.370943,
    43.41706
  ],
  "geometry": {"type":"MultiPoint","coordinates":[[-122.370943,37.61799],[-124.24373,43.41706]]}
}
