{
  "id": 2048537857,
  "type": "Feature",
  "properties": {
    "geom:area": 0,
    "geom:bbox": "-122.361410,36.721310,-121.877940,37.616350",
    "geom:latitude": 37.22381729853646,
    "geom:longitude": -122.12338514739301,
    "src:alt_label": "swim-approach",
    "src:geom": "swim",
    "swim:elevations": [
      5667,
      5447,
      5115,
      4790,
      4574,
      4544,
      4330,
      4105,
      3900,
      3811,
      3586,
      3517,
      3259,
      3198,
      3139,
      3109,
      3077,
      2988,
      2768,
      2438,
      2340,
      1961,
      1845,
      1648,
      1617,
      1548,
      1529,
      1460,
      1433,
      1255,
      1077,
      915,
      676,
      642,
      538,
      494,
      280,
      213,
      73,
      0
    ],
    "swim:geom": "approach",
    "swim:timestamps": [
      1791403869,
      1791403892,
      1791403930,
      1791403962,
      1791404006,
      1791404014,
      1791404065,
      1791404098,
      1791404121,
      1791404131,
      1791404155,
      1791404162,
      1791404207,
      1791404216,
      1791404226,
      1791404235,
      1791404257,
      1791404281,
      1791404318,
      1791404358,
      1791404373,
      1791404422,
      1791404441,
      1791404485,
      1791404498,
      1791404522,
      1791404578,
      1791404605,
      1791404618,
      1791404654,
      1791404685,
      1791404713,
      1791404757,
      1791404766,
      1791404784,
      1791404790,
      1791404844,
      1791404857,
      1791404893,
      1791404910
    ],
    "wof:geomhash": "c8ee35682d5c7326de6141f563b71719",
    "wof:id": 2048537857,
    "wof:repo": "sfomuseum-data-flights-2026-10"
  },
  "bbox": [
    -122.36141,
    36.72131,
    -121.87794,
    37.61635
  ],
  "geometry": {"type":"LineString","coordinates":[[-121.87794,36.72131],[-121.89683,36.7554],[-121.91531,36.81763],[-121.9295,36.86845],[-121.94918,36.93874],[-121.95269,36.95062],[-121.97973,37.02061],[-121.99709,37.06358],[-122.02401,37.08767],[-122.03776,37.09492],[-122.07261,37.11318],[-122.08423,37.11933],[-122.1499,37.15441],[-122.16306,37.1618],[-122.17585,37.16899],[-122.18956,37.17655],[-122.21868,37.19264],[-122.24937,37.20956],[-122.2937,37.23436],[-122.30695,37.27642],[-122.29445,37.29043],[-122.24763,37.33235],[-122.2298,37.34791],[-122.18903,37.38232],[-122.17693,37.39243],[-122.15365,37.41179],[-122.1167,37.46417],[-122.10577,37.49132],[-122.11002,37.50258],[-122.14168,37.52274],[-122.16915,37.5372],[-122.19454,37.5502],[-122.23284,37.5701],[-122.24008,37.57388],[-122.25597,37.58153],[-122.26161,37.5832],[-122.30899,37.59703],[-122.31976,37.60026],[-122.34914,37.6101],[-122.36141,37.61635]]}
}
