{
  "id": 2048555777,
  "type": "Feature",
  "properties": {
    "geom:area": 0,
    "geom:bbox": "-122.363050,37.491850,-121.243470,37.616130",
    "geom:latitude": 37.54348212505165,
    "geom:longitude": -121.81050231177495,
    "src:alt_label": "swim-approach",
    "src:geom": "swim",
    "swim:elevations": [
      4648,
      4344,
      4261,
      3781,
      3489,
      3385,
      3292,
      3193,
      3170,
      3041,
      2960,
      2752,
      2576,
      2540,
      2283,
      2072,
      1981,
      1829,
      1829,
      1512,
      1421,
      1275,
      1139,
      984,
      885,
      781,
      744,
      637,
      522,
      489,
      384,
      256,
      150,
      15,
      0
    ],
    "swim:geom": "approach",
    "swim:timestamps": [
      1791532403,
      1791532435,
      1791532441,
      1791532492,
      1791532521,
      1791532532,
      1791532541,
      1791532552,
      1791532561,
      1791532612,
      1791532623,
      1791532651,
      1791532676,
      1791532682,
      1791532733,
      1791532763,
      1791532778,
      1791532820,
      1791532835,
      1791532883,
      1791532900,
      1791532922,
      1791532945,
      1791532970,
      1791532990,
      1791533010,
      1791533020,
      1791533042,
      1791533065,
      1791533074,
      1791533100,
      1791533128,
      1791533154,
      1791533185,
      1791533192
    ],
    "wof:geomhash": "3b965efa9f18fe7064d9e7d464b8da05",
    "wof:id": 2048555777,
    "wof:repo": "sfomuseum-data-flights-2026-10"
  },
  "bbox": [
    -122.36305,
    37.49185,
    -121.24347,
    37.61613
  ],
  "geometry": {"type":"LineString","coordinates":[[-121.24347,37.59529],[-121.30812,37.58707],[-121.32086,37.58569],[-121.42317,37.57457],[-121.48158,37.56745],[-121.50411,37.56476],[-121.52265,37.56251],[-121.54291,37.56016],[-121.56066,37.55809],[-121.65265,37.54414],[-121.67112,37.53984],[-121.71724,37.52891],[-121.7574,37.51929],[-121.76702,37.517],[-121.84543,37.49805],[-121.89125,37.49185],[-121.91462,37.49327],[-121.97646,37.49656],[-121.99808,37.49782],[-122.06425,37.50154],[-122.08711,37.50303],[-122.11488,37.51074],[-122.14139,37.52272],[-122.16848,37.53423],[-122.19054,37.54342],[-122.20954,37.55149],[-122.21877,37.55543],[-122.23989,37.56427],[-122.26061,37.57298],[-122.26808,37.5761],[-122.289,37.58499],[-122.31192,37.59456],[-122.33331,37.60357],[-122.35808,37.61397],[-122.36305,37.61613]]}
}
