{
  "id": 2048540551,
  "type": "Feature",
  "properties": {
    "date:cessation_lower": "1970-01-01",
    "date:cessation_upper": "1970-01-01",
    "date:inception_lower": "2026-10-07",
    "date:inception_upper": "2026-10-07",
    "edtf:cessation": "1970-01-01T00:00:00Z",
    "edtf:inception": "2026-10-07T16:48:55-07:00",
    "flysfo:actual_timestamp": -1,
    "flysfo:airline": "DL",
    "flysfo:date": "2026-10-07",
    "flysfo:estimated_timestamp": 1791441000,
    "flysfo:event": "D",
    "flysfo:flight_number": "DL8963",
    "flysfo:gate": "",
    "flysfo:journey": "SFO-LAS",
    "flysfo:scheduled_timestamp": 1791437400,
    "flysfo:timestamp": 1791441000,
    "geom:area": 0,
    "geom:bbox": "-122.370943,36.081003,-115.156440,37.617990",
    "geom:latitude": 36.8494965,
    "geom:longitude": -118.7636915,
    "iata:airline": "DL",
    "icao:aircraft": "B752",
    "icao:airline": "DAL",
    "lbl:latitude": 37.61799,
    "lbl:longitude": -122.370943,
    "sfomuseum:aircraft_id": 1159289939,
    "sfomuseum:airline_id": 1159284261,
    "sfomuseum:arrival_id": 102527209,
    "sfomuseum:departure_id": 102527513,
    "sfomuseum:flight_id": "20261007-D-DAL-8963",
    "sfomuseum:flight_number": [
      "DAL8963",
      "DL8963"
    ],
    "sfomuseum:placetype": "flight",
    "src:geom": "flysfo",
    "src:geom_alt": [
      "swim-takeoff"
    ],
    "swim:tail_number": "N654DL",
    "wof:belongsto": [],
    "wof:country": "US",
    "wof:created": 1791475997,
    "wof:geomhash": "ccf694144ef1f7a2823fe9bc7c6018ea",
    "wof:hierarchy": [
      {
        "custom_id": 2048540551,
        "flight_id": 2048540551
      }
    ],
    "wof:id": 2048540551,
    "wof:involves": [
      1159284261,
      1159289939,
      102527209,
      102527513
    ],
    "wof:lastmodified": 1791476320,
    "wof:name": "DL8963 (SFO-LAS)",
    "wof:parent_id": -1,
    "wof:placetype": "custom",
    "wof:placetype_alt": [
      "flight"
    ],
    "wof:repo": "sfomuseum-data-flights-2026-10",
    "wof:superseded_by": [],
    "wof:supersedes": []
  },
  "bbox": [
    -122.370943,
    36.081003,
    -115.15644,
    37.61799
  ],
  "geometry": {"type":"MultiPoint","coordinates":[[-122.370943,37.61799],[-115.15644,36.081003]]}
}
