{
  "id": 2048538175,
  "type": "Feature",
  "properties": {
    "geom:area": 0,
    "geom:bbox": "-122.761130,37.421830,-122.135830,38.510090",
    "geom:latitude": 37.88309037170197,
    "geom:longitude": -122.53884922306246,
    "src:alt_label": "swim-approach",
    "src:geom": "swim",
    "swim:elevations": [
      7447,
      7190,
      6945,
      6468,
      6177,
      6052,
      5655,
      5467,
      5127,
      4826,
      4758,
      4352,
      4228,
      3818,
      3529,
      3436,
      3351,
      3353,
      3353,
      3353,
      3353,
      3353,
      3267,
      3131,
      2890,
      2503,
      2292,
      2077,
      1931,
      1694,
      1510,
      1478,
      1314
    ],
    "swim:geom": "approach",
    "swim:timestamps": [
      1791386978,
      1791387005,
      1791387030,
      1791387080,
      1791387113,
      1791387127,
      1791387170,
      1791387188,
      1791387228,
      1791387264,
      1791387270,
      1791387317,
      1791387332,
      1791387376,
      1791387409,
      1791387432,
      1791387462,
      1791387485,
      1791387515,
      1791387537,
      1791387541,
      1791387570,
      1791387610,
      1791387637,
      1791387670,
      1791387718,
      1791387745,
      1791387778,
      1791387799,
      1791387833,
      1791387867,
      1791387875,
      1791387917
    ],
    "wof:geomhash": "34ce480a796b28a1f515572fdfd79574",
    "wof:id": 2048538175,
    "wof:repo": "sfomuseum-data-flights-2026-10"
  },
  "bbox": [
    -122.76113,
    37.42183,
    -122.13583,
    38.51009
  ],
  "geometry": {"type":"LineString","coordinates":[[-122.6875,38.51009],[-122.70174,38.45978],[-122.71448,38.41483],[-122.73979,38.32336],[-122.75625,38.26502],[-122.76113,38.24051],[-122.74966,38.16391],[-122.74057,38.13267],[-122.72096,38.06439],[-122.70347,38.00413],[-122.70062,37.99426],[-122.67781,37.91828],[-122.66493,37.89564],[-122.60873,37.83898],[-122.56602,37.79841],[-122.5376,37.77164],[-122.50261,37.73841],[-122.47773,37.7148],[-122.44845,37.68732],[-122.4268,37.66699],[-122.42298,37.66341],[-122.39567,37.63764],[-122.35879,37.60003],[-122.34215,37.57229],[-122.32214,37.53788],[-122.293,37.48791],[-122.27701,37.46054],[-122.24834,37.43023],[-122.221,37.42183],[-122.17611,37.43458],[-122.14887,37.46512],[-122.14469,37.47261],[-122.13583,37.5095]]}
}
