{
  "id": 2048537761,
  "type": "Feature",
  "properties": {
    "geom:area": 0,
    "geom:bbox": "-122.865860,37.383850,-122.145700,38.450920",
    "geom:latitude": 37.79327190022566,
    "geom:longitude": -122.49563701299272,
    "src:alt_label": "swim-approach",
    "src:geom": "swim",
    "swim:elevations": [
      7620,
      7413,
      7171,
      6770,
      6408,
      6223,
      5844,
      5638,
      5519,
      5393,
      5131,
      4779,
      4534,
      4191,
      3925,
      3701,
      3476,
      3353,
      3353,
      3353,
      3353,
      3353,
      3343,
      3249,
      3043,
      2927,
      2739,
      2541,
      2372,
      2295,
      2159,
      1969,
      1892,
      1645,
      1520,
      1410,
      1219,
      1219,
      1140,
      1016,
      853,
      669,
      550,
      455,
      425,
      250,
      205,
      94,
      25
    ],
    "swim:geom": "approach",
    "swim:timestamps": [
      1791362638,
      1791362658,
      1791362684,
      1791362721,
      1791362756,
      1791362776,
      1791362817,
      1791362839,
      1791362853,
      1791362866,
      1791362895,
      1791362931,
      1791362956,
      1791362996,
      1791363027,
      1791363051,
      1791363077,
      1791363115,
      1791363137,
      1791363177,
      1791363183,
      1791363237,
      1791363241,
      1791363259,
      1791363298,
      1791363318,
      1791363353,
      1791363381,
      1791363404,
      1791363416,
      1791363438,
      1791363477,
      1791363493,
      1791363533,
      1791363553,
      1791363575,
      1791363626,
      1791363654,
      1791363685,
      1791363702,
      1791363722,
      1791363773,
      1791363803,
      1791363834,
      1791363843,
      1791363887,
      1791363902,
      1791363931,
      1791363948
    ],
    "wof:geomhash": "9c97b79f64db2a4cfa17676ad6a6233e",
    "wof:id": 2048537761,
    "wof:repo": "sfomuseum-data-flights-2026-10"
  },
  "bbox": [
    -122.86586,
    37.38385,
    -122.1457,
    38.45092
  ],
  "geometry": {"type":"LineString","coordinates":[[-122.86586,38.45092],[-122.84989,38.41435],[-122.83022,38.36909],[-122.80295,38.30627],[-122.77753,38.24791],[-122.76437,38.21422],[-122.74482,38.14658],[-122.73416,38.11004],[-122.72789,38.08848],[-122.72143,38.06618],[-122.70815,38.02015],[-122.69165,37.96305],[-122.67996,37.92289],[-122.64045,37.8685],[-122.60091,37.83118],[-122.57116,37.80321],[-122.54003,37.77379],[-122.49465,37.7309],[-122.47089,37.70843],[-122.43247,37.67251],[-122.42694,37.66725],[-122.37763,37.62074],[-122.37421,37.61753],[-122.35984,37.60184],[-122.33815,37.56374],[-122.3289,37.54366],[-122.30952,37.5115],[-122.30481,37.48355],[-122.31222,37.45999],[-122.31617,37.44767],[-122.32333,37.42516],[-122.30664,37.38867],[-122.28595,37.38385],[-122.233,37.39524],[-122.21036,37.40883],[-122.18648,37.42308],[-122.1457,37.45969],[-122.15108,37.48411],[-122.1602,37.50922],[-122.16604,37.52337],[-122.17912,37.5348],[-122.22101,37.55437],[-122.24396,37.56377],[-122.26712,37.57335],[-122.27406,37.57632],[-122.30921,37.591],[-122.3209,37.59595],[-122.34379,37.60551],[-122.35672,37.61098]]}
}
