{
  "id": 2048537945,
  "type": "Feature",
  "properties": {
    "date:inception_lower": "2026-10-07",
    "date:inception_upper": "2026-10-07",
    "edtf:cessation": "",
    "edtf:inception": "2026-10-07",
    "flysfo:actual_timestamp": -1,
    "flysfo:airline": "UA",
    "flysfo:base_airline": "",
    "flysfo:base_flight_number": "8555",
    "flysfo:date": "2026-10-07",
    "flysfo:estimated_timestamp": 1791411840,
    "flysfo:event": "A",
    "flysfo:flight_number": "UA5217",
    "flysfo:gate": "E3",
    "flysfo:journey": "GEG-SFO",
    "flysfo:scheduled_timestamp": 1791412260,
    "flysfo:timestamp": 1791412260,
    "geom:area": 0,
    "geom:bbox": "-122.370943,37.617990,-117.531916,47.625686",
    "geom:latitude": 42.621838,
    "geom:longitude": -119.95142949999999,
    "iata:airline": "UA",
    "iata:base_airline": "",
    "icao:airline": "UAL",
    "icao:base_airline": "DLH",
    "lbl:latitude": 37.618578,
    "lbl:longitude": -122.385434,
    "sfomuseum:airline_id": 1159285413,
    "sfomuseum:arrival_id": 102527513,
    "sfomuseum:base_flight_id": "20261007-A-DLH-8555",
    "sfomuseum:departure_id": 102533331,
    "sfomuseum:flight_id": "20261007-A-UAL-5217",
    "sfomuseum:flight_number": [
      "UAL5217",
      "UA5217"
    ],
    "sfomuseum:placetype": "flight",
    "src:geom": "flysfo",
    "wof:belongsto": [
      1947304067,
      102527513,
      1947304451,
      102191575,
      85633793,
      102087579,
      85922583,
      554784711,
      85688637,
      1947304495,
      1947304447,
      102085387
    ],
    "wof:country": "US",
    "wof:created": 1791475700,
    "wof:geomhash": "a4e0879e5fc6968e3e72ecbd42744790",
    "wof:hierarchy": [
      {
        "building_id": 1947304067,
        "campus_id": 102527513,
        "concourse_id": 1947304451,
        "continent_id": 102191575,
        "country_id": 85633793,
        "county_id": 102087579,
        "custom_id": 2048537945,
        "flight_id": 2048537945,
        "locality_id": 85922583,
        "postalcode_id": 554784711,
        "region_id": 85688637,
        "venue_id": 1947304495,
        "wing_id": 1947304447
      },
      {
        "building_id": 1947304067,
        "campus_id": 102527513,
        "concourse_id": 1947304451,
        "continent_id": 102191575,
        "country_id": 85633793,
        "county_id": 102085387,
        "custom_id": 2048537945,
        "flight_id": 2048537945,
        "region_id": 85688637,
        "venue_id": 1947304495,
        "wing_id": 1947304447
      }
    ],
    "wof:id": 2048537945,
    "wof:involves": [
      102527513,
      102533331,
      1159285413,
      1947304495,
      1159286015
    ],
    "wof:lastmodified": 1791475700,
    "wof:name": "UA5217 (GEG-SFO)",
    "wof:parent_id": 1947304495,
    "wof:placetype": "custom",
    "wof:placetype_alt": [
      "flight"
    ],
    "wof:repo": "sfomuseum-data-flights-2026-10",
    "wof:superseded_by": [],
    "wof:supersedes": []
  },
  "bbox": [
    -122.370943,
    37.61799,
    -117.531916,
    47.625686
  ],
  "geometry": {"type":"MultiPoint","coordinates":[[-117.531916,47.625686],[-122.370943,37.61799]]}
}
