{
  "id": 2048537731,
  "type": "Feature",
  "properties": {
    "geom:area": 0,
    "geom:bbox": "-122.357970,36.726480,-121.881860,37.611490",
    "geom:latitude": 37.21331098934462,
    "geom:longitude": -122.07052514888252,
    "src:alt_label": "swim-approach",
    "src:geom": "swim",
    "swim:elevations": [
      4644,
      4477,
      4183,
      3720,
      3429,
      3156,
      3049,
      3037,
      2729,
      2470,
      2438,
      2438,
      2438,
      2438,
      2388,
      2259,
      2131,
      2087,
      1868,
      1687,
      1219,
      988,
      968,
      699,
      590,
      542,
      366,
      287,
      89,
      89
    ],
    "swim:geom": "approach",
    "swim:timestamps": [
      1791375628,
      1791375641,
      1791375671,
      1791375713,
      1791375739,
      1791375778,
      1791375807,
      1791375811,
      1791375856,
      1791375898,
      1791375928,
      1791375938,
      1791375963,
      1791376005,
      1791376034,
      1791376055,
      1791376106,
      1791376113,
      1791376146,
      1791376170,
      1791376226,
      1791376258,
      1791376261,
      1791376314,
      1791376342,
      1791376353,
      1791376388,
      1791376413,
      1791376468,
      1791376493
    ],
    "wof:geomhash": "2bca4bc44ec5d92cceceb5fe1b3ae7be",
    "wof:id": 2048537731,
    "wof:repo": "sfomuseum-data-flights-2026-10"
  },
  "bbox": [
    -122.35797,
    36.72648,
    -121.88186,
    37.61149
  ],
  "geometry": {"type":"LineString","coordinates":[[-121.88186,36.72648],[-121.89392,36.74659],[-121.90827,36.79401],[-121.92776,36.86307],[-121.93949,36.90477],[-121.95815,36.96571],[-121.97462,37.0075],[-121.97679,37.01307],[-122.00062,37.07454],[-122.02256,37.13062],[-122.03753,37.16912],[-122.04261,37.18217],[-122.05492,37.21364],[-122.07666,37.26895],[-122.09073,37.3047],[-122.10064,37.32976],[-122.12107,37.38225],[-122.12333,37.38913],[-122.13407,37.41955],[-122.14122,37.44186],[-122.15807,37.49091],[-122.1672,37.52012],[-122.16822,37.52279],[-122.21418,37.5511],[-122.24094,37.56242],[-122.25136,37.56676],[-122.28463,37.58077],[-122.30564,37.58924],[-122.34294,37.60529],[-122.35797,37.61149]]}
}
