{
  "id": 2048559819,
  "type": "Feature",
  "properties": {
    "geom:area": 0,
    "geom:bbox": "-122.470270,36.719730,-121.293740,37.715030",
    "geom:latitude": 37.214258525562606,
    "geom:longitude": -121.99413908411462,
    "src:alt_label": "swim-takeoff",
    "src:geom": "swim",
    "swim:elevations": [
      122,
      152,
      476,
      614,
      696,
      843,
      870,
      947,
      1028,
      1098,
      1616,
      1776,
      2306,
      2636,
      2882,
      3263,
      3423,
      3817,
      4025,
      4285,
      4815,
      5002,
      5238,
      5755,
      5862,
      6068,
      6205,
      6507,
      6702,
      6847,
      7242,
      7464,
      7728,
      7850,
      7917,
      8037,
      8274,
      8519
    ],
    "swim:geom": "takeoff",
    "swim:timestamps": [
      1791529587,
      1791529590,
      1791529621,
      1791529645,
      1791529657,
      1791529678,
      1791529687,
      1791529705,
      1791529727,
      1791529747,
      1791529797,
      1791529810,
      1791529856,
      1791529880,
      1791529898,
      1791529940,
      1791529972,
      1791530008,
      1791530024,
      1791530045,
      1791530085,
      1791530104,
      1791530130,
      1791530187,
      1791530198,
      1791530218,
      1791530231,
      1791530267,
      1791530292,
      1791530310,
      1791530355,
      1791530383,
      1791530414,
      1791530433,
      1791530442,
      1791530461,
      1791530495,
      1791530532
    ],
    "wof:geomhash": "8b0fbd27461d6296995b80d9aed816b3",
    "wof:id": 2048559819,
    "wof:repo": "sfomuseum-data-flights-2026-10"
  },
  "bbox": [
    -122.47027,
    36.71973,
    -121.29374,
    37.71503
  ],
  "geometry": {"type":"LineString","coordinates":[[-122.36875,37.62903],[-122.36733,37.631],[-122.3619,37.65502],[-122.362,37.67658],[-122.36282,37.68838],[-122.37617,37.70642],[-122.38586,37.71164],[-122.4098,37.71503],[-122.43885,37.70335],[-122.45174,37.67978],[-122.4584,37.61269],[-122.46013,37.59657],[-122.4681,37.53613],[-122.47027,37.50333],[-122.45809,37.48167],[-122.40334,37.44408],[-122.35482,37.41279],[-122.29554,37.37451],[-122.26957,37.35778],[-122.23384,37.33472],[-122.1666,37.29114],[-122.13353,37.26987],[-122.08776,37.24012],[-121.98395,37.17259],[-121.96394,37.15955],[-121.92558,37.13459],[-121.90185,37.11914],[-121.83217,37.07363],[-121.78477,37.04259],[-121.74945,37.01939],[-121.66045,36.96095],[-121.60264,36.92293],[-121.5404,36.88228],[-121.50255,36.85729],[-121.48228,36.84454],[-121.44402,36.8195],[-121.37174,36.77143],[-121.29374,36.71973]]}
}
