{
  "id": 2048537397,
  "type": "Feature",
  "properties": {
    "date:inception_lower": "2026-10-07",
    "date:inception_upper": "2026-10-07",
    "edtf:cessation": "",
    "edtf:inception": "2026-10-07",
    "flysfo:actual_timestamp": -1,
    "flysfo:airline": "TK",
    "flysfo:date": "2026-10-07",
    "flysfo:estimated_timestamp": 1791415920,
    "flysfo:event": "A",
    "flysfo:flight_number": "TK79",
    "flysfo:gate": "A13",
    "flysfo:journey": "IST-SFO",
    "flysfo:scheduled_timestamp": 1791416400,
    "flysfo:timestamp": 1791416400,
    "geom:area": 0,
    "geom:bbox": "-122.370943,37.617990,28.727778,41.262222",
    "geom:latitude": 39.440106,
    "geom:longitude": -46.8215825,
    "iata:airline": "TK",
    "icao:airline": "THY",
    "lbl:latitude": 37.61799,
    "lbl:longitude": -122.370943,
    "sfomuseum:airline_id": 1159285391,
    "sfomuseum:arrival_id": 102527513,
    "sfomuseum:departure_id": 1779770747,
    "sfomuseum:flight_id": "20261007-A-THY-79",
    "sfomuseum:flight_number": [
      "THY79",
      "TK79"
    ],
    "sfomuseum:placetype": "flight",
    "src:geom": "flysfo",
    "wof:belongsto": [
      1947304067,
      102527513,
      1947304073,
      102191575,
      85633793,
      102087579,
      85922583,
      554784711,
      85688637,
      1947304093,
      1947304069,
      102085387
    ],
    "wof:country": "US",
    "wof:created": 1791475637,
    "wof:geomhash": "4d2f43ff669fe1502d86c3c45d37677c",
    "wof:hierarchy": [
      {
        "building_id": 1947304067,
        "campus_id": 102527513,
        "concourse_id": 1947304073,
        "continent_id": 102191575,
        "country_id": 85633793,
        "county_id": 102087579,
        "custom_id": 2048537397,
        "flight_id": 2048537397,
        "locality_id": 85922583,
        "postalcode_id": 554784711,
        "region_id": 85688637,
        "venue_id": 1947304093,
        "wing_id": 1947304069
      },
      {
        "building_id": 1947304067,
        "campus_id": 102527513,
        "concourse_id": 1947304073,
        "continent_id": 102191575,
        "country_id": 85633793,
        "county_id": 102085387,
        "custom_id": 2048537397,
        "flight_id": 2048537397,
        "region_id": 85688637,
        "venue_id": 1947304093,
        "wing_id": 1947304069
      }
    ],
    "wof:id": 2048537397,
    "wof:involves": [
      102527513,
      1779770747,
      1159285391,
      1947304093
    ],
    "wof:lastmodified": 1791475637,
    "wof:name": "TK79 (IST-SFO)",
    "wof:parent_id": 1947304093,
    "wof:placetype": "custom",
    "wof:placetype_alt": [
      "flight"
    ],
    "wof:repo": "sfomuseum-data-flights-2026-10",
    "wof:superseded_by": [],
    "wof:supersedes": []
  },
  "bbox": [
    -122.370943,
    37.61799,
    28.727778,
    41.262222
  ],
  "geometry": {"type":"MultiPoint","coordinates":[[28.727778,41.262222],[-122.370943,37.61799]]}
}
