{
  "id": 2048530609,
  "type": "Feature",
  "properties": {
    "date:inception_lower": "2026-10-06",
    "date:inception_upper": "2026-10-06",
    "edtf:cessation": "",
    "edtf:inception": "2026-10-06",
    "flysfo:actual_timestamp": -1,
    "flysfo:airline": "AC",
    "flysfo:base_airline": "",
    "flysfo:base_flight_number": "4322",
    "flysfo:date": "2026-10-06",
    "flysfo:estimated_timestamp": 1791319140,
    "flysfo:event": "D",
    "flysfo:flight_number": "AC4322",
    "flysfo:gate": "F6",
    "flysfo:journey": "SFO-ONT",
    "flysfo:scheduled_timestamp": 1791319260,
    "flysfo:timestamp": 1791319260,
    "geom:area": 0,
    "geom:bbox": "-122.370943,34.059934,-117.587749,37.617990",
    "geom:latitude": 35.838961999999995,
    "geom:longitude": -119.97934599999999,
    "iata:airline": "AC",
    "iata:base_airline": "",
    "icao:airline": "ACA",
    "icao:base_airline": "ACA",
    "lbl:latitude": 37.61799,
    "lbl:longitude": -122.370943,
    "sfomuseum:airline_id": 1159283597,
    "sfomuseum:arrival_id": 102533575,
    "sfomuseum:base_flight_id": "20261006-D-ACA-4322",
    "sfomuseum:departure_id": 102527513,
    "sfomuseum:flight_id": "20261006-D-ACA-4322",
    "sfomuseum:flight_number": [
      "ACA4322",
      "AC4322"
    ],
    "sfomuseum:placetype": "flight",
    "src:geom": "flysfo",
    "wof:belongsto": [
      1947304067,
      102527513,
      1947304451,
      102191575,
      85633793,
      102087579,
      85922583,
      554784711,
      85688637,
      1947304461,
      1947304447,
      102085387
    ],
    "wof:country": "US",
    "wof:created": 1791389390,
    "wof:geomhash": "ec8e91229a6790516c63cb7081c35777",
    "wof:hierarchy": [
      {
        "building_id": 1947304067,
        "campus_id": 102527513,
        "concourse_id": 1947304451,
        "continent_id": 102191575,
        "country_id": 85633793,
        "county_id": 102087579,
        "custom_id": 2048530609,
        "flight_id": 2048530609,
        "locality_id": 85922583,
        "postalcode_id": 554784711,
        "region_id": 85688637,
        "venue_id": 1947304461,
        "wing_id": 1947304447
      },
      {
        "building_id": 1947304067,
        "campus_id": 102527513,
        "concourse_id": 1947304451,
        "continent_id": 102191575,
        "country_id": 85633793,
        "county_id": 102085387,
        "custom_id": 2048530609,
        "flight_id": 2048530609,
        "region_id": 85688637,
        "venue_id": 1947304461,
        "wing_id": 1947304447
      }
    ],
    "wof:id": 2048530609,
    "wof:involves": [
      102533575,
      102527513,
      1159283597,
      1947304461,
      1159283597
    ],
    "wof:lastmodified": 1791389390,
    "wof:name": "AC4322 (SFO-ONT)",
    "wof:parent_id": 1947304461,
    "wof:placetype": "custom",
    "wof:placetype_alt": [
      "flight"
    ],
    "wof:repo": "sfomuseum-data-flights-2026-10",
    "wof:superseded_by": [],
    "wof:supersedes": []
  },
  "bbox": [
    -122.370943,
    34.059934,
    -117.587749,
    37.61799
  ],
  "geometry": {"type":"MultiPoint","coordinates":[[-122.370943,37.61799],[-117.587749,34.059934]]}
}
