{
  "id": 2048497655,
  "type": "Feature",
  "properties": {
    "date:inception_lower": "2026-10-02",
    "date:inception_upper": "2026-10-02",
    "edtf:cessation": "",
    "edtf:inception": "2026-10-02",
    "flysfo:actual_timestamp": -1,
    "flysfo:airline": "QR",
    "flysfo:base_airline": "",
    "flysfo:base_flight_number": "4272",
    "flysfo:date": "2026-10-02",
    "flysfo:estimated_timestamp": 1790954580,
    "flysfo:event": "D",
    "flysfo:flight_number": "QR4272",
    "flysfo:gate": "B13",
    "flysfo:journey": "SFO-LAX",
    "flysfo:scheduled_timestamp": 1790954580,
    "flysfo:timestamp": 1790954580,
    "geom:area": 0,
    "geom:bbox": "-122.370943,33.942593,-118.389510,37.617990",
    "geom:latitude": 35.780291500000004,
    "geom:longitude": -120.38022649999999,
    "iata:airline": "QR",
    "iata:base_airline": "",
    "icao:airline": "QTR",
    "icao:base_airline": "QTR",
    "lbl:latitude": 37.61799,
    "lbl:longitude": -122.370943,
    "sfomuseum:airline_id": 1159286153,
    "sfomuseum:arrival_id": 102533795,
    "sfomuseum:base_flight_id": "20261002-D-QTR-4272",
    "sfomuseum:departure_id": 102527513,
    "sfomuseum:flight_id": "20261002-D-QTR-4272",
    "sfomuseum:flight_number": [
      "QTR4272",
      "QR4272"
    ],
    "sfomuseum:placetype": "flight",
    "src:geom": "flysfo",
    "wof:belongsto": [
      1947304067,
      102527513,
      1947304261,
      102191575,
      85633793,
      102087579,
      85922583,
      554784711,
      85688637,
      1947304267,
      1947304259,
      102085387
    ],
    "wof:country": "US",
    "wof:created": 1791044081,
    "wof:geomhash": "602be2a828e3460cadf44be5b1c2e36b",
    "wof:hierarchy": [
      {
        "building_id": 1947304067,
        "campus_id": 102527513,
        "concourse_id": 1947304261,
        "continent_id": 102191575,
        "country_id": 85633793,
        "county_id": 102087579,
        "custom_id": 2048497655,
        "flight_id": 2048497655,
        "locality_id": 85922583,
        "postalcode_id": 554784711,
        "region_id": 85688637,
        "venue_id": 1947304267,
        "wing_id": 1947304259
      },
      {
        "building_id": 1947304067,
        "campus_id": 102527513,
        "concourse_id": 1947304261,
        "continent_id": 102191575,
        "country_id": 85633793,
        "county_id": 102085387,
        "custom_id": 2048497655,
        "flight_id": 2048497655,
        "region_id": 85688637,
        "venue_id": 1947304267,
        "wing_id": 1947304259
      }
    ],
    "wof:id": 2048497655,
    "wof:involves": [
      102533795,
      102527513,
      1159286153,
      1947304267,
      1159286153
    ],
    "wof:lastmodified": 1791044081,
    "wof:name": "QR4272 (SFO-LAX)",
    "wof:parent_id": 1947304267,
    "wof:placetype": "custom",
    "wof:placetype_alt": [
      "flight"
    ],
    "wof:repo": "sfomuseum-data-flights-2026-10",
    "wof:superseded_by": [],
    "wof:supersedes": []
  },
  "bbox": [
    -122.370943,
    33.942593,
    -118.38951,
    37.61799
  ],
  "geometry": {"type":"MultiPoint","coordinates":[[-122.370943,37.61799],[-118.38951,33.942593]]}
}
