{
  "id": 2048513095,
  "type": "Feature",
  "properties": {
    "date:inception_lower": "2026-10-04",
    "date:inception_upper": "2026-10-04",
    "edtf:cessation": "",
    "edtf:inception": "2026-10-04",
    "flysfo:actual_timestamp": -1,
    "flysfo:airline": "NZ",
    "flysfo:base_airline": "",
    "flysfo:base_flight_number": "5438",
    "flysfo:date": "2026-10-04",
    "flysfo:estimated_timestamp": 1791119280,
    "flysfo:event": "D",
    "flysfo:flight_number": "NZ9052",
    "flysfo:gate": "D12",
    "flysfo:journey": "SFO-DEN",
    "flysfo:scheduled_timestamp": 1791119700,
    "flysfo:timestamp": 1791119700,
    "geom:area": 0,
    "geom:bbox": "-122.370943,37.617990,-104.672219,39.864939",
    "geom:latitude": 38.7414645,
    "geom:longitude": -113.521581,
    "iata:airline": "NZ",
    "iata:base_airline": "",
    "icao:airline": "ANZ",
    "icao:base_airline": "ACA",
    "lbl:latitude": 37.618249,
    "lbl:longitude": -122.381477,
    "sfomuseum:airline_id": 1159283697,
    "sfomuseum:arrival_id": 102531189,
    "sfomuseum:base_flight_id": "20261004-D-ACA-5438",
    "sfomuseum:departure_id": 102527513,
    "sfomuseum:flight_id": "20261004-D-ANZ-9052",
    "sfomuseum:flight_number": [
      "ANZ9052",
      "NZ9052"
    ],
    "sfomuseum:placetype": "flight",
    "src:geom": "flysfo",
    "wof:belongsto": [
      1947304067,
      102527513,
      1947304595,
      102191575,
      85633793,
      102087579,
      85922583,
      554784711,
      85688637,
      1947304631,
      1947304591,
      102085387
    ],
    "wof:country": "US",
    "wof:created": 1791216711,
    "wof:geomhash": "976937653dbac6c9c27dd23670ba89bf",
    "wof:hierarchy": [
      {
        "building_id": 1947304067,
        "campus_id": 102527513,
        "concourse_id": 1947304595,
        "continent_id": 102191575,
        "country_id": 85633793,
        "county_id": 102087579,
        "custom_id": 2048513095,
        "flight_id": 2048513095,
        "locality_id": 85922583,
        "postalcode_id": 554784711,
        "region_id": 85688637,
        "venue_id": 1947304631,
        "wing_id": 1947304591
      },
      {
        "building_id": 1947304067,
        "campus_id": 102527513,
        "concourse_id": 1947304595,
        "continent_id": 102191575,
        "country_id": 85633793,
        "county_id": 102085387,
        "custom_id": 2048513095,
        "flight_id": 2048513095,
        "region_id": 85688637,
        "venue_id": 1947304631,
        "wing_id": 1947304591
      }
    ],
    "wof:id": 2048513095,
    "wof:involves": [
      102531189,
      102527513,
      1159283697,
      1947304631,
      1159283597
    ],
    "wof:lastmodified": 1791216711,
    "wof:name": "NZ9052 (SFO-DEN)",
    "wof:parent_id": 1947304631,
    "wof:placetype": "custom",
    "wof:placetype_alt": [
      "flight"
    ],
    "wof:repo": "sfomuseum-data-flights-2026-10",
    "wof:superseded_by": [],
    "wof:supersedes": []
  },
  "bbox": [
    -122.370943,
    37.61799,
    -104.672219,
    39.864939
  ],
  "geometry": {"type":"MultiPoint","coordinates":[[-122.370943,37.61799],[-104.672219,39.864939]]}
}
