{
  "id": 2048542139,
  "type": "Feature",
  "properties": {
    "geom:area": 0,
    "geom:bbox": "-122.361220,37.636060,-121.293300,38.106030",
    "geom:latitude": 37.88559447473121,
    "geom:longitude": -121.8343414405335,
    "src:alt_label": "swim-takeoff",
    "src:geom": "swim",
    "swim:elevations": [
      213,
      322,
      632,
      953,
      1037,
      1193,
      1482,
      1581,
      2061,
      2320,
      2656,
      3072,
      3276,
      3379,
      3567,
      3675,
      4090,
      4208,
      4578,
      4706,
      5015,
      5071,
      5321,
      5526
    ],
    "swim:geom": "takeoff",
    "swim:timestamps": [
      1791366293,
      1791366306,
      1791366335,
      1791366376,
      1791366391,
      1791366420,
      1791366470,
      1791366484,
      1791366530,
      1791366551,
      1791366588,
      1791366627,
      1791366645,
      1791366668,
      1791366703,
      1791366728,
      1791366771,
      1791366783,
      1791366831,
      1791366851,
      1791366894,
      1791366902,
      1791366937,
      1791366972
    ],
    "wof:geomhash": "bb96563719e503ab0148d75240ae65ba",
    "wof:id": 2048542139,
    "wof:repo": "sfomuseum-data-flights-2026-10"
  },
  "bbox": [
    -122.36122,
    37.63606,
    -121.2933,
    38.10603
  ],
  "geometry": {"type":"LineString","coordinates":[[-122.36122,37.63606],[-122.35322,37.64449],[-122.32583,37.65831],[-122.28761,37.67907],[-122.27387,37.68688],[-122.24317,37.70343],[-122.18219,37.7341],[-122.16344,37.7438],[-122.1009,37.77671],[-122.07105,37.79215],[-122.0177,37.81933],[-121.95728,37.84465],[-121.92804,37.8561],[-121.89066,37.87081],[-121.82935,37.89543],[-121.78338,37.9139],[-121.70041,37.94658],[-121.67667,37.95585],[-121.58335,37.99264],[-121.54406,38.00809],[-121.45414,38.04326],[-121.43924,38.0491],[-121.36652,38.07751],[-121.2933,38.10603]]}
}
