{
  "id": 2048529441,
  "type": "Feature",
  "properties": {
    "date:cessation_lower": "2026-10-06",
    "date:cessation_upper": "2026-10-06",
    "date:inception_lower": "1970-01-01",
    "date:inception_upper": "1970-01-01",
    "edtf:cessation": "2026-10-06T01:16:41-07:00",
    "edtf:inception": "1970-01-01T00:00:00Z",
    "flysfo:actual_timestamp": -1,
    "flysfo:airline": "UA",
    "flysfo:base_airline": "",
    "flysfo:base_flight_number": "5029",
    "flysfo:date": "2026-10-06",
    "flysfo:estimated_timestamp": 1791300300,
    "flysfo:event": "A",
    "flysfo:flight_number": "UA246",
    "flysfo:gate": "F14",
    "flysfo:journey": "ORD-SFO",
    "flysfo:scheduled_timestamp": 1791301500,
    "flysfo:timestamp": 1791301500,
    "geom:area": 0,
    "geom:bbox": "-122.370943,37.617990,-87.894364,41.983038",
    "geom:latitude": 39.800514,
    "geom:longitude": -105.1326535,
    "iata:airline": "UA",
    "iata:base_airline": "",
    "icao:aircraft": "B753",
    "icao:airline": "UAL",
    "icao:base_airline": "ACA",
    "lbl:latitude": 37.620304,
    "lbl:longitude": -122.388827,
    "sfomuseum:aircraft_id": 1159289945,
    "sfomuseum:airline_id": 1159285413,
    "sfomuseum:arrival_id": 102527513,
    "sfomuseum:base_flight_id": "20261006-A-ACA-5029",
    "sfomuseum:departure_id": 102533631,
    "sfomuseum:flight_id": "20261006-A-UAL-246",
    "sfomuseum:flight_number": [
      "UAL246",
      "UA246"
    ],
    "sfomuseum:placetype": "flight",
    "src:geom": "flysfo",
    "src:geom_alt": [
      "swim-approach"
    ],
    "swim:tail_number": "N57870",
    "wof:belongsto": [
      1947304067,
      102527513,
      1947304451,
      102191575,
      85633793,
      102087579,
      85922583,
      554784711,
      85688637,
      1947304453,
      1947304447,
      102085387
    ],
    "wof:country": "US",
    "wof:created": 1791389257,
    "wof:geomhash": "81d390dcf2582f737869c573200abb8f",
    "wof:hierarchy": [
      {
        "building_id": 1947304067,
        "campus_id": 102527513,
        "concourse_id": 1947304451,
        "continent_id": 102191575,
        "country_id": 85633793,
        "county_id": 102087579,
        "custom_id": 2048529441,
        "flight_id": 2048529441,
        "locality_id": 85922583,
        "postalcode_id": 554784711,
        "region_id": 85688637,
        "venue_id": 1947304453,
        "wing_id": 1947304447
      },
      {
        "building_id": 1947304067,
        "campus_id": 102527513,
        "concourse_id": 1947304451,
        "continent_id": 102191575,
        "country_id": 85633793,
        "county_id": 102085387,
        "custom_id": 2048529441,
        "flight_id": 2048529441,
        "region_id": 85688637,
        "venue_id": 1947304453,
        "wing_id": 1947304447
      }
    ],
    "wof:id": 2048529441,
    "wof:involves": [
      1947304453,
      1159283597,
      1159289945,
      102527513,
      102533631,
      1159285413
    ],
    "wof:lastmodified": 1791389831,
    "wof:name": "UA246 (ORD-SFO)",
    "wof:parent_id": 1947304453,
    "wof:placetype": "custom",
    "wof:placetype_alt": [
      "flight"
    ],
    "wof:repo": "sfomuseum-data-flights-2026-10",
    "wof:superseded_by": [],
    "wof:supersedes": []
  },
  "bbox": [
    -122.370943,
    37.61799,
    -87.894364,
    41.983038
  ],
  "geometry": {"type":"MultiPoint","coordinates":[[-87.894364,41.983038],[-122.370943,37.61799]]}
}
