{
  "id": 2048524957,
  "type": "Feature",
  "properties": {
    "date:inception_lower": "2026-10-05",
    "date:inception_upper": "2026-10-05",
    "edtf:cessation": "",
    "edtf:inception": "2026-10-05",
    "flysfo:actual_timestamp": -1,
    "flysfo:airline": "UA",
    "flysfo:base_airline": "",
    "flysfo:base_flight_number": "3529",
    "flysfo:date": "2026-10-05",
    "flysfo:estimated_timestamp": 1791217380,
    "flysfo:event": "D",
    "flysfo:flight_number": "UA1721",
    "flysfo:gate": "E5",
    "flysfo:journey": "SFO-KOA",
    "flysfo:scheduled_timestamp": 1791213000,
    "flysfo:timestamp": 1791217380,
    "geom:area": 0,
    "geom:bbox": "-156.035060,19.732444,-122.370943,37.617990",
    "geom:latitude": 28.675217,
    "geom:longitude": -139.2030015,
    "iata:airline": "UA",
    "iata:base_airline": "",
    "icao:airline": "UAL",
    "icao:base_airline": "ACA",
    "lbl:latitude": 37.618486,
    "lbl:longitude": -122.384457,
    "sfomuseum:airline_id": 1159285413,
    "sfomuseum:arrival_id": 102532939,
    "sfomuseum:base_flight_id": "20261005-D-ACA-3529",
    "sfomuseum:departure_id": 102527513,
    "sfomuseum:flight_id": "20261005-D-UAL-1721",
    "sfomuseum:flight_number": [
      "UAL1721",
      "UA1721"
    ],
    "sfomuseum:placetype": "flight",
    "src:geom": "flysfo",
    "wof:belongsto": [
      1947304067,
      102527513,
      1947304511,
      102191575,
      85633793,
      102087579,
      85922583,
      554784711,
      85688637,
      1947304525,
      1947304447,
      102085387
    ],
    "wof:country": "US",
    "wof:created": 1791303399,
    "wof:geomhash": "ffd2c7b34797175c51fc3517b1c4b69d",
    "wof:hierarchy": [
      {
        "building_id": 1947304067,
        "campus_id": 102527513,
        "concourse_id": 1947304511,
        "continent_id": 102191575,
        "country_id": 85633793,
        "county_id": 102087579,
        "custom_id": 2048524957,
        "flight_id": 2048524957,
        "locality_id": 85922583,
        "postalcode_id": 554784711,
        "region_id": 85688637,
        "venue_id": 1947304525,
        "wing_id": 1947304447
      },
      {
        "building_id": 1947304067,
        "campus_id": 102527513,
        "concourse_id": 1947304511,
        "continent_id": 102191575,
        "country_id": 85633793,
        "county_id": 102085387,
        "custom_id": 2048524957,
        "flight_id": 2048524957,
        "region_id": 85688637,
        "venue_id": 1947304525,
        "wing_id": 1947304447
      }
    ],
    "wof:id": 2048524957,
    "wof:involves": [
      102532939,
      102527513,
      1159285413,
      1947304525,
      1159283597
    ],
    "wof:lastmodified": 1791303399,
    "wof:name": "UA1721 (SFO-KOA)",
    "wof:parent_id": 1947304525,
    "wof:placetype": "custom",
    "wof:placetype_alt": [
      "flight"
    ],
    "wof:repo": "sfomuseum-data-flights-2026-10",
    "wof:superseded_by": [],
    "wof:supersedes": []
  },
  "bbox": [
    -156.03506,
    19.732444,
    -122.370943,
    37.61799
  ],
  "geometry": {"type":"MultiPoint","coordinates":[[-122.370943,37.61799],[-156.03506,19.732444]]}
}
