{
  "id": 2048489425,
  "type": "Feature",
  "properties": {
    "geom:area": 0,
    "geom:bbox": "-122.385900,37.624330,-121.479720,38.487680",
    "geom:latitude": 38.10302759200574,
    "geom:longitude": -122.03802315862359,
    "src:alt_label": "swim-takeoff",
    "src:geom": "swim",
    "swim:elevations": [
      91,
      355,
      755,
      952,
      1063,
      1114,
      1247,
      1567,
      1869,
      2077,
      2363,
      2521,
      2767,
      3035,
      3409,
      3684,
      3782,
      4245,
      4330,
      4746,
      5010,
      5049,
      5472,
      5589,
      5671,
      5730,
      5853,
      6862
    ],
    "swim:geom": "takeoff",
    "swim:timestamps": [
      1790899094,
      1790899113,
      1790899145,
      1790899172,
      1790899193,
      1790899208,
      1790899255,
      1790899288,
      1790899312,
      1790899330,
      1790899361,
      1790899374,
      1790899399,
      1790899428,
      1790899468,
      1790899498,
      1790899507,
      1790899556,
      1790899565,
      1790899618,
      1790899645,
      1790899651,
      1790899703,
      1790899732,
      1790899762,
      1790899777,
      1790899801,
      1790899946
    ],
    "wof:geomhash": "ddcf0dd364f13a8ead0cac7e4d47a57a",
    "wof:id": 2048489425,
    "wof:repo": "sfomuseum-data-flights-2026-10"
  },
  "bbox": [
    -122.3859,
    37.62433,
    -121.47972,
    38.48768
  ],
  "geometry": {"type":"LineString","coordinates":[[-122.36894,37.62433],[-122.35891,37.63607],[-122.33804,37.65495],[-122.31963,37.6709],[-122.30819,37.68593],[-122.3106,37.69936],[-122.33688,37.747],[-122.35776,37.78669],[-122.37198,37.81642],[-122.38313,37.83846],[-122.3859,37.87994],[-122.38455,37.89937],[-122.38044,37.93408],[-122.34631,37.96385],[-122.28936,37.9985],[-122.24564,38.02516],[-122.23135,38.03378],[-122.15909,38.07779],[-122.14511,38.08632],[-122.06323,38.136],[-122.02083,38.16174],[-122.01134,38.16745],[-121.92789,38.21791],[-121.88018,38.24668],[-121.82772,38.27826],[-121.80057,38.29466],[-121.75608,38.32138],[-121.47972,38.48768]]}
}
