{
  "id": 2048516099,
  "type": "Feature",
  "properties": {
    "date:inception_lower": "2026-10-04",
    "date:inception_upper": "2026-10-04",
    "edtf:cessation": "",
    "edtf:inception": "2026-10-04",
    "flysfo:actual_timestamp": -1,
    "flysfo:airline": "UA",
    "flysfo:base_airline": "",
    "flysfo:base_flight_number": "9457",
    "flysfo:date": "2026-10-04",
    "flysfo:estimated_timestamp": 1791126120,
    "flysfo:event": "D",
    "flysfo:flight_number": "UA6014",
    "flysfo:gate": "E13",
    "flysfo:journey": "SFO-GEG",
    "flysfo:scheduled_timestamp": 1791126600,
    "flysfo:timestamp": 1791126600,
    "geom:area": 0,
    "geom:bbox": "-122.370943,37.617990,-117.531916,47.625686",
    "geom:latitude": 42.621838,
    "geom:longitude": -119.95142949999999,
    "iata:airline": "UA",
    "iata:base_airline": "",
    "icao:airline": "UAL",
    "icao:base_airline": "ANZ",
    "lbl:latitude": 37.619425,
    "lbl:longitude": -122.384028,
    "sfomuseum:airline_id": 1159285413,
    "sfomuseum:arrival_id": 102533331,
    "sfomuseum:base_flight_id": "20261004-D-ANZ-9457",
    "sfomuseum:departure_id": 102527513,
    "sfomuseum:flight_id": "20261004-D-UAL-6014",
    "sfomuseum:flight_number": [
      "UAL6014",
      "UA6014"
    ],
    "sfomuseum:placetype": "flight",
    "src:geom": "flysfo",
    "wof:belongsto": [
      1947304067,
      102527513,
      1947304511,
      102191575,
      85633793,
      102087579,
      85922583,
      554784711,
      85688637,
      1947304517,
      1947304447,
      102085387
    ],
    "wof:country": "US",
    "wof:created": 1791217054,
    "wof:geomhash": "9d5970fb497c224f692cb976d5929b90",
    "wof:hierarchy": [
      {
        "building_id": 1947304067,
        "campus_id": 102527513,
        "concourse_id": 1947304511,
        "continent_id": 102191575,
        "country_id": 85633793,
        "county_id": 102087579,
        "custom_id": 2048516099,
        "flight_id": 2048516099,
        "locality_id": 85922583,
        "postalcode_id": 554784711,
        "region_id": 85688637,
        "venue_id": 1947304517,
        "wing_id": 1947304447
      },
      {
        "building_id": 1947304067,
        "campus_id": 102527513,
        "concourse_id": 1947304511,
        "continent_id": 102191575,
        "country_id": 85633793,
        "county_id": 102085387,
        "custom_id": 2048516099,
        "flight_id": 2048516099,
        "region_id": 85688637,
        "venue_id": 1947304517,
        "wing_id": 1947304447
      }
    ],
    "wof:id": 2048516099,
    "wof:involves": [
      102533331,
      102527513,
      1159285413,
      1947304517,
      1159283697
    ],
    "wof:lastmodified": 1791217054,
    "wof:name": "UA6014 (SFO-GEG)",
    "wof:parent_id": 1947304517,
    "wof:placetype": "custom",
    "wof:placetype_alt": [
      "flight"
    ],
    "wof:repo": "sfomuseum-data-flights-2026-10",
    "wof:superseded_by": [],
    "wof:supersedes": []
  },
  "bbox": [
    -122.370943,
    37.61799,
    -117.531916,
    47.625686
  ],
  "geometry": {"type":"MultiPoint","coordinates":[[-122.370943,37.61799],[-117.531916,47.625686]]}
}
