{
  "id": 2048489339,
  "type": "Feature",
  "properties": {
    "geom:area": 0,
    "geom:bbox": "-122.598020,36.727860,-121.309560,37.828530",
    "geom:latitude": 37.286689675947244,
    "geom:longitude": -122.0663126835673,
    "src:alt_label": "swim-takeoff",
    "src:geom": "swim",
    "swim:elevations": [
      3756,
      3445,
      3364,
      3353,
      3212,
      152,
      598,
      867,
      1068,
      1118,
      1210,
      1363,
      1516,
      1715,
      1907,
      2634,
      3049,
      3370,
      3525,
      3861,
      3954,
      4535,
      4709,
      5252,
      5529,
      5895,
      6052,
      6140,
      6500,
      6716,
      6751,
      7126,
      7233,
      7462,
      7689,
      7808,
      8007,
      8253,
      8416,
      8455,
      8535,
      8758
    ],
    "swim:geom": "takeoff",
    "swim:timestamps": [
      1790877991,
      1790878043,
      1790878068,
      1790878105,
      1790878209,
      1790883468,
      1790883508,
      1790883535,
      1790883566,
      1790883575,
      1790883598,
      1790883625,
      1790883637,
      1790883650,
      1790883662,
      1790883708,
      1790883737,
      1790883773,
      1790883804,
      1790883837,
      1790883845,
      1790883885,
      1790883900,
      1790883953,
      1790883979,
      1790884012,
      1790884032,
      1790884043,
      1790884078,
      1790884108,
      1790884113,
      1790884153,
      1790884168,
      1790884196,
      1790884224,
      1790884234,
      1790884266,
      1790884309,
      1790884337,
      1790884344,
      1790884356,
      1790884390
    ],
    "wof:geomhash": "f626dbebc84acde3a949c86fecf62c8f",
    "wof:id": 2048489339,
    "wof:repo": "sfomuseum-data-flights-2026-10"
  },
  "bbox": [
    -122.59802,
    36.72786,
    -121.30956,
    37.82853
  ],
  "geometry": {"type":"LineString","coordinates":[[-122.59802,37.82853],[-122.53329,37.76741],[-122.50504,37.74067],[-122.46314,37.70113],[-122.36364,37.59933],[-122.36978,37.62789],[-122.36357,37.65555],[-122.36188,37.67498],[-122.3756,37.69277],[-122.38443,37.69236],[-122.39748,37.67807],[-122.40618,37.65071],[-122.4109,37.63762],[-122.41659,37.62325],[-122.42248,37.60924],[-122.4447,37.55525],[-122.4594,37.5186],[-122.45247,37.46978],[-122.40502,37.43946],[-122.34621,37.40915],[-122.33291,37.40105],[-122.26679,37.3559],[-122.2414,37.33971],[-122.15042,37.2812],[-122.10608,37.25219],[-122.04627,37.21311],[-122.01117,37.19017],[-121.99077,37.17686],[-121.92582,37.13448],[-121.87051,37.09834],[-121.86092,37.09211],[-121.78509,37.04238],[-121.75633,37.02353],[-121.70118,36.98731],[-121.64721,36.95166],[-121.6274,36.93818],[-121.5631,36.89565],[-121.47753,36.83962],[-121.41942,36.80066],[-121.40568,36.79137],[-121.38049,36.77485],[-121.30956,36.72786]]}
}
