{
  "id": 2048543095,
  "type": "Feature",
  "properties": {
    "geom:area": 0,
    "geom:bbox": "-122.354630,36.718290,-121.875770,37.610140",
    "geom:latitude": 37.20710830232506,
    "geom:longitude": -122.06787022877134,
    "src:alt_label": "swim-approach",
    "src:geom": "swim",
    "swim:elevations": [
      5458,
      5171,
      4798,
      4676,
      4457,
      4128,
      3659,
      3419,
      3143,
      3043,
      2787,
      2678,
      2495,
      2385,
      2043,
      1890,
      1589,
      1430,
      1262,
      1032,
      866,
      783,
      568,
      398,
      309,
      168,
      103,
      55
    ],
    "swim:geom": "approach",
    "swim:timestamps": [
      1791461150,
      1791461178,
      1791461219,
      1791461232,
      1791461251,
      1791461287,
      1791461334,
      1791461358,
      1791461390,
      1791461427,
      1791461455,
      1791461474,
      1791461502,
      1791461527,
      1791461572,
      1791461589,
      1791461628,
      1791461646,
      1791461692,
      1791461719,
      1791461753,
      1791461770,
      1791461806,
      1791461844,
      1791461868,
      1791461907,
      1791461926,
      1791461944
    ],
    "wof:geomhash": "00cfbd677f1839c558192b6ac1bdb1c2",
    "wof:id": 2048543095,
    "wof:repo": "sfomuseum-data-flights-2026-10"
  },
  "bbox": [
    -122.35463,
    36.71829,
    -121.87577,
    37.61014
  ],
  "geometry": {"type":"LineString","coordinates":[[-121.87577,36.71829],[-121.89929,36.76188],[-121.91818,36.82679],[-121.92396,36.84757],[-121.93277,36.87934],[-121.9488,36.93651],[-121.97708,37.01342],[-121.99178,37.05177],[-122.0113,37.10164],[-122.03272,37.15582],[-122.04745,37.19371],[-122.05727,37.2198],[-122.07177,37.25602],[-122.08427,37.2866],[-122.10606,37.34257],[-122.11474,37.36448],[-122.13211,37.41328],[-122.13922,37.43577],[-122.15671,37.4868],[-122.16622,37.51308],[-122.18799,37.5395],[-122.20582,37.54667],[-122.24219,37.56297],[-122.27799,37.57791],[-122.29681,37.58584],[-122.32737,37.59872],[-122.34133,37.60458],[-122.35463,37.61014]]}
}
