{
  "id": 2048538113,
  "type": "Feature",
  "properties": {
    "date:inception_lower": "2026-10-07",
    "date:inception_upper": "2026-10-07",
    "edtf:cessation": "",
    "edtf:inception": "2026-10-07",
    "flysfo:actual_timestamp": -1,
    "flysfo:airline": "UA",
    "flysfo:base_airline": "",
    "flysfo:base_flight_number": "6094",
    "flysfo:date": "2026-10-07",
    "flysfo:estimated_timestamp": 1791394440,
    "flysfo:event": "A",
    "flysfo:flight_number": "UA7950",
    "flysfo:gate": "G8",
    "flysfo:journey": "NRT-SFO",
    "flysfo:scheduled_timestamp": 1791394200,
    "flysfo:timestamp": 1791394440,
    "geom:area": 0,
    "geom:bbox": "-122.370943,35.755744,140.395257,37.617990",
    "geom:latitude": 36.686867,
    "geom:longitude": 9.012156999999995,
    "iata:airline": "UA",
    "iata:base_airline": "",
    "icao:airline": "UAL",
    "icao:base_airline": "THA",
    "lbl:latitude": 37.61836,
    "lbl:longitude": -122.393229,
    "sfomuseum:airline_id": 1159285413,
    "sfomuseum:arrival_id": 102527513,
    "sfomuseum:base_flight_id": "20261007-A-THA-6094",
    "sfomuseum:departure_id": 102541685,
    "sfomuseum:flight_id": "20261007-A-UAL-7950",
    "sfomuseum:flight_number": [
      "UAL7950",
      "UA7950"
    ],
    "sfomuseum:placetype": "flight",
    "src:geom": "flysfo",
    "wof:belongsto": [
      1947304067,
      102527513,
      1947304129,
      102191575,
      85633793,
      102087579,
      85922583,
      554784711,
      85688637,
      1947304133,
      1947304069,
      102085387
    ],
    "wof:country": "US",
    "wof:created": 1791475719,
    "wof:geomhash": "d46bcc8d1d94e68df95be799ac6a3b4c",
    "wof:hierarchy": [
      {
        "building_id": 1947304067,
        "campus_id": 102527513,
        "concourse_id": 1947304129,
        "continent_id": 102191575,
        "country_id": 85633793,
        "county_id": 102087579,
        "custom_id": 2048538113,
        "flight_id": 2048538113,
        "locality_id": 85922583,
        "postalcode_id": 554784711,
        "region_id": 85688637,
        "venue_id": 1947304133,
        "wing_id": 1947304069
      },
      {
        "building_id": 1947304067,
        "campus_id": 102527513,
        "concourse_id": 1947304129,
        "continent_id": 102191575,
        "country_id": 85633793,
        "county_id": 102085387,
        "custom_id": 2048538113,
        "flight_id": 2048538113,
        "region_id": 85688637,
        "venue_id": 1947304133,
        "wing_id": 1947304069
      }
    ],
    "wof:id": 2048538113,
    "wof:involves": [
      102527513,
      102541685,
      1159285413,
      1947304133,
      1159285639
    ],
    "wof:lastmodified": 1791475719,
    "wof:name": "UA7950 (NRT-SFO)",
    "wof:parent_id": 1947304133,
    "wof:placetype": "custom",
    "wof:placetype_alt": [
      "flight"
    ],
    "wof:repo": "sfomuseum-data-flights-2026-10",
    "wof:superseded_by": [],
    "wof:supersedes": []
  },
  "bbox": [
    -122.370943,
    35.755744,
    140.395257,
    37.61799
  ],
  "geometry": {"type":"MultiPoint","coordinates":[[140.395257,35.755744],[-122.370943,37.61799]]}
}
