{
  "id": 2048485089,
  "type": "Feature",
  "properties": {
    "geom:area": 0,
    "geom:bbox": "-122.359140,37.424490,-121.263590,37.611970",
    "geom:latitude": 37.52858620964802,
    "geom:longitude": -121.81904104135361,
    "src:alt_label": "swim-approach",
    "src:geom": "swim",
    "swim:elevations": [
      4664,
      4600,
      4401,
      4115,
      3588,
      3191,
      3130,
      2843,
      2710,
      2568,
      2429,
      2303,
      2134,
      2134,
      2134,
      2134,
      2015,
      1752,
      1634,
      1317,
      1064,
      921,
      852,
      802,
      642,
      508,
      334,
      236,
      122,
      86
    ],
    "swim:geom": "approach",
    "swim:timestamps": [
      1790843543,
      1790843553,
      1790843591,
      1790843636,
      1790843701,
      1790843756,
      1790843765,
      1790843811,
      1790843830,
      1790843859,
      1790843895,
      1790843912,
      1790843956,
      1790843996,
      1790844018,
      1790844030,
      1790844069,
      1790844106,
      1790844120,
      1790844167,
      1790844204,
      1790844236,
      1790844246,
      1790844257,
      1790844292,
      1790844317,
      1790844356,
      1790844378,
      1790844409,
      1790844436
    ],
    "wof:geomhash": "c4800666ccf3ee1a05774dff40b6aa45",
    "wof:id": 2048485089,
    "wof:repo": "sfomuseum-data-flights-2026-10"
  },
  "bbox": [
    -122.35914,
    37.42449,
    -121.26359,
    37.61197
  ],
  "geometry": {"type":"LineString","coordinates":[[-121.26359,37.59254],[-121.28237,37.59002],[-121.3538,37.58227],[-121.43264,37.57333],[-121.53867,37.56085],[-121.6273,37.55208],[-121.6419,37.55517],[-121.7113,37.56681],[-121.73321,37.55316],[-121.7578,37.52457],[-121.78617,37.49033],[-121.79536,37.47411],[-121.82584,37.43222],[-121.8803,37.42491],[-121.91025,37.42449],[-121.92601,37.42911],[-121.97412,37.44965],[-122.01916,37.4685],[-122.03633,37.47585],[-122.09328,37.50017],[-122.13924,37.5195],[-122.1758,37.5349],[-122.18629,37.53934],[-122.19723,37.544],[-122.23309,37.55913],[-122.25895,37.56995],[-122.29587,37.5854],[-122.31437,37.59327],[-122.33861,37.60341],[-122.35914,37.61197]]}
}
