{
  "id": 2048485805,
  "type": "Feature",
  "properties": {
    "geom:area": 0,
    "geom:bbox": "-122.463710,36.721830,-121.323870,37.715510",
    "geom:latitude": 37.20169561518678,
    "geom:longitude": -122.01960685799709,
    "src:alt_label": "swim-takeoff",
    "src:geom": "swim",
    "swim:elevations": [
      152,
      495,
      1001,
      1408,
      1815,
      1961,
      2320,
      2628,
      3101,
      3262,
      3360,
      3525,
      3621,
      3862,
      4413,
      4695,
      5033,
      5218,
      5387,
      5698,
      6215,
      6396,
      6679,
      6830,
      6955,
      7273,
      7554,
      7766,
      7973,
      8201
    ],
    "swim:geom": "takeoff",
    "swim:timestamps": [
      1790858975,
      1790859025,
      1790859073,
      1790859108,
      1790859141,
      1790859161,
      1790859190,
      1790859218,
      1790859261,
      1790859288,
      1790859308,
      1790859344,
      1790859363,
      1790859392,
      1790859443,
      1790859470,
      1790859506,
      1790859526,
      1790859544,
      1790859571,
      1790859626,
      1790859652,
      1790859688,
      1790859708,
      1790859724,
      1790859765,
      1790859802,
      1790859835,
      1790859865,
      1790859891
    ],
    "wof:geomhash": "c9741d4d810632cf14c9fe377d5464e8",
    "wof:id": 2048485805,
    "wof:repo": "sfomuseum-data-flights-2026-10"
  },
  "bbox": [
    -122.46371,
    36.72183,
    -121.32387,
    37.71551
  ],
  "geometry": {"type":"LineString","coordinates":[[-122.36703,37.63186],[-122.36212,37.67411],[-122.39732,37.71551],[-122.44616,37.71154],[-122.46371,37.6773],[-122.4609,37.65341],[-122.4553,37.61625],[-122.44964,37.5794],[-122.44124,37.52306],[-122.43511,37.48377],[-122.43051,37.4538],[-122.41282,37.39701],[-122.387,37.37098],[-122.33512,37.33926],[-122.24267,37.28312],[-122.19125,37.25214],[-122.12405,37.21163],[-122.08464,37.18774],[-122.05171,37.16787],[-121.99884,37.13578],[-121.89033,37.06994],[-121.83822,37.03817],[-121.76437,36.99298],[-121.72284,36.96757],[-121.68935,36.94706],[-121.60205,36.89343],[-121.52127,36.84376],[-121.449,36.79902],[-121.3826,36.75894],[-121.32387,36.72183]]}
}
