{
  "id": 2048520869,
  "type": "Feature",
  "properties": {
    "geom:area": 0,
    "geom:bbox": "-122.351970,37.491270,-121.250660,37.611340",
    "geom:latitude": 37.54587571875227,
    "geom:longitude": -121.8061433127077,
    "src:alt_label": "swim-approach",
    "src:geom": "swim",
    "swim:elevations": [
      4605,
      4264,
      3855,
      3564,
      3310,
      3119,
      3029,
      2842,
      2652,
      2484,
      2440,
      2408,
      2039,
      1965,
      1831,
      1814,
      1431,
      1285,
      1193,
      1117,
      948,
      911,
      914,
      729,
      620,
      550,
      470,
      329,
      244,
      157,
      60
    ],
    "swim:geom": "approach",
    "swim:timestamps": [
      1791226900,
      1791226933,
      1791226974,
      1791227004,
      1791227029,
      1791227067,
      1791227093,
      1791227115,
      1791227138,
      1791227175,
      1791227207,
      1791227222,
      1791227278,
      1791227295,
      1791227327,
      1791227348,
      1791227393,
      1791227413,
      1791227435,
      1791227454,
      1791227488,
      1791227504,
      1791227527,
      1791227568,
      1791227588,
      1791227610,
      1791227635,
      1791227669,
      1791227693,
      1791227715,
      1791227747
    ],
    "wof:geomhash": "5f7d22b86ab068d2fc0b64ab2418659b",
    "wof:id": 2048520869,
    "wof:repo": "sfomuseum-data-flights-2026-10"
  },
  "bbox": [
    -122.35197,
    37.49127,
    -121.25066,
    37.61134
  ],
  "geometry": {"type":"LineString","coordinates":[[-121.25066,37.5937],[-121.31756,37.58539],[-121.39922,37.57633],[-121.45839,37.56957],[-121.50899,37.5636],[-121.5791,37.55538],[-121.62551,37.54942],[-121.66259,37.54076],[-121.69971,37.53212],[-121.75626,37.51864],[-121.80336,37.50738],[-121.82402,37.50243],[-121.90001,37.49127],[-121.92329,37.49189],[-121.96802,37.49274],[-121.99231,37.49595],[-122.04254,37.51191],[-122.06456,37.51922],[-122.08753,37.52643],[-122.10562,37.5325],[-122.13784,37.54311],[-122.15203,37.54768],[-122.172,37.55415],[-122.20948,37.56624],[-122.22806,37.5723],[-122.24863,37.57896],[-122.26992,37.58563],[-122.29622,37.59272],[-122.31413,37.59835],[-122.32938,37.60289],[-122.35197,37.61134]]}
}
