{
  "id": 2048511425,
  "type": "Feature",
  "properties": {
    "geom:area": 0,
    "geom:bbox": "-122.350530,36.736710,-121.887770,37.608420",
    "geom:latitude": 37.21555497367064,
    "geom:longitude": -122.07060376434109,
    "src:alt_label": "swim-approach",
    "src:geom": "swim",
    "swim:elevations": [
      5113,
      4955,
      4716,
      4352,
      4275,
      4081,
      3833,
      3690,
      3616,
      3350,
      3105,
      2959,
      2883,
      2599,
      2333,
      2180,
      1871,
      1661,
      1525,
      1524,
      1524,
      1373,
      1256,
      1023,
      712,
      601,
      474,
      382,
      266,
      195,
      59
    ],
    "swim:geom": "approach",
    "swim:timestamps": [
      1791126056,
      1791126074,
      1791126104,
      1791126146,
      1791126158,
      1791126184,
      1791126217,
      1791126237,
      1791126247,
      1791126284,
      1791126322,
      1791126353,
      1791126366,
      1791126408,
      1791126447,
      1791126467,
      1791126503,
      1791126533,
      1791126563,
      1791126577,
      1791126586,
      1791126614,
      1791126636,
      1791126668,
      1791126705,
      1791126722,
      1791126746,
      1791126768,
      1791126797,
      1791126813,
      1791126848
    ],
    "wof:geomhash": "fe5b220dde87d949b5fc4575f363f115",
    "wof:id": 2048511425,
    "wof:repo": "sfomuseum-data-flights-2026-10"
  },
  "bbox": [
    -122.35053,
    36.73671,
    -121.88777,
    37.60842
  ],
  "geometry": {"type":"LineString","coordinates":[[-121.88777,36.73671],[-121.90067,36.76556],[-121.91467,36.81555],[-121.93377,36.88298],[-121.93871,36.90049],[-121.95,36.94072],[-121.96724,36.98818],[-121.97813,37.01626],[-121.98345,37.02986],[-122.0034,37.08164],[-122.02344,37.13232],[-122.03969,37.17371],[-122.04634,37.1906],[-122.06736,37.24446],[-122.08662,37.29369],[-122.09668,37.31906],[-122.11463,37.36453],[-122.1286,37.40286],[-122.14136,37.44058],[-122.14704,37.45731],[-122.15033,37.46666],[-122.16048,37.4961],[-122.16845,37.51918],[-122.19202,37.54154],[-122.22864,37.557],[-122.24438,37.56375],[-122.2679,37.57374],[-122.28663,37.58156],[-122.31011,37.5915],[-122.32211,37.59652],[-122.35053,37.60842]]}
}
