{
  "id": 2048555357,
  "type": "Feature",
  "properties": {
    "geom:area": 0,
    "geom:bbox": "-122.360460,36.863170,-121.928150,37.615090",
    "geom:latitude": 37.29406533481046,
    "geom:longitude": -122.1213251627602,
    "src:alt_label": "swim-approach",
    "src:geom": "swim",
    "swim:elevations": [
      4953,
      4676,
      4614,
      4594,
      4571,
      4545,
      4522,
      4492,
      4457,
      4428,
      4406,
      4390,
      4370,
      4328,
      4293,
      4105,
      2881,
      1682,
      1219,
      1219,
      1219,
      1126,
      1058,
      1010,
      939,
      716,
      606,
      434,
      354,
      187,
      121,
      92
    ],
    "swim:geom": "approach",
    "swim:timestamps": [
      1791591243,
      1791591270,
      1791591276,
      1791591279,
      1791591282,
      1791591285,
      1791591288,
      1791591291,
      1791591294,
      1791591297,
      1791591300,
      1791591303,
      1791591306,
      1791591310,
      1791591313,
      1791591330,
      1791591482,
      1791591685,
      1791591830,
      1791591845,
      1791591883,
      1791591921,
      1791591936,
      1791591951,
      1791591968,
      1791592015,
      1791592034,
      1791592074,
      1791592095,
      1791592137,
      1791592156,
      1791592184
    ],
    "wof:geomhash": "3b8ab86e1d578a4d0a378cae5aca1b8f",
    "wof:id": 2048555357,
    "wof:repo": "sfomuseum-data-flights-2026-10"
  },
  "bbox": [
    -122.36046,
    36.86317,
    -121.92815,
    37.61509
  ],
  "geometry": {"type":"LineString","coordinates":[[-121.92815,36.86317],[-121.93916,36.90299],[-121.94165,36.91174],[-121.94287,36.91609],[-121.94411,36.92042],[-121.94531,36.92475],[-121.94649,36.92907],[-121.94767,36.93336],[-121.94886,36.93761],[-121.95003,36.9419],[-121.95124,36.94614],[-121.95251,36.95034],[-121.95395,36.95449],[-121.95607,36.95995],[-121.95769,36.96401],[-121.96667,36.98725],[-122.07263,37.17731],[-122.23174,37.34784],[-122.10138,37.45855],[-122.09429,37.47348],[-122.11261,37.50453],[-122.14261,37.52322],[-122.15571,37.52893],[-122.16874,37.5343],[-122.18354,37.54049],[-122.22562,37.55821],[-122.24346,37.56567],[-122.27764,37.58017],[-122.29357,37.58687],[-122.32472,37.60001],[-122.33929,37.6061],[-122.36046,37.61509]]}
}
