{
  "id": 2048560705,
  "type": "Feature",
  "properties": {
    "geom:area": 0,
    "geom:bbox": "-122.587850,36.723920,-122.357750,37.684660",
    "geom:latitude": 37.27233809275318,
    "geom:longitude": -122.51813345140039,
    "src:alt_label": "swim-takeoff",
    "src:geom": "swim",
    "swim:elevations": [
      122,
      301,
      573,
      1048,
      1202,
      1633,
      1803,
      2354,
      2996,
      3337,
      3727,
      4102,
      4283,
      4887,
      5290,
      5399,
      5909,
      6190,
      6441,
      6671,
      7080,
      7404,
      7729,
      7955,
      8157,
      8433,
      8594,
      8775
    ],
    "swim:geom": "takeoff",
    "swim:timestamps": [
      1791542246,
      1791542263,
      1791542285,
      1791542324,
      1791542353,
      1791542397,
      1791542409,
      1791542443,
      1791542487,
      1791542517,
      1791542547,
      1791542574,
      1791542588,
      1791542632,
      1791542663,
      1791542674,
      1791542717,
      1791542746,
      1791542769,
      1791542793,
      1791542837,
      1791542868,
      1791542901,
      1791542925,
      1791542951,
      1791542987,
      1791543013,
      1791543035
    ],
    "wof:geomhash": "3bbc9f0f5d4a254e51f479c08b54e232",
    "wof:id": 2048560705,
    "wof:repo": "sfomuseum-data-flights-2026-10"
  },
  "bbox": [
    -122.58785,
    36.72392,
    -122.35775,
    37.68466
  ],
  "geometry": {"type":"LineString","coordinates":[[-122.36836,37.62956],[-122.36212,37.64151],[-122.36225,37.65951],[-122.37767,37.68326],[-122.41236,37.68466],[-122.48025,37.6769],[-122.49916,37.67496],[-122.55395,37.66723],[-122.58785,37.61899],[-122.58633,37.57858],[-122.58513,37.53388],[-122.58341,37.49177],[-122.58266,37.47056],[-122.58038,37.40166],[-122.57798,37.35104],[-122.57708,37.33312],[-122.57417,37.26235],[-122.5723,37.21292],[-122.57077,37.17259],[-122.56908,37.13072],[-122.56598,37.05257],[-122.55428,36.99871],[-122.51918,36.94519],[-122.49054,36.90524],[-122.46082,36.8645],[-122.41644,36.80436],[-122.3849,36.76125],[-122.35775,36.72392]]}
}
