{
  "id": 2048510515,
  "type": "Feature",
  "properties": {
    "date:inception_lower": "2026-10-04",
    "date:inception_upper": "2026-10-04",
    "edtf:cessation": "",
    "edtf:inception": "2026-10-04",
    "flysfo:actual_timestamp": -1,
    "flysfo:airline": "QR",
    "flysfo:base_airline": "",
    "flysfo:base_flight_number": "2119",
    "flysfo:date": "2026-10-04",
    "flysfo:estimated_timestamp": 1791182940,
    "flysfo:event": "A",
    "flysfo:flight_number": "QR2119",
    "flysfo:gate": "B15",
    "flysfo:journey": "LIH-SFO",
    "flysfo:scheduled_timestamp": 1791183480,
    "flysfo:timestamp": 1791183480,
    "geom:area": 0,
    "geom:bbox": "-159.347789,21.981539,-122.370943,37.617990",
    "geom:latitude": 29.799764500000002,
    "geom:longitude": -140.859366,
    "iata:airline": "QR",
    "iata:base_airline": "",
    "icao:airline": "QTR",
    "icao:base_airline": "QTR",
    "lbl:latitude": 37.61799,
    "lbl:longitude": -122.370943,
    "sfomuseum:airline_id": 1159286153,
    "sfomuseum:arrival_id": 102527513,
    "sfomuseum:base_flight_id": "20261004-A-QTR-2119",
    "sfomuseum:departure_id": 102528943,
    "sfomuseum:flight_id": "20261004-A-QTR-2119",
    "sfomuseum:flight_number": [
      "QTR2119",
      "QR2119"
    ],
    "sfomuseum:placetype": "flight",
    "src:geom": "flysfo",
    "wof:belongsto": [
      1947304067,
      102527513,
      1947304261,
      102191575,
      85633793,
      102087579,
      85922583,
      554784711,
      85688637,
      1947304271,
      1947304259,
      102085387
    ],
    "wof:country": "US",
    "wof:created": 1791216416,
    "wof:geomhash": "46fccc0e56242535ccfd5ecb278f9a75",
    "wof:hierarchy": [
      {
        "building_id": 1947304067,
        "campus_id": 102527513,
        "concourse_id": 1947304261,
        "continent_id": 102191575,
        "country_id": 85633793,
        "county_id": 102087579,
        "custom_id": 2048510515,
        "flight_id": 2048510515,
        "locality_id": 85922583,
        "postalcode_id": 554784711,
        "region_id": 85688637,
        "venue_id": 1947304271,
        "wing_id": 1947304259
      },
      {
        "building_id": 1947304067,
        "campus_id": 102527513,
        "concourse_id": 1947304261,
        "continent_id": 102191575,
        "country_id": 85633793,
        "county_id": 102085387,
        "custom_id": 2048510515,
        "flight_id": 2048510515,
        "region_id": 85688637,
        "venue_id": 1947304271,
        "wing_id": 1947304259
      }
    ],
    "wof:id": 2048510515,
    "wof:involves": [
      102527513,
      102528943,
      1159286153,
      1947304271,
      1159286153
    ],
    "wof:lastmodified": 1791216416,
    "wof:name": "QR2119 (LIH-SFO)",
    "wof:parent_id": 1947304271,
    "wof:placetype": "custom",
    "wof:placetype_alt": [
      "flight"
    ],
    "wof:repo": "sfomuseum-data-flights-2026-10",
    "wof:superseded_by": [],
    "wof:supersedes": []
  },
  "bbox": [
    -159.347789,
    21.981539,
    -122.370943,
    37.61799
  ],
  "geometry": {"type":"MultiPoint","coordinates":[[-159.347789,21.981539],[-122.370943,37.61799]]}
}
