{
  "id": 2048537579,
  "type": "Feature",
  "properties": {
    "geom:area": 0,
    "geom:bbox": "-122.351570,37.491380,-121.250180,37.611200",
    "geom:latitude": 37.546274709020736,
    "geom:longitude": -121.80565595461586,
    "src:alt_label": "swim-approach",
    "src:geom": "swim",
    "swim:elevations": [
      4590,
      4409,
      4101,
      3734,
      3516,
      3321,
      3195,
      3061,
      2883,
      2715,
      2470,
      2302,
      2105,
      2053,
      1843,
      1775,
      1408,
      1293,
      1077,
      921,
      912,
      908,
      775,
      589,
      543,
      362,
      212,
      138,
      62
    ],
    "swim:geom": "approach",
    "swim:timestamps": [
      1791405414,
      1791405434,
      1791405466,
      1791405505,
      1791405530,
      1791405562,
      1791405597,
      1791405617,
      1791405658,
      1791405688,
      1791405718,
      1791405742,
      1791405769,
      1791405781,
      1791405837,
      1791405846,
      1791405898,
      1791405914,
      1791405950,
      1791405978,
      1791405985,
      1791406000,
      1791406024,
      1791406058,
      1791406081,
      1791406122,
      1791406161,
      1791406182,
      1791406204
    ],
    "wof:geomhash": "e68bc0cde8e504fd4227e2acd50b91eb",
    "wof:id": 2048537579,
    "wof:repo": "sfomuseum-data-flights-2026-10"
  },
  "bbox": [
    -122.35157,
    37.49138,
    -121.25018,
    37.6112
  ],
  "geometry": {"type":"LineString","coordinates":[[-121.25018,37.59428],[-121.2917,37.58894],[-121.35678,37.58197],[-121.43689,37.57252],[-121.48687,37.56673],[-121.55201,37.55909],[-121.61652,37.55148],[-121.65126,37.5444],[-121.7179,37.52853],[-121.76243,37.51786],[-121.80638,37.50728],[-121.84153,37.49882],[-121.8824,37.49138],[-121.90054,37.4919],[-121.98281,37.49442],[-121.99553,37.49746],[-122.0649,37.51981],[-122.08418,37.52605],[-122.12742,37.54009],[-122.15674,37.54949],[-122.16417,37.55184],[-122.17881,37.55658],[-122.20248,37.56407],[-122.23567,37.57493],[-122.25753,37.58203],[-122.29178,37.592],[-122.32005,37.60032],[-122.33608,37.60514],[-122.35157,37.6112]]}
}
