{
  "id": 2048551629,
  "type": "Feature",
  "properties": {
    "geom:area": 0,
    "geom:bbox": "-123.314860,37.632400,-122.409650,38.490640",
    "geom:latitude": 38.02213368466953,
    "geom:longitude": -122.89419982197457,
    "src:alt_label": "swim-takeoff",
    "src:geom": "swim",
    "swim:elevations": [
      605,
      508,
      919,
      1119,
      1338,
      1597,
      1873,
      2118,
      2532,
      2689,
      3104,
      3236,
      3323,
      3483,
      3583,
      4095,
      4451,
      4569,
      4805,
      5130,
      5344,
      5410,
      6096,
      6279
    ],
    "swim:geom": "takeoff",
    "swim:timestamps": [
      1791458605,
      1791458622,
      1791458662,
      1791458690,
      1791458715,
      1791458748,
      1791458785,
      1791458811,
      1791458846,
      1791458859,
      1791458900,
      1791458927,
      1791458949,
      1791458982,
      1791459012,
      1791459047,
      1791459088,
      1791459102,
      1791459129,
      1791459176,
      1791459202,
      1791459212,
      1791459296,
      1791459320
    ],
    "wof:geomhash": "b42c7d25e3a7b77292a349c40a9f660a",
    "wof:id": 2048551629,
    "wof:repo": "sfomuseum-data-flights-2026-10"
  },
  "bbox": [
    -123.31486,
    37.6324,
    -122.40965,
    38.49064
  ],
  "geometry": {"type":"LineString","coordinates":[[-122.40965,37.6324],[-122.4268,37.64069],[-122.46788,37.65908],[-122.49894,37.6728],[-122.52614,37.6883],[-122.5637,37.7104],[-122.60763,37.73604],[-122.64312,37.75689],[-122.69139,37.78548],[-122.70856,37.79555],[-122.76391,37.83238],[-122.79184,37.86532],[-122.81564,37.89474],[-122.85545,37.94301],[-122.8941,37.98931],[-122.9402,38.04476],[-122.99391,38.10934],[-123.01231,38.1313],[-123.04896,38.1746],[-123.11298,38.25083],[-123.14878,38.29349],[-123.16268,38.31],[-123.28056,38.44983],[-123.31486,38.49064]]}
}
