{
  "id": 2048491497,
  "type": "Feature",
  "properties": {
    "date:inception_lower": "2026-10-02",
    "date:inception_upper": "2026-10-02",
    "edtf:cessation": "",
    "edtf:inception": "2026-10-02",
    "flysfo:actual_timestamp": -1,
    "flysfo:airline": "NZ",
    "flysfo:base_airline": "",
    "flysfo:base_flight_number": "9368",
    "flysfo:date": "2026-10-02",
    "flysfo:estimated_timestamp": 1790967960,
    "flysfo:event": "A",
    "flysfo:flight_number": "NZ9368",
    "flysfo:gate": "F6",
    "flysfo:journey": "ASE-SFO",
    "flysfo:scheduled_timestamp": 1790965500,
    "flysfo:timestamp": 1790967960,
    "geom:area": 0,
    "geom:bbox": "-122.370943,37.617990,-106.869003,39.223202",
    "geom:latitude": 38.420596,
    "geom:longitude": -114.619973,
    "iata:airline": "NZ",
    "iata:base_airline": "",
    "icao:airline": "ANZ",
    "icao:base_airline": "ANZ",
    "lbl:latitude": 37.61799,
    "lbl:longitude": -122.370943,
    "sfomuseum:airline_id": 1159283697,
    "sfomuseum:arrival_id": 102527513,
    "sfomuseum:base_flight_id": "20261002-A-ANZ-9368",
    "sfomuseum:departure_id": 102531993,
    "sfomuseum:flight_id": "20261002-A-ANZ-9368",
    "sfomuseum:flight_number": [
      "ANZ9368",
      "NZ9368"
    ],
    "sfomuseum:placetype": "flight",
    "src:geom": "flysfo",
    "wof:belongsto": [
      1947304067,
      102527513,
      1947304451,
      102191575,
      85633793,
      102087579,
      85922583,
      554784711,
      85688637,
      1947304461,
      1947304447,
      102085387
    ],
    "wof:country": "US",
    "wof:created": 1791043397,
    "wof:geomhash": "2c2e1729c8655812749a286fa73dd01e",
    "wof:hierarchy": [
      {
        "building_id": 1947304067,
        "campus_id": 102527513,
        "concourse_id": 1947304451,
        "continent_id": 102191575,
        "country_id": 85633793,
        "county_id": 102087579,
        "custom_id": 2048491497,
        "flight_id": 2048491497,
        "locality_id": 85922583,
        "postalcode_id": 554784711,
        "region_id": 85688637,
        "venue_id": 1947304461,
        "wing_id": 1947304447
      },
      {
        "building_id": 1947304067,
        "campus_id": 102527513,
        "concourse_id": 1947304451,
        "continent_id": 102191575,
        "country_id": 85633793,
        "county_id": 102085387,
        "custom_id": 2048491497,
        "flight_id": 2048491497,
        "region_id": 85688637,
        "venue_id": 1947304461,
        "wing_id": 1947304447
      }
    ],
    "wof:id": 2048491497,
    "wof:involves": [
      102527513,
      102531993,
      1159283697,
      1947304461,
      1159283697
    ],
    "wof:lastmodified": 1791043397,
    "wof:name": "NZ9368 (ASE-SFO)",
    "wof:parent_id": 1947304461,
    "wof:placetype": "custom",
    "wof:placetype_alt": [
      "flight"
    ],
    "wof:repo": "sfomuseum-data-flights-2026-10",
    "wof:superseded_by": [],
    "wof:supersedes": []
  },
  "bbox": [
    -122.370943,
    37.61799,
    -106.869003,
    39.223202
  ],
  "geometry": {"type":"MultiPoint","coordinates":[[-106.869003,39.223202],[-122.370943,37.61799]]}
}
