{
  "id": 2048552519,
  "type": "Feature",
  "properties": {
    "date:inception_lower": "2026-10-09",
    "date:inception_upper": "2026-10-09",
    "edtf:cessation": "",
    "edtf:inception": "2026-10-09",
    "flysfo:actual_timestamp": -1,
    "flysfo:airline": "OZ",
    "flysfo:base_airline": "",
    "flysfo:base_flight_number": "9208",
    "flysfo:date": "2026-10-09",
    "flysfo:estimated_timestamp": 1791607800,
    "flysfo:event": "A",
    "flysfo:flight_number": "OZ9522",
    "flysfo:gate": "F19",
    "flysfo:journey": "IAH-SFO",
    "flysfo:scheduled_timestamp": 1791607800,
    "flysfo:timestamp": 1791607800,
    "geom:area": 0,
    "geom:bbox": "-122.370943,29.977186,-95.338444,37.617990",
    "geom:latitude": 33.797588,
    "geom:longitude": -108.8546935,
    "iata:airline": "OZ",
    "iata:base_airline": "",
    "icao:airline": "AAR",
    "icao:base_airline": "ANZ",
    "lbl:latitude": 37.620929,
    "lbl:longitude": -122.390272,
    "sfomuseum:airline_id": 1159283917,
    "sfomuseum:arrival_id": 102527513,
    "sfomuseum:base_flight_id": "20261009-A-ANZ-9208",
    "sfomuseum:departure_id": 102534097,
    "sfomuseum:flight_id": "20261009-A-AAR-9522",
    "sfomuseum:flight_number": [
      "AAR9522",
      "OZ9522"
    ],
    "sfomuseum:placetype": "flight",
    "src:geom": "flysfo",
    "wof:belongsto": [
      1947304067,
      102527513,
      1947304451,
      102191575,
      85633793,
      102087579,
      85922583,
      554784711,
      85688637,
      1947304487,
      1947304447,
      102085387
    ],
    "wof:country": "US",
    "wof:created": 1791648090,
    "wof:geomhash": "25dc9d98eae1cd54f40654c6c4fb6929",
    "wof:hierarchy": [
      {
        "building_id": 1947304067,
        "campus_id": 102527513,
        "concourse_id": 1947304451,
        "continent_id": 102191575,
        "country_id": 85633793,
        "county_id": 102087579,
        "custom_id": 2048552519,
        "flight_id": 2048552519,
        "locality_id": 85922583,
        "postalcode_id": 554784711,
        "region_id": 85688637,
        "venue_id": 1947304487,
        "wing_id": 1947304447
      },
      {
        "building_id": 1947304067,
        "campus_id": 102527513,
        "concourse_id": 1947304451,
        "continent_id": 102191575,
        "country_id": 85633793,
        "county_id": 102085387,
        "custom_id": 2048552519,
        "flight_id": 2048552519,
        "region_id": 85688637,
        "venue_id": 1947304487,
        "wing_id": 1947304447
      }
    ],
    "wof:id": 2048552519,
    "wof:involves": [
      102527513,
      102534097,
      1159283917,
      1947304487,
      1159283697
    ],
    "wof:lastmodified": 1791648090,
    "wof:name": "OZ9522 (IAH-SFO)",
    "wof:parent_id": 1947304487,
    "wof:placetype": "custom",
    "wof:placetype_alt": [
      "flight"
    ],
    "wof:repo": "sfomuseum-data-flights-2026-10",
    "wof:superseded_by": [],
    "wof:supersedes": []
  },
  "bbox": [
    -122.370943,
    29.977186,
    -95.338444,
    37.61799
  ],
  "geometry": {"type":"MultiPoint","coordinates":[[-95.338444,29.977186],[-122.370943,37.61799]]}
}
