{
  "id": 2048496973,
  "type": "Feature",
  "properties": {
    "date:inception_lower": "2026-10-02",
    "date:inception_upper": "2026-10-02",
    "edtf:cessation": "",
    "edtf:inception": "2026-10-02",
    "flysfo:actual_timestamp": -1,
    "flysfo:airline": "LH",
    "flysfo:base_airline": "",
    "flysfo:base_flight_number": "2350",
    "flysfo:date": "2026-10-02",
    "flysfo:estimated_timestamp": 1790955540,
    "flysfo:event": "D",
    "flysfo:flight_number": "LH9322",
    "flysfo:gate": "F19",
    "flysfo:journey": "SFO-LIH",
    "flysfo:scheduled_timestamp": 1790955600,
    "flysfo:timestamp": 1790955600,
    "geom:area": 0,
    "geom:bbox": "-159.347789,21.981539,-122.370943,37.617990",
    "geom:latitude": 29.799764500000002,
    "geom:longitude": -140.859366,
    "iata:airline": "LH",
    "iata:base_airline": "",
    "icao:airline": "DLH",
    "icao:base_airline": "AVA",
    "lbl:latitude": 37.620929,
    "lbl:longitude": -122.390272,
    "sfomuseum:airline_id": 1159286015,
    "sfomuseum:arrival_id": 102528943,
    "sfomuseum:base_flight_id": "20261002-D-AVA-2350",
    "sfomuseum:departure_id": 102527513,
    "sfomuseum:flight_id": "20261002-D-DLH-9322",
    "sfomuseum:flight_number": [
      "DLH9322",
      "LH9322"
    ],
    "sfomuseum:placetype": "flight",
    "src:geom": "flysfo",
    "wof:belongsto": [
      1947304067,
      102527513,
      1947304451,
      102191575,
      85633793,
      102087579,
      85922583,
      554784711,
      85688637,
      1947304487,
      1947304447,
      102085387
    ],
    "wof:country": "US",
    "wof:created": 1791044005,
    "wof:geomhash": "a2498fe603884edb23014f03e0e3c121",
    "wof:hierarchy": [
      {
        "building_id": 1947304067,
        "campus_id": 102527513,
        "concourse_id": 1947304451,
        "continent_id": 102191575,
        "country_id": 85633793,
        "county_id": 102087579,
        "custom_id": 2048496973,
        "flight_id": 2048496973,
        "locality_id": 85922583,
        "postalcode_id": 554784711,
        "region_id": 85688637,
        "venue_id": 1947304487,
        "wing_id": 1947304447
      },
      {
        "building_id": 1947304067,
        "campus_id": 102527513,
        "concourse_id": 1947304451,
        "continent_id": 102191575,
        "country_id": 85633793,
        "county_id": 102085387,
        "custom_id": 2048496973,
        "flight_id": 2048496973,
        "region_id": 85688637,
        "venue_id": 1947304487,
        "wing_id": 1947304447
      }
    ],
    "wof:id": 2048496973,
    "wof:involves": [
      102528943,
      102527513,
      1159286015,
      1947304487,
      1159285749
    ],
    "wof:lastmodified": 1791044005,
    "wof:name": "LH9322 (SFO-LIH)",
    "wof:parent_id": 1947304487,
    "wof:placetype": "custom",
    "wof:placetype_alt": [
      "flight"
    ],
    "wof:repo": "sfomuseum-data-flights-2026-10",
    "wof:superseded_by": [],
    "wof:supersedes": []
  },
  "bbox": [
    -159.347789,
    21.981539,
    -122.370943,
    37.61799
  ],
  "geometry": {"type":"MultiPoint","coordinates":[[-122.370943,37.61799],[-159.347789,21.981539]]}
}
