{
  "id": 2048488027,
  "type": "Feature",
  "properties": {
    "geom:area": 0,
    "geom:bbox": "-122.502880,36.721630,-121.430070,37.730600",
    "geom:latitude": 37.24574264926629,
    "geom:longitude": -122.06384612599304,
    "src:alt_label": "swim-takeoff",
    "src:geom": "swim",
    "swim:elevations": [
      152,
      344,
      522,
      782,
      988,
      1482,
      1847,
      2472,
      2520,
      3143,
      3594,
      3926,
      4174,
      4453,
      4738,
      4890,
      4993,
      5102,
      5724,
      5837,
      6541,
      6747,
      6899,
      7094,
      7454,
      7558,
      7812,
      7846,
      8242,
      8403,
      8548,
      8643
    ],
    "swim:geom": "takeoff",
    "swim:timestamps": [
      1790862418,
      1790862433,
      1790862454,
      1790862495,
      1790862518,
      1790862555,
      1790862579,
      1790862626,
      1790862630,
      1790862678,
      1790862716,
      1790862742,
      1790862762,
      1790862785,
      1790862831,
      1790862865,
      1790862892,
      1790862906,
      1790862956,
      1790862963,
      1790863047,
      1790863074,
      1790863094,
      1790863119,
      1790863168,
      1790863184,
      1790863222,
      1790863230,
      1790863288,
      1790863317,
      1790863338,
      1790863353
    ],
    "wof:geomhash": "700ea94516e6865fa1e6d2c282df619c",
    "wof:id": 2048488027,
    "wof:repo": "sfomuseum-data-flights-2026-10"
  },
  "bbox": [
    -122.50288,
    36.72163,
    -121.43007,
    37.7306
  ],
  "geometry": {"type":"LineString","coordinates":[[-122.36994,37.62783],[-122.36485,37.63769],[-122.36366,37.6543],[-122.36082,37.69559],[-122.37454,37.7202],[-122.42971,37.7306],[-122.45768,37.71232],[-122.48323,37.65475],[-122.48471,37.64962],[-122.50288,37.58714],[-122.49061,37.53702],[-122.45844,37.51127],[-122.43212,37.49112],[-122.4023,37.46826],[-122.34054,37.42129],[-122.28892,37.38204],[-122.24518,37.34877],[-122.22091,37.33031],[-122.13634,37.26572],[-122.12492,37.25698],[-121.98557,37.15034],[-121.94056,37.11579],[-121.90453,37.08806],[-121.86207,37.05531],[-121.77342,36.98688],[-121.745,36.96487],[-121.67575,36.91328],[-121.65948,36.90075],[-121.55297,36.81781],[-121.49815,36.77514],[-121.45911,36.74459],[-121.43007,36.72163]]}
}
