{
  "id": 2048551113,
  "type": "Feature",
  "properties": {
    "date:cessation_lower": "1970-01-01",
    "date:cessation_upper": "1970-01-01",
    "date:inception_lower": "2026-10-08",
    "date:inception_upper": "2026-10-08",
    "edtf:cessation": "1970-01-01T00:00:00Z",
    "edtf:inception": "2026-10-08T11:55:19-07:00",
    "flysfo:actual_timestamp": -1,
    "flysfo:airline": "UA",
    "flysfo:base_airline": "",
    "flysfo:base_flight_number": "5166",
    "flysfo:date": "2026-10-08",
    "flysfo:estimated_timestamp": 1791509820,
    "flysfo:event": "D",
    "flysfo:flight_number": "UA1958",
    "flysfo:gate": "F11",
    "flysfo:journey": "SFO-ORD",
    "flysfo:scheduled_timestamp": 1791509880,
    "flysfo:timestamp": 1791509880,
    "geom:area": 0,
    "geom:bbox": "-122.370943,37.617990,-87.894364,41.983038",
    "geom:latitude": 39.800514,
    "geom:longitude": -105.1326535,
    "iata:airline": "UA",
    "iata:base_airline": "",
    "icao:aircraft": "B753",
    "icao:airline": "UAL",
    "icao:base_airline": "ACA",
    "lbl:latitude": 37.620244,
    "lbl:longitude": -122.387813,
    "sfomuseum:aircraft_id": 1159289945,
    "sfomuseum:airline_id": 1159285413,
    "sfomuseum:arrival_id": 102533631,
    "sfomuseum:base_flight_id": "20261008-D-ACA-5166",
    "sfomuseum:departure_id": 102527513,
    "sfomuseum:flight_id": "20261008-D-UAL-1958",
    "sfomuseum:flight_number": [
      "UAL1958",
      "UA1958"
    ],
    "sfomuseum:placetype": "flight",
    "src:geom": "flysfo",
    "src:geom_alt": [
      "swim-takeoff"
    ],
    "swim:tail_number": "N57857",
    "wof:belongsto": [
      1947304067,
      102527513,
      1947304451,
      102191575,
      85633793,
      102087579,
      85922583,
      554784711,
      85688637,
      1947304463,
      1947304447,
      102085387
    ],
    "wof:country": "US",
    "wof:created": 1791562643,
    "wof:geomhash": "7a75cc81bf790964b92a4927d3978f50",
    "wof:hierarchy": [
      {
        "building_id": 1947304067,
        "campus_id": 102527513,
        "concourse_id": 1947304451,
        "continent_id": 102191575,
        "country_id": 85633793,
        "county_id": 102087579,
        "custom_id": 2048551113,
        "flight_id": 2048551113,
        "locality_id": 85922583,
        "postalcode_id": 554784711,
        "region_id": 85688637,
        "venue_id": 1947304463,
        "wing_id": 1947304447
      },
      {
        "building_id": 1947304067,
        "campus_id": 102527513,
        "concourse_id": 1947304451,
        "continent_id": 102191575,
        "country_id": 85633793,
        "county_id": 102085387,
        "custom_id": 2048551113,
        "flight_id": 2048551113,
        "region_id": 85688637,
        "venue_id": 1947304463,
        "wing_id": 1947304447
      }
    ],
    "wof:id": 2048551113,
    "wof:involves": [
      1159289945,
      102533631,
      102527513,
      1159285413,
      1947304463,
      1159283597
    ],
    "wof:lastmodified": 1791562838,
    "wof:name": "UA1958 (SFO-ORD)",
    "wof:parent_id": 1947304463,
    "wof:placetype": "custom",
    "wof:placetype_alt": [
      "flight"
    ],
    "wof:repo": "sfomuseum-data-flights-2026-10",
    "wof:superseded_by": [],
    "wof:supersedes": []
  },
  "bbox": [
    -122.370943,
    37.61799,
    -87.894364,
    41.983038
  ],
  "geometry": {"type":"MultiPoint","coordinates":[[-122.370943,37.61799],[-87.894364,41.983038]]}
}
