{
  "id": 2048524543,
  "type": "Feature",
  "properties": {
    "date:inception_lower": "2026-10-05",
    "date:inception_upper": "2026-10-05",
    "edtf:cessation": "",
    "edtf:inception": "2026-10-05",
    "flysfo:actual_timestamp": -1,
    "flysfo:airline": "WN",
    "flysfo:date": "2026-10-05",
    "flysfo:estimated_timestamp": 1791225360,
    "flysfo:event": "D",
    "flysfo:flight_number": "WN4319",
    "flysfo:gate": "D1",
    "flysfo:journey": "SFO-LAX",
    "flysfo:scheduled_timestamp": 1791225000,
    "flysfo:timestamp": 1791225360,
    "geom:area": 0,
    "geom:bbox": "-122.370943,33.942593,-118.389510,37.617990",
    "geom:latitude": 35.780291500000004,
    "geom:longitude": -120.38022649999999,
    "iata:airline": "WN",
    "icao:airline": "SWA",
    "lbl:latitude": 37.616987,
    "lbl:longitude": -122.382479,
    "sfomuseum:airline_id": 1159285591,
    "sfomuseum:arrival_id": 102533795,
    "sfomuseum:departure_id": 102527513,
    "sfomuseum:flight_id": "20261005-D-SWA-4319",
    "sfomuseum:flight_number": [
      "SWA4319",
      "WN4319"
    ],
    "sfomuseum:placetype": "flight",
    "src:geom": "flysfo",
    "wof:belongsto": [
      1947304067,
      102527513,
      1947304595,
      102191575,
      85633793,
      102087579,
      85922583,
      554784711,
      85688637,
      1947304625,
      1947304591,
      102085387
    ],
    "wof:country": "US",
    "wof:created": 1791303352,
    "wof:geomhash": "602be2a828e3460cadf44be5b1c2e36b",
    "wof:hierarchy": [
      {
        "building_id": 1947304067,
        "campus_id": 102527513,
        "concourse_id": 1947304595,
        "continent_id": 102191575,
        "country_id": 85633793,
        "county_id": 102087579,
        "custom_id": 2048524543,
        "flight_id": 2048524543,
        "locality_id": 85922583,
        "postalcode_id": 554784711,
        "region_id": 85688637,
        "venue_id": 1947304625,
        "wing_id": 1947304591
      },
      {
        "building_id": 1947304067,
        "campus_id": 102527513,
        "concourse_id": 1947304595,
        "continent_id": 102191575,
        "country_id": 85633793,
        "county_id": 102085387,
        "custom_id": 2048524543,
        "flight_id": 2048524543,
        "region_id": 85688637,
        "venue_id": 1947304625,
        "wing_id": 1947304591
      }
    ],
    "wof:id": 2048524543,
    "wof:involves": [
      102533795,
      102527513,
      1159285591,
      1947304625
    ],
    "wof:lastmodified": 1791303352,
    "wof:name": "WN4319 (SFO-LAX)",
    "wof:parent_id": 1947304625,
    "wof:placetype": "custom",
    "wof:placetype_alt": [
      "flight"
    ],
    "wof:repo": "sfomuseum-data-flights-2026-10",
    "wof:superseded_by": [],
    "wof:supersedes": []
  },
  "bbox": [
    -122.370943,
    33.942593,
    -118.38951,
    37.61799
  ],
  "geometry": {"type":"MultiPoint","coordinates":[[-122.370943,37.61799],[-118.38951,33.942593]]}
}
