{
  "id": 2048484791,
  "type": "Feature",
  "properties": {
    "geom:area": 0,
    "geom:bbox": "-122.357730,37.491770,-121.253720,37.613770",
    "geom:latitude": 37.54673989696799,
    "geom:longitude": -121.81054236327644,
    "src:alt_label": "swim-approach",
    "src:geom": "swim",
    "swim:elevations": [
      4591,
      4275,
      4144,
      4095,
      3669,
      3409,
      3259,
      3138,
      3055,
      2941,
      2678,
      2494,
      2249,
      2158,
      2074,
      1980,
      1958,
      1783,
      1769,
      1382,
      1203,
      1130,
      918,
      861,
      718,
      549,
      474,
      255,
      140,
      0
    ],
    "swim:geom": "approach",
    "swim:timestamps": [
      1790882649,
      1790882683,
      1790882696,
      1790882702,
      1790882746,
      1790882777,
      1790882818,
      1790882847,
      1790882867,
      1790882890,
      1790882921,
      1790882958,
      1790882998,
      1790883016,
      1790883035,
      1790883058,
      1790883064,
      1790883112,
      1790883121,
      1790883172,
      1790883201,
      1790883213,
      1790883249,
      1790883283,
      1790883305,
      1790883335,
      1790883364,
      1790883414,
      1790883445,
      1790883478
    ],
    "wof:geomhash": "22534529cefc5e2ffdc7d420f363582a",
    "wof:id": 2048484791,
    "wof:repo": "sfomuseum-data-flights-2026-10"
  },
  "bbox": [
    -122.35773,
    37.49177,
    -121.25372,
    37.61377
  ],
  "geometry": {"type":"LineString","coordinates":[[-121.25372,37.59416],[-121.32289,37.58563],[-121.35045,37.58265],[-121.36236,37.58133],[-121.45026,37.57127],[-121.5116,37.56412],[-121.58678,37.55532],[-121.63594,37.54822],[-121.66766,37.54054],[-121.69999,37.53284],[-121.74467,37.52229],[-121.79368,37.51057],[-121.84809,37.49749],[-121.87113,37.49232],[-121.89773,37.49177],[-121.92974,37.4926],[-121.93838,37.49279],[-122.00232,37.49969],[-122.01393,37.50345],[-122.07033,37.52155],[-122.101,37.53161],[-122.11373,37.53571],[-122.15188,37.54795],[-122.1866,37.55922],[-122.20826,37.56621],[-122.23921,37.57624],[-122.2675,37.58513],[-122.30938,37.59741],[-122.334,37.60472],[-122.35773,37.61377]]}
}
