{
  "id": 2048527975,
  "type": "Feature",
  "properties": {
    "geom:area": 0,
    "geom:bbox": "-122.358440,37.491180,-121.268040,37.613860",
    "geom:latitude": 37.54588055252099,
    "geom:longitude": -121.81808377172271,
    "src:alt_label": "swim-approach",
    "src:geom": "swim",
    "swim:elevations": [
      4647,
      4293,
      4072,
      3742,
      3196,
      3156,
      3014,
      2794,
      2581,
      2469,
      2250,
      2214,
      2074,
      2023,
      1923,
      1856,
      1764,
      1605,
      1396,
      1223,
      1093,
      977,
      849,
      773,
      609,
      452,
      432,
      215,
      121,
      0
    ],
    "swim:geom": "approach",
    "swim:timestamps": [
      1791325182,
      1791325216,
      1791325237,
      1791325266,
      1791325317,
      1791325323,
      1791325377,
      1791325406,
      1791325436,
      1791325454,
      1791325495,
      1791325500,
      1791325525,
      1791325534,
      1791325561,
      1791325588,
      1791325606,
      1791325632,
      1791325675,
      1791325708,
      1791325738,
      1791325765,
      1791325795,
      1791325810,
      1791325849,
      1791325887,
      1791325891,
      1791325948,
      1791325972,
      1791325998
    ],
    "wof:geomhash": "5a8723e22677cb6e0104fa13f335f9a4",
    "wof:id": 2048527975,
    "wof:repo": "sfomuseum-data-flights-2026-10"
  },
  "bbox": [
    -122.35844,
    37.49118,
    -121.26804,
    37.61386
  ],
  "geometry": {"type":"LineString","coordinates":[[-121.26804,37.59213],[-121.33852,37.5839],[-121.3807,37.57941],[-121.44124,37.57245],[-121.54649,37.55991],[-121.55861,37.55848],[-121.65708,37.54304],[-121.70402,37.53178],[-121.75295,37.52022],[-121.78081,37.51376],[-121.84315,37.49853],[-121.84987,37.49693],[-121.88921,37.49118],[-121.90296,37.49146],[-121.94141,37.49245],[-121.97749,37.49382],[-122.00037,37.49857],[-122.0315,37.50881],[-122.0786,37.52386],[-122.1132,37.53528],[-122.14181,37.54463],[-122.16594,37.55242],[-122.19227,37.56091],[-122.20628,37.56539],[-122.23999,37.57626],[-122.27198,37.5862],[-122.2758,37.58728],[-122.31992,37.6004],[-122.33918,37.60645],[-122.35844,37.61386]]}
}
