{
  "id": 2048498427,
  "type": "Feature",
  "properties": {
    "geom:area": 0,
    "geom:bbox": "-122.386600,37.629280,-121.442650,38.510110",
    "geom:latitude": 38.116515492762446,
    "geom:longitude": -122.0195647626456,
    "src:alt_label": "swim-takeoff",
    "src:geom": "swim",
    "swim:elevations": [
      122,
      315,
      541,
      953,
      1013,
      1104,
      1161,
      1206,
      1465,
      1838,
      1936,
      2479,
      2957,
      3189,
      3250,
      3394,
      3582,
      3878,
      4437,
      4852,
      5094,
      5564,
      5722,
      6229,
      6497,
      6815,
      7005,
      7248,
      7374,
      7768,
      7982
    ],
    "swim:geom": "takeoff",
    "swim:timestamps": [
      1790987096,
      1790987113,
      1790987131,
      1790987180,
      1790987194,
      1790987215,
      1790987224,
      1790987239,
      1790987275,
      1790987306,
      1790987314,
      1790987359,
      1790987397,
      1790987421,
      1790987430,
      1790987451,
      1790987477,
      1790987505,
      1790987547,
      1790987577,
      1790987599,
      1790987638,
      1790987650,
      1790987698,
      1790987721,
      1790987756,
      1790987780,
      1790987807,
      1790987822,
      1790987869,
      1790987893
    ],
    "wof:geomhash": "238c52827214fe31d30a143478697715",
    "wof:id": 2048498427,
    "wof:repo": "sfomuseum-data-flights-2026-10"
  },
  "bbox": [
    -122.3866,
    37.62928,
    -121.44265,
    38.51011
  ],
  "geometry": {"type":"LineString","coordinates":[[-122.36589,37.62928],[-122.35795,37.64085],[-122.34649,37.65156],[-122.31155,37.67905],[-122.30701,37.68996],[-122.31375,37.7084],[-122.31867,37.71644],[-122.32793,37.73091],[-122.35022,37.77069],[-122.36938,37.80956],[-122.37427,37.81947],[-122.3866,37.87938],[-122.38052,37.9315],[-122.35649,37.9595],[-122.34365,37.96806],[-122.31119,37.98689],[-122.26772,38.01208],[-122.21871,38.04149],[-122.14353,38.08699],[-122.08856,38.12041],[-122.04846,38.14478],[-121.97414,38.18984],[-121.95071,38.20401],[-121.85523,38.26171],[-121.80974,38.289],[-121.73864,38.33171],[-121.68848,38.36179],[-121.63044,38.39652],[-121.59807,38.41591],[-121.49592,38.47695],[-121.44265,38.51011]]}
}
