{
  "id": 2048482623,
  "type": "Feature",
  "properties": {
    "geom:area": 0,
    "geom:bbox": "-122.853530,37.416490,-122.169120,38.514720",
    "geom:latitude": 37.8489263960357,
    "geom:longitude": -122.52463223714626,
    "src:alt_label": "swim-approach",
    "src:geom": "swim",
    "swim:elevations": [
      7967,
      7761,
      7403,
      7094,
      6849,
      6640,
      6264,
      6020,
      5707,
      5373,
      5222,
      4936,
      4708,
      4503,
      4207,
      3971,
      3892,
      3765,
      3603,
      3353,
      3353,
      3371,
      3356,
      3355,
      3273,
      3169,
      2986,
      2806,
      2507,
      2406,
      2125,
      1973,
      1665,
      1466,
      1261,
      1015,
      724,
      626,
      451,
      390,
      302,
      172,
      144,
      45
    ],
    "swim:geom": "approach",
    "swim:timestamps": [
      1790895597,
      1790895619,
      1790895656,
      1790895686,
      1790895713,
      1790895733,
      1790895772,
      1790895796,
      1790895828,
      1790895866,
      1790895883,
      1790895918,
      1790895945,
      1790895974,
      1790896011,
      1790896046,
      1790896058,
      1790896072,
      1790896091,
      1790896133,
      1790896162,
      1790896195,
      1790896202,
      1790896211,
      1790896256,
      1790896274,
      1790896316,
      1790896340,
      1790896377,
      1790896387,
      1790896433,
      1790896446,
      1790896483,
      1790896513,
      1790896538,
      1790896568,
      1790896617,
      1790896635,
      1790896671,
      1790896681,
      1790896704,
      1790896735,
      1790896743,
      1790896776
    ],
    "wof:geomhash": "6dd9f48db60f81f239efe89418bf59d6",
    "wof:id": 2048482623,
    "wof:repo": "sfomuseum-data-flights-2026-10"
  },
  "bbox": [
    -122.85353,
    37.41649,
    -122.16912,
    38.51472
  ],
  "geometry": {"type":"LineString","coordinates":[[-122.85353,38.51472],[-122.84181,38.47439],[-122.8214,38.40874],[-122.80579,38.35595],[-122.79224,38.30961],[-122.78251,38.2761],[-122.76372,38.21174],[-122.75187,38.17083],[-122.73691,38.11897],[-122.71928,38.05819],[-122.71148,38.03116],[-122.69622,37.97875],[-122.6848,37.93969],[-122.66984,37.90025],[-122.62962,37.85811],[-122.59094,37.82158],[-122.57765,37.80899],[-122.5618,37.79424],[-122.54051,37.77444],[-122.49445,37.73063],[-122.46313,37.70118],[-122.42678,37.66707],[-122.41889,37.65963],[-122.4089,37.65022],[-122.36148,37.60335],[-122.34945,37.58242],[-122.32469,37.53635],[-122.30985,37.5123],[-122.28723,37.47513],[-122.28155,37.4659],[-122.25136,37.42231],[-122.23585,37.41649],[-122.19622,37.43873],[-122.18111,37.46928],[-122.16912,37.49359],[-122.17377,37.52131],[-122.21642,37.55182],[-122.23583,37.56027],[-122.2717,37.57536],[-122.28049,37.57897],[-122.30123,37.58774],[-122.32602,37.59806],[-122.33209,37.6007],[-122.35713,37.61116]]}
}
