{
  "id": 2048500585,
  "type": "Feature",
  "properties": {
    "geom:area": 0,
    "geom:bbox": "-122.355880,36.769360,-121.901740,37.610650",
    "geom:latitude": 37.24057778093535,
    "geom:longitude": -122.0745001795577,
    "src:alt_label": "swim-approach",
    "src:geom": "swim",
    "swim:elevations": [
      4977,
      4854,
      4558,
      4216,
      4129,
      3946,
      3778,
      3746,
      3343,
      3061,
      2916,
      2815,
      2794,
      2618,
      2348,
      2187,
      2040,
      1942,
      1823,
      1538,
      1419,
      1332,
      1157,
      921,
      712,
      463,
      445,
      308,
      29
    ],
    "swim:geom": "approach",
    "swim:timestamps": [
      1791030117,
      1791030127,
      1791030157,
      1791030205,
      1791030221,
      1791030242,
      1791030265,
      1791030270,
      1791030312,
      1791030343,
      1791030377,
      1791030413,
      1791030422,
      1791030458,
      1791030505,
      1791030531,
      1791030556,
      1791030576,
      1791030601,
      1791030648,
      1791030673,
      1791030693,
      1791030724,
      1791030765,
      1791030797,
      1791030834,
      1791030845,
      1791030882,
      1791030952
    ],
    "wof:geomhash": "49b5819ef194f8e083b0676960deb98f",
    "wof:id": 2048500585,
    "wof:repo": "sfomuseum-data-flights-2026-10"
  },
  "bbox": [
    -122.35588,
    36.76936,
    -121.90174,
    37.61065
  ],
  "geometry": {"type":"LineString","coordinates":[[-121.90174,36.76936],[-121.90653,36.78609],[-121.92071,36.83675],[-121.94252,36.91404],[-121.9494,36.93828],[-121.95962,36.96853],[-121.97203,37.00065],[-121.97437,37.0067],[-121.99703,37.06506],[-122.01325,37.10695],[-122.03054,37.15058],[-122.04769,37.19389],[-122.05169,37.20416],[-122.06735,37.2441],[-122.0874,37.29569],[-122.09864,37.32503],[-122.09878,37.35335],[-122.09775,37.37687],[-122.09648,37.40437],[-122.10365,37.45503],[-122.11953,37.47903],[-122.13105,37.49657],[-122.15124,37.52299],[-122.19484,37.54286],[-122.22725,37.55651],[-122.26191,37.57123],[-122.27197,37.57543],[-122.30287,37.58835],[-122.35588,37.61065]]}
}
