{
  "id": 2048533427,
  "type": "Feature",
  "properties": {
    "geom:area": 0,
    "geom:bbox": "-122.527520,37.628060,-121.271440,38.144610",
    "geom:latitude": 37.93436063493861,
    "geom:longitude": -121.99312970855235,
    "src:alt_label": "swim-takeoff",
    "src:geom": "swim",
    "swim:elevations": [
      214,
      505,
      845,
      1097,
      1254,
      1545,
      1789,
      2174,
      2740,
      3069,
      3307,
      3503,
      3821,
      4276,
      4611,
      4679,
      5149,
      5209,
      5662,
      5792,
      5912,
      6288,
      6381,
      6648,
      6886,
      6986,
      7294,
      7626,
      7762
    ],
    "swim:geom": "takeoff",
    "swim:timestamps": [
      1791275182,
      1791275206,
      1791275237,
      1791275269,
      1791275303,
      1791275332,
      1791275351,
      1791275381,
      1791275424,
      1791275455,
      1791275488,
      1791275507,
      1791275535,
      1791275578,
      1791275607,
      1791275615,
      1791275664,
      1791275670,
      1791275715,
      1791275731,
      1791275743,
      1791275787,
      1791275800,
      1791275833,
      1791275871,
      1791275884,
      1791275922,
      1791275964,
      1791275986
    ],
    "wof:geomhash": "acaac064cffa90c885646a00bfd86ac8",
    "wof:id": 2048533427,
    "wof:repo": "sfomuseum-data-flights-2026-10"
  },
  "bbox": [
    -122.52752,
    37.62806,
    -121.27144,
    38.14461
  ],
  "geometry": {"type":"LineString","coordinates":[[-122.39776,37.62806],[-122.42056,37.63781],[-122.45014,37.65034],[-122.48028,37.6639],[-122.5181,37.68515],[-122.52752,37.71837],[-122.52732,37.74265],[-122.52653,37.78085],[-122.48174,37.82268],[-122.43429,37.83872],[-122.37674,37.8536],[-122.34165,37.86297],[-122.28696,37.87763],[-122.20362,37.89996],[-122.14373,37.916],[-122.12718,37.92038],[-122.02461,37.94768],[-122.01067,37.95143],[-121.913,37.97744],[-121.87946,37.98628],[-121.85093,37.99383],[-121.75119,38.02013],[-121.72168,38.02786],[-121.64522,38.04801],[-121.55334,38.07207],[-121.52197,38.08027],[-121.42991,38.10426],[-121.32645,38.13108],[-121.27144,38.14461]]}
}
