{
  "id": 2048481251,
  "type": "Feature",
  "properties": {
    "geom:area": 0,
    "geom:bbox": "-122.359430,37.491460,-121.258000,37.615370",
    "geom:latitude": 37.54645260609697,
    "geom:longitude": -121.81381297921719,
    "src:alt_label": "swim-approach",
    "src:geom": "swim",
    "swim:elevations": [
      4492,
      4304,
      4043,
      3877,
      3446,
      3171,
      3170,
      3124,
      3049,
      2863,
      2634,
      2467,
      2376,
      2247,
      2161,
      1938,
      1895,
      1859,
      1834,
      1669,
      1513,
      1373,
      1296,
      990,
      744,
      547,
      404,
      280,
      222,
      179,
      91,
      0
    ],
    "swim:geom": "approach",
    "swim:timestamps": [
      1790894157,
      1790894178,
      1790894205,
      1790894222,
      1790894269,
      1790894305,
      1790894311,
      1790894323,
      1790894345,
      1790894371,
      1790894414,
      1790894456,
      1790894483,
      1790894515,
      1790894528,
      1790894572,
      1790894578,
      1790894584,
      1790894608,
      1790894638,
      1790894658,
      1790894696,
      1790894714,
      1790894756,
      1790894786,
      1790894813,
      1790894844,
      1790894874,
      1790894886,
      1790894908,
      1790894926,
      1790894945
    ],
    "wof:geomhash": "0e75fb12a2bf5a07b98d8b143fcde9d7",
    "wof:id": 2048481251,
    "wof:repo": "sfomuseum-data-flights-2026-10"
  },
  "bbox": [
    -122.35943,
    37.49146,
    -121.258,
    37.61537
  ],
  "geometry": {"type":"LineString","coordinates":[[-121.258,37.59333],[-121.30062,37.58782],[-121.35371,37.58208],[-121.38803,37.57828],[-121.48123,37.56749],[-121.55002,37.55945],[-121.56124,37.55818],[-121.58316,37.55562],[-121.62247,37.55071],[-121.66533,37.54086],[-121.73512,37.52422],[-121.79902,37.50908],[-121.83808,37.49972],[-121.88187,37.49146],[-121.89994,37.4916],[-121.9619,37.49327],[-121.9701,37.49352],[-121.97828,37.4939],[-122.01006,37.50209],[-122.04769,37.51423],[-122.07335,37.52252],[-122.12132,37.53804],[-122.14168,37.54467],[-122.18661,37.5591],[-122.21846,37.56937],[-122.24784,37.57888],[-122.278,37.58808],[-122.305,37.59592],[-122.31549,37.59873],[-122.33301,37.60393],[-122.34693,37.60936],[-122.35943,37.61537]]}
}
