{
  "id": 2048488021,
  "type": "Feature",
  "properties": {
    "geom:area": 0,
    "geom:bbox": "-122.468600,36.718520,-121.291900,37.728950",
    "geom:latitude": 37.221496933631485,
    "geom:longitude": -121.9995903191264,
    "src:alt_label": "swim-takeoff",
    "src:geom": "swim",
    "swim:elevations": [
      183,
      499,
      715,
      907,
      1325,
      1816,
      2237,
      2713,
      3169,
      3295,
      3477,
      3533,
      3898,
      4047,
      4260,
      4397,
      4653,
      4955,
      5303,
      5614,
      5678,
      5843,
      5892,
      6121,
      6425,
      6657,
      6814,
      6900,
      7254,
      7446,
      7494,
      7690,
      7867
    ],
    "swim:geom": "takeoff",
    "swim:timestamps": [
      1790882478,
      1790882515,
      1790882541,
      1790882563,
      1790882596,
      1790882629,
      1790882656,
      1790882688,
      1790882722,
      1790882746,
      1790882784,
      1790882801,
      1790882847,
      1790882860,
      1790882877,
      1790882890,
      1790882916,
      1790882953,
      1790882992,
      1790883026,
      1790883035,
      1790883058,
      1790883064,
      1790883098,
      1790883142,
      1790883178,
      1790883201,
      1790883213,
      1790883262,
      1790883298,
      1790883305,
      1790883341,
      1790883367
    ],
    "wof:geomhash": "d9640a1e752ac0efcdb833a5f1d27bd7",
    "wof:id": 2048488021,
    "wof:repo": "sfomuseum-data-flights-2026-10"
  },
  "bbox": [
    -122.4686,
    36.71852,
    -121.2919,
    37.72895
  ],
  "geometry": {"type":"LineString","coordinates":[[-122.36875,37.62894],[-122.36093,37.6553],[-122.36008,37.68011],[-122.3638,37.70486],[-122.40291,37.72895],[-122.4471,37.71282],[-122.45887,37.67907],[-122.4617,37.63805],[-122.46563,37.59288],[-122.4686,37.55752],[-122.46353,37.49526],[-122.44413,37.47019],[-122.36002,37.41478],[-122.33505,37.39935],[-122.30298,37.37918],[-122.27864,37.36375],[-122.22885,37.33173],[-122.15752,37.28555],[-122.07959,37.23491],[-122.01273,37.19148],[-121.99478,37.17983],[-121.94867,37.14975],[-121.93613,37.14162],[-121.86881,37.09767],[-121.7772,37.03766],[-121.70136,36.98795],[-121.65313,36.95623],[-121.62818,36.93977],[-121.52166,36.8696],[-121.44559,36.81931],[-121.43054,36.80933],[-121.35044,36.75667],[-121.2919,36.71852]]}
}
