{
  "id": 2048511391,
  "type": "Feature",
  "properties": {
    "geom:area": 0,
    "geom:bbox": "-122.359830,37.491500,-121.759780,37.614930",
    "geom:latitude": 37.53404037651616,
    "geom:longitude": -122.06219897359792,
    "src:alt_label": "swim-approach",
    "src:geom": "swim",
    "swim:elevations": [
      2579,
      2382,
      2223,
      2131,
      1929,
      1865,
      1829,
      1757,
      1551,
      1340,
      1222,
      1105,
      973,
      729,
      602,
      430,
      387,
      153,
      30,
      0
    ],
    "swim:geom": "approach",
    "swim:timestamps": [
      1791139543,
      1791139587,
      1791139616,
      1791139649,
      1791139672,
      1791139682,
      1791139703,
      1791139735,
      1791139766,
      1791139797,
      1791139818,
      1791139837,
      1791139862,
      1791139912,
      1791139942,
      1791139970,
      1791139981,
      1791140036,
      1791140065,
      1791140071
    ],
    "wof:geomhash": "f5c7733adb967b974f6c69377770ad0e",
    "wof:id": 2048511391,
    "wof:repo": "sfomuseum-data-flights-2026-10"
  },
  "bbox": [
    -122.35983,
    37.4915,
    -121.75978,
    37.61493
  ],
  "geometry": {"type":"LineString","coordinates":[[-121.75978,37.51864],[-121.81968,37.50417],[-121.85829,37.49496],[-121.9012,37.4915],[-121.93272,37.49239],[-121.94667,37.49284],[-121.97413,37.49367],[-122.01541,37.50354],[-122.05417,37.51621],[-122.09156,37.5282],[-122.11646,37.53632],[-122.13927,37.54375],[-122.16675,37.55247],[-122.21911,37.56959],[-122.24921,37.57945],[-122.2761,37.58741],[-122.28658,37.59045],[-122.33336,37.60437],[-122.35516,37.61275],[-122.35983,37.61493]]}
}
