{
  "id": 2048543067,
  "type": "Feature",
  "properties": {
    "date:cessation_lower": "2026-10-08",
    "date:cessation_upper": "2026-10-08",
    "date:inception_lower": "1970-01-01",
    "date:inception_upper": "1970-01-01",
    "edtf:cessation": "2026-10-08T11:22:12-07:00",
    "edtf:inception": "1970-01-01T00:00:00Z",
    "flysfo:actual_timestamp": -1,
    "flysfo:airline": "AA",
    "flysfo:base_airline": "",
    "flysfo:base_flight_number": "4421",
    "flysfo:date": "2026-10-08",
    "flysfo:estimated_timestamp": 1791509400,
    "flysfo:event": "A",
    "flysfo:flight_number": "AA1528",
    "flysfo:gate": "B25",
    "flysfo:journey": "PHL-SFO",
    "flysfo:scheduled_timestamp": 1791510660,
    "flysfo:timestamp": 1791510660,
    "geom:area": 0,
    "geom:bbox": "-122.370943,37.617990,-75.247885,39.880952",
    "geom:latitude": 38.749471,
    "geom:longitude": -98.809414,
    "iata:airline": "AA",
    "iata:base_airline": "",
    "icao:aircraft": "A21N",
    "icao:airline": "AAL",
    "icao:base_airline": "BAW",
    "lbl:latitude": 37.61799,
    "lbl:longitude": -122.370943,
    "sfomuseum:aircraft_id": 1377564297,
    "sfomuseum:airline_id": 1159283849,
    "sfomuseum:arrival_id": 102527513,
    "sfomuseum:base_flight_id": "20261008-A-BAW-4421",
    "sfomuseum:departure_id": 102529403,
    "sfomuseum:flight_id": "20261008-A-AAL-1528",
    "sfomuseum:flight_number": [
      "AAL1528",
      "AA1528"
    ],
    "sfomuseum:placetype": "flight",
    "src:geom": "flysfo",
    "src:geom_alt": [
      "swim-approach"
    ],
    "swim:tail_number": "N416AN",
    "wof:belongsto": [
      1947304067,
      102527513,
      1947304261,
      102191575,
      85633793,
      102087579,
      85922583,
      554784711,
      85688637,
      1947304309,
      1947304259,
      102085387
    ],
    "wof:country": "US",
    "wof:created": 1791561677,
    "wof:geomhash": "70ecaf1bff2da3af9ba52c9bde5534af",
    "wof:hierarchy": [
      {
        "building_id": 1947304067,
        "campus_id": 102527513,
        "concourse_id": 1947304261,
        "continent_id": 102191575,
        "country_id": 85633793,
        "county_id": 102087579,
        "custom_id": 2048543067,
        "flight_id": 2048543067,
        "locality_id": 85922583,
        "postalcode_id": 554784711,
        "region_id": 85688637,
        "venue_id": 1947304309,
        "wing_id": 1947304259
      },
      {
        "building_id": 1947304067,
        "campus_id": 102527513,
        "concourse_id": 1947304261,
        "continent_id": 102191575,
        "country_id": 85633793,
        "county_id": 102085387,
        "custom_id": 2048543067,
        "flight_id": 2048543067,
        "region_id": 85688637,
        "venue_id": 1947304309,
        "wing_id": 1947304259
      }
    ],
    "wof:id": 2048543067,
    "wof:involves": [
      1159283849,
      1947304309,
      1159284021,
      1377564297,
      102527513,
      102529403
    ],
    "wof:lastmodified": 1791562768,
    "wof:name": "AA1528 (PHL-SFO)",
    "wof:parent_id": 1947304309,
    "wof:placetype": "custom",
    "wof:placetype_alt": [
      "flight"
    ],
    "wof:repo": "sfomuseum-data-flights-2026-10",
    "wof:superseded_by": [],
    "wof:supersedes": []
  },
  "bbox": [
    -122.370943,
    37.61799,
    -75.247885,
    39.880952
  ],
  "geometry": {"type":"MultiPoint","coordinates":[[-75.247885,39.880952],[-122.370943,37.61799]]}
}
