{
  "id": 2048489167,
  "type": "Feature",
  "properties": {
    "geom:area": 0,
    "geom:bbox": "-122.362080,37.634080,-122.072430,38.502490",
    "geom:latitude": 38.04615027562248,
    "geom:longitude": -122.1872747740297,
    "src:alt_label": "swim-takeoff",
    "src:geom": "swim",
    "swim:elevations": [
      213,
      331,
      1036,
      1308,
      1481,
      2096,
      2580,
      2893,
      3410,
      3565,
      4094,
      4169,
      4674,
      4990,
      5271,
      5667,
      5794,
      6334,
      6821,
      6942,
      7456,
      7504,
      7695
    ],
    "swim:geom": "takeoff",
    "swim:timestamps": [
      1790888601,
      1790888612,
      1790888667,
      1790888697,
      1790888716,
      1790888757,
      1790888787,
      1790888809,
      1790888847,
      1790888865,
      1790888907,
      1790888913,
      1790888949,
      1790888973,
      1790888996,
      1790889026,
      1790889038,
      1790889076,
      1790889118,
      1790889127,
      1790889174,
      1790889180,
      1790889198
    ],
    "wof:geomhash": "1ff1c1a15e783e739ae8b8f16c1e96be",
    "wof:id": 2048489167,
    "wof:repo": "sfomuseum-data-flights-2026-10"
  },
  "bbox": [
    -122.36208,
    37.63408,
    -122.07243,
    38.50249
  ],
  "geometry": {"type":"LineString","coordinates":[[-122.36208,37.63408],[-122.35474,37.64089],[-122.30759,37.66654],[-122.27863,37.68376],[-122.26203,37.70093],[-122.25249,37.75292],[-122.2432,37.79273],[-122.2359,37.82331],[-122.22294,37.87666],[-122.21624,37.90403],[-122.19966,37.97303],[-122.19755,37.982],[-122.18355,38.04271],[-122.17372,38.08506],[-122.1642,38.12453],[-122.15129,38.17798],[-122.14612,38.1998],[-122.12912,38.26982],[-122.11064,38.34846],[-122.1067,38.36547],[-122.0842,38.45534],[-122.08094,38.46828],[-122.07243,38.50249]]}
}
