{
  "id": 2048549695,
  "type": "Feature",
  "properties": {
    "geom:area": 0,
    "geom:bbox": "-122.459630,37.155660,-121.249160,37.707660",
    "geom:latitude": 37.364115762169085,
    "geom:longitude": -121.97780610888536,
    "src:alt_label": "swim-takeoff",
    "src:geom": "swim",
    "swim:elevations": [
      122,
      678,
      1005,
      1386,
      1839,
      2263,
      2957,
      3486,
      3954,
      3987,
      4438,
      4671,
      4978,
      5338,
      5790,
      5958,
      6234,
      6516,
      6967,
      7179,
      7458,
      7537,
      7992,
      8088,
      8425,
      8780
    ],
    "swim:geom": "takeoff",
    "swim:timestamps": [
      1791462694,
      1791462746,
      1791462773,
      1791462795,
      1791462824,
      1791462849,
      1791462885,
      1791462919,
      1791462955,
      1791462961,
      1791463010,
      1791463028,
      1791463051,
      1791463081,
      1791463137,
      1791463164,
      1791463183,
      1791463211,
      1791463254,
      1791463280,
      1791463313,
      1791463320,
      1791463371,
      1791463381,
      1791463424,
      1791463465
    ],
    "wof:geomhash": "18d442a9db59ab97575612f72473a14d",
    "wof:id": 2048549695,
    "wof:repo": "sfomuseum-data-flights-2026-10"
  },
  "bbox": [
    -122.45963,
    37.15566,
    -121.24916,
    37.70766
  ],
  "geometry": {"type":"LineString","coordinates":[[-122.373,37.62269],[-122.36307,37.66276],[-122.36641,37.69111],[-122.39131,37.70766],[-122.43555,37.70378],[-122.45963,37.67903],[-122.45863,37.63263],[-122.45193,37.58733],[-122.43292,37.53756],[-122.42627,37.53081],[-122.34779,37.47256],[-122.31864,37.45149],[-122.27937,37.42215],[-122.22727,37.38196],[-122.12182,37.31509],[-122.05494,37.30064],[-122.0077,37.29306],[-121.93664,37.27996],[-121.82708,37.25979],[-121.75956,37.24774],[-121.67208,37.23218],[-121.65306,37.22882],[-121.51325,37.20324],[-121.48582,37.19837],[-121.36503,37.17625],[-121.24916,37.15566]]}
}
