{
  "id": 2048511439,
  "type": "Feature",
  "properties": {
    "geom:area": 0,
    "geom:bbox": "-122.850280,37.450000,-122.167420,38.506700",
    "geom:latitude": 37.86102525109587,
    "geom:longitude": -122.52891420305974,
    "src:alt_label": "swim-approach",
    "src:geom": "swim",
    "swim:elevations": [
      7862,
      7746,
      7472,
      7398,
      7019,
      6909,
      6747,
      6482,
      6115,
      6083,
      5819,
      5603,
      5403,
      5176,
      4829,
      4645,
      4544,
      4310,
      4064,
      3789,
      3525,
      3437,
      3353,
      3353,
      3353,
      3353,
      3353,
      3326,
      3294,
      3293,
      3232,
      1731,
      1455,
      1130,
      1113,
      887,
      715,
      608,
      426,
      260,
      153,
      76,
      29
    ],
    "swim:geom": "approach",
    "swim:timestamps": [
      1791103627,
      1791103642,
      1791103671,
      1791103680,
      1791103720,
      1791103731,
      1791103749,
      1791103780,
      1791103820,
      1791103826,
      1791103853,
      1791103878,
      1791103902,
      1791103927,
      1791103965,
      1791103987,
      1791104001,
      1791104029,
      1791104056,
      1791104091,
      1791104124,
      1791104136,
      1791104172,
      1791104184,
      1791104213,
      1791104237,
      1791104244,
      1791104254,
      1791104258,
      1791104260,
      1791104273,
      1791104464,
      1791104498,
      1791104544,
      1791104550,
      1791104578,
      1791104593,
      1791104611,
      1791104657,
      1791104692,
      1791104727,
      1791104750,
      1791104761
    ],
    "wof:geomhash": "22eaa438b83344fc1e261a697a0b5045",
    "wof:id": 2048511439,
    "wof:repo": "sfomuseum-data-flights-2026-10"
  },
  "bbox": [
    -122.85028,
    37.45,
    -122.16742,
    38.5067
  ],
  "geometry": {"type":"LineString","coordinates":[[-122.85028,38.5067],[-122.84282,38.48133],[-122.82773,38.4312],[-122.82332,38.41641],[-122.80419,38.35107],[-122.79863,38.33194],[-122.79003,38.30268],[-122.77532,38.25275],[-122.75625,38.18683],[-122.75373,38.17841],[-122.7407,38.1335],[-122.72925,38.09425],[-122.71833,38.05659],[-122.70669,38.01641],[-122.68945,37.95657],[-122.67997,37.92393],[-122.67177,37.90342],[-122.63991,37.86866],[-122.60453,37.83526],[-122.56074,37.79379],[-122.52106,37.75626],[-122.50755,37.74344],[-122.4684,37.70647],[-122.4554,37.69424],[-122.42422,37.66502],[-122.39851,37.6409],[-122.39062,37.63339],[-122.37999,37.6233],[-122.37538,37.61889],[-122.3742,37.61757],[-122.36455,37.6033],[-122.21212,37.45],[-122.17309,37.4662],[-122.16742,37.51554],[-122.17133,37.52065],[-122.19604,37.54224],[-122.21333,37.55045],[-122.23228,37.55834],[-122.27733,37.57738],[-122.30572,37.5895],[-122.3314,37.60036],[-122.34808,37.60739],[-122.35571,37.61059]]}
}
