{
  "id": 2048542437,
  "type": "Feature",
  "properties": {
    "geom:area": 0,
    "geom:bbox": "-123.436110,37.628190,-122.398060,37.772390",
    "geom:latitude": 37.71154668225002,
    "geom:longitude": -122.91344330114208,
    "src:alt_label": "swim-takeoff",
    "src:geom": "swim",
    "swim:elevations": [
      183,
      306,
      662,
      1005,
      1051,
      1253,
      1266,
      1380,
      1793,
      2112,
      2491,
      2604,
      2748,
      2778,
      3111,
      3370,
      3421,
      3633,
      3833,
      4000,
      4377,
      4651,
      4799
    ],
    "swim:geom": "takeoff",
    "swim:timestamps": [
      1791385818,
      1791385830,
      1791385860,
      1791385905,
      1791385928,
      1791385971,
      1791385975,
      1791385992,
      1791386033,
      1791386062,
      1791386097,
      1791386111,
      1791386127,
      1791386131,
      1791386170,
      1791386215,
      1791386231,
      1791386272,
      1791386295,
      1791386312,
      1791386356,
      1791386390,
      1791386405
    ],
    "wof:geomhash": "cc64a447cdbe2e05afcbf4665b471e4f",
    "wof:id": 2048542437,
    "wof:repo": "sfomuseum-data-flights-2026-10"
  },
  "bbox": [
    -123.43611,
    37.62819,
    -122.39806,
    37.77239
  ],
  "geometry": {"type":"LineString","coordinates":[[-122.39806,37.62819],[-122.40934,37.63282],[-122.44129,37.64693],[-122.48789,37.66769],[-122.51586,37.67692],[-122.57846,37.67952],[-122.58484,37.67981],[-122.61273,37.68131],[-122.68085,37.68556],[-122.73065,37.68912],[-122.78922,37.69581],[-122.81432,37.69858],[-122.8417,37.702],[-122.8477,37.70273],[-122.91862,37.71116],[-123.00774,37.7218],[-123.03924,37.72539],[-123.12884,37.73652],[-123.18135,37.74292],[-123.21937,37.74753],[-123.32116,37.75883],[-123.39906,37.76805],[-123.43611,37.77239]]}
}
