{
  "id": 2048543161,
  "type": "Feature",
  "properties": {
    "date:cessation_lower": "2026-10-08",
    "date:cessation_upper": "2026-10-08",
    "date:inception_lower": "1970-01-01",
    "date:inception_upper": "1970-01-01",
    "edtf:cessation": "2026-10-08T15:14:03-07:00",
    "edtf:inception": "1970-01-01T00:00:00Z",
    "flysfo:actual_timestamp": -1,
    "flysfo:airline": "AA",
    "flysfo:date": "2026-10-08",
    "flysfo:estimated_timestamp": 1791523320,
    "flysfo:event": "A",
    "flysfo:flight_number": "AA686",
    "flysfo:gate": "B25",
    "flysfo:journey": "PHX-SFO",
    "flysfo:scheduled_timestamp": 1791524220,
    "flysfo:timestamp": 1791524220,
    "geom:area": 0,
    "geom:bbox": "-122.370943,33.432684,-112.017392,37.617990",
    "geom:latitude": 35.525337,
    "geom:longitude": -117.19416749999999,
    "iata:airline": "AA",
    "icao:aircraft": "B738",
    "icao:airline": "AAL",
    "lbl:latitude": 37.61799,
    "lbl:longitude": -122.370943,
    "sfomuseum:aircraft_id": 1159289871,
    "sfomuseum:airline_id": 1159283849,
    "sfomuseum:arrival_id": 102527513,
    "sfomuseum:departure_id": 102526751,
    "sfomuseum:flight_id": "20261008-A-AAL-686",
    "sfomuseum:flight_number": [
      "AAL686",
      "AA686"
    ],
    "sfomuseum:placetype": "flight",
    "src:geom": "flysfo",
    "src:geom_alt": [
      "swim-approach"
    ],
    "swim:tail_number": "N863NN",
    "wof:belongsto": [
      1947304067,
      102527513,
      1947304261,
      102191575,
      85633793,
      102087579,
      85922583,
      554784711,
      85688637,
      1947304309,
      1947304259,
      102085387
    ],
    "wof:country": "US",
    "wof:created": 1791561689,
    "wof:geomhash": "c9fdc5df38b6a105de4fe30ae6ada830",
    "wof:hierarchy": [
      {
        "building_id": 1947304067,
        "campus_id": 102527513,
        "concourse_id": 1947304261,
        "continent_id": 102191575,
        "country_id": 85633793,
        "county_id": 102087579,
        "custom_id": 2048543161,
        "flight_id": 2048543161,
        "locality_id": 85922583,
        "postalcode_id": 554784711,
        "region_id": 85688637,
        "venue_id": 1947304309,
        "wing_id": 1947304259
      },
      {
        "building_id": 1947304067,
        "campus_id": 102527513,
        "concourse_id": 1947304261,
        "continent_id": 102191575,
        "country_id": 85633793,
        "county_id": 102085387,
        "custom_id": 2048543161,
        "flight_id": 2048543161,
        "region_id": 85688637,
        "venue_id": 1947304309,
        "wing_id": 1947304259
      }
    ],
    "wof:id": 2048543161,
    "wof:involves": [
      1159283849,
      1947304309,
      1159289871,
      102527513,
      102526751
    ],
    "wof:lastmodified": 1791562769,
    "wof:name": "AA686 (PHX-SFO)",
    "wof:parent_id": 1947304309,
    "wof:placetype": "custom",
    "wof:placetype_alt": [
      "flight"
    ],
    "wof:repo": "sfomuseum-data-flights-2026-10",
    "wof:superseded_by": [],
    "wof:supersedes": []
  },
  "bbox": [
    -122.370943,
    33.432684,
    -112.017392,
    37.61799
  ],
  "geometry": {"type":"MultiPoint","coordinates":[[-112.017392,33.432684],[-122.370943,37.61799]]}
}
