{
  "id": 2048483029,
  "type": "Feature",
  "properties": {
    "date:inception_lower": "2026-10-01",
    "date:inception_upper": "2026-10-01",
    "edtf:cessation": "",
    "edtf:inception": "2026-10-01",
    "flysfo:actual_timestamp": -1,
    "flysfo:airline": "CM",
    "flysfo:base_airline": "",
    "flysfo:base_flight_number": "1431",
    "flysfo:date": "2026-10-01",
    "flysfo:estimated_timestamp": 1790917080,
    "flysfo:event": "A",
    "flysfo:flight_number": "CM1431",
    "flysfo:gate": "E4",
    "flysfo:journey": "RDM-SFO",
    "flysfo:scheduled_timestamp": 1790914020,
    "flysfo:timestamp": 1790917080,
    "geom:area": 0,
    "geom:bbox": "-122.370943,37.617990,-121.157137,44.259811",
    "geom:latitude": 40.9389005,
    "geom:longitude": -121.76404,
    "iata:airline": "CM",
    "iata:base_airline": "",
    "icao:airline": "CMP",
    "icao:base_airline": "CMP",
    "lbl:latitude": 37.618161,
    "lbl:longitude": -122.384735,
    "sfomuseum:airline_id": 1159284211,
    "sfomuseum:arrival_id": 102527513,
    "sfomuseum:base_flight_id": "20261001-A-CMP-1431",
    "sfomuseum:departure_id": 102530507,
    "sfomuseum:flight_id": "20261001-A-CMP-1431",
    "sfomuseum:flight_number": [
      "CMP1431",
      "CM1431"
    ],
    "sfomuseum:placetype": "flight",
    "src:geom": "flysfo",
    "wof:belongsto": [
      1763588121,
      102527513,
      1763588335,
      102191575,
      85633793,
      102087579,
      85922583,
      554784711,
      85688637,
      1763588337,
      1763588269,
      102085387
    ],
    "wof:country": "US",
    "wof:created": 1790957081,
    "wof:geomhash": "e570a09b358444cf621c068c13b8dbc0",
    "wof:hierarchy": [
      {
        "building_id": 1763588121,
        "campus_id": 102527513,
        "concourse_id": 1763588335,
        "continent_id": 102191575,
        "country_id": 85633793,
        "county_id": 102087579,
        "custom_id": 2048483029,
        "flight_id": 2048483029,
        "locality_id": 85922583,
        "postalcode_id": 554784711,
        "region_id": 85688637,
        "venue_id": 1763588337,
        "wing_id": 1763588269
      },
      {
        "building_id": 1763588121,
        "campus_id": 102527513,
        "concourse_id": 1763588335,
        "continent_id": 102191575,
        "country_id": 85633793,
        "county_id": 102085387,
        "custom_id": 2048483029,
        "flight_id": 2048483029,
        "region_id": 85688637,
        "venue_id": 1763588337,
        "wing_id": 1763588269
      }
    ],
    "wof:id": 2048483029,
    "wof:involves": [
      102527513,
      102530507,
      1159284211,
      1763588337,
      1159284211
    ],
    "wof:lastmodified": 1790957081,
    "wof:name": "CM1431 (RDM-SFO)",
    "wof:parent_id": 1763588337,
    "wof:placetype": "custom",
    "wof:placetype_alt": [
      "flight"
    ],
    "wof:repo": "sfomuseum-data-flights-2026-10",
    "wof:superseded_by": [],
    "wof:supersedes": []
  },
  "bbox": [
    -122.370943,
    37.61799,
    -121.157137,
    44.259811
  ],
  "geometry": {"type":"MultiPoint","coordinates":[[-121.157137,44.259811],[-122.370943,37.61799]]}
}
