{
  "id": 2048521773,
  "type": "Feature",
  "properties": {
    "date:inception_lower": "2026-10-05",
    "date:inception_upper": "2026-10-05",
    "edtf:cessation": "",
    "edtf:inception": "2026-10-05",
    "flysfo:actual_timestamp": -1,
    "flysfo:airline": "OZ",
    "flysfo:base_airline": "",
    "flysfo:base_flight_number": "7304",
    "flysfo:date": "2026-10-05",
    "flysfo:estimated_timestamp": 1791251040,
    "flysfo:event": "D",
    "flysfo:flight_number": "OZ6302",
    "flysfo:gate": "D14",
    "flysfo:journey": "SFO-SEA",
    "flysfo:scheduled_timestamp": 1791250500,
    "flysfo:timestamp": 1791251040,
    "geom:area": 0,
    "geom:bbox": "-122.370943,37.617990,-122.304268,47.441823",
    "geom:latitude": 42.529906499999996,
    "geom:longitude": -122.3376055,
    "iata:airline": "OZ",
    "iata:base_airline": "",
    "icao:airline": "AAR",
    "icao:base_airline": "ANA",
    "lbl:latitude": 37.618149,
    "lbl:longitude": -122.381669,
    "sfomuseum:airline_id": 1159283917,
    "sfomuseum:arrival_id": 102533269,
    "sfomuseum:base_flight_id": "20261005-D-ANA-7304",
    "sfomuseum:departure_id": 102527513,
    "sfomuseum:flight_id": "20261005-D-AAR-6302",
    "sfomuseum:flight_number": [
      "AAR6302",
      "OZ6302"
    ],
    "sfomuseum:placetype": "flight",
    "src:geom": "flysfo",
    "wof:belongsto": [
      1947304067,
      102527513,
      1947304595,
      102191575,
      85633793,
      102087579,
      85922583,
      554784711,
      85688637,
      1947304613,
      1947304591,
      102085387
    ],
    "wof:country": "US",
    "wof:created": 1791303034,
    "wof:geomhash": "4036ee3c983703867dbe0486453848b1",
    "wof:hierarchy": [
      {
        "building_id": 1947304067,
        "campus_id": 102527513,
        "concourse_id": 1947304595,
        "continent_id": 102191575,
        "country_id": 85633793,
        "county_id": 102087579,
        "custom_id": 2048521773,
        "flight_id": 2048521773,
        "locality_id": 85922583,
        "postalcode_id": 554784711,
        "region_id": 85688637,
        "venue_id": 1947304613,
        "wing_id": 1947304591
      },
      {
        "building_id": 1947304067,
        "campus_id": 102527513,
        "concourse_id": 1947304595,
        "continent_id": 102191575,
        "country_id": 85633793,
        "county_id": 102085387,
        "custom_id": 2048521773,
        "flight_id": 2048521773,
        "region_id": 85688637,
        "venue_id": 1947304613,
        "wing_id": 1947304591
      }
    ],
    "wof:id": 2048521773,
    "wof:involves": [
      102533269,
      102527513,
      1159283917,
      1947304613,
      1159283875
    ],
    "wof:lastmodified": 1791303034,
    "wof:name": "OZ6302 (SFO-SEA)",
    "wof:parent_id": 1947304613,
    "wof:placetype": "custom",
    "wof:placetype_alt": [
      "flight"
    ],
    "wof:repo": "sfomuseum-data-flights-2026-10",
    "wof:superseded_by": [],
    "wof:supersedes": []
  },
  "bbox": [
    -122.370943,
    37.61799,
    -122.304268,
    47.441823
  ],
  "geometry": {"type":"MultiPoint","coordinates":[[-122.370943,37.61799],[-122.304268,47.441823]]}
}
