{
  "id": 2048560285,
  "type": "Feature",
  "properties": {
    "date:cessation_lower": "1970-01-01",
    "date:cessation_upper": "1970-01-01",
    "date:inception_lower": "2026-10-09",
    "date:inception_upper": "2026-10-09",
    "edtf:cessation": "1970-01-01T00:00:00Z",
    "edtf:inception": "2026-10-09T12:31:25-07:00",
    "flysfo:actual_timestamp": -1,
    "flysfo:airline": "UA",
    "flysfo:base_airline": "",
    "flysfo:base_flight_number": "6490",
    "flysfo:date": "2026-10-09",
    "flysfo:estimated_timestamp": 1791597000,
    "flysfo:event": "D",
    "flysfo:flight_number": "UA2022",
    "flysfo:gate": "D9",
    "flysfo:journey": "SFO-ACV",
    "flysfo:scheduled_timestamp": 1791597000,
    "flysfo:timestamp": 1791597000,
    "geom:area": 0,
    "geom:bbox": "-124.108020,37.617990,-122.370943,40.971689",
    "geom:latitude": 39.294839499999995,
    "geom:longitude": -123.2394815,
    "iata:airline": "UA",
    "iata:base_airline": "",
    "icao:aircraft": "A320",
    "icao:airline": "UAL",
    "icao:base_airline": "UAE",
    "lbl:latitude": 37.61756,
    "lbl:longitude": -122.381052,
    "sfomuseum:aircraft_id": 1159292085,
    "sfomuseum:airline_id": 1159285413,
    "sfomuseum:arrival_id": 102531997,
    "sfomuseum:base_flight_id": "20261009-D-UAE-6490",
    "sfomuseum:departure_id": 102527513,
    "sfomuseum:flight_id": "20261009-D-UAL-2022",
    "sfomuseum:flight_number": [
      "UAL2022",
      "UA2022"
    ],
    "sfomuseum:placetype": "flight",
    "src:geom": "flysfo",
    "src:geom_alt": [
      "swim-takeoff"
    ],
    "swim:tail_number": "N475UA",
    "wof:belongsto": [
      1947304067,
      102527513,
      1947304595,
      102191575,
      85633793,
      102087579,
      85922583,
      554784711,
      85688637,
      1947304609,
      1947304591,
      102085387
    ],
    "wof:country": "US",
    "wof:created": 1791648984,
    "wof:geomhash": "5815a5b1ad78885fe3ae36c1daab138f",
    "wof:hierarchy": [
      {
        "building_id": 1947304067,
        "campus_id": 102527513,
        "concourse_id": 1947304595,
        "continent_id": 102191575,
        "country_id": 85633793,
        "county_id": 102087579,
        "custom_id": 2048560285,
        "flight_id": 2048560285,
        "locality_id": 85922583,
        "postalcode_id": 554784711,
        "region_id": 85688637,
        "venue_id": 1947304609,
        "wing_id": 1947304591
      },
      {
        "building_id": 1947304067,
        "campus_id": 102527513,
        "concourse_id": 1947304595,
        "continent_id": 102191575,
        "country_id": 85633793,
        "county_id": 102085387,
        "custom_id": 2048560285,
        "flight_id": 2048560285,
        "region_id": 85688637,
        "venue_id": 1947304609,
        "wing_id": 1947304591
      }
    ],
    "wof:id": 2048560285,
    "wof:involves": [
      102527513,
      1159285413,
      1947304609,
      1159284333,
      1159292085,
      102531997
    ],
    "wof:lastmodified": 1791649165,
    "wof:name": "UA2022 (SFO-ACV)",
    "wof:parent_id": 1947304609,
    "wof:placetype": "custom",
    "wof:placetype_alt": [
      "flight"
    ],
    "wof:repo": "sfomuseum-data-flights-2026-10",
    "wof:superseded_by": [],
    "wof:supersedes": []
  },
  "bbox": [
    -124.10802,
    37.61799,
    -122.370943,
    40.971689
  ],
  "geometry": {"type":"MultiPoint","coordinates":[[-122.370943,37.61799],[-124.10802,40.971689]]}
}
