{
  "id": 2048543075,
  "type": "Feature",
  "properties": {
    "geom:area": 0,
    "geom:bbox": "-122.356560,37.492340,-121.248150,37.613210",
    "geom:latitude": 37.54680998560976,
    "geom:longitude": -121.80718856550014,
    "src:alt_label": "swim-approach",
    "src:geom": "swim",
    "swim:elevations": [
      4738,
      4380,
      4161,
      4022,
      3751,
      3598,
      3422,
      3235,
      3097,
      2784,
      2688,
      2576,
      2350,
      2020,
      1914,
      1861,
      1755,
      1413,
      1116,
      951,
      914,
      907,
      826,
      550,
      516,
      481,
      334,
      160,
      125,
      1
    ],
    "swim:geom": "approach",
    "swim:timestamps": [
      1791501610,
      1791501645,
      1791501666,
      1791501681,
      1791501717,
      1791501743,
      1791501776,
      1791501807,
      1791501822,
      1791501867,
      1791501884,
      1791501909,
      1791501936,
      1791501979,
      1791502003,
      1791502012,
      1791502039,
      1791502074,
      1791502108,
      1791502132,
      1791502157,
      1791502173,
      1791502182,
      1791502226,
      1791502247,
      1791502260,
      1791502297,
      1791502341,
      1791502350,
      1791502380
    ],
    "wof:geomhash": "8acb480a3f99cd7bfe6018e3383d3946",
    "wof:id": 2048543075,
    "wof:repo": "sfomuseum-data-flights-2026-10"
  },
  "bbox": [
    -122.35656,
    37.49234,
    -121.24815,
    37.61321
  ],
  "geometry": {"type":"LineString","coordinates":[[-121.24815,37.59485],[-121.3218,37.58546],[-121.36697,37.58064],[-121.39719,37.57723],[-121.47225,37.56845],[-121.52452,37.5624],[-121.58567,37.55541],[-121.64111,37.54694],[-121.66638,37.54064],[-121.74192,37.52276],[-121.77003,37.51606],[-121.81005,37.50652],[-121.85071,37.49673],[-121.91829,37.49234],[-121.95566,37.49306],[-121.96978,37.49349],[-122.00986,37.50201],[-122.06008,37.51822],[-122.10638,37.53315],[-122.13647,37.54293],[-122.16446,37.55197],[-122.18247,37.55789],[-122.19158,37.56085],[-122.23644,37.5752],[-122.25666,37.58171],[-122.26849,37.58524],[-122.29706,37.59341],[-122.32974,37.60314],[-122.33651,37.60514],[-122.35656,37.61321]]}
}
