{
  "id": 2048541969,
  "type": "Feature",
  "properties": {
    "geom:area": 0,
    "geom:bbox": "-122.384920,37.643790,-121.271080,37.991210",
    "geom:latitude": 37.93881872241473,
    "geom:longitude": -121.94195202363376,
    "src:alt_label": "swim-takeoff",
    "src:geom": "swim",
    "swim:elevations": [
      339,
      782,
      1070,
      1248,
      1464,
      1661,
      1909,
      2402,
      2814,
      2923,
      3252,
      3678,
      3899,
      4260,
      4571,
      4636,
      5027,
      5257,
      5533,
      5782,
      6006,
      6061,
      6214,
      6355,
      6533,
      6730,
      6787,
      7029,
      7103
    ],
    "swim:geom": "takeoff",
    "swim:timestamps": [
      1791418402,
      1791418443,
      1791418485,
      1791418515,
      1791418556,
      1791418577,
      1791418598,
      1791418641,
      1791418676,
      1791418685,
      1791418724,
      1791418760,
      1791418784,
      1791418826,
      1791418856,
      1791418862,
      1791418911,
      1791418942,
      1791418976,
      1791419006,
      1791419038,
      1791419045,
      1791419067,
      1791419091,
      1791419116,
      1791419142,
      1791419151,
      1791419187,
      1791419199
    ],
    "wof:geomhash": "039eafc8f625829c95cebb1a241745ce",
    "wof:id": 2048541969,
    "wof:repo": "sfomuseum-data-flights-2026-10"
  },
  "bbox": [
    -122.38492,
    37.64379,
    -121.27108,
    37.99121
  ],
  "geometry": {"type":"LineString","coordinates":[[-122.35232,37.64379],[-122.32273,37.66871],[-122.31376,37.7029],[-122.32757,37.73025],[-122.35065,37.77287],[-122.36305,37.79814],[-122.37576,37.82413],[-122.38492,37.88247],[-122.36765,37.92934],[-122.35661,37.93864],[-122.29259,37.95909],[-122.22811,37.97168],[-122.1838,37.98064],[-122.10244,37.98813],[-122.04201,37.98825],[-122.02991,37.98831],[-121.92752,37.98916],[-121.86132,37.98974],[-121.7886,37.99012],[-121.72251,37.99044],[-121.65108,37.99068],[-121.63441,37.99068],[-121.58445,37.99082],[-121.52873,37.99099],[-121.47087,37.9911],[-121.40836,37.99117],[-121.38689,37.99118],[-121.30027,37.99121],[-121.27108,37.99118]]}
}
