{
  "id": 2048516403,
  "type": "Feature",
  "properties": {
    "date:inception_lower": "2026-10-04",
    "date:inception_upper": "2026-10-04",
    "edtf:cessation": "",
    "edtf:inception": "2026-10-04",
    "flysfo:actual_timestamp": -1,
    "flysfo:airline": "VA",
    "flysfo:base_airline": "",
    "flysfo:base_flight_number": "4078",
    "flysfo:date": "2026-10-04",
    "flysfo:estimated_timestamp": 1791142860,
    "flysfo:event": "D",
    "flysfo:flight_number": "VA8120",
    "flysfo:gate": "E6",
    "flysfo:journey": "SFO-LAS",
    "flysfo:scheduled_timestamp": 1791141720,
    "flysfo:timestamp": 1791142860,
    "geom:area": 0,
    "geom:bbox": "-122.370943,36.081003,-115.156440,37.617990",
    "geom:latitude": 36.8494965,
    "geom:longitude": -118.7636915,
    "iata:airline": "VA",
    "iata:base_airline": "",
    "icao:airline": "VOZ",
    "icao:base_airline": "ACA",
    "lbl:latitude": 37.618774,
    "lbl:longitude": -122.384852,
    "sfomuseum:airline_id": 1159285485,
    "sfomuseum:arrival_id": 102527209,
    "sfomuseum:base_flight_id": "20261004-D-ACA-4078",
    "sfomuseum:departure_id": 102527513,
    "sfomuseum:flight_id": "20261004-D-VOZ-8120",
    "sfomuseum:flight_number": [
      "VOZ8120",
      "VA8120"
    ],
    "sfomuseum:placetype": "flight",
    "src:geom": "flysfo",
    "wof:belongsto": [
      1947304067,
      102527513,
      1947304511,
      102191575,
      85633793,
      102087579,
      85922583,
      554784711,
      85688637,
      1947304513,
      1947304447,
      102085387
    ],
    "wof:country": "US",
    "wof:created": 1791217089,
    "wof:geomhash": "ccf694144ef1f7a2823fe9bc7c6018ea",
    "wof:hierarchy": [
      {
        "building_id": 1947304067,
        "campus_id": 102527513,
        "concourse_id": 1947304511,
        "continent_id": 102191575,
        "country_id": 85633793,
        "county_id": 102087579,
        "custom_id": 2048516403,
        "flight_id": 2048516403,
        "locality_id": 85922583,
        "postalcode_id": 554784711,
        "region_id": 85688637,
        "venue_id": 1947304513,
        "wing_id": 1947304447
      },
      {
        "building_id": 1947304067,
        "campus_id": 102527513,
        "concourse_id": 1947304511,
        "continent_id": 102191575,
        "country_id": 85633793,
        "county_id": 102085387,
        "custom_id": 2048516403,
        "flight_id": 2048516403,
        "region_id": 85688637,
        "venue_id": 1947304513,
        "wing_id": 1947304447
      }
    ],
    "wof:id": 2048516403,
    "wof:involves": [
      102527209,
      102527513,
      1159285485,
      1947304513,
      1159283597
    ],
    "wof:lastmodified": 1791217089,
    "wof:name": "VA8120 (SFO-LAS)",
    "wof:parent_id": 1947304513,
    "wof:placetype": "custom",
    "wof:placetype_alt": [
      "flight"
    ],
    "wof:repo": "sfomuseum-data-flights-2026-10",
    "wof:superseded_by": [],
    "wof:supersedes": []
  },
  "bbox": [
    -122.370943,
    36.081003,
    -115.15644,
    37.61799
  ],
  "geometry": {"type":"MultiPoint","coordinates":[[-122.370943,37.61799],[-115.15644,36.081003]]}
}
