{
  "id": 2048551329,
  "type": "Feature",
  "properties": {
    "geom:area": 0,
    "geom:bbox": "-122.363440,37.632830,-122.216250,38.517500",
    "geom:latitude": 38.0432374414929,
    "geom:longitude": -122.239391734044,
    "src:alt_label": "swim-takeoff",
    "src:geom": "swim",
    "swim:elevations": [
      183,
      353,
      605,
      997,
      1108,
      1144,
      1326,
      1703,
      1916,
      2102,
      2283,
      2394,
      2735,
      3135,
      3248,
      3607,
      3866,
      4001,
      4343,
      4834,
      5224,
      5458,
      5928,
      6244,
      6374
    ],
    "swim:geom": "takeoff",
    "swim:timestamps": [
      1791487197,
      1791487212,
      1791487230,
      1791487272,
      1791487294,
      1791487299,
      1791487324,
      1791487361,
      1791487378,
      1791487393,
      1791487412,
      1791487421,
      1791487449,
      1791487482,
      1791487508,
      1791487556,
      1791487585,
      1791487597,
      1791487621,
      1791487657,
      1791487695,
      1791487716,
      1791487762,
      1791487798,
      1791487812
    ],
    "wof:geomhash": "fc1aea1441974a5647e49a98168caf85",
    "wof:id": 2048551329,
    "wof:repo": "sfomuseum-data-flights-2026-10"
  },
  "bbox": [
    -122.36344,
    37.63283,
    -122.21625,
    38.5175
  ],
  "geometry": {"type":"LineString","coordinates":[[-122.36344,37.63283],[-122.35443,37.64199],[-122.33924,37.65062],[-122.30256,37.67076],[-122.28209,37.68234],[-122.27744,37.68485],[-122.24899,37.70002],[-122.21646,37.73349],[-122.21625,37.7545],[-122.2165,37.77335],[-122.21722,37.79841],[-122.2175,37.80996],[-122.21846,37.8494],[-122.21982,37.89568],[-122.22101,37.93581],[-122.22302,38.02034],[-122.22459,38.07407],[-122.22518,38.09579],[-122.22637,38.14283],[-122.22805,38.21094],[-122.22976,38.28435],[-122.23086,38.32574],[-122.24184,38.41634],[-122.25312,38.4887],[-122.25769,38.5175]]}
}
