{
  "id": 2048550913,
  "type": "Feature",
  "properties": {
    "geom:area": 0,
    "geom:bbox": "-122.471400,36.726920,-121.308040,37.709470",
    "geom:latitude": 37.21288644327014,
    "geom:longitude": -121.9955372721248,
    "src:alt_label": "swim-takeoff",
    "src:geom": "swim",
    "swim:elevations": [
      394,
      691,
      996,
      1100,
      1194,
      1374,
      1518,
      2131,
      2337,
      3123,
      3593,
      3826,
      4208,
      4318,
      4601,
      4752,
      5294,
      5388,
      5744,
      6041,
      6337,
      6630,
      6752,
      7041,
      7177,
      7404,
      7725,
      7915,
      7993,
      8189,
      8422,
      8550,
      8615,
      8815,
      8960,
      9016
    ],
    "swim:geom": "takeoff",
    "swim:timestamps": [
      1791449722,
      1791449744,
      1791449777,
      1791449804,
      1791449829,
      1791449865,
      1791449892,
      1791449933,
      1791449945,
      1791449995,
      1791450028,
      1791450042,
      1791450086,
      1791450096,
      1791450120,
      1791450135,
      1791450192,
      1791450214,
      1791450251,
      1791450284,
      1791450320,
      1791450356,
      1791450369,
      1791450408,
      1791450429,
      1791450459,
      1791450509,
      1791450534,
      1791450548,
      1791450578,
      1791450618,
      1791450632,
      1791450647,
      1791450686,
      1791450709,
      1791450728
    ],
    "wof:geomhash": "b4c9663c25b26d1272c4238bc38c7d73",
    "wof:id": 2048550913,
    "wof:repo": "sfomuseum-data-flights-2026-10"
  },
  "bbox": [
    -122.4714,
    36.72692,
    -121.30804,
    37.70947
  ],
  "geometry": {"type":"LineString","coordinates":[[-122.36321,37.63909],[-122.36121,37.65529],[-122.36116,37.67734],[-122.36608,37.69533],[-122.384,37.70947],[-122.42547,37.70648],[-122.44162,37.67817],[-122.44985,37.62644],[-122.45234,37.61102],[-122.46292,37.54867],[-122.4714,37.50612],[-122.46862,37.4886],[-122.41566,37.44996],[-122.4012,37.44175],[-122.3662,37.41935],[-122.34497,37.40572],[-122.26223,37.35295],[-122.22849,37.33135],[-122.16931,37.29337],[-122.11497,37.25822],[-122.05533,37.21951],[-121.99349,37.17929],[-121.97084,37.16455],[-121.90305,37.12028],[-121.86642,37.09637],[-121.81341,37.06171],[-121.7244,37.0031],[-121.67709,36.97174],[-121.65158,36.95486],[-121.59646,36.91862],[-121.52139,36.86904],[-121.49363,36.85071],[-121.46546,36.83188],[-121.39025,36.78234],[-121.34521,36.7523],[-121.30804,36.72692]]}
}
