{
  "id": 2048536283,
  "type": "Feature",
  "properties": {
    "geom:area": 0,
    "geom:bbox": "-122.671410,37.412250,-122.131160,38.441250",
    "geom:latitude": 37.81249825334923,
    "geom:longitude": -122.45730880481315,
    "src:alt_label": "swim-approach",
    "src:geom": "swim",
    "swim:elevations": [
      7590,
      7233,
      6976,
      6741,
      6401,
      6025,
      5719,
      5663,
      5521,
      5394,
      5143,
      4881,
      4614,
      4380,
      4192,
      3961,
      3750,
      3481,
      3354,
      3352,
      3353,
      3353,
      3353,
      3118,
      3056,
      2814,
      2412,
      2187,
      1973,
      1850,
      1829,
      1816,
      1621,
      1439,
      1373,
      1277,
      1239,
      883,
      753,
      550,
      487,
      320,
      243,
      103,
      33
    ],
    "swim:geom": "approach",
    "swim:timestamps": [
      1791373303,
      1791373343,
      1791373379,
      1791373403,
      1791373435,
      1791373467,
      1791373497,
      1791373506,
      1791373521,
      1791373539,
      1791373573,
      1791373605,
      1791373640,
      1791373675,
      1791373702,
      1791373736,
      1791373762,
      1791373798,
      1791373824,
      1791373834,
      1791373888,
      1791373914,
      1791373934,
      1791373977,
      1791373986,
      1791374015,
      1791374062,
      1791374094,
      1791374119,
      1791374138,
      1791374165,
      1791374203,
      1791374230,
      1791374265,
      1791374287,
      1791374304,
      1791374312,
      1791374362,
      1791374381,
      1791374422,
      1791374442,
      1791374485,
      1791374503,
      1791374543,
      1791374563
    ],
    "wof:geomhash": "8300495674df280f8283dc0a303651f6",
    "wof:id": 2048536283,
    "wof:repo": "sfomuseum-data-flights-2026-10"
  },
  "bbox": [
    -122.67141,
    37.41225,
    -122.13116,
    38.44125
  ],
  "geometry": {"type":"LineString","coordinates":[[-122.54333,38.44125],[-122.59794,38.38979],[-122.64058,38.34199],[-122.65164,38.3027],[-122.65441,38.2526],[-122.65675,38.20093],[-122.65982,38.15283],[-122.66072,38.14],[-122.66207,38.11528],[-122.66306,38.08888],[-122.66568,38.0371],[-122.6682,37.98846],[-122.67141,37.9371],[-122.66059,37.88871],[-122.63034,37.85943],[-122.592,37.8226],[-122.56195,37.79448],[-122.52142,37.7561],[-122.49211,37.72881],[-122.48123,37.71848],[-122.42676,37.66702],[-122.40133,37.64316],[-122.38192,37.62487],[-122.35123,37.58625],[-122.34699,37.57713],[-122.33295,37.54919],[-122.3053,37.50332],[-122.28577,37.47258],[-122.27103,37.44915],[-122.2559,37.43223],[-122.22139,37.42054],[-122.17232,37.41225],[-122.14936,37.4347],[-122.13116,37.46912],[-122.13802,37.48957],[-122.14978,37.5025],[-122.15499,37.50832],[-122.19215,37.54191],[-122.20971,37.54907],[-122.24401,37.56362],[-122.25989,37.57024],[-122.29434,37.58481],[-122.30967,37.59126],[-122.34096,37.60439],[-122.35639,37.61091]]}
}
