{
  "id": 2048554241,
  "type": "Feature",
  "properties": {
    "geom:area": 0,
    "geom:bbox": "-122.363830,37.492000,-121.245980,37.615360",
    "geom:latitude": 37.54331619465678,
    "geom:longitude": -121.81183976372922,
    "src:alt_label": "swim-approach",
    "src:geom": "swim",
    "swim:elevations": [
      4699,
      4447,
      3932,
      3528,
      3392,
      3143,
      3106,
      2957,
      2749,
      2479,
      2438,
      2327,
      2239,
      2052,
      1881,
      1714,
      1502,
      1420,
      1266,
      1145,
      962,
      914,
      745,
      570,
      473,
      367,
      301,
      211,
      120,
      69,
      270
    ],
    "swim:geom": "approach",
    "swim:timestamps": [
      1791533861,
      1791533884,
      1791533930,
      1791533967,
      1791533983,
      1791534027,
      1791534037,
      1791534080,
      1791534100,
      1791534127,
      1791534169,
      1791534181,
      1791534195,
      1791534229,
      1791534254,
      1791534284,
      1791534318,
      1791534342,
      1791534376,
      1791534398,
      1791534430,
      1791534443,
      1791534471,
      1791534508,
      1791534535,
      1791534560,
      1791534584,
      1791534606,
      1791534627,
      1791534640,
      1791534665
    ],
    "wof:geomhash": "d839dd0b98ae936605b8b28746dded09",
    "wof:id": 2048554241,
    "wof:repo": "sfomuseum-data-flights-2026-10"
  },
  "bbox": [
    -122.36383,
    37.492,
    -121.24598,
    37.61536
  ],
  "geometry": {"type":"LineString","coordinates":[[-121.24598,37.59476],[-121.29388,37.58857],[-121.38485,37.57864],[-121.45992,37.56966],[-121.49086,37.56608],[-121.576,37.55626],[-121.5946,37.55406],[-121.6711,37.53923],[-121.70359,37.53159],[-121.74799,37.52106],[-121.81266,37.50553],[-121.83114,37.50116],[-121.85283,37.49605],[-121.90393,37.492],[-121.94141,37.49486],[-121.98756,37.49729],[-122.03997,37.5002],[-122.07478,37.50223],[-122.11741,37.51271],[-122.14147,37.52264],[-122.17454,37.5367],[-122.18827,37.54245],[-122.21485,37.55367],[-122.24984,37.56844],[-122.27224,37.57785],[-122.29042,37.58546],[-122.30664,37.59232],[-122.32165,37.59861],[-122.33625,37.60472],[-122.34516,37.60841],[-122.36383,37.61536]]}
}
