{
  "id": 2048504097,
  "type": "Feature",
  "properties": {
    "geom:area": 0,
    "geom:bbox": "-122.465140,36.723030,-121.340640,37.710250",
    "geom:latitude": 37.21327945900039,
    "geom:longitude": -122.00741894211676,
    "src:alt_label": "swim-takeoff",
    "src:geom": "swim",
    "swim:elevations": [
      152,
      502,
      628,
      828,
      1061,
      1194,
      1510,
      1617,
      1986,
      2466,
      2977,
      3210,
      3404,
      3797,
      3960,
      4270,
      4423,
      4472,
      4790,
      5024,
      5135,
      5679,
      5954,
      6073,
      6186,
      6355,
      6496,
      6534,
      6748,
      6962,
      7167,
      7342,
      7587,
      7926,
      8096,
      8348,
      8548,
      8775,
      8953
    ],
    "swim:geom": "takeoff",
    "swim:timestamps": [
      1791072755,
      1791072801,
      1791072819,
      1791072860,
      1791072885,
      1791072900,
      1791072926,
      1791072935,
      1791072964,
      1791073004,
      1791073048,
      1791073070,
      1791073098,
      1791073135,
      1791073150,
      1791073183,
      1791073201,
      1791073207,
      1791073237,
      1791073258,
      1791073267,
      1791073318,
      1791073345,
      1791073360,
      1791073372,
      1791073396,
      1791073411,
      1791073417,
      1791073441,
      1791073468,
      1791073492,
      1791073510,
      1791073540,
      1791073585,
      1791073607,
      1791073645,
      1791073675,
      1791073705,
      1791073735
    ],
    "wof:geomhash": "3645617027a3a130f357e92cf99e5e4d",
    "wof:id": 2048504097,
    "wof:repo": "sfomuseum-data-flights-2026-10"
  },
  "bbox": [
    -122.46514,
    36.72303,
    -121.34064,
    37.71025
  ],
  "geometry": {"type":"LineString","coordinates":[[-122.36536,37.63431],[-122.36287,37.67213],[-122.36432,37.69008],[-122.40915,37.71025],[-122.43876,37.6912],[-122.44411,37.6727],[-122.44512,37.63908],[-122.4464,37.62756],[-122.45348,37.59008],[-122.46514,37.53924],[-122.45999,37.48295],[-122.43357,37.46336],[-122.3944,37.43894],[-122.34142,37.40507],[-122.32006,37.39097],[-122.27215,37.35998],[-122.24504,37.34232],[-122.23583,37.3363],[-122.18919,37.30611],[-122.15705,37.28402],[-122.14323,37.27454],[-122.06314,37.22062],[-122.02047,37.19146],[-121.99651,37.17504],[-121.97713,37.16194],[-121.93791,37.13528],[-121.9132,37.11825],[-121.90319,37.11142],[-121.86232,37.08344],[-121.81645,37.05225],[-121.77518,37.02446],[-121.74432,37.00298],[-121.69257,36.9669],[-121.61395,36.91197],[-121.57587,36.88551],[-121.50738,36.83851],[-121.4516,36.80002],[-121.39621,36.76149],[-121.34064,36.72303]]}
}
