{
  "id": 2048547707,
  "type": "Feature",
  "properties": {
    "geom:area": 0,
    "geom:bbox": "-122.468940,37.193030,-121.259660,37.574160",
    "geom:latitude": 37.33416445274423,
    "geom:longitude": -121.90793074881233,
    "src:alt_label": "swim-takeoff",
    "src:geom": "swim",
    "swim:elevations": [
      2160,
      2731,
      2873,
      3207,
      3381,
      3456,
      3825,
      4047,
      4250,
      4486,
      4676,
      4933,
      5125,
      5668,
      5987,
      6183,
      6486,
      6631,
      6842,
      6990,
      7180,
      7440,
      7557
    ],
    "swim:geom": "takeoff",
    "swim:timestamps": [
      1791442811,
      1791442858,
      1791442871,
      1791442914,
      1791442948,
      1791442965,
      1791443007,
      1791443036,
      1791443067,
      1791443093,
      1791443122,
      1791443147,
      1791443165,
      1791443201,
      1791443234,
      1791443263,
      1791443306,
      1791443330,
      1791443360,
      1791443385,
      1791443414,
      1791443454,
      1791443471
    ],
    "wof:geomhash": "e2e6e785cda9e4d5a9f68e7593b79c43",
    "wof:id": 2048547707,
    "wof:repo": "sfomuseum-data-flights-2026-10"
  },
  "bbox": [
    -122.46894,
    37.19303,
    -121.25966,
    37.57416
  ],
  "geometry": {"type":"LineString","coordinates":[[-122.45653,37.57416],[-122.46894,37.51441],[-122.46716,37.49814],[-122.41859,37.45798],[-122.36896,37.42933],[-122.34126,37.41467],[-122.25875,37.3961],[-122.20017,37.38441],[-122.13295,37.37082],[-122.07782,37.35981],[-122.01468,37.34715],[-121.9582,37.33575],[-121.91856,37.32778],[-121.84358,37.31267],[-121.7752,37.29876],[-121.71567,37.28671],[-121.6258,37.26837],[-121.5745,37.25784],[-121.50974,37.24458],[-121.45329,37.23299],[-121.38997,37.21998],[-121.29806,37.20103],[-121.25966,37.19303]]}
}
