{
  "id": 2048498831,
  "type": "Feature",
  "properties": {
    "date:cessation_lower": "1970-01-01",
    "date:cessation_upper": "1970-01-01",
    "date:inception_lower": "2026-10-02",
    "date:inception_upper": "2026-10-02",
    "edtf:cessation": "1970-01-01T00:00:00Z",
    "edtf:inception": "2026-10-02T06:51:25-07:00",
    "flysfo:actual_timestamp": -1,
    "flysfo:airline": "UA",
    "flysfo:base_airline": "",
    "flysfo:base_flight_number": "7210",
    "flysfo:date": "2026-10-02",
    "flysfo:estimated_timestamp": 1790972340,
    "flysfo:event": "D",
    "flysfo:flight_number": "UA857",
    "flysfo:gate": "F13",
    "flysfo:journey": "SFO-PVG",
    "flysfo:scheduled_timestamp": 1790971200,
    "flysfo:timestamp": 1790972340,
    "geom:area": 0,
    "geom:bbox": "-122.370943,31.145312,121.799307,37.617990",
    "geom:latitude": 34.381651,
    "geom:longitude": -0.285817999999999,
    "iata:airline": "UA",
    "iata:base_airline": "",
    "icao:aircraft": "B77W",
    "icao:airline": "UAL",
    "icao:base_airline": "CCA",
    "lbl:latitude": 37.620534,
    "lbl:longitude": -122.388506,
    "sfomuseum:aircraft_id": 1159289993,
    "sfomuseum:airline_id": 1159285413,
    "sfomuseum:arrival_id": 102550331,
    "sfomuseum:base_flight_id": "20261002-D-CCA-7210",
    "sfomuseum:departure_id": 102527513,
    "sfomuseum:flight_id": "20261002-D-UAL-857",
    "sfomuseum:flight_number": [
      "UAL857",
      "UA857"
    ],
    "sfomuseum:placetype": "flight",
    "src:geom": "flysfo",
    "src:geom_alt": [
      "swim-takeoff"
    ],
    "swim:tail_number": "N2243U",
    "wof:belongsto": [
      1947304067,
      102527513,
      1947304451,
      102191575,
      85633793,
      102087579,
      85922583,
      554784711,
      85688637,
      1947304459,
      1947304447,
      102085387
    ],
    "wof:country": "US",
    "wof:created": 1791044209,
    "wof:geomhash": "014430cde1a85b033fb3b4a447168595",
    "wof:hierarchy": [
      {
        "building_id": 1947304067,
        "campus_id": 102527513,
        "concourse_id": 1947304451,
        "continent_id": 102191575,
        "country_id": 85633793,
        "county_id": 102087579,
        "custom_id": 2048498831,
        "flight_id": 2048498831,
        "locality_id": 85922583,
        "postalcode_id": 554784711,
        "region_id": 85688637,
        "venue_id": 1947304459,
        "wing_id": 1947304447
      },
      {
        "building_id": 1947304067,
        "campus_id": 102527513,
        "concourse_id": 1947304451,
        "continent_id": 102191575,
        "country_id": 85633793,
        "county_id": 102085387,
        "custom_id": 2048498831,
        "flight_id": 2048498831,
        "region_id": 85688637,
        "venue_id": 1947304459,
        "wing_id": 1947304447
      }
    ],
    "wof:id": 2048498831,
    "wof:involves": [
      1159289993,
      102550331,
      102527513,
      1159285413,
      1947304459,
      1159283605
    ],
    "wof:lastmodified": 1791044322,
    "wof:name": "UA857 (SFO-PVG)",
    "wof:parent_id": 1947304459,
    "wof:placetype": "custom",
    "wof:placetype_alt": [
      "flight"
    ],
    "wof:repo": "sfomuseum-data-flights-2026-10",
    "wof:superseded_by": [],
    "wof:supersedes": []
  },
  "bbox": [
    -122.370943,
    31.145312,
    121.799307,
    37.61799
  ],
  "geometry": {"type":"MultiPoint","coordinates":[[-122.370943,37.61799],[121.799307,31.145312]]}
}
