{
  "id": 2048489683,
  "type": "Feature",
  "properties": {
    "date:cessation_lower": "1970-01-01",
    "date:cessation_upper": "1970-01-01",
    "date:inception_lower": "2026-10-01",
    "date:inception_upper": "2026-10-01",
    "edtf:cessation": "1970-01-01T00:00:00Z",
    "edtf:inception": "2026-10-01T10:09:58-07:00",
    "flysfo:actual_timestamp": -1,
    "flysfo:airline": "UA",
    "flysfo:date": "2026-10-01",
    "flysfo:estimated_timestamp": 1790896200,
    "flysfo:event": "D",
    "flysfo:flight_number": "UA8105",
    "flysfo:gate": "",
    "flysfo:journey": "SFO-IAH",
    "flysfo:scheduled_timestamp": 1790896200,
    "flysfo:timestamp": 1790896200,
    "geom:area": 0,
    "geom:bbox": "-122.370943,29.977186,-95.338444,37.617990",
    "geom:latitude": 33.797588,
    "geom:longitude": -108.8546935,
    "iata:airline": "UA",
    "icao:aircraft": "B739",
    "icao:airline": "UAL",
    "lbl:latitude": 37.61799,
    "lbl:longitude": -122.370943,
    "sfomuseum:aircraft_id": 1377564285,
    "sfomuseum:airline_id": 1159285413,
    "sfomuseum:arrival_id": 102534097,
    "sfomuseum:departure_id": 102527513,
    "sfomuseum:flight_id": "20261001-D-UAL-8105",
    "sfomuseum:flight_number": [
      "UAL8105",
      "UA8105"
    ],
    "sfomuseum:placetype": "flight",
    "src:geom": "flysfo",
    "src:geom_alt": [
      "swim-takeoff"
    ],
    "swim:tail_number": "N38467",
    "wof:belongsto": [],
    "wof:country": "US",
    "wof:created": 1790957841,
    "wof:geomhash": "4d8eca8dfd12d13a56951180b27dbf13",
    "wof:hierarchy": [
      {
        "custom_id": 2048489683,
        "flight_id": 2048489683
      }
    ],
    "wof:id": 2048489683,
    "wof:involves": [
      1377564285,
      102534097,
      102527513,
      1159285413
    ],
    "wof:lastmodified": 1790957954,
    "wof:name": "UA8105 (SFO-IAH)",
    "wof:parent_id": -1,
    "wof:placetype": "custom",
    "wof:placetype_alt": [
      "flight"
    ],
    "wof:repo": "sfomuseum-data-flights-2026-10",
    "wof:superseded_by": [],
    "wof:supersedes": []
  },
  "bbox": [
    -122.370943,
    29.977186,
    -95.338444,
    37.61799
  ],
  "geometry": {"type":"MultiPoint","coordinates":[[-122.370943,37.61799],[-95.338444,29.977186]]}
}
