{
  "id": 2048547113,
  "type": "Feature",
  "properties": {
    "geom:area": 0,
    "geom:bbox": "-123.200330,37.426670,-122.108500,38.455530",
    "geom:latitude": 37.84593311595839,
    "geom:longitude": -122.5906591175337,
    "src:alt_label": "swim-approach",
    "src:geom": "swim",
    "swim:elevations": [
      7529,
      7293,
      7009,
      6771,
      6398,
      6288,
      5843,
      5567,
      5277,
      4996,
      4652,
      4440,
      4256,
      4155,
      4051,
      3796,
      3708,
      3352,
      3353,
      3363,
      3353,
      3295,
      3188,
      3054,
      2874,
      2478,
      2289,
      1898,
      1632,
      1320,
      1219,
      1219,
      1219,
      1219,
      1159,
      1127,
      992,
      911,
      831,
      801,
      592,
      422,
      303,
      270,
      128,
      17,
      0
    ],
    "swim:geom": "approach",
    "swim:timestamps": [
      1791444078,
      1791444104,
      1791444135,
      1791444161,
      1791444200,
      1791444213,
      1791444261,
      1791444291,
      1791444323,
      1791444353,
      1791444388,
      1791444409,
      1791444448,
      1791444462,
      1791444485,
      1791444536,
      1791444546,
      1791444594,
      1791444626,
      1791444657,
      1791444681,
      1791444717,
      1791444727,
      1791444745,
      1791444766,
      1791444802,
      1791444820,
      1791444856,
      1791444883,
      1791444921,
      1791444953,
      1791444977,
      1791444997,
      1791445040,
      1791445071,
      1791445083,
      1791445115,
      1791445142,
      1791445168,
      1791445178,
      1791445214,
      1791445252,
      1791445280,
      1791445290,
      1791445318,
      1791445346,
      1791445352
    ],
    "wof:geomhash": "391dc3168d0863a275376f69b001c868",
    "wof:id": 2048547113,
    "wof:repo": "sfomuseum-data-flights-2026-10"
  },
  "bbox": [
    -123.20033,
    37.42667,
    -122.1085,
    38.45553
  ],
  "geometry": {"type":"LineString","coordinates":[[-123.20033,38.45553],[-123.16049,38.41308],[-123.11311,38.36411],[-123.07457,38.3237],[-123.01743,38.26371],[-122.99786,38.24307],[-122.92917,38.17091],[-122.88782,38.1272],[-122.84447,38.08122],[-122.80308,38.03751],[-122.75514,37.98673],[-122.72561,37.95518],[-122.67361,37.90057],[-122.65567,37.88293],[-122.62452,37.85368],[-122.56306,37.79563],[-122.55243,37.78562],[-122.50138,37.73732],[-122.46757,37.70537],[-122.43718,37.67672],[-122.41573,37.65649],[-122.38473,37.62724],[-122.37646,37.61935],[-122.35989,37.60389],[-122.34211,37.58706],[-122.315,37.55564],[-122.30528,37.53798],[-122.28695,37.5017],[-122.2736,37.47471],[-122.23349,37.44979],[-122.19413,37.4363],[-122.16285,37.42667],[-122.13612,37.43107],[-122.1085,37.4698],[-122.11807,37.49566],[-122.12608,37.50411],[-122.1474,37.52485],[-122.17258,37.53588],[-122.19853,37.54651],[-122.20756,37.55056],[-122.24252,37.56533],[-122.27945,37.58081],[-122.30492,37.59157],[-122.31287,37.59491],[-122.33464,37.60401],[-122.35582,37.61301],[-122.35996,37.61482]]}
}
