{
  "id": 2048500579,
  "type": "Feature",
  "properties": {
    "geom:area": 0,
    "geom:bbox": "-122.790470,37.377130,-122.137610,38.379330",
    "geom:latitude": 37.75168776986484,
    "geom:longitude": -122.46642856008532,
    "src:alt_label": "swim-approach",
    "src:geom": "swim",
    "swim:elevations": [
      7468,
      7149,
      6650,
      6353,
      6131,
      5807,
      5304,
      4875,
      4688,
      4592,
      4487,
      3888,
      3626,
      3383,
      3353,
      3353,
      3353,
      3353,
      3353,
      3353,
      3226,
      3053,
      2814,
      2648,
      2446,
      2251,
      2184,
      1861,
      1829,
      1829,
      1829,
      1829,
      1829,
      1722,
      1616,
      1464,
      1326,
      897,
      723,
      527,
      389,
      269,
      84,
      64
    ],
    "swim:geom": "approach",
    "swim:timestamps": [
      1791057673,
      1791057700,
      1791057743,
      1791057768,
      1791057789,
      1791057816,
      1791057859,
      1791057897,
      1791057914,
      1791057923,
      1791057932,
      1791057988,
      1791058015,
      1791058040,
      1791058070,
      1791058088,
      1791058137,
      1791058166,
      1791058197,
      1791058214,
      1791058245,
      1791058272,
      1791058312,
      1791058341,
      1791058373,
      1791058406,
      1791058417,
      1791058468,
      1791058492,
      1791058520,
      1791058556,
      1791058576,
      1791058618,
      1791058644,
      1791058661,
      1791058688,
      1791058712,
      1791058758,
      1791058779,
      1791058797,
      1791058813,
      1791058836,
      1791058881,
      1791058902
    ],
    "wof:geomhash": "f6a9bd51135bbde661248b2b9266a417",
    "wof:id": 2048500579,
    "wof:repo": "sfomuseum-data-flights-2026-10"
  },
  "bbox": [
    -122.79047,
    37.37713,
    -122.13761,
    38.37933
  ],
  "geometry": {"type":"LineString","coordinates":[[-122.79047,38.37933],[-122.78288,38.32794],[-122.771,38.24813],[-122.76111,38.20293],[-122.75025,38.16592],[-122.73673,38.119],[-122.71559,38.04566],[-122.6978,37.98379],[-122.68968,37.95584],[-122.68541,37.94116],[-122.68111,37.92659],[-122.62012,37.84942],[-122.58644,37.81761],[-122.55484,37.7877],[-122.51651,37.75149],[-122.49475,37.73086],[-122.44195,37.68158],[-122.4147,37.65595],[-122.38724,37.62987],[-122.37253,37.61587],[-122.35004,37.58749],[-122.33681,37.55935],[-122.31385,37.51869],[-122.29797,37.49012],[-122.30547,37.45485],[-122.31775,37.41953],[-122.31893,37.40796],[-122.26956,37.37787],[-122.23762,37.37713],[-122.20416,37.38836],[-122.1656,37.40382],[-122.14817,37.41774],[-122.13761,37.45701],[-122.14717,37.48156],[-122.15365,37.49827],[-122.16327,37.52282],[-122.18309,37.53855],[-122.23216,37.55799],[-122.25304,37.56737],[-122.27088,37.57482],[-122.2863,37.58141],[-122.30805,37.5905],[-122.34405,37.60576],[-122.35942,37.61224]]}
}
