{
  "id": 2048484235,
  "type": "Feature",
  "properties": {
    "geom:area": 0,
    "geom:bbox": "-122.359800,37.444940,-121.243990,37.614390",
    "geom:latitude": 37.52605575700876,
    "geom:longitude": -121.80768757776671,
    "src:alt_label": "swim-approach",
    "src:geom": "swim",
    "swim:elevations": [
      4820,
      4738,
      4531,
      4543,
      4354,
      4164,
      3970,
      3754,
      3546,
      3393,
      3172,
      3159,
      2999,
      2834,
      2696,
      2581,
      2337,
      2278,
      2052,
      1780,
      1574,
      1477,
      1277,
      1197,
      903,
      793,
      599,
      450,
      282,
      185,
      62,
      189
    ],
    "swim:geom": "approach",
    "swim:timestamps": [
      1790846157,
      1790846164,
      1790846193,
      1790846220,
      1790846273,
      1790846300,
      1790846328,
      1790846360,
      1790846390,
      1790846421,
      1790846458,
      1790846462,
      1790846485,
      1790846518,
      1790846543,
      1790846568,
      1790846603,
      1790846611,
      1790846643,
      1790846696,
      1790846725,
      1790846757,
      1790846784,
      1790846795,
      1790846836,
      1790846854,
      1790846892,
      1790846921,
      1790846961,
      1790846984,
      1790847026,
      1790847030
    ],
    "wof:geomhash": "074a3b7e59c38bebd9de2d93f393d633",
    "wof:id": 2048484235,
    "wof:repo": "sfomuseum-data-flights-2026-10"
  },
  "bbox": [
    -122.3598,
    37.44494,
    -121.24399,
    37.61439
  ],
  "geometry": {"type":"LineString","coordinates":[[-121.24399,37.59526],[-121.25938,37.59321],[-121.32199,37.58562],[-121.37549,37.57987],[-121.46707,37.56943],[-121.51055,37.56413],[-121.55336,37.55906],[-121.60388,37.55324],[-121.64718,37.54367],[-121.67525,37.51475],[-121.70565,37.47925],[-121.70899,37.47541],[-121.73516,37.45857],[-121.78241,37.45457],[-121.8197,37.45195],[-121.85611,37.44951],[-121.90676,37.44576],[-121.91856,37.44494],[-121.96576,37.44841],[-122.03159,37.47603],[-122.06705,37.49106],[-122.10412,37.50682],[-122.13454,37.51978],[-122.14613,37.52474],[-122.18806,37.54238],[-122.20656,37.55022],[-122.24544,37.56654],[-122.27369,37.57845],[-122.30783,37.59276],[-122.32576,37.60037],[-122.35706,37.61341],[-122.3598,37.61439]]}
}
