{
  "id": 2048484601,
  "type": "Feature",
  "properties": {
    "geom:area": 0,
    "geom:bbox": "-122.883080,37.497770,-121.892920,38.476610",
    "geom:latitude": 37.81159061792214,
    "geom:longitude": -122.39778720167196,
    "src:alt_label": "swim-approach",
    "src:geom": "swim",
    "swim:elevations": [
      7772,
      7681,
      7158,
      6959,
      6628,
      6267,
      6185,
      5737,
      5316,
      5104,
      4803,
      4626,
      4174,
      3943,
      3605,
      3416,
      3353,
      3353,
      3353,
      3353,
      3353,
      3323,
      3067,
      2939,
      2741,
      2615,
      2554,
      2495,
      2438,
      2438,
      2438,
      2438,
      2295,
      2131,
      2113,
      1878,
      1663,
      1488,
      1388,
      1213,
      944,
      862,
      648,
      582,
      389,
      311,
      103,
      37
    ],
    "swim:geom": "approach",
    "swim:timestamps": [
      1790855817,
      1790855829,
      1790855877,
      1790855896,
      1790855928,
      1790855964,
      1790855972,
      1790856016,
      1790856056,
      1790856077,
      1790856108,
      1790856126,
      1790856172,
      1790856196,
      1790856230,
      1790856257,
      1790856288,
      1790856302,
      1790856337,
      1790856386,
      1790856398,
      1790856442,
      1790856477,
      1790856495,
      1790856527,
      1790856550,
      1790856562,
      1790856575,
      1790856621,
      1790856656,
      1790856671,
      1790856694,
      1790856737,
      1790856764,
      1790856796,
      1790856837,
      1790856863,
      1790856889,
      1790856908,
      1790856937,
      1790856987,
      1790857001,
      1790857042,
      1790857057,
      1790857098,
      1790857113,
      1790857160,
      1790857177
    ],
    "wof:geomhash": "7ba548a5b0dcf316fdcbb85504680162",
    "wof:id": 2048484601,
    "wof:repo": "sfomuseum-data-flights-2026-10"
  },
  "bbox": [
    -122.88308,
    37.49777,
    -121.89292,
    38.47661
  ],
  "geometry": {"type":"LineString","coordinates":[[-122.88308,38.47661],[-122.87356,38.45531],[-122.83351,38.36947],[-122.81802,38.33547],[-122.79237,38.27893],[-122.76574,38.21739],[-122.76146,38.20297],[-122.73905,38.12639],[-122.71933,38.0587],[-122.70916,38.02387],[-122.69401,37.97153],[-122.68569,37.94252],[-122.64599,37.87399],[-122.61434,37.84438],[-122.5694,37.80183],[-122.53485,37.76899],[-122.49678,37.73387],[-122.47654,37.72443],[-122.42156,37.70997],[-122.35202,37.69216],[-122.33399,37.68756],[-122.27165,37.67151],[-122.22244,37.65885],[-122.19767,37.65242],[-122.1532,37.64115],[-122.12315,37.63358],[-122.10615,37.62915],[-122.08992,37.62495],[-122.02771,37.60861],[-121.98104,37.5963],[-121.96081,37.59092],[-121.93064,37.583],[-121.89292,37.55131],[-121.9066,37.52516],[-121.94569,37.5086],[-121.9971,37.49777],[-122.03147,37.50875],[-122.06374,37.51915],[-122.08631,37.52662],[-122.11911,37.53716],[-122.17302,37.55473],[-122.18785,37.55954],[-122.23164,37.57366],[-122.24715,37.57866],[-122.28929,37.59131],[-122.30191,37.59518],[-122.33942,37.60636],[-122.35227,37.6115]]}
}
