{
  "id": 2048529741,
  "type": "Feature",
  "properties": {
    "geom:area": 0,
    "geom:bbox": "-123.425240,37.226400,-122.138430,37.613510",
    "geom:latitude": 37.34755069556572,
    "geom:longitude": -122.67568780325807,
    "src:alt_label": "swim-approach",
    "src:geom": "swim",
    "swim:elevations": [
      4879,
      4636,
      4499,
      4139,
      4029,
      3883,
      3584,
      3337,
      3141,
      3048,
      3048,
      3018,
      3018,
      2895,
      2787,
      2702,
      2588,
      2527,
      2507,
      2445,
      2438,
      2187,
      2061,
      2011,
      1856,
      1742,
      1524,
      1450,
      1382,
      1217,
      1147,
      911,
      914,
      764,
      511,
      405,
      340,
      309,
      230,
      57,
      6
    ],
    "swim:geom": "approach",
    "swim:timestamps": [
      1791317455,
      1791317484,
      1791317499,
      1791317541,
      1791317553,
      1791317569,
      1791317600,
      1791317631,
      1791317654,
      1791317688,
      1791317716,
      1791317742,
      1791317785,
      1791317812,
      1791317832,
      1791317847,
      1791317877,
      1791317901,
      1791317920,
      1791317941,
      1791317972,
      1791318025,
      1791318053,
      1791318063,
      1791318102,
      1791318127,
      1791318176,
      1791318197,
      1791318207,
      1791318238,
      1791318253,
      1791318292,
      1791318328,
      1791318361,
      1791318414,
      1791318434,
      1791318458,
      1791318467,
      1791318491,
      1791318536,
      1791318542
    ],
    "wof:geomhash": "f126158e277c5ff821f58821bef90181",
    "wof:id": 2048529741,
    "wof:repo": "sfomuseum-data-flights-2026-10"
  },
  "bbox": [
    -123.42524,
    37.2264,
    -122.13843,
    37.61351
  ],
  "geometry": {"type":"LineString","coordinates":[[-123.42524,37.2264],[-123.36086,37.23013],[-123.32741,37.23197],[-123.23621,37.23721],[-123.21038,37.23871],[-123.17637,37.24064],[-123.10978,37.24423],[-123.0446,37.24786],[-122.99698,37.25057],[-122.92648,37.25424],[-122.8694,37.25849],[-122.82029,37.2677],[-122.74485,37.28534],[-122.69927,37.29596],[-122.66752,37.30342],[-122.6415,37.3096],[-122.59143,37.32107],[-122.5539,37.32971],[-122.52517,37.3364],[-122.49531,37.34331],[-122.4536,37.35288],[-122.38086,37.36957],[-122.34326,37.37831],[-122.32917,37.38146],[-122.27595,37.39377],[-122.24668,37.40604],[-122.19226,37.43702],[-122.17134,37.44878],[-122.1628,37.45459],[-122.14601,37.47923],[-122.13886,37.49119],[-122.13843,37.52198],[-122.1734,37.53562],[-122.20461,37.54903],[-122.25521,37.57071],[-122.27368,37.57836],[-122.29402,37.58699],[-122.30053,37.58973],[-122.31914,37.59753],[-122.35248,37.61155],[-122.35719,37.61351]]}
}
