{
  "id": 2048538063,
  "type": "Feature",
  "properties": {
    "geom:area": 0,
    "geom:bbox": "-122.349930,37.492770,-121.248060,37.610450",
    "geom:latitude": 37.54641854371725,
    "geom:longitude": -121.80363126374836,
    "src:alt_label": "swim-approach",
    "src:geom": "swim",
    "swim:elevations": [
      4649,
      4501,
      4369,
      4244,
      4143,
      3975,
      3675,
      3473,
      3188,
      3015,
      2889,
      2478,
      2207,
      1891,
      1832,
      1742,
      1588,
      1421,
      1380,
      1141,
      1063,
      728,
      598,
      368,
      264,
      118,
      60
    ],
    "swim:geom": "approach",
    "swim:timestamps": [
      1791367878,
      1791367908,
      1791367940,
      1791367974,
      1791367993,
      1791368017,
      1791368045,
      1791368076,
      1791368121,
      1791368146,
      1791368170,
      1791368218,
      1791368243,
      1791368297,
      1791368311,
      1791368350,
      1791368393,
      1791368425,
      1791368435,
      1791368474,
      1791368490,
      1791368538,
      1791368556,
      1791368604,
      1791368632,
      1791368668,
      1791368686
    ],
    "wof:geomhash": "a73a1d293ef727b70618ece042c6066b",
    "wof:id": 2048538063,
    "wof:repo": "sfomuseum-data-flights-2026-10"
  },
  "bbox": [
    -122.34993,
    37.49277,
    -121.24806,
    37.61045
  ],
  "geometry": {"type":"LineString","coordinates":[[-121.24806,37.59469],[-121.31,37.58674],[-121.37163,37.58009],[-121.43263,37.57317],[-121.46607,37.56925],[-121.50613,37.56473],[-121.55182,37.5594],[-121.60262,37.55347],[-121.67447,37.53874],[-121.7121,37.5298],[-121.7475,37.5213],[-121.81902,37.50411],[-121.85428,37.49573],[-121.93709,37.49277],[-121.95895,37.49327],[-122.01602,37.50419],[-122.07212,37.52209],[-122.1113,37.5347],[-122.12318,37.53838],[-122.16662,37.55236],[-122.18272,37.55758],[-122.22791,37.57233],[-122.24367,37.57734],[-122.28448,37.58992],[-122.30679,37.59643],[-122.33629,37.60506],[-122.34993,37.61045]]}
}
