{
  "id": 2048534337,
  "type": "Feature",
  "properties": {
    "geom:area": 0,
    "geom:bbox": "-122.360190,36.726450,-121.881930,37.611980",
    "geom:latitude": 37.248475668704536,
    "geom:longitude": -122.12083923710529,
    "src:alt_label": "swim-approach",
    "src:geom": "swim",
    "swim:elevations": [
      4768,
      4632,
      4257,
      4181,
      4091,
      4018,
      3899,
      3759,
      3638,
      3298,
      3181,
      3076,
      3049,
      2938,
      2862,
      2656,
      2514,
      2380,
      2198,
      2065,
      1897,
      1829,
      1829,
      1772,
      1668,
      1492,
      1363,
      1245,
      1217,
      1219,
      1219,
      1219,
      1255,
      1040,
      885,
      793,
      752,
      711,
      583,
      517,
      355,
      320,
      231,
      96,
      168
    ],
    "swim:geom": "approach",
    "swim:timestamps": [
      1791400037,
      1791400057,
      1791400102,
      1791400113,
      1791400130,
      1791400147,
      1791400177,
      1791400216,
      1791400237,
      1791400285,
      1791400298,
      1791400315,
      1791400329,
      1791400372,
      1791400387,
      1791400426,
      1791400460,
      1791400483,
      1791400522,
      1791400550,
      1791400582,
      1791400609,
      1791400648,
      1791400670,
      1791400689,
      1791400724,
      1791400754,
      1791400782,
      1791400792,
      1791400817,
      1791400838,
      1791400879,
      1791400897,
      1791400945,
      1791400977,
      1791400998,
      1791401010,
      1791401019,
      1791401058,
      1791401071,
      1791401123,
      1791401132,
      1791401163,
      1791401202,
      1791401229
    ],
    "wof:geomhash": "f484509a6d538c1453be2e10940a0b31",
    "wof:id": 2048534337,
    "wof:repo": "sfomuseum-data-flights-2026-10"
  },
  "bbox": [
    -122.36019,
    36.72645,
    -121.88193,
    37.61198
  ],
  "geometry": {"type":"LineString","coordinates":[[-121.88193,36.72645],[-121.89752,36.75648],[-121.91851,36.82971],[-121.92352,36.84722],[-121.9309,36.87381],[-121.93797,36.89893],[-121.94942,36.9401],[-121.96746,36.9897],[-121.97763,37.01555],[-122.00609,37.06984],[-122.01973,37.08149],[-122.03864,37.09692],[-122.05404,37.10947],[-122.0998,37.14697],[-122.11499,37.15953],[-122.15604,37.19316],[-122.18998,37.22121],[-122.21318,37.24019],[-122.25302,37.2722],[-122.28083,37.29425],[-122.31216,37.32012],[-122.31639,37.34905],[-122.27319,37.37309],[-122.24322,37.37956],[-122.21756,37.38495],[-122.17006,37.39499],[-122.13016,37.40325],[-122.09864,37.42072],[-122.09081,37.42889],[-122.07088,37.45085],[-122.05521,37.46962],[-122.07817,37.49929],[-122.09822,37.50202],[-122.1449,37.52191],[-122.17339,37.53395],[-122.19079,37.54127],[-122.20123,37.54562],[-122.20946,37.5491],[-122.23971,37.56188],[-122.24854,37.56558],[-122.28628,37.58146],[-122.29306,37.58427],[-122.31558,37.59376],[-122.34216,37.60495],[-122.36019,37.61198]]}
}
