{
  "id": 2048516979,
  "type": "Feature",
  "properties": {
    "geom:area": 0,
    "geom:bbox": "-122.358920,36.736920,-121.887780,37.611790",
    "geom:latitude": 37.229955057844606,
    "geom:longitude": -122.06949515448042,
    "src:alt_label": "swim-approach",
    "src:geom": "swim",
    "swim:elevations": [
      5600,
      5193,
      4923,
      4547,
      4336,
      4061,
      3822,
      3482,
      3259,
      3143,
      3061,
      2992,
      2753,
      2560,
      2471,
      2206,
      2096,
      1999,
      1929,
      1828,
      1786,
      1309,
      1223,
      1217,
      1036,
      831,
      672,
      557,
      443,
      414,
      255,
      162,
      59,
      36
    ],
    "swim:geom": "approach",
    "swim:timestamps": [
      1791228525,
      1791228564,
      1791228591,
      1791228627,
      1791228648,
      1791228675,
      1791228700,
      1791228734,
      1791228769,
      1791228794,
      1791228817,
      1791228827,
      1791228863,
      1791228890,
      1791228914,
      1791228957,
      1791228974,
      1791228992,
      1791229001,
      1791229040,
      1791229053,
      1791229105,
      1791229117,
      1791229155,
      1791229187,
      1791229226,
      1791229258,
      1791229285,
      1791229315,
      1791229324,
      1791229371,
      1791229403,
      1791229435,
      1791229448
    ],
    "wof:geomhash": "5a986e061c4221cbb4b96813113b3a03",
    "wof:id": 2048516979,
    "wof:repo": "sfomuseum-data-flights-2026-10"
  },
  "bbox": [
    -122.35892,
    36.73692,
    -121.88778,
    37.61179
  ],
  "geometry": {"type":"LineString","coordinates":[[-121.88778,36.73692],[-121.91021,36.79921],[-121.92229,36.8421],[-121.9382,36.89898],[-121.94749,36.93251],[-121.96131,36.97292],[-121.97549,37.00943],[-121.99438,37.05834],[-122.01227,37.10432],[-122.02474,37.13574],[-122.03466,37.16168],[-122.03902,37.17265],[-122.05524,37.21337],[-122.06691,37.24315],[-122.07687,37.26851],[-122.09498,37.31409],[-122.1016,37.33106],[-122.10879,37.34958],[-122.11191,37.35896],[-122.10256,37.39864],[-122.09845,37.41181],[-122.08767,37.46517],[-122.09565,37.47555],[-122.1251,37.50517],[-122.15154,37.52475],[-122.19018,37.54101],[-122.21969,37.55349],[-122.24342,37.56341],[-122.26728,37.57344],[-122.27419,37.57634],[-122.30722,37.59026],[-122.32829,37.59907],[-122.35019,37.60828],[-122.35892,37.61179]]}
}
