{
  "id": 2048554531,
  "type": "Feature",
  "properties": {
    "geom:area": 0,
    "geom:bbox": "-122.363010,37.490970,-121.282230,37.616410",
    "geom:latitude": 37.54575464288092,
    "geom:longitude": -121.82759928647862,
    "src:alt_label": "swim-approach",
    "src:geom": "swim",
    "swim:elevations": [
      4533,
      4341,
      3917,
      3705,
      3331,
      3256,
      3167,
      3016,
      2749,
      2587,
      2465,
      2147,
      2100,
      1870,
      1711,
      1392,
      1177,
      997,
      946,
      866,
      726,
      555,
      424,
      244,
      121,
      0,
      244
    ],
    "swim:geom": "approach",
    "swim:timestamps": [
      1791571372,
      1791571391,
      1791571433,
      1791571457,
      1791571497,
      1791571517,
      1791571539,
      1791571564,
      1791571598,
      1791571625,
      1791571652,
      1791571701,
      1791571711,
      1791571766,
      1791571796,
      1791571824,
      1791571852,
      1791571882,
      1791571896,
      1791571940,
      1791571968,
      1791572004,
      1791572030,
      1791572067,
      1791572096,
      1791572128,
      1791572134
    ],
    "wof:geomhash": "1266b3e8f3735c091bf06702a30cdb30",
    "wof:id": 2048554531,
    "wof:repo": "sfomuseum-data-flights-2026-10"
  },
  "bbox": [
    -122.36301,
    37.49097,
    -121.28223,
    37.61641
  ],
  "geometry": {"type":"LineString","coordinates":[[-121.28223,37.59027],[-121.32019,37.58564],[-121.40627,37.57612],[-121.45433,37.57065],[-121.534,37.56152],[-121.57207,37.5571],[-121.61323,37.55231],[-121.65615,37.54361],[-121.71311,37.52948],[-121.75786,37.51878],[-121.79989,37.50886],[-121.87347,37.49177],[-121.88851,37.49097],[-121.97051,37.49376],[-122.01317,37.50289],[-122.05157,37.51586],[-122.09055,37.52838],[-122.12848,37.54042],[-122.14445,37.54557],[-122.1915,37.56099],[-122.21957,37.57028],[-122.25511,37.58131],[-122.28276,37.58912],[-122.31584,37.59846],[-122.33686,37.6051],[-122.35874,37.61416],[-122.36301,37.61641]]}
}
