{
  "id": 2048498167,
  "type": "Feature",
  "properties": {
    "geom:area": 0,
    "geom:bbox": "-122.365640,37.629720,-121.449010,38.506490",
    "geom:latitude": 38.08272534246107,
    "geom:longitude": -121.94101586631517,
    "src:alt_label": "swim-takeoff",
    "src:geom": "swim",
    "swim:elevations": [
      122,
      231,
      654,
      937,
      1131,
      1307,
      1484,
      1675,
      1972,
      2294,
      2854,
      3011,
      3599,
      3736,
      3874,
      4367,
      4599,
      5014,
      5146,
      5425,
      5890,
      6023,
      6380,
      6638,
      6917,
      7008,
      7344,
      7628
    ],
    "swim:geom": "takeoff",
    "swim:timestamps": [
      1790939967,
      1790939981,
      1790940016,
      1790940041,
      1790940066,
      1790940100,
      1790940118,
      1790940132,
      1790940156,
      1790940190,
      1790940234,
      1790940246,
      1790940298,
      1790940322,
      1790940335,
      1790940375,
      1790940395,
      1790940442,
      1790940455,
      1790940482,
      1790940533,
      1790940551,
      1790940591,
      1790940621,
      1790940654,
      1790940666,
      1790940705,
      1790940735
    ],
    "wof:geomhash": "7c67b2939ca9e07d80f4592e42b96af1",
    "wof:id": 2048498167,
    "wof:repo": "sfomuseum-data-flights-2026-10"
  },
  "bbox": [
    -122.36564,
    37.62972,
    -121.44901,
    38.50649
  ],
  "geometry": {"type":"LineString","coordinates":[[-122.36564,37.62972],[-122.35877,37.63997],[-122.33,37.65738],[-122.30713,37.66937],[-122.28518,37.68245],[-122.26522,37.71631],[-122.26444,37.73849],[-122.27009,37.75516],[-122.27883,37.78466],[-122.2595,37.82671],[-122.19964,37.86767],[-122.18448,37.87851],[-122.12019,37.93455],[-122.0882,37.96395],[-122.07117,37.97945],[-122.01716,38.02856],[-121.98921,38.05362],[-121.9231,38.11289],[-121.90375,38.13003],[-121.8647,38.16496],[-121.78899,38.23274],[-121.76271,38.25621],[-121.69938,38.31256],[-121.65204,38.35476],[-121.5992,38.40164],[-121.57957,38.41897],[-121.50742,38.47058],[-121.44901,38.50649]]}
}
