{
  "id": 2048498205,
  "type": "Feature",
  "properties": {
    "geom:area": 0,
    "geom:bbox": "-122.364210,37.630830,-121.260500,38.031390",
    "geom:latitude": 37.86938312061301,
    "geom:longitude": -121.82607613968021,
    "src:alt_label": "swim-takeoff",
    "src:geom": "swim",
    "swim:elevations": [
      205,
      755,
      1127,
      1272,
      1485,
      1920,
      2607,
      2946,
      3511,
      3617,
      3946,
      4439,
      4733,
      4821,
      5188,
      5533,
      5811,
      6183,
      6471,
      6827,
      7184,
      7360
    ],
    "swim:geom": "takeoff",
    "swim:timestamps": [
      1790966020,
      1790966064,
      1790966095,
      1790966111,
      1790966136,
      1790966170,
      1790966215,
      1790966236,
      1790966277,
      1790966287,
      1790966312,
      1790966357,
      1790966394,
      1790966406,
      1790966439,
      1790966467,
      1790966491,
      1790966526,
      1790966552,
      1790966583,
      1790966629,
      1790966654
    ],
    "wof:geomhash": "8533f57adec2b2c42816c972c4625c2a",
    "wof:id": 2048498205,
    "wof:repo": "sfomuseum-data-flights-2026-10"
  },
  "bbox": [
    -122.36421,
    37.63083,
    -121.2605,
    38.03139
  ],
  "geometry": {"type":"LineString","coordinates":[[-122.36421,37.63083],[-122.33069,37.65256],[-122.30477,37.66816],[-122.2892,37.67737],[-122.26264,37.69302],[-122.21876,37.71493],[-122.15713,37.74765],[-122.12752,37.76355],[-122.06396,37.7914],[-122.04768,37.79797],[-122.0055,37.81611],[-121.92677,37.8473],[-121.85588,37.87545],[-121.83152,37.88547],[-121.76382,37.91322],[-121.70688,37.93628],[-121.65559,37.95584],[-121.57409,37.97388],[-121.51275,37.98527],[-121.4367,37.99925],[-121.32351,38.01991],[-121.2605,38.03139]]}
}
