{
  "id": 2048515599,
  "type": "Feature",
  "properties": {
    "geom:area": 0,
    "geom:bbox": "-122.385630,37.631440,-121.460690,38.499050",
    "geom:latitude": 38.11273407269204,
    "geom:longitude": -122.02634931951988,
    "src:alt_label": "swim-takeoff",
    "src:geom": "swim",
    "swim:elevations": [
      122,
      556,
      833,
      1133,
      1287,
      1575,
      1955,
      2289,
      2469,
      2776,
      3096,
      3415,
      3594,
      3878,
      4228,
      4584,
      4955,
      5345,
      5516,
      5747,
      6119,
      6365,
      6454,
      6720,
      6866,
      7135,
      7239,
      7405,
      7602,
      7825
    ],
    "swim:geom": "takeoff",
    "swim:timestamps": [
      1791157867,
      1791157900,
      1791157924,
      1791157960,
      1791157991,
      1791158027,
      1791158057,
      1791158081,
      1791158097,
      1791158123,
      1791158153,
      1791158181,
      1791158199,
      1791158240,
      1791158270,
      1791158300,
      1791158330,
      1791158366,
      1791158385,
      1791158410,
      1791158455,
      1791158484,
      1791158493,
      1791158522,
      1791158541,
      1791158576,
      1791158594,
      1791158618,
      1791158645,
      1791158679
    ],
    "wof:geomhash": "7b6b30414a5bfa1825909e296552e400",
    "wof:id": 2048515599,
    "wof:repo": "sfomuseum-data-flights-2026-10"
  },
  "bbox": [
    -122.38563,
    37.63144,
    -121.46069,
    38.49905
  ],
  "geometry": {"type":"LineString","coordinates":[[-122.36431,37.63144],[-122.34196,37.65365],[-122.32282,37.6689],[-122.31125,37.69967],[-122.32662,37.72922],[-122.34872,37.76976],[-122.3671,37.80549],[-122.38092,37.83443],[-122.38563,37.85582],[-122.38441,37.89114],[-122.38077,37.93316],[-122.34995,37.9628],[-122.32311,37.97747],[-122.25943,38.01404],[-122.20979,38.04452],[-122.1605,38.07557],[-122.11113,38.10687],[-122.05003,38.14338],[-122.01722,38.16304],[-121.97304,38.18961],[-121.89364,38.23791],[-121.84027,38.27044],[-121.82357,38.28057],[-121.76983,38.31293],[-121.73346,38.3348],[-121.66543,38.37564],[-121.6303,38.39666],[-121.58319,38.42477],[-121.52896,38.45717],[-121.46069,38.49905]]}
}
