{
  "id": 2048560609,
  "type": "Feature",
  "properties": {
    "geom:area": 0,
    "geom:bbox": "-122.364610,37.630860,-121.443900,38.507150",
    "geom:latitude": 38.08899596300766,
    "geom:longitude": -121.94869665682774,
    "src:alt_label": "swim-takeoff",
    "src:geom": "swim",
    "swim:elevations": [
      183,
      398,
      907,
      1111,
      1391,
      1792,
      2305,
      2508,
      3140,
      3223,
      3560,
      4061,
      4614,
      4798,
      5417,
      5596,
      6077,
      6363,
      6668,
      6811,
      7285,
      7434,
      7764,
      7848,
      8019,
      8218,
      8403
    ],
    "swim:geom": "takeoff",
    "swim:timestamps": [
      1791548695,
      1791548713,
      1791548747,
      1791548768,
      1791548809,
      1791548842,
      1791548874,
      1791548890,
      1791548933,
      1791548940,
      1791548980,
      1791549015,
      1791549054,
      1791549070,
      1791549114,
      1791549128,
      1791549175,
      1791549200,
      1791549227,
      1791549241,
      1791549296,
      1791549315,
      1791549355,
      1791549366,
      1791549386,
      1791549411,
      1791549430
    ],
    "wof:geomhash": "9f5b0b3b5b5ee0a1acc1d911337bb408",
    "wof:id": 2048560609,
    "wof:repo": "sfomuseum-data-flights-2026-10"
  },
  "bbox": [
    -122.36461,
    37.63086,
    -121.4439,
    38.50715
  ],
  "geometry": {"type":"LineString","coordinates":[[-122.36461,37.63086],[-122.35205,37.64216],[-122.32263,37.65843],[-122.30443,37.66891],[-122.25977,37.69466],[-122.2175,37.71914],[-122.20361,37.75879],[-122.20615,37.77917],[-122.2151,37.83877],[-122.21662,37.84892],[-122.21633,37.91173],[-122.16724,37.95502],[-122.10747,38.00045],[-122.08351,38.02001],[-122.01445,38.07612],[-121.99232,38.09381],[-121.91465,38.15591],[-121.87354,38.18868],[-121.82706,38.22563],[-121.80418,38.24374],[-121.70695,38.32075],[-121.67243,38.34809],[-121.59819,38.40704],[-121.57795,38.42336],[-121.53777,38.45077],[-121.486,38.48263],[-121.4439,38.50715]]}
}
