{
  "id": 2048549095,
  "type": "Feature",
  "properties": {
    "geom:area": 0,
    "geom:bbox": "-123.494790,37.420040,-122.391580,37.668390",
    "geom:latitude": 37.55807637210633,
    "geom:longitude": -122.94224200915428,
    "src:alt_label": "swim-takeoff",
    "src:geom": "swim",
    "swim:elevations": [
      122,
      261,
      360,
      435,
      544,
      942,
      1242,
      1364,
      1439,
      1462,
      1510,
      1547,
      1576,
      2830,
      3051,
      3176,
      3425,
      3518,
      3796,
      4072,
      4242,
      4429,
      4862,
      5116,
      5394
    ],
    "swim:geom": "takeoff",
    "swim:timestamps": [
      1791443609,
      1791443622,
      1791443636,
      1791443650,
      1791443671,
      1791443726,
      1791443750,
      1791443762,
      1791443768,
      1791443772,
      1791443776,
      1791443781,
      1791443786,
      1791443902,
      1791443925,
      1791443945,
      1791443996,
      1791444014,
      1791444056,
      1791444088,
      1791444104,
      1791444130,
      1791444176,
      1791444203,
      1791444236
    ],
    "wof:geomhash": "6a6d412ea632bb1342e9dea611dc3fe9",
    "wof:id": 2048549095,
    "wof:repo": "sfomuseum-data-flights-2026-10"
  },
  "bbox": [
    -123.49479,
    37.42004,
    -122.39158,
    37.66839
  ],
  "geometry": {"type":"LineString","coordinates":[[-122.39158,37.62797],[-122.40419,37.63327],[-122.41711,37.63868],[-122.43183,37.64479],[-122.45462,37.65412],[-122.52851,37.66839],[-122.56267,37.66],[-122.58103,37.65539],[-122.58991,37.65307],[-122.59474,37.6518],[-122.60166,37.64996],[-122.60867,37.64808],[-122.61587,37.64618],[-122.79883,37.59891],[-122.83559,37.58975],[-122.86921,37.5811],[-122.96364,37.55697],[-123.00002,37.54775],[-123.09028,37.52482],[-123.15881,37.50727],[-123.19404,37.49819],[-123.25166,37.48322],[-123.35649,37.45605],[-123.4184,37.44005],[-123.49479,37.42004]]}
}
