{
  "id": 2048551349,
  "type": "Feature",
  "properties": {
    "geom:area": 0,
    "geom:bbox": "-122.386770,37.633030,-121.438590,38.512840",
    "geom:latitude": 38.12119644914565,
    "geom:longitude": -122.0148172354806,
    "src:alt_label": "swim-takeoff",
    "src:geom": "swim",
    "swim:elevations": [
      152,
      656,
      747,
      1004,
      1098,
      1320,
      1359,
      1558,
      1891,
      2578,
      2639,
      3153,
      3477,
      3669,
      3891,
      4150,
      4530,
      4690,
      4966,
      5160,
      5463,
      5590,
      5983,
      6172,
      6236,
      6654,
      6730,
      7068,
      7364,
      7540,
      7598
    ],
    "swim:geom": "takeoff",
    "swim:timestamps": [
      1791501760,
      1791501801,
      1791501810,
      1791501834,
      1791501853,
      1791501894,
      1791501900,
      1791501930,
      1791501960,
      1791502015,
      1791502021,
      1791502067,
      1791502101,
      1791502132,
      1791502153,
      1791502177,
      1791502208,
      1791502223,
      1791502256,
      1791502280,
      1791502313,
      1791502322,
      1791502374,
      1791502401,
      1791502410,
      1791502463,
      1791502471,
      1791502514,
      1791502555,
      1791502584,
      1791502592
    ],
    "wof:geomhash": "7888f133ab970c828493e6f55ac41cf4",
    "wof:id": 2048551349,
    "wof:repo": "sfomuseum-data-flights-2026-10"
  },
  "bbox": [
    -122.38677,
    37.63303,
    -121.43859,
    38.51284
  ],
  "geometry": {"type":"LineString","coordinates":[[-122.36278,37.63303],[-122.33425,37.65897],[-122.32779,37.66422],[-122.31426,37.67975],[-122.31159,37.69482],[-122.32905,37.73204],[-122.33239,37.73808],[-122.35003,37.77065],[-122.36743,37.80685],[-122.38677,37.87749],[-122.38641,37.88557],[-122.37029,37.94641],[-122.32441,37.97696],[-122.277,38.00568],[-122.2437,38.02617],[-122.20476,38.05143],[-122.15444,38.08082],[-122.12942,38.09536],[-122.07267,38.12981],[-122.03077,38.15573],[-121.97297,38.19117],[-121.95682,38.20069],[-121.86327,38.25692],[-121.81284,38.28735],[-121.79574,38.29763],[-121.6936,38.35886],[-121.67917,38.36757],[-121.59423,38.41853],[-121.51278,38.46723],[-121.45461,38.50297],[-121.43859,38.51284]]}
}
