{
  "id": 2048520355,
  "type": "Feature",
  "properties": {
    "geom:area": 0,
    "geom:bbox": "-122.358720,36.726470,-121.882030,37.611900",
    "geom:latitude": 37.21382055809021,
    "geom:longitude": -122.06945813787827,
    "src:alt_label": "swim-approach",
    "src:geom": "swim",
    "swim:elevations": [
      5268,
      4999,
      4794,
      4601,
      4491,
      4275,
      4086,
      4017,
      3865,
      3761,
      3405,
      3143,
      3004,
      2941,
      2589,
      2508,
      2412,
      2124,
      2057,
      1648,
      1467,
      1376,
      1249,
      1152,
      984,
      937,
      754,
      682,
      548,
      498,
      392,
      329,
      207,
      39,
      39
    ],
    "swim:geom": "approach",
    "swim:timestamps": [
      1791235308,
      1791235347,
      1791235373,
      1791235397,
      1791235413,
      1791235441,
      1791235464,
      1791235473,
      1791235491,
      1791235507,
      1791235550,
      1791235582,
      1791235618,
      1791235626,
      1791235678,
      1791235696,
      1791235722,
      1791235764,
      1791235774,
      1791235827,
      1791235858,
      1791235887,
      1791235915,
      1791235936,
      1791235977,
      1791235987,
      1791236022,
      1791236032,
      1791236058,
      1791236072,
      1791236098,
      1791236116,
      1791236148,
      1791236186,
      1791236194
    ],
    "wof:geomhash": "303b5676e72bc268a6b9e6ae5323f826",
    "wof:id": 2048520355,
    "wof:repo": "sfomuseum-data-flights-2026-10"
  },
  "bbox": [
    -122.35872,
    36.72647,
    -121.88203,
    37.6119
  ],
  "geometry": {"type":"LineString","coordinates":[[-121.88203,36.72647],[-121.9058,36.78334],[-121.91634,36.82089],[-121.92623,36.85608],[-121.93314,36.88044],[-121.94434,36.92116],[-121.95409,36.95478],[-121.95932,36.96779],[-121.96888,36.99256],[-121.97768,37.01502],[-122.00031,37.07334],[-122.01756,37.11731],[-122.03642,37.16522],[-122.04078,37.17642],[-122.06666,37.24263],[-122.07507,37.26399],[-122.08732,37.29569],[-122.10501,37.34026],[-122.10929,37.35098],[-122.11715,37.40626],[-122.12099,37.4375],[-122.12902,37.46326],[-122.14531,37.48433],[-122.15944,37.49944],[-122.18701,37.52769],[-122.19441,37.53396],[-122.22172,37.5514],[-122.22937,37.55545],[-122.24945,37.56513],[-122.25959,37.56973],[-122.28053,37.57899],[-122.29584,37.58531],[-122.3219,37.59645],[-122.35317,37.60953],[-122.35872,37.6119]]}
}
