{
  "id": 2048509613,
  "type": "Feature",
  "properties": {
    "geom:area": 0,
    "geom:bbox": "-122.756710,37.428600,-122.127790,38.430500",
    "geom:latitude": 37.8229483983145,
    "geom:longitude": -122.48000712799934,
    "src:alt_label": "swim-approach",
    "src:geom": "swim",
    "swim:elevations": [
      7833,
      7803,
      7452,
      7361,
      6974,
      6911,
      6858,
      6448,
      6112,
      6023,
      5505,
      5162,
      4997,
      4943,
      4519,
      3907,
      3689,
      3413,
      3381,
      3353,
      3353,
      3353,
      3353,
      3231,
      3034,
      2869,
      2694,
      2527,
      2316,
      2165,
      2132,
      2014,
      2006,
      1858,
      1646,
      1521,
      1105,
      954,
      642,
      553,
      391,
      267,
      203,
      133,
      89
    ],
    "swim:geom": "approach",
    "swim:timestamps": [
      1791106778,
      1791106783,
      1791106825,
      1791106838,
      1791106884,
      1791106890,
      1791106898,
      1791106944,
      1791106977,
      1791106986,
      1791107034,
      1791107067,
      1791107081,
      1791107085,
      1791107124,
      1791107185,
      1791107208,
      1791107248,
      1791107264,
      1791107302,
      1791107325,
      1791107362,
      1791107371,
      1791107422,
      1791107455,
      1791107482,
      1791107510,
      1791107541,
      1791107577,
      1791107605,
      1791107612,
      1791107635,
      1791107645,
      1791107681,
      1791107718,
      1791107737,
      1791107784,
      1791107801,
      1791107845,
      1791107863,
      1791107901,
      1791107937,
      1791107954,
      1791107972,
      1791107982
    ],
    "wof:geomhash": "c5de6c5f59413af1b35e4b942d1a304a",
    "wof:id": 2048509613,
    "wof:repo": "sfomuseum-data-flights-2026-10"
  },
  "bbox": [
    -122.75671,
    37.4286,
    -122.12779,
    38.4305
  ],
  "geometry": {"type":"LineString","coordinates":[[-122.557,38.4305],[-122.56392,38.42367],[-122.62225,38.36593],[-122.63891,38.34969],[-122.70309,38.28712],[-122.7114,38.27902],[-122.72266,38.26806],[-122.75671,38.19735],[-122.74384,38.14269],[-122.73998,38.12883],[-122.71748,38.05251],[-122.70261,38.00187],[-122.69588,37.97915],[-122.69399,37.97271],[-122.6754,37.91266],[-122.60571,37.83505],[-122.57592,37.80788],[-122.52671,37.76155],[-122.50741,37.74329],[-122.46565,37.70401],[-122.44082,37.68057],[-122.40096,37.6429],[-122.39136,37.63389],[-122.35335,37.58653],[-122.33658,37.55421],[-122.32041,37.52693],[-122.30315,37.49965],[-122.28427,37.47012],[-122.26228,37.4375],[-122.22845,37.4286],[-122.2189,37.42993],[-122.18891,37.43179],[-122.17723,37.43008],[-122.1364,37.43564],[-122.12779,37.46921],[-122.14065,37.48429],[-122.17409,37.51981],[-122.18624,37.53274],[-122.22776,37.55662],[-122.24589,37.56438],[-122.28254,37.57984],[-122.31059,37.59159],[-122.32447,37.59744],[-122.33863,37.6034],[-122.34569,37.60636]]}
}
