{
  "id": 2048502763,
  "type": "Feature",
  "properties": {
    "geom:area": 0,
    "geom:bbox": "-122.801380,37.433120,-122.137000,38.500370",
    "geom:latitude": 37.834890124566854,
    "geom:longitude": -122.50519269087806,
    "src:alt_label": "swim-approach",
    "src:geom": "swim",
    "swim:elevations": [
      8295,
      8081,
      7700,
      7313,
      7165,
      6884,
      6345,
      6147,
      5586,
      5358,
      4930,
      4637,
      4324,
      4079,
      3696,
      3617,
      3365,
      3370,
      3353,
      3353,
      3351,
      3353,
      3208,
      3047,
      2852,
      2678,
      2519,
      2157,
      2041,
      1699,
      1549,
      1296,
      1103,
      1047,
      859,
      820,
      639,
      516,
      329,
      208,
      130,
      66
    ],
    "swim:geom": "approach",
    "swim:timestamps": [
      1791011097,
      1791011118,
      1791011147,
      1791011184,
      1791011198,
      1791011222,
      1791011269,
      1791011287,
      1791011337,
      1791011358,
      1791011398,
      1791011425,
      1791011456,
      1791011480,
      1791011516,
      1791011523,
      1791011568,
      1791011589,
      1791011620,
      1791011644,
      1791011672,
      1791011681,
      1791011719,
      1791011744,
      1791011774,
      1791011798,
      1791011820,
      1791011872,
      1791011888,
      1791011932,
      1791011957,
      1791011995,
      1791012027,
      1791012046,
      1791012083,
      1791012092,
      1791012126,
      1791012153,
      1791012196,
      1791012225,
      1791012250,
      1791012275
    ],
    "wof:geomhash": "8eac45cc97f88964ce3e5de5e53f1050",
    "wof:id": 2048502763,
    "wof:repo": "sfomuseum-data-flights-2026-10"
  },
  "bbox": [
    -122.80138,
    37.43312,
    -122.137,
    38.50037
  ],
  "geometry": {"type":"LineString","coordinates":[[-122.80138,38.50037],[-122.79635,38.4592],[-122.78982,38.40422],[-122.78102,38.3361],[-122.778,38.31133],[-122.77278,38.26784],[-122.75605,38.18527],[-122.74726,38.1544],[-122.72254,38.0695],[-122.71261,38.03574],[-122.69334,37.96915],[-122.68078,37.92539],[-122.65354,37.88085],[-122.62202,37.85114],[-122.57589,37.80757],[-122.56636,37.79858],[-122.51093,37.74576],[-122.48732,37.72393],[-122.45277,37.69174],[-122.42664,37.66698],[-122.39646,37.63854],[-122.38726,37.62977],[-122.35444,37.59471],[-122.34057,37.56888],[-122.32552,37.53773],[-122.31156,37.51465],[-122.29833,37.49331],[-122.25583,37.45146],[-122.23607,37.44517],[-122.18094,37.43312],[-122.15484,37.44908],[-122.137,37.48734],[-122.155,37.51732],[-122.16852,37.5319],[-122.19484,37.55921],[-122.20251,37.56382],[-122.23589,37.57447],[-122.2601,37.58304],[-122.29676,37.59331],[-122.32059,37.60037],[-122.3401,37.60663],[-122.35902,37.61435]]}
}
