{
  "id": 2048542447,
  "type": "Feature",
  "properties": {
    "geom:area": 0,
    "geom:bbox": "-123.482030,37.424180,-122.392000,37.671420",
    "geom:latitude": 37.56014274994925,
    "geom:longitude": -122.93494471708989,
    "src:alt_label": "swim-takeoff",
    "src:geom": "swim",
    "swim:elevations": [
      91,
      610,
      905,
      1004,
      1126,
      1378,
      1522,
      1858,
      2262,
      2636,
      2888,
      3116,
      3221,
      3417,
      3639,
      3917,
      4058,
      4407,
      4529,
      4844,
      4988,
      5353
    ],
    "swim:geom": "takeoff",
    "swim:timestamps": [
      1791368976,
      1791369021,
      1791369051,
      1791369067,
      1791369091,
      1791369136,
      1791369152,
      1791369183,
      1791369221,
      1791369253,
      1791369275,
      1791369312,
      1791369345,
      1791369378,
      1791369403,
      1791369435,
      1791369450,
      1791369496,
      1791369515,
      1791369552,
      1791369574,
      1791369621
    ],
    "wof:geomhash": "0f4a480109f2104eec99ca839e78698c",
    "wof:id": 2048542447,
    "wof:repo": "sfomuseum-data-flights-2026-10"
  },
  "bbox": [
    -123.48203,
    37.42418,
    -122.392,
    37.67142
  ],
  "geometry": {"type":"LineString","coordinates":[[-122.392,37.62575],[-122.43567,37.64442],[-122.46452,37.65723],[-122.48058,37.66436],[-122.50804,37.67142],[-122.56779,37.65778],[-122.59147,37.65172],[-122.63688,37.64027],[-122.69553,37.62539],[-122.74398,37.61332],[-122.77949,37.60434],[-122.84016,37.58876],[-122.90007,37.57336],[-122.96602,37.55658],[-123.01812,37.5435],[-123.08177,37.52756],[-123.11468,37.51896],[-123.20955,37.49448],[-123.25124,37.4836],[-123.33233,37.46252],[-123.37869,37.45111],[-123.48203,37.42418]]}
}
