{
  "id": 2048489233,
  "type": "Feature",
  "properties": {
    "geom:area": 0,
    "geom:bbox": "-122.363560,37.631670,-121.251970,38.421740",
    "geom:latitude": 38.03697707462307,
    "geom:longitude": -121.81688130511637,
    "src:alt_label": "swim-takeoff",
    "src:geom": "swim",
    "swim:elevations": [
      155,
      437,
      550,
      789,
      1035,
      1250,
      1489,
      1872,
      1993,
      2246,
      2318,
      2556,
      2707,
      3015,
      3382,
      3538,
      3806,
      4045,
      4120,
      4385,
      4554,
      4749,
      5125,
      5303,
      5455,
      5744,
      5945,
      6165,
      6413
    ],
    "swim:geom": "takeoff",
    "swim:timestamps": [
      1790885149,
      1790885180,
      1790885189,
      1790885207,
      1790885231,
      1790885267,
      1790885305,
      1790885336,
      1790885346,
      1790885368,
      1790885374,
      1790885393,
      1790885408,
      1790885433,
      1790885474,
      1790885496,
      1790885536,
      1790885574,
      1790885586,
      1790885627,
      1790885655,
      1790885679,
      1790885726,
      1790885752,
      1790885777,
      1790885810,
      1790885840,
      1790885873,
      1790885904
    ],
    "wof:geomhash": "bee51338cf6690c1a9aea9f5907fefd2",
    "wof:id": 2048489233,
    "wof:repo": "sfomuseum-data-flights-2026-10"
  },
  "bbox": [
    -122.36356,
    37.63167,
    -121.25197,
    38.42174
  ],
  "geometry": {"type":"LineString","coordinates":[[-122.36356,37.63167],[-122.34063,37.64918],[-122.3323,37.6536],[-122.31543,37.66258],[-122.29434,37.67461],[-122.25888,37.69463],[-122.21343,37.72078],[-122.18306,37.75318],[-122.17363,37.76354],[-122.15171,37.78712],[-122.14578,37.79345],[-122.12633,37.81463],[-122.11122,37.83145],[-122.08647,37.85934],[-122.03556,37.90161],[-122.00291,37.92331],[-121.94193,37.96552],[-121.88024,38.00726],[-121.85989,38.021],[-121.78726,38.06976],[-121.73697,38.10372],[-121.69337,38.133],[-121.60391,38.19307],[-121.55497,38.22583],[-121.50627,38.25842],[-121.44319,38.30056],[-121.38448,38.33966],[-121.31677,38.38226],[-121.25197,38.42174]]}
}
