{
  "id": 2048520395,
  "type": "Feature",
  "properties": {
    "geom:area": 0,
    "geom:bbox": "-122.360780,37.491930,-121.248820,37.615380",
    "geom:latitude": 37.546962551884654,
    "geom:longitude": -121.80983843745638,
    "src:alt_label": "swim-approach",
    "src:geom": "swim",
    "swim:elevations": [
      4365,
      4208,
      3889,
      3700,
      3451,
      3136,
      3097,
      3017,
      2861,
      2612,
      2462,
      2351,
      2133,
      2004,
      1884,
      1685,
      1413,
      1234,
      1147,
      1004,
      884,
      867,
      633,
      580,
      452,
      298,
      243,
      55,
      0
    ],
    "swim:geom": "approach",
    "swim:timestamps": [
      1791231478,
      1791231498,
      1791231530,
      1791231551,
      1791231578,
      1791231628,
      1791231647,
      1791231676,
      1791231705,
      1791231748,
      1791231773,
      1791231791,
      1791231832,
      1791231860,
      1791231894,
      1791231922,
      1791231952,
      1791231977,
      1791231998,
      1791232043,
      1791232077,
      1791232083,
      1791232133,
      1791232146,
      1791232176,
      1791232211,
      1791232233,
      1791232278,
      1791232290
    ],
    "wof:geomhash": "819f4cdcfcca20ad3bc509ec39cdd274",
    "wof:id": 2048520395,
    "wof:repo": "sfomuseum-data-flights-2026-10"
  },
  "bbox": [
    -122.36078,
    37.49193,
    -121.24882,
    37.61538
  ],
  "geometry": {"type":"LineString","coordinates":[[-121.24882,37.59453],[-121.28858,37.58944],[-121.35535,37.5819],[-121.39607,37.57736],[-121.45094,37.57114],[-121.54954,37.55951],[-121.58404,37.55546],[-121.63298,37.54849],[-121.6792,37.53764],[-121.74787,37.52145],[-121.78698,37.51206],[-121.8148,37.50531],[-121.87707,37.49193],[-121.91975,37.49223],[-121.97111,37.49348],[-122.01036,37.50176],[-122.04941,37.51467],[-122.08138,37.52499],[-122.1053,37.53279],[-122.15336,37.54835],[-122.1867,37.55913],[-122.19205,37.56084],[-122.23644,37.57516],[-122.24715,37.57864],[-122.27244,37.58625],[-122.29931,37.59422],[-122.31647,37.59929],[-122.35212,37.61137],[-122.36078,37.61538]]}
}
