{
  "id": 2048558179,
  "type": "Feature",
  "properties": {
    "date:cessation_lower": "1970-01-01",
    "date:cessation_upper": "1970-01-01",
    "date:inception_lower": "2026-10-09",
    "date:inception_upper": "2026-10-09",
    "edtf:cessation": "1970-01-01T00:00:00Z",
    "edtf:inception": "2026-10-09T10:23:56-07:00",
    "flysfo:actual_timestamp": -1,
    "flysfo:airline": "AS",
    "flysfo:base_airline": "",
    "flysfo:base_flight_number": "2956",
    "flysfo:date": "2026-10-09",
    "flysfo:estimated_timestamp": 1791589860,
    "flysfo:event": "D",
    "flysfo:flight_number": "AS1457",
    "flysfo:gate": "B9",
    "flysfo:journey": "SFO-LAX",
    "flysfo:scheduled_timestamp": 1791589860,
    "flysfo:timestamp": 1791589860,
    "geom:area": 0,
    "geom:bbox": "-122.370943,33.942593,-118.389510,37.617990",
    "geom:latitude": 35.780291500000004,
    "geom:longitude": -120.38022649999999,
    "iata:airline": "AS",
    "iata:base_airline": "",
    "icao:aircraft": "B38M",
    "icao:airline": "ASA",
    "icao:base_airline": "BAW",
    "lbl:latitude": 37.61799,
    "lbl:longitude": -122.370943,
    "sfomuseum:aircraft_id": 1528104575,
    "sfomuseum:airline_id": 1159283813,
    "sfomuseum:arrival_id": 102533795,
    "sfomuseum:base_flight_id": "20261009-D-BAW-2956",
    "sfomuseum:departure_id": 102527513,
    "sfomuseum:flight_id": "20261009-D-ASA-1457",
    "sfomuseum:flight_number": [
      "ASA1457",
      "AS1457"
    ],
    "sfomuseum:placetype": "flight",
    "src:geom": "flysfo",
    "src:geom_alt": [
      "swim-takeoff"
    ],
    "swim:tail_number": "N816AK",
    "wof:belongsto": [
      1947304067,
      102527513,
      1947304261,
      102191575,
      85633793,
      102087579,
      85922583,
      554784711,
      85688637,
      1947304303,
      1947304259,
      102085387
    ],
    "wof:country": "US",
    "wof:created": 1791648745,
    "wof:geomhash": "602be2a828e3460cadf44be5b1c2e36b",
    "wof:hierarchy": [
      {
        "building_id": 1947304067,
        "campus_id": 102527513,
        "concourse_id": 1947304261,
        "continent_id": 102191575,
        "country_id": 85633793,
        "county_id": 102087579,
        "custom_id": 2048558179,
        "flight_id": 2048558179,
        "locality_id": 85922583,
        "postalcode_id": 554784711,
        "region_id": 85688637,
        "venue_id": 1947304303,
        "wing_id": 1947304259
      },
      {
        "building_id": 1947304067,
        "campus_id": 102527513,
        "concourse_id": 1947304261,
        "continent_id": 102191575,
        "country_id": 85633793,
        "county_id": 102085387,
        "custom_id": 2048558179,
        "flight_id": 2048558179,
        "region_id": 85688637,
        "venue_id": 1947304303,
        "wing_id": 1947304259
      }
    ],
    "wof:id": 2048558179,
    "wof:involves": [
      1528104575,
      102533795,
      102527513,
      1159283813,
      1947304303,
      1159284021
    ],
    "wof:lastmodified": 1791649154,
    "wof:name": "AS1457 (SFO-LAX)",
    "wof:parent_id": 1947304303,
    "wof:placetype": "custom",
    "wof:placetype_alt": [
      "flight"
    ],
    "wof:repo": "sfomuseum-data-flights-2026-10",
    "wof:superseded_by": [],
    "wof:supersedes": []
  },
  "bbox": [
    -122.370943,
    33.942593,
    -118.38951,
    37.61799
  ],
  "geometry": {"type":"MultiPoint","coordinates":[[-122.370943,37.61799],[-118.38951,33.942593]]}
}
