{
  "id": 2048538721,
  "type": "Feature",
  "properties": {
    "geom:area": 0,
    "geom:bbox": "-122.384460,37.646760,-121.242810,38.166190",
    "geom:latitude": 37.996128419063254,
    "geom:longitude": -121.92762364675308,
    "src:alt_label": "swim-takeoff",
    "src:geom": "swim",
    "swim:elevations": [
      442,
      604,
      641,
      764,
      903,
      1211,
      1510,
      1677,
      2134,
      2387,
      2655,
      2701,
      2744,
      2847,
      3202,
      3346,
      3395,
      3588,
      3679,
      3798,
      3964,
      3993,
      4344,
      4383,
      4672,
      4893,
      4989,
      5184,
      5268,
      5422
    ],
    "swim:geom": "takeoff",
    "swim:timestamps": [
      1791412585,
      1791412616,
      1791412628,
      1791412670,
      1791412694,
      1791412728,
      1791412761,
      1791412781,
      1791412828,
      1791412856,
      1791412886,
      1791412890,
      1791412894,
      1791412907,
      1791412949,
      1791412979,
      1791412994,
      1791413036,
      1791413060,
      1791413096,
      1791413124,
      1791413130,
      1791413188,
      1791413194,
      1791413230,
      1791413278,
      1791413297,
      1791413333,
      1791413348,
      1791413374
    ],
    "wof:geomhash": "160d68068259626e1524f9b9bedae780",
    "wof:id": 2048538721,
    "wof:repo": "sfomuseum-data-flights-2026-10"
  },
  "bbox": [
    -122.38446,
    37.64676,
    -121.24281,
    38.16619
  ],
  "geometry": {"type":"LineString","coordinates":[[-122.35118,37.64676],[-122.32775,37.66609],[-122.31792,37.67393],[-122.31867,37.71437],[-122.33347,37.74035],[-122.35406,37.77985],[-122.37325,37.81845],[-122.38432,37.84339],[-122.38446,37.90566],[-122.36508,37.93966],[-122.3188,37.95388],[-122.31089,37.95538],[-122.30404,37.95671],[-122.28304,37.96087],[-122.21391,37.97498],[-122.16049,37.98571],[-122.13238,37.99133],[-122.0492,38.00797],[-121.99841,38.01812],[-121.91991,38.03376],[-121.85507,38.04675],[-121.8412,38.04949],[-121.70306,38.07677],[-121.68866,38.07961],[-121.60225,38.09652],[-121.48531,38.11935],[-121.4397,38.12815],[-121.34834,38.14591],[-121.30998,38.15335],[-121.24281,38.16619]]}
}
