{
  "id": 2048539967,
  "type": "Feature",
  "properties": {
    "geom:area": 0,
    "geom:bbox": "-122.363280,37.632690,-121.252020,38.421490",
    "geom:latitude": 38.054238674977526,
    "geom:longitude": -121.86750088230639,
    "src:alt_label": "swim-takeoff",
    "src:geom": "swim",
    "swim:elevations": [
      183,
      433,
      655,
      800,
      1110,
      1358,
      1644,
      1979,
      2247,
      2698,
      2968,
      3132,
      3301,
      3794,
      4011,
      4103,
      4349,
      4595,
      4971,
      5109,
      5237,
      5651,
      5820,
      6241,
      6445,
      6647,
      6679,
      6861,
      7057
    ],
    "swim:geom": "takeoff",
    "swim:timestamps": [
      1791381282,
      1791381313,
      1791381346,
      1791381360,
      1791381414,
      1791381442,
      1791381464,
      1791381498,
      1791381527,
      1791381562,
      1791381584,
      1791381610,
      1791381639,
      1791381684,
      1791381701,
      1791381713,
      1791381742,
      1791381764,
      1791381806,
      1791381827,
      1791381843,
      1791381884,
      1791381913,
      1791381958,
      1791381986,
      1791382016,
      1791382021,
      1791382051,
      1791382083
    ],
    "wof:geomhash": "5b74f29b032b451997273f95a30e251b",
    "wof:id": 2048539967,
    "wof:repo": "sfomuseum-data-flights-2026-10"
  },
  "bbox": [
    -122.36328,
    37.63269,
    -121.25202,
    38.42149
  ],
  "geometry": {"type":"LineString","coordinates":[[-122.36328,37.63269],[-122.33862,37.65017],[-122.30651,37.66755],[-122.29157,37.67632],[-122.23866,37.7157],[-122.23986,37.75042],[-122.25408,37.77628],[-122.27721,37.81639],[-122.27241,37.85499],[-122.22381,37.8873],[-122.19191,37.90472],[-122.15178,37.92626],[-122.10349,37.95206],[-122.02551,37.99481],[-121.9941,38.01205],[-121.97356,38.02349],[-121.92089,38.05277],[-121.88158,38.07413],[-121.80274,38.1163],[-121.76335,38.13726],[-121.73182,38.15375],[-121.65172,38.19626],[-121.59627,38.22623],[-121.50471,38.27636],[-121.4475,38.30611],[-121.38568,38.3389],[-121.37656,38.34448],[-121.31671,38.38144],[-121.25202,38.42149]]}
}
