{
  "id": 2048484723,
  "type": "Feature",
  "properties": {
    "geom:area": 0,
    "geom:bbox": "-122.358500,36.758570,-121.898280,37.614020",
    "geom:latitude": 37.240074842485036,
    "geom:longitude": -122.09679615284028,
    "src:alt_label": "swim-approach",
    "src:geom": "swim",
    "swim:elevations": [
      5325,
      5071,
      4875,
      4439,
      4152,
      3940,
      3762,
      3488,
      3208,
      3127,
      2933,
      2659,
      2637,
      2439,
      2356,
      2144,
      2134,
      2134,
      1920,
      1718,
      1439,
      1282,
      1239,
      969,
      916,
      849,
      697,
      563,
      458,
      393,
      223,
      67,
      0
    ],
    "swim:geom": "approach",
    "swim:timestamps": [
      1790853891,
      1790853914,
      1790853933,
      1790853974,
      1790854014,
      1790854038,
      1790854060,
      1790854091,
      1790854127,
      1790854143,
      1790854181,
      1790854228,
      1790854235,
      1790854271,
      1790854299,
      1790854346,
      1790854369,
      1790854390,
      1790854432,
      1790854468,
      1790854525,
      1790854558,
      1790854563,
      1790854617,
      1790854632,
      1790854671,
      1790854701,
      1790854733,
      1790854756,
      1790854770,
      1790854809,
      1790854850,
      1790854863
    ],
    "wof:geomhash": "eab42b6c871c93ba97f9ec99530a149c",
    "wof:id": 2048484723,
    "wof:repo": "sfomuseum-data-flights-2026-10"
  },
  "bbox": [
    -122.3585,
    36.75857,
    -121.89828,
    37.61402
  ],
  "geometry": {"type":"LineString","coordinates":[[-121.89828,36.75857],[-121.90913,36.79511],[-121.91732,36.82462],[-121.93459,36.88602],[-121.95107,36.94533],[-121.96445,36.98125],[-121.97705,37.01367],[-121.99435,37.05774],[-122.01441,37.10909],[-122.02271,37.13031],[-122.04464,37.17946],[-122.10596,37.20779],[-122.11524,37.21115],[-122.16192,37.22768],[-122.19765,37.24024],[-122.22167,37.28341],[-122.19981,37.30214],[-122.17766,37.3168],[-122.14617,37.35556],[-122.12042,37.38882],[-122.09259,37.43962],[-122.10946,37.46729],[-122.11247,37.47191],[-122.14164,37.51655],[-122.15291,37.52667],[-122.19255,37.54427],[-122.22368,37.55735],[-122.25247,37.56945],[-122.27226,37.57774],[-122.2842,37.58273],[-122.31589,37.59616],[-122.34745,37.60937],[-122.3585,37.61402]]}
}
