{
  "id": 2048515757,
  "type": "Feature",
  "properties": {
    "geom:area": 0,
    "geom:bbox": "-122.464550,37.196620,-121.278950,37.700190",
    "geom:latitude": 37.38736472587504,
    "geom:longitude": -121.99564148425803,
    "src:alt_label": "swim-takeoff",
    "src:geom": "swim",
    "swim:elevations": [
      152,
      652,
      725,
      970,
      1288,
      1377,
      1501,
      1921,
      2323,
      2723,
      2979,
      3435,
      3802,
      3995,
      4329,
      4834,
      5085,
      5235,
      5460,
      5664,
      6254,
      6448,
      6622,
      6837,
      7351,
      7540,
      7638,
      7847,
      8010,
      8173,
      8259,
      8518,
      8639,
      8839,
      8863
    ],
    "swim:geom": "takeoff",
    "swim:timestamps": [
      1791138733,
      1791138777,
      1791138784,
      1791138810,
      1791138868,
      1791138880,
      1791138898,
      1791138927,
      1791138954,
      1791138983,
      1791138999,
      1791139043,
      1791139070,
      1791139083,
      1791139112,
      1791139160,
      1791139186,
      1791139197,
      1791139214,
      1791139231,
      1791139288,
      1791139310,
      1791139328,
      1791139351,
      1791139406,
      1791139430,
      1791139441,
      1791139465,
      1791139481,
      1791139502,
      1791139511,
      1791139549,
      1791139574,
      1791139613,
      1791139621
    ],
    "wof:geomhash": "62b51658c6ab2a980795ef2b62613898",
    "wof:id": 2048515757,
    "wof:repo": "sfomuseum-data-flights-2026-10"
  },
  "bbox": [
    -122.46455,
    37.19662,
    -121.27895,
    37.70019
  ],
  "geometry": {"type":"LineString","coordinates":[[-122.36622,37.63258],[-122.36248,37.66604],[-122.36259,37.67108],[-122.3656,37.69164],[-122.42325,37.70019],[-122.4324,37.68875],[-122.43732,37.6681],[-122.445,37.63078],[-122.45216,37.59612],[-122.45982,37.55907],[-122.46455,37.53794],[-122.45651,37.48278],[-122.4199,37.45888],[-122.40064,37.44754],[-122.35756,37.42284],[-122.27184,37.39879],[-122.2203,37.38871],[-122.19903,37.38442],[-122.16671,37.37769],[-122.13216,37.37058],[-122.01986,37.34807],[-121.97303,37.33877],[-121.93598,37.33131],[-121.88667,37.32142],[-121.76779,37.29746],[-121.71594,37.28691],[-121.69197,37.28202],[-121.63862,37.27095],[-121.60165,37.2633],[-121.5551,37.25394],[-121.53487,37.24973],[-121.44919,37.23215],[-121.3924,37.22005],[-121.29786,37.20055],[-121.27895,37.19662]]}
}
