{
  "id": 2048509721,
  "type": "Feature",
  "properties": {
    "date:inception_lower": "2026-10-04",
    "date:inception_upper": "2026-10-04",
    "edtf:cessation": "",
    "edtf:inception": "2026-10-04",
    "flysfo:actual_timestamp": -1,
    "flysfo:airline": "LH",
    "flysfo:base_airline": "",
    "flysfo:base_flight_number": "8555",
    "flysfo:date": "2026-10-04",
    "flysfo:estimated_timestamp": 1791151980,
    "flysfo:event": "A",
    "flysfo:flight_number": "LH8555",
    "flysfo:gate": "F5",
    "flysfo:journey": "GEG-SFO",
    "flysfo:scheduled_timestamp": 1791153060,
    "flysfo:timestamp": 1791153060,
    "geom:area": 0,
    "geom:bbox": "-122.370943,37.617990,-117.531916,47.625686",
    "geom:latitude": 42.621838,
    "geom:longitude": -119.95142949999999,
    "iata:airline": "LH",
    "iata:base_airline": "",
    "icao:airline": "DLH",
    "icao:base_airline": "DLH",
    "lbl:latitude": 37.620164,
    "lbl:longitude": -122.387194,
    "sfomuseum:airline_id": 1159286015,
    "sfomuseum:arrival_id": 102527513,
    "sfomuseum:base_flight_id": "20261004-A-DLH-8555",
    "sfomuseum:departure_id": 102533331,
    "sfomuseum:flight_id": "20261004-A-DLH-8555",
    "sfomuseum:flight_number": [
      "DLH8555",
      "LH8555"
    ],
    "sfomuseum:placetype": "flight",
    "src:geom": "flysfo",
    "wof:belongsto": [
      1914600839,
      102527513,
      1914600845,
      102191575,
      85633793,
      102087579,
      85922583,
      554784711,
      85688637,
      1930457221,
      1914600841,
      102085387
    ],
    "wof:country": "US",
    "wof:created": 1791216325,
    "wof:geomhash": "a4e0879e5fc6968e3e72ecbd42744790",
    "wof:hierarchy": [
      {
        "building_id": 1914600839,
        "campus_id": 102527513,
        "concourse_id": 1914600845,
        "continent_id": 102191575,
        "country_id": 85633793,
        "county_id": 102087579,
        "custom_id": 2048509721,
        "flight_id": 2048509721,
        "locality_id": 85922583,
        "postalcode_id": 554784711,
        "region_id": 85688637,
        "venue_id": 1930457221,
        "wing_id": 1914600841
      },
      {
        "building_id": 1914600839,
        "campus_id": 102527513,
        "concourse_id": 1914600845,
        "continent_id": 102191575,
        "country_id": 85633793,
        "county_id": 102085387,
        "custom_id": 2048509721,
        "flight_id": 2048509721,
        "region_id": 85688637,
        "venue_id": 1930457221,
        "wing_id": 1914600841
      }
    ],
    "wof:id": 2048509721,
    "wof:involves": [
      102527513,
      102533331,
      1159286015,
      1930457221,
      1159286015
    ],
    "wof:lastmodified": 1791216325,
    "wof:name": "LH8555 (GEG-SFO)",
    "wof:parent_id": 1930457221,
    "wof:placetype": "custom",
    "wof:placetype_alt": [
      "flight"
    ],
    "wof:repo": "sfomuseum-data-flights-2026-10",
    "wof:superseded_by": [],
    "wof:supersedes": []
  },
  "bbox": [
    -122.370943,
    37.61799,
    -117.531916,
    47.625686
  ],
  "geometry": {"type":"MultiPoint","coordinates":[[-117.531916,47.625686],[-122.370943,37.61799]]}
}
