{
  "id": 2048484863,
  "type": "Feature",
  "properties": {
    "geom:area": 0,
    "geom:bbox": "-122.554840,36.721310,-121.877890,37.615180",
    "geom:latitude": 37.36019900114613,
    "geom:longitude": -122.20058766331731,
    "src:alt_label": "swim-approach",
    "src:geom": "swim",
    "swim:elevations": [
      4740,
      4587,
      4302,
      4120,
      3908,
      3655,
      3568,
      3566,
      3445,
      3331,
      3244,
      2978,
      2790,
      2680,
      2519,
      2438,
      2438,
      2438,
      2215,
      2008,
      1940,
      1831,
      1829,
      1834,
      1812,
      1709,
      1470,
      1126,
      1033,
      740,
      619,
      422,
      357,
      604,
      914,
      914,
      962,
      989,
      1153,
      1525,
      1524,
      1524,
      1524,
      1524,
      1524,
      1524,
      1524,
      1524,
      1524,
      1524,
      1524,
      1524,
      1492,
      1297,
      1113,
      914,
      723,
      609,
      489,
      381,
      208,
      86,
      59
    ],
    "swim:geom": "approach",
    "swim:timestamps": [
      1790856382,
      1790856398,
      1790856433,
      1790856455,
      1790856481,
      1790856527,
      1790856555,
      1790856558,
      1790856596,
      1790856621,
      1790856638,
      1790856684,
      1790856716,
      1790856737,
      1790856764,
      1790856799,
      1790856826,
      1790856840,
      1790856889,
      1790856928,
      1790856937,
      1790856966,
      1790857001,
      1790857042,
      1790857071,
      1790857086,
      1790857113,
      1790857156,
      1790857177,
      1790857221,
      1790857239,
      1790857279,
      1790857309,
      1790857339,
      1790857377,
      1790857383,
      1790857417,
      1790857464,
      1790857477,
      1790857529,
      1790857557,
      1790857569,
      1790857604,
      1790857640,
      1790857665,
      1790857702,
      1790857713,
      1790857744,
      1790857778,
      1790857824,
      1790857840,
      1790857874,
      1790857894,
      1790857944,
      1790857962,
      1790857977,
      1790858004,
      1790858034,
      1790858054,
      1790858074,
      1790858118,
      1790858157,
      1790858180
    ],
    "wof:geomhash": "7e2f0ce52a68d99cc687aced664e5e5a",
    "wof:id": 2048484863,
    "wof:repo": "sfomuseum-data-flights-2026-10"
  },
  "bbox": [
    -122.55484,
    36.72131,
    -121.87789,
    37.61518
  ],
  "geometry": {"type":"LineString","coordinates":[[-121.87789,36.72131],[-121.8928,36.7435],[-121.90838,36.79381],[-121.91769,36.82691],[-121.92827,36.86437],[-121.94668,36.93042],[-121.95888,36.96736],[-121.96037,36.97118],[-121.97837,37.01742],[-121.98974,37.04635],[-122.00136,37.06448],[-122.04091,37.10909],[-122.06795,37.13963],[-122.08592,37.15974],[-122.10895,37.18523],[-122.13855,37.21831],[-122.16072,37.24301],[-122.17227,37.25593],[-122.21024,37.30348],[-122.1898,37.34227],[-122.18091,37.34967],[-122.15309,37.37312],[-122.11965,37.40225],[-122.08052,37.43671],[-122.06139,37.46397],[-122.06771,37.48046],[-122.09479,37.49973],[-122.14663,37.52256],[-122.16999,37.53247],[-122.21465,37.55142],[-122.23321,37.55917],[-122.27659,37.57729],[-122.30388,37.58878],[-122.33208,37.60057],[-122.3765,37.60529],[-122.38458,37.60569],[-122.42603,37.60889],[-122.48407,37.61388],[-122.49958,37.61518],[-122.55484,37.60171],[-122.54773,37.57787],[-122.53592,37.57103],[-122.5004,37.55402],[-122.46351,37.53605],[-122.43559,37.52245],[-122.39412,37.50217],[-122.38209,37.49623],[-122.34734,37.47916],[-122.30906,37.46023],[-122.25811,37.43471],[-122.23993,37.4259],[-122.197,37.4319],[-122.18252,37.4507],[-122.17735,37.49891],[-122.18627,37.51363],[-122.19454,37.52615],[-122.2121,37.5474],[-122.2415,37.5625],[-122.26209,37.57113],[-122.28322,37.58014],[-122.31981,37.59556],[-122.34547,37.60619],[-122.36109,37.61347]]}
}
