{
  "id": 2048545435,
  "type": "Feature",
  "properties": {
    "geom:area": 0,
    "geom:bbox": "-122.346220,37.490670,-121.328250,37.608890",
    "geom:latitude": 37.5422283338474,
    "geom:longitude": -121.84157031017594,
    "src:alt_label": "swim-approach",
    "src:geom": "swim",
    "swim:elevations": [
      4328,
      4234,
      4064,
      3991,
      3748,
      3676,
      3479,
      3408,
      3121,
      2700,
      2442,
      2410,
      2355,
      2133,
      2134,
      1975,
      1864,
      1621,
      1424,
      1216,
      1166,
      1038,
      982,
      771,
      759,
      638,
      402,
      246,
      167,
      89
    ],
    "swim:geom": "approach",
    "swim:timestamps": [
      1791455245,
      1791455266,
      1791455304,
      1791455315,
      1791455351,
      1791455373,
      1791455421,
      1791455436,
      1791455474,
      1791455518,
      1791455545,
      1791455554,
      1791455564,
      1791455603,
      1791455623,
      1791455659,
      1791455676,
      1791455707,
      1791455747,
      1791455779,
      1791455796,
      1791455841,
      1791455857,
      1791455900,
      1791455917,
      1791455940,
      1791455990,
      1791456020,
      1791456043,
      1791456062
    ],
    "wof:geomhash": "b3128b5fa100817e92fec5e0c28a94f3",
    "wof:id": 2048545435,
    "wof:repo": "sfomuseum-data-flights-2026-10"
  },
  "bbox": [
    -122.34622,
    37.49067,
    -121.32825,
    37.60889
  ],
  "geometry": {"type":"LineString","coordinates":[[-121.32825,37.584],[-121.36624,37.57999],[-121.43341,37.57276],[-121.45368,37.57047],[-121.51418,37.56309],[-121.54918,37.55879],[-121.6238,37.55015],[-121.644,37.54587],[-121.69715,37.53305],[-121.75714,37.51885],[-121.79475,37.50979],[-121.80717,37.50679],[-121.82006,37.50361],[-121.87428,37.49094],[-121.90203,37.49067],[-121.94899,37.49246],[-121.96965,37.49319],[-122.00585,37.49963],[-122.04981,37.51441],[-122.0839,37.52569],[-122.10121,37.53125],[-122.1465,37.54582],[-122.16249,37.55095],[-122.20251,37.56394],[-122.21941,37.5694],[-122.24104,37.57648],[-122.28704,37.59055],[-122.31268,37.59829],[-122.33159,37.60372],[-122.34622,37.60889]]}
}
