{
  "id": 2048511327,
  "type": "Feature",
  "properties": {
    "geom:area": 0,
    "geom:bbox": "-122.832250,37.399710,-122.133830,38.446750",
    "geom:latitude": 37.79986298598529,
    "geom:longitude": -122.48990231717107,
    "src:alt_label": "swim-approach",
    "src:geom": "swim",
    "swim:elevations": [
      7559,
      7282,
      6998,
      6744,
      6467,
      6224,
      5959,
      5833,
      5405,
      5248,
      4965,
      4666,
      4410,
      4315,
      3963,
      3803,
      3584,
      3356,
      3351,
      3353,
      3353,
      3353,
      3353,
      3353,
      3290,
      3066,
      2780,
      2722,
      2501,
      2317,
      2035,
      1829,
      1829,
      1805,
      1601,
      1490,
      1317,
      1221,
      982,
      765,
      704,
      600,
      576,
      518,
      440,
      294,
      244,
      183,
      126,
      0
    ],
    "swim:geom": "approach",
    "swim:timestamps": [
      1791147384,
      1791147411,
      1791147441,
      1791147465,
      1791147496,
      1791147522,
      1791147555,
      1791147582,
      1791147627,
      1791147645,
      1791147683,
      1791147716,
      1791147746,
      1791147757,
      1791147802,
      1791147827,
      1791147860,
      1791147898,
      1791147901,
      1791147922,
      1791147934,
      1791147965,
      1791148002,
      1791148031,
      1791148052,
      1791148076,
      1791148106,
      1791148111,
      1791148136,
      1791148157,
      1791148189,
      1791148227,
      1791148242,
      1791148275,
      1791148302,
      1791148347,
      1791148364,
      1791148386,
      1791148420,
      1791148467,
      1791148477,
      1791148498,
      1791148504,
      1791148522,
      1791148540,
      1791148578,
      1791148592,
      1791148610,
      1791148631,
      1791148662
    ],
    "wof:geomhash": "9a4c78d8609e0f24aa7456fdbdc9dab5",
    "wof:id": 2048511327,
    "wof:repo": "sfomuseum-data-flights-2026-10"
  },
  "bbox": [
    -122.83225,
    37.39971,
    -122.13383,
    38.44675
  ],
  "geometry": {"type":"LineString","coordinates":[[-122.83225,38.44675],[-122.81853,38.40031],[-122.80331,38.34867],[-122.79144,38.30807],[-122.77669,38.25747],[-122.76396,38.21387],[-122.74869,38.16142],[-122.73672,38.11995],[-122.71827,38.05642],[-122.71038,38.02905],[-122.69473,37.97494],[-122.68157,37.92915],[-122.6627,37.88998],[-122.6505,37.87779],[-122.60016,37.8311],[-122.57375,37.80623],[-122.53811,37.77251],[-122.49734,37.73394],[-122.49409,37.73083],[-122.47261,37.71063],[-122.46086,37.69955],[-122.43245,37.67282],[-122.39912,37.64142],[-122.37318,37.61661],[-122.36144,37.59439],[-122.3466,37.571],[-122.32752,37.54114],[-122.32453,37.53634],[-122.30877,37.51092],[-122.29545,37.4895],[-122.27593,37.45768],[-122.2514,37.42074],[-122.23345,37.41075],[-122.18932,37.39971],[-122.1573,37.41451],[-122.13988,37.46007],[-122.13383,37.47815],[-122.13564,37.49861],[-122.15754,37.52366],[-122.20134,37.54522],[-122.21105,37.54945],[-122.23169,37.55838],[-122.23744,37.56082],[-122.25466,37.56808],[-122.27016,37.5746],[-122.29998,37.58708],[-122.31006,37.59141],[-122.32237,37.59659],[-122.33724,37.60283],[-122.35897,37.61188]]}
}
