{
  "id": 2048542203,
  "type": "Feature",
  "properties": {
    "geom:area": 0,
    "geom:bbox": "-122.467270,36.744570,-121.474220,37.680250",
    "geom:latitude": 37.20981473392798,
    "geom:longitude": -122.05452233054788,
    "src:alt_label": "swim-takeoff",
    "src:geom": "swim",
    "swim:elevations": [
      122,
      388,
      635,
      703,
      796,
      1071,
      1129,
      1398,
      1707,
      2063,
      2341,
      2643,
      2839,
      3319,
      3481,
      3648,
      3833,
      4103,
      4357,
      4537,
      4765,
      4995,
      5296,
      5463,
      5698,
      6046,
      6172,
      6400,
      6554,
      6714,
      6799,
      6925,
      7058,
      7195,
      7307
    ],
    "swim:geom": "takeoff",
    "swim:timestamps": [
      1791414084,
      1791414111,
      1791414134,
      1791414140,
      1791414152,
      1791414208,
      1791414223,
      1791414263,
      1791414284,
      1791414308,
      1791414326,
      1791414348,
      1791414363,
      1791414413,
      1791414438,
      1791414462,
      1791414485,
      1791414516,
      1791414537,
      1791414552,
      1791414579,
      1791414608,
      1791414643,
      1791414667,
      1791414692,
      1791414745,
      1791414772,
      1791414806,
      1791414833,
      1791414860,
      1791414874,
      1791414895,
      1791414919,
      1791414946,
      1791414969
    ],
    "wof:geomhash": "93851a3102eef37083cc7b5270d90447",
    "wof:id": 2048542203,
    "wof:repo": "sfomuseum-data-flights-2026-10"
  },
  "bbox": [
    -122.46727,
    36.74457,
    -121.47422,
    37.68025
  ],
  "geometry": {"type":"LineString","coordinates":[[-122.36931,37.62831],[-122.362,37.64703],[-122.36124,37.66424],[-122.36128,37.66875],[-122.36141,37.67763],[-122.39918,37.68025],[-122.40517,37.66668],[-122.42109,37.62376],[-122.43086,37.59898],[-122.4424,37.57073],[-122.45066,37.54987],[-122.46165,37.52362],[-122.46727,37.50541],[-122.42395,37.45296],[-122.39001,37.42766],[-122.35552,37.40196],[-122.32078,37.37674],[-122.27308,37.34124],[-122.23971,37.31664],[-122.21619,37.29919],[-122.17272,37.26722],[-122.12513,37.23191],[-122.06664,37.18862],[-122.02627,37.15855],[-121.9843,37.12738],[-121.89325,37.0594],[-121.84489,37.02332],[-121.78228,36.97641],[-121.73317,36.9396],[-121.68314,36.90202],[-121.65613,36.88175],[-121.61649,36.85192],[-121.57035,36.81719],[-121.51877,36.77821],[-121.47422,36.74457]]}
}
