{
  "id": 2048514091,
  "type": "Feature",
  "properties": {
    "geom:area": 0,
    "geom:bbox": "-122.385490,37.630250,-121.428630,38.519100",
    "geom:latitude": 38.12259090444697,
    "geom:longitude": -122.01178636828014,
    "src:alt_label": "swim-takeoff",
    "src:geom": "swim",
    "swim:elevations": [
      183,
      370,
      731,
      997,
      1104,
      1251,
      1550,
      1800,
      2154,
      2527,
      2787,
      3056,
      3163,
      3243,
      3355,
      3502,
      3839,
      4039,
      4339,
      4711,
      4922,
      5072,
      5472,
      5735,
      5891,
      5951,
      6258,
      6525,
      6587,
      6820
    ],
    "swim:geom": "takeoff",
    "swim:timestamps": [
      1791153955,
      1791153970,
      1791153996,
      1791154024,
      1791154054,
      1791154101,
      1791154135,
      1791154158,
      1791154190,
      1791154226,
      1791154258,
      1791154280,
      1791154293,
      1791154308,
      1791154334,
      1791154368,
      1791154406,
      1791154424,
      1791154451,
      1791154492,
      1791154522,
      1791154537,
      1791154588,
      1791154617,
      1791154643,
      1791154651,
      1791154698,
      1791154737,
      1791154748,
      1791154786
    ],
    "wof:geomhash": "b4c010489d35dc67a59589ad4e629c1b",
    "wof:id": 2048514091,
    "wof:repo": "sfomuseum-data-flights-2026-10"
  },
  "bbox": [
    -122.38549,
    37.63025,
    -121.42863,
    38.5191
  ],
  "geometry": {"type":"LineString","coordinates":[[-122.36517,37.63025],[-122.35677,37.64051],[-122.33927,37.6575],[-122.3195,37.67386],[-122.3097,37.69798],[-122.33557,37.74409],[-122.35655,37.78444],[-122.36952,37.81186],[-122.38549,37.85127],[-122.38436,37.89865],[-122.37506,37.94184],[-122.34694,37.96251],[-122.32823,37.97357],[-122.30691,37.98695],[-122.26767,38.01139],[-122.21275,38.04502],[-122.14826,38.08438],[-122.11687,38.10346],[-122.06818,38.13298],[-121.9963,38.17654],[-121.94183,38.20947],[-121.91422,38.22615],[-121.81839,38.28393],[-121.76341,38.31702],[-121.71437,38.34648],[-121.69758,38.35655],[-121.6048,38.41197],[-121.52678,38.45867],[-121.5052,38.4719],[-121.42863,38.5191]]}
}
