{
  "id": 2048518933,
  "type": "Feature",
  "properties": {
    "date:cessation_lower": "2026-10-05",
    "date:cessation_upper": "2026-10-05",
    "date:inception_lower": "1970-01-01",
    "date:inception_upper": "1970-01-01",
    "edtf:cessation": "2026-10-05T16:42:42-07:00",
    "edtf:inception": "1970-01-01T00:00:00Z",
    "flysfo:actual_timestamp": -1,
    "flysfo:airline": "DL",
    "flysfo:base_airline": "",
    "flysfo:base_flight_number": "2527",
    "flysfo:date": "2026-10-05",
    "flysfo:estimated_timestamp": 1791269460,
    "flysfo:event": "A",
    "flysfo:flight_number": "DL2986",
    "flysfo:gate": "D5",
    "flysfo:journey": "LAX-SFO",
    "flysfo:scheduled_timestamp": 1791268800,
    "flysfo:timestamp": 1791269460,
    "geom:area": 0,
    "geom:bbox": "-122.370943,33.942593,-118.389510,37.617990",
    "geom:latitude": 35.780291500000004,
    "geom:longitude": -120.38022649999999,
    "iata:airline": "DL",
    "iata:base_airline": "",
    "icao:aircraft": "B739",
    "icao:airline": "DAL",
    "icao:base_airline": "AFR",
    "lbl:latitude": 37.616825,
    "lbl:longitude": -122.381021,
    "sfomuseum:aircraft_id": 1377564285,
    "sfomuseum:airline_id": 1159284261,
    "sfomuseum:arrival_id": 102527513,
    "sfomuseum:base_flight_id": "20261005-A-AFR-2527",
    "sfomuseum:departure_id": 102533795,
    "sfomuseum:flight_id": "20261005-A-DAL-2986",
    "sfomuseum:flight_number": [
      "DAL2986",
      "DL2986"
    ],
    "sfomuseum:placetype": "flight",
    "src:geom": "flysfo",
    "src:geom_alt": [
      "swim-approach"
    ],
    "swim:tail_number": "N829DN",
    "wof:belongsto": [
      1947304067,
      102527513,
      1947304595,
      102191575,
      85633793,
      102087579,
      85922583,
      554784711,
      85688637,
      1947304607,
      1947304591,
      102085387
    ],
    "wof:country": "US",
    "wof:created": 1791302706,
    "wof:geomhash": "f16008bc2ad68c6d1bc593247c6c74a9",
    "wof:hierarchy": [
      {
        "building_id": 1947304067,
        "campus_id": 102527513,
        "concourse_id": 1947304595,
        "continent_id": 102191575,
        "country_id": 85633793,
        "county_id": 102087579,
        "custom_id": 2048518933,
        "flight_id": 2048518933,
        "locality_id": 85922583,
        "postalcode_id": 554784711,
        "region_id": 85688637,
        "venue_id": 1947304607,
        "wing_id": 1947304591
      },
      {
        "building_id": 1947304067,
        "campus_id": 102527513,
        "concourse_id": 1947304595,
        "continent_id": 102191575,
        "country_id": 85633793,
        "county_id": 102085387,
        "custom_id": 2048518933,
        "flight_id": 2048518933,
        "region_id": 85688637,
        "venue_id": 1947304607,
        "wing_id": 1947304591
      }
    ],
    "wof:id": 2048518933,
    "wof:involves": [
      102527513,
      102533795,
      1159284261,
      1947304607,
      1159283627,
      1377564285
    ],
    "wof:lastmodified": 1791303548,
    "wof:name": "DL2986 (LAX-SFO)",
    "wof:parent_id": 1947304607,
    "wof:placetype": "custom",
    "wof:placetype_alt": [
      "flight"
    ],
    "wof:repo": "sfomuseum-data-flights-2026-10",
    "wof:superseded_by": [],
    "wof:supersedes": []
  },
  "bbox": [
    -122.370943,
    33.942593,
    -118.38951,
    37.61799
  ],
  "geometry": {"type":"MultiPoint","coordinates":[[-118.38951,33.942593],[-122.370943,37.61799]]}
}
