{
  "id": 2048556247,
  "type": "Feature",
  "properties": {
    "geom:area": 0,
    "geom:bbox": "-122.755390,37.408730,-122.109130,38.374080",
    "geom:latitude": 37.79583229627313,
    "geom:longitude": -122.46630089664562,
    "src:alt_label": "swim-approach",
    "src:geom": "swim",
    "swim:elevations": [
      7620,
      7327,
      6977,
      6853,
      6564,
      6366,
      6311,
      6228,
      5845,
      5615,
      5390,
      5306,
      5032,
      4839,
      4696,
      4378,
      4246,
      4084,
      3970,
      3840,
      3650,
      3547,
      3355,
      3353,
      3076,
      3045,
      2875,
      2697,
      2591,
      2580,
      2497,
      2470,
      2361,
      2138,
      1889,
      1829,
      1829,
      1787,
      1723,
      1560,
      1431,
      1337,
      1050,
      897,
      670,
      606,
      485,
      446,
      310,
      197,
      151,
      88,
      0
    ],
    "swim:geom": "approach",
    "swim:timestamps": [
      1791577701,
      1791577728,
      1791577763,
      1791577776,
      1791577803,
      1791577824,
      1791577830,
      1791577838,
      1791577871,
      1791577911,
      1791577944,
      1791577955,
      1791577982,
      1791578010,
      1791578034,
      1791578065,
      1791578076,
      1791578105,
      1791578138,
      1791578185,
      1791578218,
      1791578237,
      1791578273,
      1791578286,
      1791578328,
      1791578333,
      1791578357,
      1791578382,
      1791578398,
      1791578403,
      1791578426,
      1791578436,
      1791578460,
      1791578496,
      1791578542,
      1791578573,
      1791578589,
      1791578607,
      1791578616,
      1791578645,
      1791578672,
      1791578701,
      1791578747,
      1791578768,
      1791578816,
      1791578828,
      1791578855,
      1791578866,
      1791578902,
      1791578935,
      1791578949,
      1791578969,
      1791578992
    ],
    "wof:geomhash": "32946d337de453362c16375d67607dce",
    "wof:id": 2048556247,
    "wof:repo": "sfomuseum-data-flights-2026-10"
  },
  "bbox": [
    -122.75539,
    37.40873,
    -122.10913,
    38.37408
  ],
  "geometry": {"type":"LineString","coordinates":[[-122.56028,38.37408],[-122.60626,38.34094],[-122.66549,38.29814],[-122.68691,38.28264],[-122.72939,38.25036],[-122.75142,38.21765],[-122.7543,38.20759],[-122.75539,38.19426],[-122.74071,38.13526],[-122.72149,38.06717],[-122.70645,38.0147],[-122.70196,37.99925],[-122.68963,37.95731],[-122.67731,37.91548],[-122.65617,37.8836],[-122.61841,37.84779],[-122.60521,37.83539],[-122.57065,37.80316],[-122.5337,37.7683],[-122.48635,37.72328],[-122.45505,37.69401],[-122.43745,37.67728],[-122.40428,37.64591],[-122.39231,37.6347],[-122.36197,37.59399],[-122.35917,37.58902],[-122.34266,37.56485],[-122.32611,37.53888],[-122.3158,37.52215],[-122.31282,37.5173],[-122.29846,37.49388],[-122.29264,37.4845],[-122.27857,37.4618],[-122.25426,37.42935],[-122.19892,37.40873],[-122.16328,37.41786],[-122.14589,37.42719],[-122.13041,37.43978],[-122.12376,37.44671],[-122.10913,37.47085],[-122.12221,37.49182],[-122.13873,37.51011],[-122.17034,37.53236],[-122.1868,37.53957],[-122.22798,37.55684],[-122.23871,37.56138],[-122.2627,37.57151],[-122.272,37.57542],[-122.29868,37.58662],[-122.32207,37.59656],[-122.33158,37.60047],[-122.34469,37.60593],[-122.36116,37.61266]]}
}
