{
  "id": 2048504431,
  "type": "Feature",
  "properties": {
    "date:inception_lower": "2026-10-03",
    "date:inception_upper": "2026-10-03",
    "edtf:cessation": "",
    "edtf:inception": "2026-10-03",
    "flysfo:actual_timestamp": -1,
    "flysfo:airline": "NZ",
    "flysfo:base_airline": "",
    "flysfo:base_flight_number": "7939",
    "flysfo:date": "2026-10-03",
    "flysfo:estimated_timestamp": 1791096600,
    "flysfo:event": "D",
    "flysfo:flight_number": "NZ9292",
    "flysfo:gate": "F16",
    "flysfo:journey": "SFO-MCO",
    "flysfo:scheduled_timestamp": 1791097140,
    "flysfo:timestamp": 1791097140,
    "geom:area": 0,
    "geom:bbox": "-122.370943,28.431495,-81.307537,37.617990",
    "geom:latitude": 33.0247425,
    "geom:longitude": -101.83923999999999,
    "iata:airline": "NZ",
    "iata:base_airline": "",
    "icao:airline": "ANZ",
    "icao:base_airline": "AZU",
    "lbl:latitude": 37.620533,
    "lbl:longitude": -122.389374,
    "sfomuseum:airline_id": 1159283697,
    "sfomuseum:arrival_id": 102533657,
    "sfomuseum:base_flight_id": "20261003-D-AZU-7939",
    "sfomuseum:departure_id": 102527513,
    "sfomuseum:flight_id": "20261003-D-ANZ-9292",
    "sfomuseum:flight_number": [
      "ANZ9292",
      "NZ9292"
    ],
    "sfomuseum:placetype": "flight",
    "src:geom": "flysfo",
    "wof:belongsto": [
      1947304067,
      102527513,
      1947304451,
      102191575,
      85633793,
      102087579,
      85922583,
      554784711,
      85688637,
      1947304457,
      1947304447,
      102085387
    ],
    "wof:country": "US",
    "wof:created": 1791130248,
    "wof:geomhash": "33c9625a4901edf29154e5ec4b308b8b",
    "wof:hierarchy": [
      {
        "building_id": 1947304067,
        "campus_id": 102527513,
        "concourse_id": 1947304451,
        "continent_id": 102191575,
        "country_id": 85633793,
        "county_id": 102087579,
        "custom_id": 2048504431,
        "flight_id": 2048504431,
        "locality_id": 85922583,
        "postalcode_id": 554784711,
        "region_id": 85688637,
        "venue_id": 1947304457,
        "wing_id": 1947304447
      },
      {
        "building_id": 1947304067,
        "campus_id": 102527513,
        "concourse_id": 1947304451,
        "continent_id": 102191575,
        "country_id": 85633793,
        "county_id": 102085387,
        "custom_id": 2048504431,
        "flight_id": 2048504431,
        "region_id": 85688637,
        "venue_id": 1947304457,
        "wing_id": 1947304447
      }
    ],
    "wof:id": 2048504431,
    "wof:involves": [
      102533657,
      102527513,
      1159283697,
      1947304457,
      1779770723
    ],
    "wof:lastmodified": 1791130248,
    "wof:name": "NZ9292 (SFO-MCO)",
    "wof:parent_id": 1947304457,
    "wof:placetype": "custom",
    "wof:placetype_alt": [
      "flight"
    ],
    "wof:repo": "sfomuseum-data-flights-2026-10",
    "wof:superseded_by": [],
    "wof:supersedes": []
  },
  "bbox": [
    -122.370943,
    28.431495,
    -81.307537,
    37.61799
  ],
  "geometry": {"type":"MultiPoint","coordinates":[[-122.370943,37.61799],[-81.307537,28.431495]]}
}
