{
  "id": 2048540453,
  "type": "Feature",
  "properties": {
    "geom:area": 0,
    "geom:bbox": "-122.362420,37.633980,-122.026070,38.490440",
    "geom:latitude": 38.04638150823302,
    "geom:longitude": -122.23027747444372,
    "src:alt_label": "swim-takeoff",
    "src:geom": "swim",
    "swim:elevations": [
      256,
      531,
      731,
      1012,
      1099,
      1653,
      1906,
      2348,
      2657,
      2751,
      2889,
      3281,
      3324,
      3415,
      3555,
      3973,
      4217,
      4532,
      4775,
      5056,
      5298,
      5460,
      5637,
      5842,
      5966
    ],
    "swim:geom": "takeoff",
    "swim:timestamps": [
      1791383411,
      1791383444,
      1791383472,
      1791383509,
      1791383521,
      1791383578,
      1791383600,
      1791383636,
      1791383662,
      1791383672,
      1791383686,
      1791383721,
      1791383732,
      1791383746,
      1791383765,
      1791383805,
      1791383835,
      1791383863,
      1791383897,
      1791383936,
      1791383965,
      1791383988,
      1791384009,
      1791384043,
      1791384060
    ],
    "wof:geomhash": "744aa1b06355ead961f703f6a4102902",
    "wof:id": 2048540453,
    "wof:repo": "sfomuseum-data-flights-2026-10"
  },
  "bbox": [
    -122.36242,
    37.63398,
    -122.02607,
    38.49044
  ],
  "geometry": {"type":"LineString","coordinates":[[-122.36242,37.63398],[-122.33712,37.65072],[-122.31088,37.6656],[-122.27117,37.68872],[-122.26232,37.70068],[-122.29058,37.76755],[-122.30596,37.79363],[-122.33234,37.83702],[-122.34997,37.87057],[-122.35274,37.8837],[-122.34859,37.90421],[-122.32338,37.95148],[-122.3149,37.96671],[-122.30368,37.98701],[-122.28795,38.016],[-122.25472,38.07726],[-122.22914,38.12393],[-122.20497,38.16763],[-122.17627,38.22126],[-122.14158,38.28432],[-122.11449,38.33284],[-122.09387,38.37022],[-122.07456,38.40544],[-122.04258,38.46182],[-122.02607,38.49044]]}
}
