{
  "id": 2048551535,
  "type": "Feature",
  "properties": {
    "geom:area": 0,
    "geom:bbox": "-122.463520,37.191380,-121.250920,37.701070",
    "geom:latitude": 37.38196626655819,
    "geom:longitude": -121.97947392926052,
    "src:alt_label": "swim-takeoff",
    "src:geom": "swim",
    "swim:elevations": [
      122,
      183,
      697,
      952,
      1014,
      1137,
      1179,
      1336,
      1362,
      1892,
      2092,
      2547,
      2926,
      3196,
      3301,
      3412,
      3644,
      3890,
      3909,
      4330,
      4584,
      4746,
      5074,
      5186,
      5459,
      5756,
      5856,
      6243,
      6341,
      6694,
      6812,
      7014,
      7184,
      7412,
      7523
    ],
    "swim:geom": "takeoff",
    "swim:timestamps": [
      1791507475,
      1791507481,
      1791507523,
      1791507559,
      1791507568,
      1791507595,
      1791507601,
      1791507625,
      1791507634,
      1791507688,
      1791507712,
      1791507748,
      1791507778,
      1791507802,
      1791507820,
      1791507834,
      1791507867,
      1791507897,
      1791507900,
      1791507949,
      1791507973,
      1791507991,
      1791508028,
      1791508040,
      1791508070,
      1791508104,
      1791508116,
      1791508164,
      1791508173,
      1791508218,
      1791508231,
      1791508254,
      1791508278,
      1791508305,
      1791508320
    ],
    "wof:geomhash": "5e7660f66b6fd579f2516aba15cb102a",
    "wof:id": 2048551535,
    "wof:repo": "sfomuseum-data-flights-2026-10"
  },
  "bbox": [
    -122.46352,
    37.19138,
    -121.25092,
    37.70107
  ],
  "geometry": {"type":"LineString","coordinates":[[-122.36667,37.62789],[-122.36406,37.63183],[-122.35743,37.66351],[-122.36449,37.69063],[-122.36943,37.69655],[-122.39681,37.70107],[-122.40282,37.69785],[-122.41682,37.67638],[-122.4199,37.66668],[-122.43759,37.60149],[-122.44734,37.57146],[-122.46352,37.52494],[-122.4621,37.48606],[-122.43474,37.46384],[-122.40913,37.45036],[-122.38881,37.44077],[-122.33508,37.41485],[-122.27805,37.40038],[-122.27204,37.39908],[-122.16805,37.37775],[-122.1155,37.36733],[-122.0753,37.35927],[-121.99108,37.34235],[-121.9631,37.33675],[-121.892,37.3225],[-121.80909,37.30582],[-121.77932,37.29978],[-121.65951,37.27536],[-121.63662,37.27071],[-121.52132,37.24715],[-121.48817,37.24037],[-121.42619,37.22756],[-121.36283,37.2145],[-121.29105,37.19969],[-121.25092,37.19138]]}
}
