{
  "id": 2048523443,
  "type": "Feature",
  "properties": {
    "geom:area": 0,
    "geom:bbox": "-122.365640,37.629390,-121.436330,38.514850",
    "geom:latitude": 38.02644867290253,
    "geom:longitude": -121.88089538204024,
    "src:alt_label": "swim-takeoff",
    "src:geom": "swim",
    "swim:elevations": [
      152,
      421,
      608,
      749,
      1043,
      1730,
      1946,
      2070,
      2304,
      2631,
      3113,
      3323,
      3455,
      3790,
      4236,
      4697,
      4917,
      5347,
      5372,
      5510,
      5616,
      5919,
      6066,
      6204,
      6642,
      6689,
      7109,
      7191,
      7627,
      7904,
      8024
    ],
    "swim:geom": "takeoff",
    "swim:timestamps": [
      1791267170,
      1791267195,
      1791267227,
      1791267249,
      1791267272,
      1791267326,
      1791267344,
      1791267365,
      1791267384,
      1791267407,
      1791267442,
      1791267475,
      1791267499,
      1791267533,
      1791267566,
      1791267598,
      1791267615,
      1791267656,
      1791267660,
      1791267672,
      1791267681,
      1791267708,
      1791267720,
      1791267732,
      1791267777,
      1791267782,
      1791267830,
      1791267841,
      1791267888,
      1791267918,
      1791267936
    ],
    "wof:geomhash": "31405c7c11c3992a70eaff427e2e0bb3",
    "wof:id": 2048523443,
    "wof:repo": "sfomuseum-data-flights-2026-10"
  },
  "bbox": [
    -122.36564,
    37.62939,
    -121.43633,
    38.51485
  ],
  "geometry": {"type":"LineString","coordinates":[[-122.36564,37.62939],[-122.3485,37.64329],[-122.3163,37.65547],[-122.29057,37.66487],[-122.2598,37.67544],[-122.18362,37.66837],[-122.15689,37.66488],[-122.1259,37.6751],[-122.10753,37.69506],[-122.08834,37.72111],[-122.05918,37.76206],[-122.02895,37.80308],[-122.00469,37.83549],[-121.96798,37.88494],[-121.93166,37.93404],[-121.89702,37.98126],[-121.87791,38.00689],[-121.83167,38.06929],[-121.82728,38.07514],[-121.81321,38.09411],[-121.80235,38.10871],[-121.77004,38.15198],[-121.75561,38.17137],[-121.74116,38.19071],[-121.68604,38.26443],[-121.67913,38.27369],[-121.61921,38.35384],[-121.60464,38.37327],[-121.53382,38.45198],[-121.47447,38.49168],[-121.43633,38.51485]]}
}
