{
  "id": 2048537869,
  "type": "Feature",
  "properties": {
    "geom:area": 0,
    "geom:bbox": "-123.069980,37.530060,-122.033060,38.465370",
    "geom:latitude": 37.88144649688314,
    "geom:longitude": -122.51274329914234,
    "src:alt_label": "swim-approach",
    "src:geom": "swim",
    "swim:elevations": [
      7443,
      7243,
      7064,
      6762,
      6532,
      6190,
      6008,
      5847,
      5503,
      5286,
      4893,
      4737,
      4451,
      4379,
      4221,
      3914,
      3462,
      3353,
      3353,
      3289,
      3008,
      2863,
      2483,
      2154,
      1828,
      1829,
      1829,
      1829,
      1829,
      1829,
      1826,
      1730,
      1373,
      1232,
      1095,
      980,
      943,
      764,
      638,
      576,
      518,
      414,
      235,
      212,
      26
    ],
    "swim:geom": "approach",
    "swim:timestamps": [
      1791368363,
      1791368388,
      1791368410,
      1791368447,
      1791368474,
      1791368515,
      1791368538,
      1791368556,
      1791368595,
      1791368621,
      1791368668,
      1791368686,
      1791368717,
      1791368725,
      1791368743,
      1791368777,
      1791368833,
      1791368903,
      1791368926,
      1791368956,
      1791368995,
      1791369012,
      1791369044,
      1791369074,
      1791369117,
      1791369136,
      1791369152,
      1791369194,
      1791369222,
      1791369253,
      1791369293,
      1791369306,
      1791369353,
      1791369374,
      1791369404,
      1791369443,
      1791369450,
      1791369496,
      1791369527,
      1791369540,
      1791369555,
      1791369588,
      1791369626,
      1791369633,
      1791369681
    ],
    "wof:geomhash": "e9539b3ef93d0c300618075780a785b7",
    "wof:id": 2048537869,
    "wof:repo": "sfomuseum-data-flights-2026-10"
  },
  "bbox": [
    -123.06998,
    37.53006,
    -122.03306,
    38.46537
  ],
  "geometry": {"type":"LineString","coordinates":[[-123.06998,38.46537],[-123.0247,38.42979],[-122.98643,38.39926],[-122.92387,38.34945],[-122.8785,38.31331],[-122.81253,38.26062],[-122.77848,38.22891],[-122.76136,38.20001],[-122.74111,38.13514],[-122.7285,38.09101],[-122.70629,38.01372],[-122.69771,37.98361],[-122.68328,37.93373],[-122.67898,37.92077],[-122.6647,37.89473],[-122.62183,37.85088],[-122.54865,37.78203],[-122.46807,37.70869],[-122.43332,37.69754],[-122.38829,37.68858],[-122.33837,37.67943],[-122.31829,37.67606],[-122.28061,37.66975],[-122.2461,37.66277],[-122.1972,37.65162],[-122.17564,37.64651],[-122.15735,37.64214],[-122.11146,37.62896],[-122.08183,37.61968],[-122.05114,37.60552],[-122.03306,37.57185],[-122.03685,37.55961],[-122.07695,37.53071],[-122.09897,37.53006],[-122.12689,37.53935],[-122.16291,37.55129],[-122.16989,37.55351],[-122.20948,37.56623],[-122.2352,37.57496],[-122.24506,37.5782],[-122.25785,37.58195],[-122.28351,37.58959],[-122.31309,37.59848],[-122.31886,37.60017],[-122.35524,37.6127]]}
}
