{
  "id": 2048550149,
  "type": "Feature",
  "properties": {
    "geom:area": 0,
    "geom:bbox": "-122.364280,37.630330,-121.437080,38.513220",
    "geom:latitude": 38.09131935411938,
    "geom:longitude": -121.92979586982739,
    "src:alt_label": "swim-takeoff",
    "src:geom": "swim",
    "swim:elevations": [
      152,
      515,
      746,
      937,
      972,
      1074,
      1159,
      1302,
      1642,
      1811,
      2193,
      2489,
      2762,
      3132,
      3295,
      3414,
      3604,
      3721,
      3747,
      4418,
      4589,
      4657,
      4915,
      5066,
      5149,
      5337,
      5544,
      5684,
      5899,
      6164,
      6396,
      6441
    ],
    "swim:geom": "takeoff",
    "swim:timestamps": [
      1791496444,
      1791496473,
      1791496504,
      1791496539,
      1791496545,
      1791496564,
      1791496587,
      1791496610,
      1791496648,
      1791496660,
      1791496696,
      1791496723,
      1791496751,
      1791496788,
      1791496815,
      1791496841,
      1791496876,
      1791496888,
      1791496891,
      1791496946,
      1791496958,
      1791496967,
      1791497000,
      1791497029,
      1791497047,
      1791497082,
      1791497110,
      1791497125,
      1791497155,
      1791497188,
      1791497215,
      1791497221
    ],
    "wof:geomhash": "a90b8c8fa48180005e527ac24784a53d",
    "wof:id": 2048550149,
    "wof:repo": "sfomuseum-data-flights-2026-10"
  },
  "bbox": [
    -122.36428,
    37.63033,
    -121.43708,
    38.51322
  ],
  "geometry": {"type":"LineString","coordinates":[[-122.36428,37.63033],[-122.34151,37.64513],[-122.316,37.66052],[-122.28914,37.68283],[-122.28692,37.68806],[-122.28354,37.7055],[-122.2811,37.72988],[-122.27839,37.75625],[-122.2631,37.80131],[-122.2503,37.81217],[-122.21234,37.84691],[-122.18418,37.87342],[-122.15385,37.90172],[-122.11113,37.94107],[-122.07855,37.97055],[-122.04528,38.00054],[-121.99701,38.04414],[-121.97965,38.05986],[-121.97458,38.06451],[-121.89544,38.13631],[-121.8783,38.15185],[-121.8655,38.1634],[-121.81751,38.20662],[-121.77269,38.24668],[-121.74549,38.27101],[-121.68875,38.32192],[-121.64365,38.36197],[-121.61738,38.38538],[-121.56808,38.42918],[-121.5029,38.47311],[-121.44913,38.5058],[-121.43708,38.51322]]}
}
