{
  "id": 2048520377,
  "type": "Feature",
  "properties": {
    "geom:area": 0,
    "geom:bbox": "-122.349140,37.491900,-121.249750,37.610130",
    "geom:latitude": 37.54965859404413,
    "geom:longitude": -121.80510156109557,
    "src:alt_label": "swim-approach",
    "src:geom": "swim",
    "swim:elevations": [
      4588,
      4280,
      4101,
      3722,
      3415,
      3256,
      3051,
      3048,
      3048,
      2928,
      2862,
      2712,
      2623,
      2598,
      2537,
      2388,
      2166,
      1914,
      1821,
      1758,
      1573,
      1413,
      1219,
      1108,
      972,
      908,
      792,
      639,
      535,
      426,
      246,
      152,
      73
    ],
    "swim:geom": "approach",
    "swim:timestamps": [
      1791237086,
      1791237117,
      1791237137,
      1791237176,
      1791237207,
      1791237225,
      1791237268,
      1791237271,
      1791237275,
      1791237322,
      1791237348,
      1791237380,
      1791237404,
      1791237412,
      1791237431,
      1791237459,
      1791237495,
      1791237532,
      1791237566,
      1791237583,
      1791237605,
      1791237632,
      1791237677,
      1791237718,
      1791237748,
      1791237768,
      1791237793,
      1791237830,
      1791237856,
      1791237882,
      1791237927,
      1791237945,
      1791237965
    ],
    "wof:geomhash": "aa8f4defbbc7191ed59c6efe2d958537",
    "wof:id": 2048520377,
    "wof:repo": "sfomuseum-data-flights-2026-10"
  },
  "bbox": [
    -122.34914,
    37.4919,
    -121.24975,
    37.61013
  ],
  "geometry": {"type":"LineString","coordinates":[[-121.24975,37.59466],[-121.31319,37.5868],[-121.35302,37.58247],[-121.43199,37.57322],[-121.49407,37.56609],[-121.5283,37.56214],[-121.61144,37.55239],[-121.61686,37.55163],[-121.62384,37.55022],[-121.70206,37.54195],[-121.74149,37.54039],[-121.78867,37.53828],[-121.82175,37.53678],[-121.83195,37.53524],[-121.84969,37.52201],[-121.86929,37.49957],[-121.91047,37.4919],[-121.95432,37.49285],[-121.99382,37.49676],[-122.01146,37.50235],[-122.03408,37.50955],[-122.05998,37.51805],[-122.1025,37.53183],[-122.14033,37.54413],[-122.16708,37.55271],[-122.18434,37.55831],[-122.20546,37.5652],[-122.23567,37.57493],[-122.2563,37.5816],[-122.27682,37.58756],[-122.31644,37.59942],[-122.33189,37.60391],[-122.34914,37.61013]]}
}
