{
  "id": 2048505711,
  "type": "Feature",
  "properties": {
    "geom:area": 0,
    "geom:bbox": "-122.363670,37.632560,-121.269800,38.465910",
    "geom:latitude": 38.001932526151684,
    "geom:longitude": -121.81368619516238,
    "src:alt_label": "swim-takeoff",
    "src:geom": "swim",
    "swim:elevations": [
      183,
      569,
      734,
      910,
      1020,
      1327,
      1662,
      1978,
      2330,
      2565,
      2951,
      3084,
      3609,
      3950,
      4101,
      4353,
      4394,
      4462,
      4576,
      4840,
      4990,
      5292,
      5365,
      5643,
      5821,
      5965,
      6220,
      6342,
      6468,
      6607
    ],
    "swim:geom": "takeoff",
    "swim:timestamps": [
      1791094180,
      1791094219,
      1791094250,
      1791094286,
      1791094306,
      1791094332,
      1791094362,
      1791094396,
      1791094429,
      1791094459,
      1791094494,
      1791094507,
      1791094552,
      1791094580,
      1791094592,
      1791094635,
      1791094655,
      1791094680,
      1791094725,
      1791094768,
      1791094788,
      1791094828,
      1791094839,
      1791094876,
      1791094901,
      1791094924,
      1791094956,
      1791094977,
      1791094998,
      1791095021
    ],
    "wof:geomhash": "d49e06bb6ca1a36a86d6f38cec4cdbe6",
    "wof:id": 2048505711,
    "wof:repo": "sfomuseum-data-flights-2026-10"
  },
  "bbox": [
    -122.36367,
    37.63256,
    -121.2698,
    38.46591
  ],
  "geometry": {"type":"LineString","coordinates":[[-122.36367,37.63256],[-122.33063,37.6488],[-122.29551,37.64739],[-122.24855,37.64346],[-122.21953,37.64137],[-122.18094,37.63863],[-122.13559,37.63594],[-122.08231,37.63435],[-122.03805,37.65791],[-122.01594,37.69575],[-121.9886,37.74065],[-121.97803,37.75749],[-121.9418,37.81531],[-121.91882,37.85236],[-121.90933,37.86809],[-121.87544,37.92506],[-121.85725,37.95436],[-121.83418,37.99142],[-121.7878,38.06591],[-121.74181,38.1399],[-121.7203,38.17432],[-121.65383,38.22738],[-121.63184,38.24086],[-121.55942,38.2859],[-121.51125,38.31593],[-121.46615,38.34397],[-121.40103,38.38435],[-121.35902,38.41047],[-121.31723,38.43652],[-121.2698,38.46591]]}
}
