{
  "id": 2048529247,
  "type": "Feature",
  "properties": {
    "geom:area": 0,
    "geom:bbox": "-122.760370,37.397950,-122.089670,38.515720",
    "geom:latitude": 37.82091336889317,
    "geom:longitude": -122.4724523687781,
    "src:alt_label": "swim-approach",
    "src:geom": "swim",
    "swim:elevations": [
      7983,
      7831,
      7295,
      7204,
      6748,
      6378,
      6167,
      5888,
      5526,
      5356,
      4994,
      4537,
      4250,
      4013,
      3606,
      3507,
      3321,
      3353,
      3353,
      3344,
      3280,
      3082,
      2838,
      2627,
      2443,
      2408,
      2216,
      2095,
      1910,
      1829,
      1829,
      1683,
      1524,
      1524,
      1524,
      1423,
      1280,
      829,
      780,
      634,
      496,
      418,
      286,
      194,
      52
    ],
    "swim:geom": "approach",
    "swim:timestamps": [
      1791285513,
      1791285544,
      1791285595,
      1791285605,
      1791285646,
      1791285680,
      1791285700,
      1791285728,
      1791285764,
      1791285780,
      1791285814,
      1791285859,
      1791285888,
      1791285912,
      1791285953,
      1791285962,
      1791286015,
      1791286038,
      1791286055,
      1791286100,
      1791286112,
      1791286144,
      1791286187,
      1791286220,
      1791286256,
      1791286267,
      1791286316,
      1791286333,
      1791286363,
      1791286399,
      1791286424,
      1791286456,
      1791286498,
      1791286502,
      1791286540,
      1791286568,
      1791286593,
      1791286648,
      1791286663,
      1791286693,
      1791286720,
      1791286740,
      1791286777,
      1791286804,
      1791286844
    ],
    "wof:geomhash": "979443b94f0a55053b47ce1d4d1307c8",
    "wof:id": 2048529247,
    "wof:repo": "sfomuseum-data-flights-2026-10"
  },
  "bbox": [
    -122.76037,
    37.39795,
    -122.08967,
    38.51572
  ],
  "geometry": {"type":"LineString","coordinates":[[-122.6328,38.51572],[-122.65833,38.46059],[-122.6996,38.37104],[-122.70717,38.35491],[-122.7397,38.28463],[-122.76037,38.22532],[-122.757,38.18976],[-122.74325,38.14245],[-122.7257,38.08069],[-122.71763,38.05234],[-122.70133,37.99644],[-122.67936,37.92156],[-122.65206,37.87979],[-122.61988,37.84921],[-122.56652,37.79877],[-122.55446,37.78735],[-122.49009,37.72653],[-122.46505,37.7029],[-122.44791,37.68696],[-122.40557,37.6471],[-122.39441,37.63656],[-122.36593,37.60916],[-122.33855,37.56609],[-122.32166,37.53148],[-122.29958,37.49543],[-122.29257,37.48406],[-122.26633,37.44113],[-122.25677,37.42719],[-122.22628,37.41366],[-122.18786,37.39996],[-122.15972,37.39795],[-122.13537,37.419],[-122.10784,37.4507],[-122.1056,37.45331],[-122.08967,37.48353],[-122.10854,37.50256],[-122.13189,37.51632],[-122.1846,37.53863],[-122.19842,37.54449],[-122.2279,37.55687],[-122.25437,37.56795],[-122.27184,37.5754],[-122.30134,37.58782],[-122.32184,37.59635],[-122.35098,37.60858]]}
}
