{
  "id": 2048523229,
  "type": "Feature",
  "properties": {
    "date:inception_lower": "2026-10-05",
    "date:inception_upper": "2026-10-05",
    "edtf:cessation": "",
    "edtf:inception": "2026-10-05",
    "flysfo:actual_timestamp": -1,
    "flysfo:airline": "SN",
    "flysfo:base_airline": "",
    "flysfo:base_flight_number": "5448",
    "flysfo:date": "2026-10-05",
    "flysfo:estimated_timestamp": 1791229980,
    "flysfo:event": "D",
    "flysfo:flight_number": "SN9105",
    "flysfo:gate": "G7",
    "flysfo:journey": "SFO-LHR",
    "flysfo:scheduled_timestamp": 1791230100,
    "flysfo:timestamp": 1791230100,
    "geom:area": 0,
    "geom:bbox": "-122.370943,37.617990,-0.450443,51.470087",
    "geom:latitude": 44.5440385,
    "geom:longitude": -61.410693,
    "iata:airline": "SN",
    "iata:base_airline": "",
    "icao:airline": "BEL",
    "icao:base_airline": "ACA",
    "lbl:latitude": 37.618057,
    "lbl:longitude": -122.392508,
    "sfomuseum:airline_id": 1377675597,
    "sfomuseum:arrival_id": 102556703,
    "sfomuseum:base_flight_id": "20261005-D-ACA-5448",
    "sfomuseum:departure_id": 102527513,
    "sfomuseum:flight_id": "20261005-D-BEL-9105",
    "sfomuseum:flight_number": [
      "BEL9105",
      "SN9105"
    ],
    "sfomuseum:placetype": "flight",
    "src:geom": "flysfo",
    "wof:belongsto": [
      1947304067,
      102527513,
      1947304129,
      102191575,
      85633793,
      102087579,
      85922583,
      554784711,
      85688637,
      1947304149,
      1947304069,
      102085387
    ],
    "wof:country": "US",
    "wof:created": 1791303200,
    "wof:geomhash": "86f41e039827d60bcd1a72801f72cbc2",
    "wof:hierarchy": [
      {
        "building_id": 1947304067,
        "campus_id": 102527513,
        "concourse_id": 1947304129,
        "continent_id": 102191575,
        "country_id": 85633793,
        "county_id": 102087579,
        "custom_id": 2048523229,
        "flight_id": 2048523229,
        "locality_id": 85922583,
        "postalcode_id": 554784711,
        "region_id": 85688637,
        "venue_id": 1947304149,
        "wing_id": 1947304069
      },
      {
        "building_id": 1947304067,
        "campus_id": 102527513,
        "concourse_id": 1947304129,
        "continent_id": 102191575,
        "country_id": 85633793,
        "county_id": 102085387,
        "custom_id": 2048523229,
        "flight_id": 2048523229,
        "region_id": 85688637,
        "venue_id": 1947304149,
        "wing_id": 1947304069
      }
    ],
    "wof:id": 2048523229,
    "wof:involves": [
      102556703,
      102527513,
      1377675597,
      1947304149,
      1159283597
    ],
    "wof:lastmodified": 1791303200,
    "wof:name": "SN9105 (SFO-LHR)",
    "wof:parent_id": 1947304149,
    "wof:placetype": "custom",
    "wof:placetype_alt": [
      "flight"
    ],
    "wof:repo": "sfomuseum-data-flights-2026-10",
    "wof:superseded_by": [],
    "wof:supersedes": []
  },
  "bbox": [
    -122.370943,
    37.61799,
    -0.450443,
    51.470087
  ],
  "geometry": {"type":"MultiPoint","coordinates":[[-122.370943,37.61799],[-0.450443,51.470087]]}
}
