{
  "id": 2048545099,
  "type": "Feature",
  "properties": {
    "geom:area": 0,
    "geom:bbox": "-122.358840,37.491610,-121.261840,37.615410",
    "geom:latitude": 37.54639561973191,
    "geom:longitude": -121.81546874373534,
    "src:alt_label": "swim-approach",
    "src:geom": "swim",
    "swim:elevations": [
      4515,
      4345,
      4056,
      3795,
      3628,
      3486,
      3226,
      3137,
      3105,
      2810,
      2750,
      2557,
      2361,
      2209,
      2102,
      2050,
      1924,
      1825,
      1638,
      1317,
      1311,
      1159,
      971,
      806,
      606,
      549,
      487,
      394,
      299,
      129,
      58,
      365
    ],
    "swim:geom": "approach",
    "swim:timestamps": [
      1791490785,
      1791490802,
      1791490831,
      1791490858,
      1791490877,
      1791490893,
      1791490926,
      1791490948,
      1791490960,
      1791491002,
      1791491011,
      1791491041,
      1791491088,
      1791491109,
      1791491127,
      1791491141,
      1791491168,
      1791491195,
      1791491231,
      1791491278,
      1791491284,
      1791491319,
      1791491341,
      1791491375,
      1791491404,
      1791491425,
      1791491446,
      1791491476,
      1791491500,
      1791491548,
      1791491572,
      1791491581
    ],
    "wof:geomhash": "76c9d5b8c18a0faed14a903f901cb7fe",
    "wof:id": 2048545099,
    "wof:repo": "sfomuseum-data-flights-2026-10"
  },
  "bbox": [
    -122.35884,
    37.49161,
    -121.26184,
    37.61541
  ],
  "geometry": {"type":"LineString","coordinates":[[-121.26184,37.59317],[-121.29653,37.58854],[-121.35854,37.58176],[-121.41517,37.57532],[-121.45373,37.57072],[-121.4875,37.5667],[-121.55337,37.55917],[-121.59543,37.55437],[-121.61621,37.55186],[-121.6889,37.53536],[-121.70403,37.53177],[-121.75372,37.51997],[-121.82528,37.50294],[-121.85755,37.49518],[-121.88387,37.49161],[-121.90576,37.49219],[-121.9472,37.49306],[-121.98833,37.49579],[-122.03496,37.51049],[-122.09441,37.52943],[-122.10159,37.53172],[-122.13928,37.54371],[-122.1621,37.55107],[-122.19578,37.56226],[-122.22502,37.57188],[-122.24575,37.57844],[-122.26253,37.58365],[-122.2847,37.59002],[-122.3023,37.59527],[-122.33756,37.60536],[-122.35395,37.61221],[-122.35884,37.61541]]}
}
