{
  "id": 2048531885,
  "type": "Feature",
  "properties": {
    "geom:area": 0,
    "geom:bbox": "-122.471460,36.728390,-121.453460,37.711970",
    "geom:latitude": 37.22462403820564,
    "geom:longitude": -122.0639212509295,
    "src:alt_label": "swim-takeoff",
    "src:geom": "swim",
    "swim:elevations": [
      122,
      401,
      664,
      810,
      1144,
      1349,
      1792,
      2081,
      2363,
      3105,
      3346,
      3854,
      4211,
      4531,
      5061,
      5463,
      5844,
      6070,
      6330,
      6771,
      7181,
      7282,
      7517,
      7862,
      8218,
      8382,
      8739,
      8809,
      9117,
      9316
    ],
    "swim:geom": "takeoff",
    "swim:timestamps": [
      1791290150,
      1791290177,
      1791290217,
      1791290240,
      1791290274,
      1791290294,
      1791290323,
      1791290344,
      1791290363,
      1791290413,
      1791290435,
      1791290485,
      1791290509,
      1791290535,
      1791290576,
      1791290605,
      1791290636,
      1791290654,
      1791290678,
      1791290716,
      1791290757,
      1791290767,
      1791290796,
      1791290832,
      1791290872,
      1791290893,
      1791290938,
      1791290948,
      1791290986,
      1791291015
    ],
    "wof:geomhash": "91e5ee490537536260ab527de9d8f879",
    "wof:id": 2048531885,
    "wof:repo": "sfomuseum-data-flights-2026-10"
  },
  "bbox": [
    -122.47146,
    36.72839,
    -121.45346,
    37.71197
  ],
  "geometry": {"type":"LineString","coordinates":[[-122.36789,37.63014],[-122.3626,37.64936],[-122.36167,37.68391],[-122.37444,37.70447],[-122.42051,37.71197],[-122.44324,37.69558],[-122.45294,37.65751],[-122.45628,37.63093],[-122.45912,37.60636],[-122.46815,37.53979],[-122.47146,37.50887],[-122.4176,37.44752],[-122.38177,37.4211],[-122.34264,37.39207],[-122.27857,37.34487],[-122.23056,37.30952],[-122.17793,37.27037],[-122.14754,37.2478],[-122.10776,37.2185],[-122.04108,37.16913],[-121.96641,37.11382],[-121.94705,37.09945],[-121.89412,37.06017],[-121.8242,37.00722],[-121.746,36.94873],[-121.70483,36.918],[-121.61457,36.84986],[-121.59307,36.83361],[-121.51532,36.77521],[-121.45346,36.72839]]}
}
