{
  "id": 2048514747,
  "type": "Feature",
  "properties": {
    "geom:area": 0,
    "geom:bbox": "-122.365560,37.629610,-121.441030,38.510550",
    "geom:latitude": 38.06553254672172,
    "geom:longitude": -121.90057444493755,
    "src:alt_label": "swim-takeoff",
    "src:geom": "swim",
    "swim:elevations": [
      122,
      449,
      613,
      767,
      879,
      1086,
      1229,
      1491,
      1893,
      2216,
      2254,
      2675,
      2967,
      3198,
      3306,
      3415,
      3540,
      3617,
      3974,
      4266,
      4345,
      4387,
      4581,
      4785,
      5193,
      5316,
      5546,
      5764,
      5883
    ],
    "swim:geom": "takeoff",
    "swim:timestamps": [
      1791106017,
      1791106039,
      1791106065,
      1791106100,
      1791106118,
      1791106158,
      1791106190,
      1791106219,
      1791106255,
      1791106288,
      1791106291,
      1791106333,
      1791106361,
      1791106389,
      1791106413,
      1791106437,
      1791106467,
      1791106480,
      1791106519,
      1791106550,
      1791106561,
      1791106566,
      1791106599,
      1791106624,
      1791106678,
      1791106701,
      1791106731,
      1791106758,
      1791106779
    ],
    "wof:geomhash": "c6aeba02e358d78312683466920bea93",
    "wof:id": 2048514747,
    "wof:repo": "sfomuseum-data-flights-2026-10"
  },
  "bbox": [
    -122.36556,
    37.62961,
    -121.44103,
    38.51055
  ],
  "geometry": {"type":"LineString","coordinates":[[-122.36556,37.62961],[-122.35326,37.64342],[-122.33221,37.65491],[-122.3013,37.67169],[-122.2844,37.68085],[-122.24298,37.70347],[-122.20516,37.72613],[-122.17807,37.75616],[-122.14392,37.7956],[-122.11243,37.83135],[-122.10949,37.83461],[-122.06789,37.87997],[-122.03855,37.912],[-122.00964,37.94376],[-121.98274,37.97326],[-121.95479,38.00386],[-121.91682,38.04547],[-121.90041,38.06341],[-121.84812,38.12086],[-121.80635,38.16664],[-121.79002,38.18448],[-121.78411,38.19094],[-121.73701,38.24223],[-121.70178,38.2805],[-121.62187,38.36737],[-121.58801,38.40418],[-121.53866,38.4514],[-121.48348,38.48453],[-121.44103,38.51055]]}
}
