{
  "id": 2048546579,
  "type": "Feature",
  "properties": {
    "geom:area": 0,
    "geom:bbox": "-122.362430,37.495440,-121.291670,37.616150",
    "geom:latitude": 37.55659964958063,
    "geom:longitude": -121.8290389704639,
    "src:alt_label": "swim-approach",
    "src:geom": "swim",
    "swim:elevations": [
      4597,
      4397,
      4251,
      4023,
      3992,
      3792,
      3695,
      3494,
      3230,
      3191,
      3000,
      2956,
      2849,
      2656,
      2469,
      2283,
      2260,
      2094,
      1829,
      1829,
      1849,
      1829,
      1489,
      1312,
      1227,
      1023,
      811,
      709,
      573,
      446,
      367,
      315,
      166,
      26,
      147
    ],
    "swim:geom": "approach",
    "swim:timestamps": [
      1791488269,
      1791488290,
      1791488328,
      1791488360,
      1791488367,
      1791488397,
      1791488406,
      1791488431,
      1791488486,
      1791488496,
      1791488548,
      1791488557,
      1791488569,
      1791488593,
      1791488620,
      1791488668,
      1791488671,
      1791488706,
      1791488758,
      1791488773,
      1791488796,
      1791488828,
      1791488872,
      1791488892,
      1791488904,
      1791488933,
      1791488964,
      1791488986,
      1791489018,
      1791489052,
      1791489066,
      1791489076,
      1791489117,
      1791489147,
      1791489156
    ],
    "wof:geomhash": "a4516c6a2b63ae795d1835b59743a95d",
    "wof:id": 2048546579,
    "wof:repo": "sfomuseum-data-flights-2026-10"
  },
  "bbox": [
    -122.36243,
    37.49544,
    -121.29167,
    37.61615
  ],
  "geometry": {"type":"LineString","coordinates":[[-121.29167,37.58914],[-121.3304,37.58501],[-121.40285,37.57669],[-121.45842,37.57027],[-121.46998,37.56891],[-121.51668,37.56344],[-121.53045,37.56178],[-121.57023,37.55751],[-121.64357,37.59053],[-121.65525,37.59732],[-121.72579,37.59909],[-121.73426,37.59126],[-121.74484,37.58035],[-121.76575,37.55831],[-121.78867,37.53386],[-121.84719,37.51017],[-121.85143,37.50966],[-121.90064,37.50386],[-121.97196,37.49544],[-121.99326,37.4969],[-122.02273,37.50607],[-122.06182,37.51863],[-122.11072,37.53459],[-122.13206,37.54142],[-122.1443,37.54533],[-122.17341,37.55479],[-122.20327,37.56447],[-122.22244,37.57067],[-122.25044,37.57978],[-122.28055,37.58874],[-122.29156,37.59194],[-122.29985,37.59417],[-122.33178,37.60403],[-122.35521,37.61263],[-122.36243,37.61615]]}
}
