{
  "id": 2048541067,
  "type": "Feature",
  "properties": {
    "geom:area": 0,
    "geom:bbox": "-122.365810,37.629190,-121.278810,38.518320",
    "geom:latitude": 38.09023073045547,
    "geom:longitude": -121.8369387680758,
    "src:alt_label": "swim-takeoff",
    "src:geom": "swim",
    "swim:elevations": [
      152,
      438,
      618,
      684,
      951,
      1160,
      1288,
      1432,
      1929,
      2215,
      2410,
      2754,
      2869,
      2973,
      3201,
      3375,
      3480,
      3969,
      4218,
      4549,
      4676,
      4918,
      5067,
      5386,
      5414,
      5716,
      5987,
      6173,
      6416,
      6471
    ],
    "swim:geom": "takeoff",
    "swim:timestamps": [
      1791383337,
      1791383363,
      1791383393,
      1791383406,
      1791383441,
      1791383480,
      1791383516,
      1791383537,
      1791383578,
      1791383606,
      1791383625,
      1791383659,
      1791383672,
      1791383680,
      1791383708,
      1791383741,
      1791383765,
      1791383812,
      1791383844,
      1791383877,
      1791383897,
      1791383936,
      1791383955,
      1791383996,
      1791384000,
      1791384043,
      1791384084,
      1791384108,
      1791384145,
      1791384152
    ],
    "wof:geomhash": "2dae5814140ddc4e13d2a749937a6152",
    "wof:id": 2048541067,
    "wof:repo": "sfomuseum-data-flights-2026-10"
  },
  "bbox": [
    -122.36581,
    37.62919,
    -121.27881,
    38.51832
  ],
  "geometry": {"type":"LineString","coordinates":[[-122.36581,37.62919],[-122.3495,37.64418],[-122.32429,37.65912],[-122.31231,37.66577],[-122.2783,37.68459],[-122.239,37.70604],[-122.19973,37.73357],[-122.17954,37.75578],[-122.13988,37.80061],[-122.11204,37.83149],[-122.09254,37.85296],[-122.05763,37.89155],[-122.04433,37.90614],[-122.03574,37.91548],[-122.005,37.94916],[-121.96646,37.99128],[-121.9366,38.02418],[-121.87647,38.09038],[-121.83494,38.13591],[-121.78965,38.18325],[-121.75695,38.20681],[-121.68758,38.25256],[-121.65225,38.27601],[-121.57745,38.32583],[-121.5696,38.33097],[-121.48966,38.38265],[-121.41046,38.43376],[-121.36465,38.46343],[-121.29309,38.50913],[-121.27881,38.51832]]}
}
