{
  "id": 2048560287,
  "type": "Feature",
  "properties": {
    "geom:area": 0,
    "geom:bbox": "-122.356360,37.641220,-121.274250,38.160250",
    "geom:latitude": 37.998289587110264,
    "geom:longitude": -121.91203231517001,
    "src:alt_label": "swim-takeoff",
    "src:geom": "swim",
    "swim:elevations": [
      279,
      1671,
      3499,
      4892,
      5621,
      5663,
      6114,
      6162,
      6251,
      6575,
      6843,
      6980,
      7218,
      7413,
      7516
    ],
    "swim:geom": "takeoff",
    "swim:timestamps": [
      1791591330,
      1791591491,
      1791591665,
      1791591797,
      1791591865,
      1791591871,
      1791591927,
      1791591933,
      1791591945,
      1791591984,
      1791592018,
      1791592037,
      1791592071,
      1791592095,
      1791592110
    ],
    "wof:geomhash": "62f437a20e514401310978caa753a4bc",
    "wof:id": 2048560287,
    "wof:repo": "sfomuseum-data-flights-2026-10"
  },
  "bbox": [
    -122.35636,
    37.64122,
    -121.27425,
    38.16025
  ],
  "geometry": {"type":"LineString","coordinates":[[-122.35636,37.64122],[-122.35273,37.77647],[-122.27109,37.96344],[-122.00163,38.01751],[-121.85235,38.04726],[-121.83901,38.0499],[-121.71288,38.0749],[-121.69901,38.07763],[-121.67117,38.08316],[-121.58009,38.101],[-121.49945,38.11668],[-121.45292,38.12568],[-121.37077,38.14158],[-121.31153,38.15308],[-121.27425,38.16025]]}
}
