{
  "id": 2048502505,
  "type": "Feature",
  "properties": {
    "geom:area": 0,
    "geom:bbox": "-122.360880,37.492240,-121.244070,37.614760",
    "geom:latitude": 37.546900292684775,
    "geom:longitude": -121.80738813120523,
    "src:alt_label": "swim-approach",
    "src:geom": "swim",
    "swim:elevations": [
      4543,
      4251,
      4091,
      3948,
      3597,
      3275,
      3173,
      3046,
      2785,
      2625,
      2531,
      2271,
      2178,
      2133,
      1778,
      1589,
      1283,
      1115,
      1004,
      881,
      742,
      489,
      387,
      212,
      91,
      45
    ],
    "swim:geom": "approach",
    "swim:timestamps": [
      1791066055,
      1791066086,
      1791066104,
      1791066121,
      1791066159,
      1791066197,
      1791066220,
      1791066252,
      1791066291,
      1791066308,
      1791066332,
      1791066385,
      1791066399,
      1791066429,
      1791066474,
      1791066492,
      1791066532,
      1791066559,
      1791066578,
      1791066618,
      1791066639,
      1791066687,
      1791066705,
      1791066745,
      1791066775,
      1791066803
    ],
    "wof:geomhash": "606c541741d186ed8e9b37212648586f",
    "wof:id": 2048502505,
    "wof:repo": "sfomuseum-data-flights-2026-10"
  },
  "bbox": [
    -122.36088,
    37.49224,
    -121.24407,
    37.61476
  ],
  "geometry": {"type":"LineString","coordinates":[[-121.24407,37.59523],[-121.30731,37.58695],[-121.34405,37.58294],[-121.37803,37.5792],[-121.45658,37.57022],[-121.53238,37.5595],[-121.57533,37.55629],[-121.63279,37.54858],[-121.69789,37.53281],[-121.72743,37.52591],[-121.76579,37.51684],[-121.84675,37.49751],[-121.86741,37.49271],[-121.91449,37.49224],[-121.98377,37.49463],[-122.01006,37.50218],[-122.06708,37.52032],[-122.10499,37.53247],[-122.13078,37.54081],[-122.18375,37.558],[-122.20951,37.56629],[-122.2635,37.58367],[-122.2824,37.58932],[-122.31838,37.59992],[-122.34102,37.60698],[-122.36088,37.61476]]}
}
