{
  "id": 2048502541,
  "type": "Feature",
  "properties": {
    "date:inception_lower": "2026-10-03",
    "date:inception_upper": "2026-10-03",
    "edtf:cessation": "",
    "edtf:inception": "2026-10-03",
    "flysfo:actual_timestamp": -1,
    "flysfo:airline": "UA",
    "flysfo:base_airline": "",
    "flysfo:base_flight_number": "2222",
    "flysfo:date": "2026-10-03",
    "flysfo:estimated_timestamp": 1791044100,
    "flysfo:event": "A",
    "flysfo:flight_number": "UA1712",
    "flysfo:gate": "E7",
    "flysfo:journey": "TPA-SFO",
    "flysfo:scheduled_timestamp": 1791045780,
    "flysfo:timestamp": 1791045780,
    "geom:area": 0,
    "geom:bbox": "-122.370943,27.972892,-82.530928,37.617990",
    "geom:latitude": 32.795441,
    "geom:longitude": -102.4509355,
    "iata:airline": "UA",
    "iata:base_airline": "",
    "icao:airline": "UAL",
    "icao:base_airline": "ANZ",
    "lbl:latitude": 37.618874,
    "lbl:longitude": -122.38419,
    "sfomuseum:airline_id": 1159285413,
    "sfomuseum:arrival_id": 102527513,
    "sfomuseum:base_flight_id": "20261003-A-ANZ-2222",
    "sfomuseum:departure_id": 102533243,
    "sfomuseum:flight_id": "20261003-A-UAL-1712",
    "sfomuseum:flight_number": [
      "UAL1712",
      "UA1712"
    ],
    "sfomuseum:placetype": "flight",
    "src:geom": "flysfo",
    "wof:belongsto": [
      1947304067,
      102527513,
      1947304511,
      102191575,
      85633793,
      102087579,
      85922583,
      554784711,
      85688637,
      1947304529,
      1947304447,
      102085387
    ],
    "wof:country": "US",
    "wof:created": 1791130031,
    "wof:geomhash": "e5ae5d1ea61206da1f1e1104d6bc1bb7",
    "wof:hierarchy": [
      {
        "building_id": 1947304067,
        "campus_id": 102527513,
        "concourse_id": 1947304511,
        "continent_id": 102191575,
        "country_id": 85633793,
        "county_id": 102087579,
        "custom_id": 2048502541,
        "flight_id": 2048502541,
        "locality_id": 85922583,
        "postalcode_id": 554784711,
        "region_id": 85688637,
        "venue_id": 1947304529,
        "wing_id": 1947304447
      },
      {
        "building_id": 1947304067,
        "campus_id": 102527513,
        "concourse_id": 1947304511,
        "continent_id": 102191575,
        "country_id": 85633793,
        "county_id": 102085387,
        "custom_id": 2048502541,
        "flight_id": 2048502541,
        "region_id": 85688637,
        "venue_id": 1947304529,
        "wing_id": 1947304447
      }
    ],
    "wof:id": 2048502541,
    "wof:involves": [
      102527513,
      102533243,
      1159285413,
      1947304529,
      1159283697
    ],
    "wof:lastmodified": 1791130031,
    "wof:name": "UA1712 (TPA-SFO)",
    "wof:parent_id": 1947304529,
    "wof:placetype": "custom",
    "wof:placetype_alt": [
      "flight"
    ],
    "wof:repo": "sfomuseum-data-flights-2026-10",
    "wof:superseded_by": [],
    "wof:supersedes": []
  },
  "bbox": [
    -122.370943,
    27.972892,
    -82.530928,
    37.61799
  ],
  "geometry": {"type":"MultiPoint","coordinates":[[-82.530928,27.972892],[-122.370943,37.61799]]}
}
