{
  "id": 2048537877,
  "type": "Feature",
  "properties": {
    "geom:area": 0,
    "geom:bbox": "-123.506740,36.961140,-122.101380,37.608220",
    "geom:latitude": 37.287244205472426,
    "geom:longitude": -122.71086281769296,
    "src:alt_label": "swim-approach",
    "src:geom": "swim",
    "swim:elevations": [
      6374,
      5972,
      5802,
      5621,
      5288,
      4965,
      4608,
      4403,
      4095,
      3829,
      3395,
      3121,
      3048,
      3048,
      3028,
      2899,
      2743,
      2554,
      2479,
      2339,
      2064,
      1927,
      1829,
      1829,
      1796,
      1594,
      1499,
      1370,
      1217,
      1189,
      1129,
      914,
      927,
      848,
      670,
      600,
      458,
      409,
      239,
      137,
      61
    ],
    "swim:geom": "approach",
    "swim:timestamps": [
      1791383204,
      1791383247,
      1791383265,
      1791383286,
      1791383318,
      1791383349,
      1791383384,
      1791383406,
      1791383437,
      1791383466,
      1791383512,
      1791383540,
      1791383564,
      1791383592,
      1791383625,
      1791383668,
      1791383692,
      1791383721,
      1791383741,
      1791383765,
      1791383812,
      1791383835,
      1791383870,
      1791383897,
      1791383930,
      1791383955,
      1791383977,
      1791384015,
      1791384050,
      1791384084,
      1791384093,
      1791384141,
      1791384174,
      1791384204,
      1791384236,
      1791384250,
      1791384289,
      1791384309,
      1791384347,
      1791384372,
      1791384394
    ],
    "wof:geomhash": "7e4e54bfa9d3a6a481392eac569a5508",
    "wof:id": 2048537877,
    "wof:repo": "sfomuseum-data-flights-2026-10"
  },
  "bbox": [
    -123.50674,
    36.96114,
    -122.10138,
    37.60822
  ],
  "geometry": {"type":"LineString","coordinates":[[-123.50674,36.96114],[-123.4185,37.00169],[-123.38406,37.01697],[-123.34372,37.03637],[-123.28006,37.06586],[-123.21993,37.09379],[-123.15493,37.12377],[-123.11404,37.14263],[-123.05868,37.16804],[-123.00797,37.19144],[-122.93103,37.22661],[-122.88362,37.24837],[-122.84097,37.26272],[-122.78772,37.27517],[-122.7261,37.2896],[-122.65098,37.3072],[-122.61021,37.31662],[-122.56284,37.32774],[-122.53057,37.33521],[-122.49245,37.344],[-122.41937,37.36074],[-122.38452,37.36878],[-122.3326,37.38063],[-122.29681,37.38902],[-122.25259,37.39906],[-122.2197,37.40653],[-122.19099,37.41312],[-122.14546,37.42349],[-122.11062,37.43786],[-122.10138,37.46729],[-122.1056,37.47445],[-122.13659,37.50919],[-122.1624,37.52753],[-122.1883,37.54087],[-122.21876,37.55371],[-122.2314,37.55877],[-122.26423,37.57218],[-122.2814,37.57924],[-122.31274,37.59231],[-122.33275,37.60088],[-122.35002,37.60822]]}
}
