{
  "id": 2048528029,
  "type": "Feature",
  "properties": {
    "geom:area": 0,
    "geom:bbox": "-122.350000,37.491550,-121.311860,37.610460",
    "geom:latitude": 37.543875684536985,
    "geom:longitude": -121.8353517355882,
    "src:alt_label": "swim-approach",
    "src:geom": "swim",
    "swim:elevations": [
      4390,
      4225,
      4028,
      3901,
      3704,
      3591,
      3507,
      3093,
      2650,
      2556,
      2433,
      2290,
      2074,
      1911,
      1816,
      1779,
      1525,
      1460,
      1120,
      923,
      882,
      781,
      577,
      449,
      297,
      160,
      73
    ],
    "swim:geom": "approach",
    "swim:timestamps": [
      1791283857,
      1791283872,
      1791283893,
      1791283923,
      1791283967,
      1791283987,
      1791283999,
      1791284040,
      1791284111,
      1791284135,
      1791284170,
      1791284194,
      1791284229,
      1791284271,
      1791284304,
      1791284324,
      1791284358,
      1791284372,
      1791284423,
      1791284458,
      1791284478,
      1791284503,
      1791284540,
      1791284567,
      1791284606,
      1791284645,
      1791284672
    ],
    "wof:geomhash": "2eca535de84c8599cfb267f2b14614b8",
    "wof:id": 2048528029,
    "wof:repo": "sfomuseum-data-flights-2026-10"
  },
  "bbox": [
    -122.35,
    37.49155,
    -121.31186,
    37.61046
  ],
  "geometry": {"type":"LineString","coordinates":[[-121.31186,37.58701],[-121.34207,37.58377],[-121.3852,37.57894],[-121.44405,37.57212],[-121.51982,37.56331],[-121.55168,37.55957],[-121.56867,37.5576],[-121.62898,37.54983],[-121.72924,37.52598],[-121.76182,37.51822],[-121.80855,37.5071],[-121.84142,37.49918],[-121.89001,37.49155],[-121.94694,37.49311],[-121.99249,37.49642],[-122.01763,37.50483],[-122.05822,37.5179],[-122.07517,37.52338],[-122.13073,37.54127],[-122.1667,37.55289],[-122.18715,37.55959],[-122.21145,37.56742],[-122.24737,37.57901],[-122.27182,37.5864],[-122.30255,37.59539],[-122.33141,37.60352],[-122.35,37.61046]]}
}
