{
  "id": 2048495619,
  "type": "Feature",
  "properties": {
    "geom:area": 0,
    "geom:bbox": "-123.337940,37.629860,-122.395970,38.517940",
    "geom:latitude": 38.03123078576363,
    "geom:longitude": -122.9009828938305,
    "src:alt_label": "swim-takeoff",
    "src:geom": "swim",
    "swim:elevations": [
      122,
      299,
      759,
      1043,
      1195,
      1392,
      1627,
      1860,
      2242,
      2843,
      3091,
      3210,
      3365,
      3835,
      4032,
      4457,
      4639,
      4919,
      5238,
      5403,
      5688,
      5996,
      6147,
      6352,
      6490,
      6919,
      7041
    ],
    "swim:geom": "takeoff",
    "swim:timestamps": [
      1790991716,
      1790991729,
      1790991768,
      1790991798,
      1790991829,
      1790991854,
      1790991878,
      1790991902,
      1790991935,
      1790991986,
      1790992007,
      1790992022,
      1790992052,
      1790992103,
      1790992130,
      1790992167,
      1790992182,
      1790992212,
      1790992244,
      1790992262,
      1790992288,
      1790992318,
      1790992336,
      1790992369,
      1790992384,
      1790992427,
      1790992442
    ],
    "wof:geomhash": "6936636293c50d8ff8687e3bd7cfc354",
    "wof:id": 2048495619,
    "wof:repo": "sfomuseum-data-flights-2026-10"
  },
  "bbox": [
    -123.33794,
    37.62986,
    -122.39597,
    38.51794
  ],
  "geometry": {"type":"LineString","coordinates":[[-122.39597,37.62986],[-122.40961,37.63555],[-122.45152,37.65293],[-122.48418,37.66673],[-122.52017,37.68453],[-122.5502,37.70235],[-122.58165,37.72082],[-122.61428,37.74008],[-122.66084,37.76744],[-122.73501,37.81106],[-122.76277,37.8321],[-122.779,37.85033],[-122.81197,37.89],[-122.87244,37.96335],[-122.90619,38.00382],[-122.95437,38.06161],[-122.97374,38.08484],[-123.01292,38.13169],[-123.05542,38.18232],[-123.07945,38.21116],[-123.11495,38.25343],[-123.15673,38.30306],[-123.18128,38.33225],[-123.22994,38.3893],[-123.25248,38.41484],[-123.31539,38.48944],[-123.33794,38.51794]]}
}
