{
  "id": 2048543137,
  "type": "Feature",
  "properties": {
    "geom:area": 0,
    "geom:bbox": "-122.357270,37.535140,-122.176240,37.611200",
    "geom:latitude": 37.573220836127916,
    "geom:longitude": -122.26673368744122,
    "src:alt_label": "swim-approach",
    "src:geom": "swim",
    "swim:elevations": [
      882,
      845,
      640,
      526,
      454,
      428,
      369,
      300,
      144,
      59,
      9
    ],
    "swim:geom": "approach",
    "swim:timestamps": [
      1791478673,
      1791478680,
      1791478733,
      1791478765,
      1791478789,
      1791478797,
      1791478817,
      1791478839,
      1791478885,
      1791478913,
      1791478921
    ],
    "wof:geomhash": "e790dbc475661cb7de47b223daeef239",
    "wof:id": 2048543137,
    "wof:repo": "sfomuseum-data-flights-2026-10"
  },
  "bbox": [
    -122.35727,
    37.53514,
    -122.17624,
    37.6112
  ],
  "geometry": {"type":"LineString","coordinates":[[-122.17624,37.53514],[-122.1824,37.53775],[-122.22553,37.55591],[-122.25104,37.5666],[-122.26766,37.57366],[-122.2737,37.5762],[-122.28828,37.58233],[-122.30347,37.58866],[-122.33442,37.60166],[-122.35223,37.60912],[-122.35727,37.6112]]}
}
