{
  "id": 2048525113,
  "type": "Feature",
  "properties": {
    "geom:area": 0,
    "geom:bbox": "-122.487960,36.727540,-121.466120,37.686410",
    "geom:latitude": 37.20628723395172,
    "geom:longitude": -122.07673719556901,
    "src:alt_label": "swim-takeoff",
    "src:geom": "swim",
    "swim:elevations": [
      338,
      369,
      882,
      975,
      1037,
      1242,
      1613,
      1956,
      2210,
      3063,
      3301,
      3344,
      3733,
      4123,
      4330,
      4721,
      4912,
      5397,
      5543,
      5662,
      5742,
      6058,
      6252,
      6649,
      6673,
      6921,
      7019,
      7099,
      7339,
      7604,
      7688,
      8056,
      8120
    ],
    "swim:geom": "takeoff",
    "swim:timestamps": [
      1791203187,
      1791203191,
      1791203246,
      1791203263,
      1791203281,
      1791203334,
      1791203367,
      1791203387,
      1791203401,
      1791203458,
      1791203487,
      1791203498,
      1791203537,
      1791203567,
      1791203588,
      1791203629,
      1791203646,
      1791203691,
      1791203706,
      1791203719,
      1791203732,
      1791203765,
      1791203794,
      1791203848,
      1791203852,
      1791203882,
      1791203900,
      1791203911,
      1791203942,
      1791203988,
      1791204000,
      1791204054,
      1791204063
    ],
    "wof:geomhash": "1eb23e5e0b17e1f3bc66386eb58492b5",
    "wof:id": 2048525113,
    "wof:repo": "sfomuseum-data-flights-2026-10"
  },
  "bbox": [
    -122.48796,
    36.72754,
    -121.46612,
    37.68641
  ],
  "geometry": {"type":"LineString","coordinates":[[-122.36477,37.63827],[-122.36464,37.64118],[-122.36624,37.67844],[-122.38011,37.68311],[-122.39777,37.68641],[-122.46053,37.67055],[-122.47446,37.63096],[-122.47754,37.60478],[-122.47951,37.58527],[-122.48796,37.51073],[-122.48174,37.4706],[-122.46827,37.45743],[-122.40729,37.41975],[-122.35803,37.38911],[-122.32359,37.3676],[-122.25785,37.31837],[-122.23329,37.29572],[-122.16516,37.234],[-122.14324,37.21405],[-122.1229,37.19554],[-122.10368,37.17831],[-122.04564,37.13403],[-121.99275,37.09707],[-121.8923,37.02676],[-121.88348,37.02062],[-121.82613,36.98039],[-121.79173,36.95627],[-121.76982,36.94081],[-121.70909,36.89806],[-121.61924,36.83474],[-121.59323,36.81794],[-121.48398,36.74047],[-121.46612,36.72754]]}
}
