{
  "id": 2048490563,
  "type": "Feature",
  "properties": {
    "date:inception_lower": "2026-10-02",
    "date:inception_upper": "2026-10-02",
    "edtf:cessation": "",
    "edtf:inception": "2026-10-02",
    "flysfo:actual_timestamp": -1,
    "flysfo:airline": "OZ",
    "flysfo:base_airline": "",
    "flysfo:base_flight_number": "9700",
    "flysfo:date": "2026-10-02",
    "flysfo:estimated_timestamp": 1790957640,
    "flysfo:event": "A",
    "flysfo:flight_number": "OZ6344",
    "flysfo:gate": "F19",
    "flysfo:journey": "STL-SFO",
    "flysfo:scheduled_timestamp": 1790958600,
    "flysfo:timestamp": 1790958600,
    "geom:area": 0,
    "geom:bbox": "-122.370943,37.617990,-90.367632,38.743872",
    "geom:latitude": 38.180931,
    "geom:longitude": -106.3692875,
    "iata:airline": "OZ",
    "iata:base_airline": "",
    "icao:airline": "AAR",
    "icao:base_airline": "ANZ",
    "lbl:latitude": 37.620929,
    "lbl:longitude": -122.390272,
    "sfomuseum:airline_id": 1159283917,
    "sfomuseum:arrival_id": 102527513,
    "sfomuseum:base_flight_id": "20261002-A-ANZ-9700",
    "sfomuseum:departure_id": 1746879059,
    "sfomuseum:flight_id": "20261002-A-AAR-6344",
    "sfomuseum:flight_number": [
      "AAR6344",
      "OZ6344"
    ],
    "sfomuseum:placetype": "flight",
    "src:geom": "flysfo",
    "wof:belongsto": [
      1947304067,
      102527513,
      1947304451,
      102191575,
      85633793,
      102087579,
      85922583,
      554784711,
      85688637,
      1947304487,
      1947304447,
      102085387
    ],
    "wof:country": "US",
    "wof:created": 1791043279,
    "wof:geomhash": "5aed0915f9f8845326df52b0d348a4b7",
    "wof:hierarchy": [
      {
        "building_id": 1947304067,
        "campus_id": 102527513,
        "concourse_id": 1947304451,
        "continent_id": 102191575,
        "country_id": 85633793,
        "county_id": 102087579,
        "custom_id": 2048490563,
        "flight_id": 2048490563,
        "locality_id": 85922583,
        "postalcode_id": 554784711,
        "region_id": 85688637,
        "venue_id": 1947304487,
        "wing_id": 1947304447
      },
      {
        "building_id": 1947304067,
        "campus_id": 102527513,
        "concourse_id": 1947304451,
        "continent_id": 102191575,
        "country_id": 85633793,
        "county_id": 102085387,
        "custom_id": 2048490563,
        "flight_id": 2048490563,
        "region_id": 85688637,
        "venue_id": 1947304487,
        "wing_id": 1947304447
      }
    ],
    "wof:id": 2048490563,
    "wof:involves": [
      102527513,
      1746879059,
      1159283917,
      1947304487,
      1159283697
    ],
    "wof:lastmodified": 1791043279,
    "wof:name": "OZ6344 (STL-SFO)",
    "wof:parent_id": 1947304487,
    "wof:placetype": "custom",
    "wof:placetype_alt": [
      "flight"
    ],
    "wof:repo": "sfomuseum-data-flights-2026-10",
    "wof:superseded_by": [],
    "wof:supersedes": []
  },
  "bbox": [
    -122.370943,
    37.61799,
    -90.367632,
    38.743872
  ],
  "geometry": {"type":"MultiPoint","coordinates":[[-90.367632,38.743872],[-122.370943,37.61799]]}
}
