{
  "id": 2048520639,
  "type": "Feature",
  "properties": {
    "geom:area": 0,
    "geom:bbox": "-122.355360,37.491430,-121.274240,37.612800",
    "geom:latitude": 37.54552213366807,
    "geom:longitude": -121.81956543296394,
    "src:alt_label": "swim-approach",
    "src:geom": "swim",
    "swim:elevations": [
      4288,
      4054,
      3889,
      3608,
      3481,
      3338,
      3167,
      3102,
      2907,
      2836,
      2665,
      2455,
      2272,
      2150,
      2059,
      1820,
      1739,
      1435,
      1209,
      1138,
      945,
      826,
      638,
      570,
      395,
      219,
      150,
      68,
      20
    ],
    "swim:geom": "approach",
    "swim:timestamps": [
      1791190371,
      1791190397,
      1791190417,
      1791190446,
      1791190463,
      1791190477,
      1791190514,
      1791190542,
      1791190583,
      1791190593,
      1791190622,
      1791190669,
      1791190698,
      1791190721,
      1791190742,
      1791190798,
      1791190809,
      1791190847,
      1791190888,
      1791190898,
      1791190940,
      1791190965,
      1791191001,
      1791191015,
      1791191058,
      1791191097,
      1791191114,
      1791191132,
      1791191142
    ],
    "wof:geomhash": "d5e016dd4652e959390049854a7a4ddd",
    "wof:id": 2048520639,
    "wof:repo": "sfomuseum-data-flights-2026-10"
  },
  "bbox": [
    -122.35536,
    37.49143,
    -121.27424,
    37.6128
  ],
  "geometry": {"type":"LineString","coordinates":[[-121.27424,37.59144],[-121.32483,37.58538],[-121.36351,37.581],[-121.4222,37.57441],[-121.45493,37.57064],[-121.48106,37.56759],[-121.55168,37.55931],[-121.60189,37.5534],[-121.66666,37.5409],[-121.68191,37.53732],[-121.72703,37.5264],[-121.79698,37.50959],[-121.83882,37.49953],[-121.87108,37.49267],[-121.90292,37.49143],[-121.98571,37.49541],[-122.00245,37.4993],[-122.05673,37.51687],[-122.10921,37.5342],[-122.12149,37.53823],[-122.17054,37.55396],[-122.19715,37.56269],[-122.23467,37.57469],[-122.24874,37.57918],[-122.28724,37.59072],[-122.3202,37.60022],[-122.33411,37.60433],[-122.34744,37.60947],[-122.35536,37.6128]]}
}
