{
  "id": 2048516959,
  "type": "Feature",
  "properties": {
    "geom:area": 0,
    "geom:bbox": "-122.354210,37.491780,-121.251390,37.612280",
    "geom:latitude": 37.546621210121536,
    "geom:longitude": -121.80755488130082,
    "src:alt_label": "swim-approach",
    "src:geom": "swim",
    "swim:elevations": [
      4576,
      4273,
      4205,
      4108,
      3845,
      3591,
      3249,
      3096,
      2894,
      2825,
      2630,
      2487,
      2172,
      2164,
      2042,
      1888,
      1835,
      1795,
      1634,
      1199,
      1073,
      879,
      714,
      535,
      521,
      378,
      203,
      161,
      32
    ],
    "swim:geom": "approach",
    "swim:timestamps": [
      1791188781,
      1791188815,
      1791188839,
      1791188854,
      1791188892,
      1791188918,
      1791188961,
      1791188988,
      1791189019,
      1791189038,
      1791189070,
      1791189094,
      1791189146,
      1791189151,
      1791189170,
      1791189202,
      1791189216,
      1791189249,
      1791189271,
      1791189326,
      1791189339,
      1791189375,
      1791189402,
      1791189431,
      1791189451,
      1791189495,
      1791189536,
      1791189547,
      1791189584
    ],
    "wof:geomhash": "7e6d03860048206635bf8eb354d96a0c",
    "wof:id": 2048516959,
    "wof:repo": "sfomuseum-data-flights-2026-10"
  },
  "bbox": [
    -122.35421,
    37.49178,
    -121.25139,
    37.61228
  ],
  "geometry": {"type":"LineString","coordinates":[[-121.25139,37.59485],[-121.32057,37.58614],[-121.36799,37.58096],[-121.39561,37.57783],[-121.46385,37.56983],[-121.51103,37.56428],[-121.5857,37.55557],[-121.63066,37.54943],[-121.68206,37.5371],[-121.71171,37.53015],[-121.75886,37.51893],[-121.79349,37.5106],[-121.86818,37.49273],[-121.87517,37.49178],[-121.90579,37.49189],[-121.95803,37.49347],[-121.98063,37.49445],[-122.02991,37.50892],[-122.0602,37.51855],[-122.12866,37.54048],[-122.14452,37.54559],[-122.18485,37.55851],[-122.21322,37.56758],[-122.24059,37.57669],[-122.2572,37.58209],[-122.28999,37.59156],[-122.32043,37.60069],[-122.32856,37.60316],[-122.35421,37.61228]]}
}
