{
  "id": 2048494051,
  "type": "Feature",
  "properties": {
    "geom:area": 0,
    "geom:bbox": "-122.360260,37.491540,-121.257930,37.614770",
    "geom:latitude": 37.546513120291195,
    "geom:longitude": -121.81407028509385,
    "src:alt_label": "swim-approach",
    "src:geom": "swim",
    "swim:elevations": [
      4925,
      4760,
      4250,
      4207,
      3970,
      3854,
      3424,
      3261,
      3070,
      2958,
      2794,
      2617,
      2536,
      2245,
      2039,
      1932,
      1826,
      1675,
      1533,
      1399,
      1186,
      1113,
      905,
      750,
      577,
      456,
      408,
      237,
      151,
      0
    ],
    "swim:geom": "approach",
    "swim:timestamps": [
      1790975126,
      1790975141,
      1790975188,
      1790975192,
      1790975215,
      1790975227,
      1790975272,
      1790975288,
      1790975329,
      1790975367,
      1790975387,
      1790975413,
      1790975435,
      1790975476,
      1790975508,
      1790975545,
      1790975571,
      1790975603,
      1790975630,
      1790975655,
      1790975698,
      1790975714,
      1790975752,
      1790975785,
      1790975816,
      1790975843,
      1790975852,
      1790975895,
      1790975915,
      1790975949
    ],
    "wof:geomhash": "2cf182dd8de915fb45365ef52468bd46",
    "wof:id": 2048494051,
    "wof:repo": "sfomuseum-data-flights-2026-10"
  },
  "bbox": [
    -122.36026,
    37.49154,
    -121.25793,
    37.61477
  ],
  "geometry": {"type":"LineString","coordinates":[[-121.25793,37.59345],[-121.28539,37.58984],[-121.37222,37.58028],[-121.37941,37.57949],[-121.42216,37.57459],[-121.44332,37.57216],[-121.52275,37.56272],[-121.55276,37.5592],[-121.62242,37.55086],[-121.68302,37.53695],[-121.71462,37.52939],[-121.75684,37.51924],[-121.79207,37.51081],[-121.85451,37.49562],[-121.90282,37.49154],[-121.95377,37.49282],[-121.98599,37.49497],[-122.02256,37.50579],[-122.0515,37.51517],[-122.07936,37.52421],[-122.12482,37.53902],[-122.14155,37.54449],[-122.18153,37.55739],[-122.21586,37.56866],[-122.24622,37.57819],[-122.27143,37.58579],[-122.2793,37.58815],[-122.31664,37.59863],[-122.33409,37.60393],[-122.36026,37.61477]]}
}
