{
  "id": 2048507569,
  "type": "Feature",
  "properties": {
    "geom:area": 0,
    "geom:bbox": "-122.363230,37.483150,-121.279290,37.616370",
    "geom:latitude": 37.540885426094206,
    "geom:longitude": -121.82434061464376,
    "src:alt_label": "swim-approach",
    "src:geom": "swim",
    "swim:elevations": [
      4692,
      4573,
      4545,
      4326,
      4259,
      4101,
      3688,
      3589,
      3299,
      3156,
      2768,
      2665,
      2328,
      2163,
      2134,
      2134,
      2106,
      2097,
      2078,
      1766,
      1500,
      1007,
      915,
      769,
      578,
      549,
      338,
      309,
      72,
      0
    ],
    "swim:geom": "approach",
    "swim:timestamps": [
      1791111088,
      1791111117,
      1791111126,
      1791111175,
      1791111187,
      1791111210,
      1791111262,
      1791111277,
      1791111317,
      1791111337,
      1791111387,
      1791111402,
      1791111448,
      1791111472,
      1791111508,
      1791111533,
      1791111565,
      1791111568,
      1791111572,
      1791111606,
      1791111637,
      1791111679,
      1791111697,
      1791111749,
      1791111775,
      1791111784,
      1791111837,
      1791111841,
      1791111909,
      1791111930
    ],
    "wof:geomhash": "fd6a5fa5c0d3117216f32380aa25629e",
    "wof:id": 2048507569,
    "wof:repo": "sfomuseum-data-flights-2026-10"
  },
  "bbox": [
    -122.36323,
    37.48315,
    -121.27929,
    37.61637
  ],
  "geometry": {"type":"LineString","coordinates":[[-121.27929,37.59076],[-121.33362,37.5847],[-121.34879,37.58301],[-121.43008,37.57369],[-121.44894,37.57147],[-121.48413,37.56731],[-121.5642,37.55788],[-121.587,37.55538],[-121.64657,37.54541],[-121.67053,37.53187],[-121.72164,37.49287],[-121.73873,37.48321],[-121.80637,37.48315],[-121.84125,37.48516],[-121.89235,37.48828],[-121.92952,37.49057],[-121.97532,37.4934],[-121.97958,37.49389],[-121.9852,37.49483],[-122.03051,37.50868],[-122.07037,37.52167],[-122.12289,37.53875],[-122.14533,37.54612],[-122.20265,37.56452],[-122.23222,37.57405],[-122.24271,37.57738],[-122.29153,37.59216],[-122.29518,37.59321],[-122.34835,37.60992],[-122.36323,37.61637]]}
}
