{
  "id": 2048521621,
  "type": "Feature",
  "properties": {
    "geom:area": 0,
    "geom:bbox": "-122.527010,37.628810,-121.269100,38.145090",
    "geom:latitude": 37.935239045190755,
    "geom:longitude": -121.99113527794493,
    "src:alt_label": "swim-takeoff",
    "src:geom": "swim",
    "swim:elevations": [
      232,
      425,
      536,
      625,
      764,
      911,
      1170,
      1689,
      1751,
      2027,
      2267,
      2644,
      2904,
      3188,
      3439,
      3873,
      4062,
      4594,
      5037,
      5195,
      5511,
      5789,
      6202,
      6435,
      6717,
      7083,
      7416,
      7730,
      7916,
      8014,
      8383,
      8522
    ],
    "swim:geom": "takeoff",
    "swim:timestamps": [
      1791268766,
      1791268785,
      1791268800,
      1791268817,
      1791268843,
      1791268867,
      1791268893,
      1791268941,
      1791268947,
      1791268970,
      1791268989,
      1791269018,
      1791269035,
      1791269058,
      1791269091,
      1791269127,
      1791269139,
      1791269174,
      1791269206,
      1791269221,
      1791269248,
      1791269271,
      1791269308,
      1791269329,
      1791269356,
      1791269391,
      1791269423,
      1791269451,
      1791269482,
      1791269497,
      1791269545,
      1791269564
    ],
    "wof:geomhash": "9e253eec618c82940d4794fbed25ab9f",
    "wof:id": 2048521621,
    "wof:repo": "sfomuseum-data-flights-2026-10"
  },
  "bbox": [
    -122.52701,
    37.62881,
    -121.2691,
    38.14509
  ],
  "geometry": {"type":"LineString","coordinates":[[-122.39999,37.62881],[-122.41723,37.63608],[-122.43125,37.64218],[-122.4485,37.6498],[-122.47785,37.66281],[-122.50779,37.67738],[-122.52409,37.70502],[-122.52668,37.76509],[-122.52701,37.77289],[-122.5155,37.8015],[-122.49165,37.81715],[-122.4477,37.83273],[-122.42002,37.84162],[-122.38412,37.85136],[-122.32572,37.86711],[-122.25589,37.88579],[-122.23266,37.89201],[-122.16574,37.91],[-122.10179,37.9271],[-122.07128,37.9352],[-122.01509,37.95013],[-121.9661,37.96318],[-121.88561,37.98452],[-121.83857,37.99696],[-121.77753,38.01308],[-121.69807,38.03402],[-121.62119,38.05417],[-121.55492,38.07165],[-121.48053,38.09078],[-121.44348,38.10057],[-121.31991,38.13208],[-121.2691,38.14509]]}
}
