{
  "id": 2048534339,
  "type": "Feature",
  "properties": {
    "geom:area": 0,
    "geom:bbox": "-122.359150,37.483940,-121.273390,37.614400",
    "geom:latitude": 37.5510419993005,
    "geom:longitude": -121.81618803315729,
    "src:alt_label": "swim-approach",
    "src:geom": "swim",
    "swim:elevations": [
      4504,
      4215,
      3902,
      3718,
      3601,
      3411,
      3211,
      3149,
      3049,
      2880,
      2758,
      2743,
      2743,
      2663,
      2462,
      2318,
      2225,
      2167,
      1954,
      1829,
      1674,
      1567,
      1255,
      1219,
      1219,
      1083,
      743,
      692,
      518,
      464,
      369,
      186,
      108,
      61,
      5
    ],
    "swim:geom": "approach",
    "swim:timestamps": [
      1791363515,
      1791363544,
      1791363575,
      1791363620,
      1791363644,
      1791363685,
      1791363718,
      1791363731,
      1791363763,
      1791363803,
      1791363830,
      1791363860,
      1791363887,
      1791363908,
      1791363931,
      1791363952,
      1791363981,
      1791364003,
      1791364037,
      1791364071,
      1791364101,
      1791364116,
      1791364167,
      1791364180,
      1791364204,
      1791364237,
      1791364288,
      1791364296,
      1791364342,
      1791364360,
      1791364384,
      1791364434,
      1791364453,
      1791364465,
      1791364482
    ],
    "wof:geomhash": "2d581147ba106220abdae9cf7d27735b",
    "wof:id": 2048534339,
    "wof:repo": "sfomuseum-data-flights-2026-10"
  },
  "bbox": [
    -122.35915,
    37.48394,
    -121.27339,
    37.6144
  ],
  "geometry": {"type":"LineString","coordinates":[[-121.27339,37.59139],[-121.3335,37.58437],[-121.39702,37.57738],[-121.48272,37.56739],[-121.52477,37.56251],[-121.58999,37.55482],[-121.63803,37.56089],[-121.65474,37.57057],[-121.69423,37.59497],[-121.7502,37.60352],[-121.77116,37.58161],[-121.76869,37.54929],[-121.76605,37.52044],[-121.77321,37.49984],[-121.79717,37.48466],[-121.82639,37.48394],[-121.86687,37.48654],[-121.89488,37.48806],[-121.93526,37.49066],[-121.97528,37.4932],[-122.00923,37.50156],[-122.02517,37.50682],[-122.0797,37.52445],[-122.09371,37.5289],[-122.11866,37.53722],[-122.15372,37.54859],[-122.20648,37.56569],[-122.21475,37.56831],[-122.25616,37.58176],[-122.26934,37.58584],[-122.28726,37.59084],[-122.32529,37.6021],[-122.33944,37.60647],[-122.34815,37.6097],[-122.35915,37.6144]]}
}
