{
  "id": 2048489105,
  "type": "Feature",
  "properties": {
    "geom:area": 0,
    "geom:bbox": "-122.365560,37.629470,-121.306450,38.388320",
    "geom:latitude": 38.017968959396015,
    "geom:longitude": -121.84461541787671,
    "src:alt_label": "swim-takeoff",
    "src:geom": "swim",
    "swim:elevations": [
      183,
      305,
      421,
      818,
      994,
      1135,
      1155,
      1284,
      1500,
      2090,
      2194,
      2796,
      2984,
      3218,
      3255,
      3364,
      3477,
      3652,
      3783,
      3910,
      4227,
      4296,
      4661,
      4878,
      4992,
      5198,
      5422
    ],
    "swim:geom": "takeoff",
    "swim:timestamps": [
      1790844237,
      1790844246,
      1790844257,
      1790844297,
      1790844322,
      1790844356,
      1790844360,
      1790844394,
      1790844420,
      1790844472,
      1790844480,
      1790844538,
      1790844560,
      1790844593,
      1790844604,
      1790844630,
      1790844663,
      1790844706,
      1790844737,
      1790844763,
      1790844800,
      1790844813,
      1790844865,
      1790844898,
      1790844912,
      1790844944,
      1790844977
    ],
    "wof:geomhash": "9b4297446df78480e031800a6172a246",
    "wof:id": 2048489105,
    "wof:repo": "sfomuseum-data-flights-2026-10"
  },
  "bbox": [
    -122.36556,
    37.62947,
    -121.30645,
    38.38832
  ],
  "geometry": {"type":"LineString","coordinates":[[-122.36556,37.62947],[-122.36112,37.63528],[-122.35325,37.64042],[-122.32169,37.65833],[-122.30212,37.66986],[-122.27106,37.68784],[-122.26698,37.69018],[-122.22675,37.7108],[-122.19828,37.73425],[-122.14954,37.78961],[-122.14207,37.79796],[-122.08477,37.86155],[-122.06063,37.88481],[-122.01422,37.91507],[-121.99864,37.92598],[-121.96058,37.95265],[-121.9076,37.98867],[-121.83446,38.03822],[-121.77706,38.07695],[-121.72804,38.10994],[-121.65909,38.15629],[-121.6332,38.17363],[-121.53144,38.24187],[-121.46695,38.28494],[-121.43919,38.30343],[-121.37464,38.34633],[-121.30645,38.38832]]}
}
