{
  "id": 2048513539,
  "type": "Feature",
  "properties": {
    "geom:area": 0,
    "geom:bbox": "-122.364000,37.632170,-122.210720,38.518470",
    "geom:latitude": 38.04202463253817,
    "geom:longitude": -122.23784164627988,
    "src:alt_label": "swim-takeoff",
    "src:geom": "swim",
    "swim:elevations": [
      213,
      351,
      550,
      765,
      1081,
      1240,
      1538,
      1798,
      2416,
      2866,
      3099,
      3450,
      3598,
      4273,
      4599,
      4990,
      5435,
      5512,
      5617,
      6070,
      6369,
      6788,
      7117
    ],
    "swim:geom": "takeoff",
    "swim:timestamps": [
      1791105926,
      1791105941,
      1791105975,
      1791106006,
      1791106039,
      1791106062,
      1791106092,
      1791106113,
      1791106166,
      1791106198,
      1791106215,
      1791106251,
      1791106264,
      1791106316,
      1791106343,
      1791106376,
      1791106407,
      1791106413,
      1791106423,
      1791106460,
      1791106484,
      1791106519,
      1791106550
    ],
    "wof:geomhash": "4b302ab126160b8e644aaab9d1f00c52",
    "wof:id": 2048513539,
    "wof:repo": "sfomuseum-data-flights-2026-10"
  },
  "bbox": [
    -122.364,
    37.63217,
    -122.21072,
    38.51847
  ],
  "geometry": {"type":"LineString","coordinates":[[-122.364,37.63217],[-122.35465,37.64087],[-122.3255,37.65681],[-122.29385,37.67482],[-122.25771,37.69615],[-122.23038,37.71122],[-122.21072,37.74624],[-122.21294,37.77436],[-122.21774,37.8461],[-122.21937,37.89199],[-122.22013,37.91539],[-122.22082,37.96962],[-122.22171,37.99055],[-122.22389,38.07519],[-122.22512,38.12381],[-122.22682,38.18268],[-122.22848,38.24129],[-122.22875,38.25176],[-122.22922,38.26991],[-122.23121,38.34159],[-122.23515,38.3891],[-122.24238,38.45678],[-122.2487,38.51847]]}
}
