{
  "id": 2048522039,
  "type": "Feature",
  "properties": {
    "date:inception_lower": "2026-10-05",
    "date:inception_upper": "2026-10-05",
    "edtf:cessation": "",
    "edtf:inception": "2026-10-05",
    "flysfo:actual_timestamp": -1,
    "flysfo:airline": "AC",
    "flysfo:base_airline": "",
    "flysfo:base_flight_number": "4432",
    "flysfo:date": "2026-10-05",
    "flysfo:estimated_timestamp": 1791251880,
    "flysfo:event": "D",
    "flysfo:flight_number": "AC4432",
    "flysfo:gate": "E6",
    "flysfo:journey": "SFO-TUS",
    "flysfo:scheduled_timestamp": 1791252000,
    "flysfo:timestamp": 1791252000,
    "geom:area": 0,
    "geom:bbox": "-122.370943,32.119362,-110.946818,37.617990",
    "geom:latitude": 34.868676,
    "geom:longitude": -116.6588805,
    "iata:airline": "AC",
    "iata:base_airline": "",
    "icao:airline": "ACA",
    "icao:base_airline": "ACA",
    "lbl:latitude": 37.618774,
    "lbl:longitude": -122.384852,
    "sfomuseum:airline_id": 1159283597,
    "sfomuseum:arrival_id": 102527853,
    "sfomuseum:base_flight_id": "20261005-D-ACA-4432",
    "sfomuseum:departure_id": 102527513,
    "sfomuseum:flight_id": "20261005-D-ACA-4432",
    "sfomuseum:flight_number": [
      "ACA4432",
      "AC4432"
    ],
    "sfomuseum:placetype": "flight",
    "src:geom": "flysfo",
    "wof:belongsto": [
      1947304067,
      102527513,
      1947304511,
      102191575,
      85633793,
      102087579,
      85922583,
      554784711,
      85688637,
      1947304513,
      1947304447,
      102085387
    ],
    "wof:country": "US",
    "wof:created": 1791303064,
    "wof:geomhash": "6716e4c7ca0e3c1891c385118d042906",
    "wof:hierarchy": [
      {
        "building_id": 1947304067,
        "campus_id": 102527513,
        "concourse_id": 1947304511,
        "continent_id": 102191575,
        "country_id": 85633793,
        "county_id": 102087579,
        "custom_id": 2048522039,
        "flight_id": 2048522039,
        "locality_id": 85922583,
        "postalcode_id": 554784711,
        "region_id": 85688637,
        "venue_id": 1947304513,
        "wing_id": 1947304447
      },
      {
        "building_id": 1947304067,
        "campus_id": 102527513,
        "concourse_id": 1947304511,
        "continent_id": 102191575,
        "country_id": 85633793,
        "county_id": 102085387,
        "custom_id": 2048522039,
        "flight_id": 2048522039,
        "region_id": 85688637,
        "venue_id": 1947304513,
        "wing_id": 1947304447
      }
    ],
    "wof:id": 2048522039,
    "wof:involves": [
      102527853,
      102527513,
      1159283597,
      1947304513,
      1159283597
    ],
    "wof:lastmodified": 1791303064,
    "wof:name": "AC4432 (SFO-TUS)",
    "wof:parent_id": 1947304513,
    "wof:placetype": "custom",
    "wof:placetype_alt": [
      "flight"
    ],
    "wof:repo": "sfomuseum-data-flights-2026-10",
    "wof:superseded_by": [],
    "wof:supersedes": []
  },
  "bbox": [
    -122.370943,
    32.119362,
    -110.946818,
    37.61799
  ],
  "geometry": {"type":"MultiPoint","coordinates":[[-122.370943,37.61799],[-110.946818,32.119362]]}
}
