{
  "id": 2048498299,
  "type": "Feature",
  "properties": {
    "geom:area": 0,
    "geom:bbox": "-122.346950,37.644510,-121.244690,37.958720",
    "geom:latitude": 37.82322697498807,
    "geom:longitude": -121.80384849426757,
    "src:alt_label": "swim-takeoff",
    "src:geom": "swim",
    "swim:elevations": [
      626,
      666,
      1131,
      1396,
      1678,
      2077,
      2354,
      2859,
      3219,
      3589,
      3811,
      3887,
      4388,
      4671,
      5148,
      5191,
      5771,
      6108,
      6516,
      6745,
      6870,
      7274
    ],
    "swim:geom": "takeoff",
    "swim:timestamps": [
      1790950498,
      1790950502,
      1790950553,
      1790950586,
      1790950613,
      1790950640,
      1790950658,
      1790950695,
      1790950733,
      1790950767,
      1790950781,
      1790950785,
      1790950824,
      1790950846,
      1790950888,
      1790950891,
      1790950941,
      1790950973,
      1790950999,
      1790951036,
      1790951050,
      1790951094
    ],
    "wof:geomhash": "164a70fbcfec7a34d7788f405caa9f3c",
    "wof:id": 2048498299,
    "wof:repo": "sfomuseum-data-flights-2026-10"
  },
  "bbox": [
    -122.34695,
    37.64451,
    -121.24469,
    37.95872
  ],
  "geometry": {"type":"LineString","coordinates":[[-122.34695,37.64451],[-122.34325,37.64651],[-122.29555,37.6734],[-122.25666,37.69524],[-122.22069,37.71358],[-122.18129,37.73416],[-122.1543,37.74408],[-122.09159,37.7601],[-122.02483,37.77588],[-121.95825,37.79169],[-121.93058,37.79851],[-121.92186,37.80062],[-121.84373,37.81947],[-121.79873,37.83017],[-121.71244,37.85036],[-121.70609,37.85185],[-121.59683,37.87726],[-121.52693,37.89358],[-121.46782,37.90721],[-121.38263,37.92695],[-121.35092,37.93421],[-121.24469,37.95872]]}
}
