{
  "id": 2048546599,
  "type": "Feature",
  "properties": {
    "geom:area": 0,
    "geom:bbox": "-122.357580,37.491580,-121.261180,37.613740",
    "geom:latitude": 37.54623047867591,
    "geom:longitude": -121.81424807146519,
    "src:alt_label": "swim-approach",
    "src:geom": "swim",
    "swim:elevations": [
      4542,
      4413,
      4122,
      3882,
      3532,
      3164,
      3047,
      2984,
      2752,
      2631,
      2524,
      2449,
      2328,
      2286,
      2133,
      1964,
      1730,
      1584,
      1579,
      1361,
      1250,
      1197,
      1096,
      943,
      890,
      750,
      573,
      365,
      364,
      124,
      61,
      0
    ],
    "swim:geom": "approach",
    "swim:timestamps": [
      1791492086,
      1791492100,
      1791492130,
      1791492151,
      1791492186,
      1791492237,
      1791492258,
      1791492293,
      1791492326,
      1791492349,
      1791492364,
      1791492379,
      1791492414,
      1791492435,
      1791492458,
      1791492483,
      1791492528,
      1791492545,
      1791492548,
      1791492574,
      1791492592,
      1791492603,
      1791492634,
      1791492677,
      1791492699,
      1791492723,
      1791492762,
      1791492806,
      1791492811,
      1791492868,
      1791492888,
      1791492895
    ],
    "wof:geomhash": "ce3238c9dda04dff9d11b40c2ba2ac6d",
    "wof:id": 2048546599,
    "wof:repo": "sfomuseum-data-flights-2026-10"
  },
  "bbox": [
    -122.35758,
    37.49158,
    -121.26118,
    37.61374
  ],
  "geometry": {"type":"LineString","coordinates":[[-121.26118,37.59285],[-121.29118,37.5889],[-121.3566,37.58168],[-121.4021,37.57682],[-121.47384,37.56866],[-121.572,37.55696],[-121.60894,37.55247],[-121.6661,37.54103],[-121.71709,37.52886],[-121.75209,37.52045],[-121.77589,37.51471],[-121.79849,37.50928],[-121.8494,37.49704],[-121.87865,37.49194],[-121.90885,37.49158],[-121.94248,37.49242],[-122.00124,37.49893],[-122.02291,37.50598],[-122.02663,37.50722],[-122.05897,37.5179],[-122.07959,37.52459],[-122.0918,37.52852],[-122.12385,37.53884],[-122.16746,37.55279],[-122.1887,37.5595],[-122.21216,37.5673],[-122.25082,37.57968],[-122.28997,37.59131],[-122.29403,37.59249],[-122.33786,37.60565],[-122.35273,37.61168],[-122.35758,37.61374]]}
}
