{
  "id": 2048546527,
  "type": "Feature",
  "properties": {
    "geom:area": 0,
    "geom:bbox": "-122.352030,36.719540,-121.877200,37.608890",
    "geom:latitude": 37.22651156689887,
    "geom:longitude": -122.06306739883289,
    "src:alt_label": "swim-approach",
    "src:geom": "swim",
    "swim:elevations": [
      4740,
      4551,
      4288,
      4241,
      4133,
      3894,
      3747,
      3460,
      3217,
      3132,
      3005,
      2729,
      2681,
      2614,
      2518,
      2438,
      2438,
      2438,
      2318,
      2085,
      1925,
      1896,
      1676,
      1584,
      1554,
      1524,
      1492,
      1346,
      1155,
      1013,
      976,
      744,
      668,
      530,
      361,
      218,
      149,
      62
    ],
    "swim:geom": "approach",
    "swim:timestamps": [
      1791489503,
      1791489529,
      1791489565,
      1791489571,
      1791489590,
      1791489620,
      1791489640,
      1791489681,
      1791489712,
      1791489733,
      1791489760,
      1791489805,
      1791489817,
      1791489830,
      1791489845,
      1791489889,
      1791489906,
      1791489938,
      1791489965,
      1791489997,
      1791490017,
      1791490021,
      1791490075,
      1791490096,
      1791490119,
      1791490144,
      1791490157,
      1791490191,
      1791490214,
      1791490243,
      1791490265,
      1791490306,
      1791490323,
      1791490354,
      1791490407,
      1791490437,
      1791490459,
      1791490484
    ],
    "wof:geomhash": "0b1436eec00cb9c834199d93e984f4fe",
    "wof:id": 2048546527,
    "wof:repo": "sfomuseum-data-flights-2026-10"
  },
  "bbox": [
    -122.35203,
    36.71954,
    -121.8772,
    37.60889
  ],
  "geometry": {"type":"LineString","coordinates":[[-121.8772,36.71954],[-121.89736,36.75366],[-121.91198,36.80497],[-121.91449,36.81391],[-121.92188,36.84037],[-121.93397,36.88262],[-121.94211,36.9116],[-121.96005,36.96901],[-121.9769,37.01194],[-121.98788,37.04018],[-122.00092,37.07358],[-122.02134,37.1261],[-122.02641,37.13914],[-122.03233,37.15444],[-122.03849,37.17033],[-122.05772,37.21943],[-122.06533,37.23851],[-122.07948,37.27461],[-122.09142,37.30494],[-122.10493,37.34023],[-122.10591,37.36307],[-122.10557,37.3677],[-122.09452,37.42364],[-122.07741,37.44036],[-122.06018,37.45796],[-122.06707,37.48204],[-122.07824,37.49072],[-122.11498,37.50909],[-122.1412,37.51972],[-122.17429,37.5328],[-122.1971,37.54185],[-122.22999,37.55562],[-122.24189,37.56128],[-122.26195,37.57087],[-122.29671,37.58566],[-122.31762,37.59462],[-122.33385,37.60125],[-122.35203,37.60889]]}
}
