{
  "id": 2048537771,
  "type": "Feature",
  "properties": {
    "geom:area": 0,
    "geom:bbox": "-122.352800,36.734830,-121.887880,37.611780",
    "geom:latitude": 37.273004638975664,
    "geom:longitude": -122.14044799774655,
    "src:alt_label": "swim-approach",
    "src:geom": "swim",
    "swim:elevations": [
      2249,
      2166,
      1768,
      1632,
      1472,
      1365,
      1167,
      1118,
      901,
      776,
      497,
      420,
      314,
      189,
      73,
      52,
      4665
    ],
    "swim:geom": "approach",
    "swim:timestamps": [
      1791356407,
      1791356439,
      1791356488,
      1791356512,
      1791356548,
      1791356568,
      1791356600,
      1791356612,
      1791356647,
      1791356674,
      1791356728,
      1791356752,
      1791356776,
      1791356813,
      1791356848,
      1791356854,
      1791442790
    ],
    "wof:geomhash": "bc978b43788087926194db9badb65ea6",
    "wof:id": 2048537771,
    "wof:repo": "sfomuseum-data-flights-2026-10"
  },
  "bbox": [
    -122.3528,
    36.73483,
    -121.88788,
    37.61178
  ],
  "geometry": {"type":"LineString","coordinates":[[-122.09772,37.32147],[-122.11231,37.35866],[-122.12722,37.4128],[-122.11991,37.43799],[-122.11193,37.47333],[-122.12247,37.48963],[-122.14359,37.51281],[-122.15143,37.52129],[-122.18188,37.53944],[-122.20732,37.55063],[-122.25902,37.57217],[-122.27993,37.58101],[-122.29835,37.58886],[-122.32459,37.60002],[-122.34882,37.6101],[-122.3528,37.61178],[-121.88788,36.73483]]}
}
