{
  "id": 2048537603,
  "type": "Feature",
  "properties": {
    "geom:area": 0,
    "geom:bbox": "-122.360090,37.491810,-121.283870,37.615210",
    "geom:latitude": 37.54538490462636,
    "geom:longitude": -121.82688356776619,
    "src:alt_label": "swim-approach",
    "src:geom": "swim",
    "swim:elevations": [
      4466,
      4363,
      3870,
      3752,
      3601,
      3389,
      3309,
      3047,
      2972,
      2598,
      2530,
      2333,
      2245,
      2045,
      1896,
      1829,
      1671,
      1600,
      1356,
      913,
      844,
      647,
      592,
      487,
      338,
      296,
      120,
      0
    ],
    "swim:geom": "approach",
    "swim:timestamps": [
      1791375445,
      1791375456,
      1791375506,
      1791375521,
      1791375541,
      1791375589,
      1791375609,
      1791375654,
      1791375666,
      1791375713,
      1791375746,
      1791375778,
      1791375796,
      1791375834,
      1791375868,
      1791375893,
      1791375928,
      1791375935,
      1791375963,
      1791376013,
      1791376048,
      1791376073,
      1791376080,
      1791376116,
      1791376158,
      1791376170,
      1791376215,
      1791376246
    ],
    "wof:geomhash": "6d67a1c26c81ae632dc3e6da73ecff5c",
    "wof:id": 2048537603,
    "wof:repo": "sfomuseum-data-flights-2026-10"
  },
  "bbox": [
    -122.36009,
    37.49181,
    -121.28387,
    37.61521
  ],
  "geometry": {"type":"LineString","coordinates":[[-121.28387,37.58997],[-121.30573,37.58731],[-121.40866,37.57584],[-121.43775,37.57251],[-121.47893,37.56766],[-121.56558,37.5576],[-121.59954,37.55363],[-121.6659,37.54073],[-121.68152,37.53706],[-121.74562,37.52184],[-121.78919,37.51144],[-121.83366,37.50078],[-121.85764,37.49487],[-121.90975,37.49181],[-121.95706,37.49309],[-121.99114,37.49615],[-122.03619,37.51041],[-122.04467,37.51317],[-122.08124,37.52495],[-122.14893,37.54687],[-122.19274,37.56107],[-122.22122,37.57021],[-122.22885,37.57266],[-122.26278,37.58351],[-122.29529,37.59293],[-122.30516,37.59595],[-122.33924,37.60651],[-122.36009,37.61521]]}
}
