{
  "id": 2048555765,
  "type": "Feature",
  "properties": {
    "geom:area": 0,
    "geom:bbox": "-122.353770,37.491970,-121.251450,37.612150",
    "geom:latitude": 37.546527329179234,
    "geom:longitude": -121.80737699161463,
    "src:alt_label": "swim-approach",
    "src:geom": "swim",
    "swim:elevations": [
      4378,
      3923,
      3646,
      3546,
      3312,
      3104,
      3079,
      3010,
      2739,
      2623,
      2322,
      2278,
      2144,
      1918,
      1700,
      1545,
      1472,
      1254,
      1248,
      1108,
      964,
      814,
      608,
      433,
      334,
      235,
      34
    ],
    "swim:geom": "approach",
    "swim:timestamps": [
      1791542497,
      1791542547,
      1791542577,
      1791542588,
      1791542613,
      1791542668,
      1791542683,
      1791542700,
      1791542746,
      1791542765,
      1791542817,
      1791542828,
      1791542852,
      1791542901,
      1791542937,
      1791542960,
      1791542970,
      1791543001,
      1791543004,
      1791543035,
      1791543065,
      1791543097,
      1791543136,
      1791543169,
      1791543196,
      1791543217,
      1791543266
    ],
    "wof:geomhash": "06f6d0156493e94fb5c4476b59763073",
    "wof:id": 2048555765,
    "wof:repo": "sfomuseum-data-flights-2026-10"
  },
  "bbox": [
    -122.35377,
    37.49197,
    -121.25145,
    37.61215
  ],
  "geometry": {"type":"LineString","coordinates":[[-121.25145,37.59421],[-121.35298,37.5823],[-121.41514,37.57533],[-121.43648,37.5729],[-121.48765,37.56693],[-121.59052,37.5549],[-121.61635,37.55144],[-121.64381,37.54629],[-121.71799,37.52861],[-121.74735,37.52152],[-121.82621,37.50256],[-121.84201,37.49876],[-121.87803,37.49197],[-121.95349,37.49292],[-122.00759,37.50094],[-122.04103,37.5118],[-122.05548,37.51652],[-122.09613,37.52984],[-122.09969,37.53099],[-122.13495,37.54244],[-122.16757,37.55293],[-122.20069,37.56369],[-122.2408,37.57677],[-122.27233,37.58633],[-122.2961,37.59322],[-122.31326,37.59828],[-122.35377,37.61215]]}
}
