{
  "id": 2048525299,
  "type": "Feature",
  "properties": {
    "geom:area": 0,
    "geom:bbox": "-122.367470,37.626890,-121.265370,37.978070",
    "geom:latitude": 37.857367414616334,
    "geom:longitude": -121.83346836874658,
    "src:alt_label": "swim-takeoff",
    "src:geom": "swim",
    "swim:elevations": [
      122,
      387,
      722,
      978,
      1117,
      1212,
      1492,
      1604,
      2096,
      2242,
      2700,
      3201,
      3261,
      3366,
      3741,
      4012,
      4405,
      4495,
      4915,
      5199,
      5327,
      5700,
      5791,
      5945,
      6041
    ],
    "swim:geom": "takeoff",
    "swim:timestamps": [
      1791204988,
      1791205012,
      1791205040,
      1791205067,
      1791205093,
      1791205113,
      1791205167,
      1791205177,
      1791205219,
      1791205231,
      1791205267,
      1791205319,
      1791205329,
      1791205352,
      1791205398,
      1791205426,
      1791205464,
      1791205473,
      1791205518,
      1791205545,
      1791205564,
      1791205615,
      1791205625,
      1791205646,
      1791205661
    ],
    "wof:geomhash": "06fdd6bfe16290a2e54b7962c489060a",
    "wof:id": 2048525299,
    "wof:repo": "sfomuseum-data-flights-2026-10"
  },
  "bbox": [
    -122.36747,
    37.62689,
    -121.26537,
    37.97807
  ],
  "geometry": {"type":"LineString","coordinates":[[-122.36747,37.62689],[-122.35296,37.64061],[-122.33102,37.65371],[-122.31004,37.66583],[-122.28812,37.67872],[-122.26967,37.68931],[-122.20757,37.72173],[-122.19333,37.7292],[-122.13641,37.75844],[-122.11947,37.7672],[-122.0694,37.79295],[-121.99208,37.82868],[-121.97404,37.83195],[-121.92983,37.83991],[-121.84889,37.87831],[-121.8007,37.90802],[-121.72785,37.93945],[-121.70782,37.94119],[-121.60562,37.95001],[-121.54282,37.95531],[-121.50019,37.95887],[-121.37821,37.96888],[-121.35263,37.971],[-121.30172,37.97516],[-121.26537,37.97807]]}
}
