{
  "id": 2048499451,
  "type": "Feature",
  "properties": {
    "geom:area": 0,
    "geom:bbox": "-122.354930,36.718430,-121.942890,37.612560",
    "geom:latitude": 37.190775537577814,
    "geom:longitude": -122.11030390162733,
    "src:alt_label": "swim-approach",
    "src:geom": "swim",
    "swim:elevations": [
      4743,
      4564,
      4381,
      4159,
      4084,
      3811,
      3665,
      3462,
      3320,
      2986,
      2921,
      2608,
      2439,
      2436,
      2138,
      2067,
      1859,
      1788,
      1570,
      1378,
      1250,
      977,
      799,
      558,
      393,
      262,
      236,
      24
    ],
    "swim:geom": "approach",
    "swim:timestamps": [
      1791034223,
      1791034244,
      1791034273,
      1791034308,
      1791034320,
      1791034365,
      1791034388,
      1791034425,
      1791034449,
      1791034490,
      1791034500,
      1791034548,
      1791034577,
      1791034604,
      1791034643,
      1791034652,
      1791034687,
      1791034728,
      1791034754,
      1791034785,
      1791034807,
      1791034846,
      1791034875,
      1791034915,
      1791034946,
      1791034977,
      1791034981,
      1791035029
    ],
    "wof:geomhash": "e5f41df11bb28b8de71a35a1da837dfd",
    "wof:id": 2048499451,
    "wof:repo": "sfomuseum-data-flights-2026-10"
  },
  "bbox": [
    -122.35493,
    36.71843,
    -121.94289,
    37.61256
  ],
  "geometry": {"type":"LineString","coordinates":[[-121.94289,36.71843],[-121.98301,36.73305],[-122.0352,36.75677],[-122.05068,36.80917],[-122.04409,36.82581],[-122.04127,36.89329],[-122.04633,36.926],[-122.05477,36.97953],[-122.06018,37.01373],[-122.06963,37.07217],[-122.07176,37.08547],[-122.08262,37.15216],[-122.08912,37.19235],[-122.09508,37.22862],[-122.10368,37.28149],[-122.10558,37.29384],[-122.11304,37.34009],[-122.12521,37.3933],[-122.13664,37.42702],[-122.15015,37.46655],[-122.15921,37.49455],[-122.17484,37.54281],[-122.20099,37.56776],[-122.2504,37.57965],[-122.28311,37.58888],[-122.312,37.59783],[-122.31535,37.59886],[-122.35493,37.61256]]}
}
