{
  "id": 2048523493,
  "type": "Feature",
  "properties": {
    "geom:area": 0,
    "geom:bbox": "-122.386440,37.628280,-121.264900,37.991710",
    "geom:latitude": 37.93563546109009,
    "geom:longitude": -121.94734211453492,
    "src:alt_label": "swim-takeoff",
    "src:geom": "swim",
    "swim:elevations": [
      152,
      389,
      667,
      751,
      989,
      1115,
      1618,
      2020,
      2286,
      2750,
      3085,
      3327,
      3369,
      3617,
      3721,
      3864,
      3968,
      4229,
      4245,
      4528,
      4702,
      4841,
      5067,
      5211,
      5364,
      5580,
      5824,
      5978,
      6037
    ],
    "swim:geom": "takeoff",
    "swim:timestamps": [
      1791243839,
      1791243858,
      1791243887,
      1791243903,
      1791243952,
      1791243971,
      1791244016,
      1791244046,
      1791244068,
      1791244107,
      1791244138,
      1791244168,
      1791244174,
      1791244212,
      1791244227,
      1791244251,
      1791244273,
      1791244318,
      1791244321,
      1791244366,
      1791244393,
      1791244410,
      1791244442,
      1791244463,
      1791244484,
      1791244516,
      1791244558,
      1791244588,
      1791244598
    ],
    "wof:geomhash": "6cf2a2d2d9e8ffc3cec28795f3522be4",
    "wof:id": 2048523493,
    "wof:repo": "sfomuseum-data-flights-2026-10"
  },
  "bbox": [
    -122.38644,
    37.62828,
    -121.2649,
    37.99171
  ],
  "geometry": {"type":"LineString","coordinates":[[-122.36619,37.62828],[-122.35513,37.64038],[-122.33516,37.658],[-122.32304,37.66845],[-122.31813,37.71365],[-122.33003,37.73455],[-122.35817,37.78767],[-122.376,37.82442],[-122.38644,37.85173],[-122.38469,37.90407],[-122.36385,37.94148],[-122.31479,37.95661],[-122.30392,37.95827],[-122.23019,37.97179],[-122.2002,37.97778],[-122.15182,37.98719],[-122.10263,37.98892],[-121.99753,37.98923],[-121.99026,37.98932],[-121.87789,37.9903],[-121.80912,37.99014],[-121.76583,37.99025],[-121.68288,37.99121],[-121.62789,37.99125],[-121.57257,37.99119],[-121.48731,37.99171],[-121.37316,37.99171],[-121.29275,37.9915],[-121.2649,37.99149]]}
}
