{
  "id": 2048556729,
  "type": "Feature",
  "properties": {
    "date:inception_lower": "2026-10-09",
    "date:inception_upper": "2026-10-09",
    "edtf:cessation": "",
    "edtf:inception": "2026-10-09",
    "flysfo:actual_timestamp": -1,
    "flysfo:airline": "VA",
    "flysfo:base_airline": "",
    "flysfo:base_flight_number": "4589",
    "flysfo:date": "2026-10-09",
    "flysfo:estimated_timestamp": 1791573900,
    "flysfo:event": "A",
    "flysfo:flight_number": "VA8497",
    "flysfo:gate": "F5",
    "flysfo:journey": "SNA-SFO",
    "flysfo:scheduled_timestamp": 1791570180,
    "flysfo:timestamp": 1791573900,
    "geom:area": 0,
    "geom:bbox": "-122.370943,33.677724,-117.866280,37.617990",
    "geom:latitude": 35.647857,
    "geom:longitude": -120.1186115,
    "iata:airline": "VA",
    "iata:base_airline": "",
    "icao:airline": "VOZ",
    "icao:base_airline": "ACA",
    "lbl:latitude": 37.620164,
    "lbl:longitude": -122.387194,
    "sfomuseum:airline_id": 1159285485,
    "sfomuseum:arrival_id": 102527513,
    "sfomuseum:base_flight_id": "20261009-A-ACA-4589",
    "sfomuseum:departure_id": 102534161,
    "sfomuseum:flight_id": "20261009-A-VOZ-8497",
    "sfomuseum:flight_number": [
      "VOZ8497",
      "VA8497"
    ],
    "sfomuseum:placetype": "flight",
    "src:geom": "flysfo",
    "wof:belongsto": [
      1914600839,
      102527513,
      1914600845,
      102191575,
      85633793,
      102087579,
      85922583,
      554784711,
      85688637,
      1930457221,
      1914600841,
      102085387
    ],
    "wof:country": "US",
    "wof:created": 1791648581,
    "wof:geomhash": "01009f732d03a7803d3f7fd23cf321f4",
    "wof:hierarchy": [
      {
        "building_id": 1914600839,
        "campus_id": 102527513,
        "concourse_id": 1914600845,
        "continent_id": 102191575,
        "country_id": 85633793,
        "county_id": 102087579,
        "custom_id": 2048556729,
        "flight_id": 2048556729,
        "locality_id": 85922583,
        "postalcode_id": 554784711,
        "region_id": 85688637,
        "venue_id": 1930457221,
        "wing_id": 1914600841
      },
      {
        "building_id": 1914600839,
        "campus_id": 102527513,
        "concourse_id": 1914600845,
        "continent_id": 102191575,
        "country_id": 85633793,
        "county_id": 102085387,
        "custom_id": 2048556729,
        "flight_id": 2048556729,
        "region_id": 85688637,
        "venue_id": 1930457221,
        "wing_id": 1914600841
      }
    ],
    "wof:id": 2048556729,
    "wof:involves": [
      102527513,
      102534161,
      1159285485,
      1930457221,
      1159283597
    ],
    "wof:lastmodified": 1791648581,
    "wof:name": "VA8497 (SNA-SFO)",
    "wof:parent_id": 1930457221,
    "wof:placetype": "custom",
    "wof:placetype_alt": [
      "flight"
    ],
    "wof:repo": "sfomuseum-data-flights-2026-10",
    "wof:superseded_by": [],
    "wof:supersedes": []
  },
  "bbox": [
    -122.370943,
    33.677724,
    -117.86628,
    37.61799
  ],
  "geometry": {"type":"MultiPoint","coordinates":[[-117.86628,33.677724],[-122.370943,37.61799]]}
}
