{
  "id": 2048489699,
  "type": "Feature",
  "properties": {
    "date:inception_lower": "2026-10-01",
    "date:inception_upper": "2026-10-01",
    "edtf:cessation": "",
    "edtf:inception": "2026-10-01",
    "flysfo:actual_timestamp": -1,
    "flysfo:airline": "UA",
    "flysfo:date": "2026-10-01",
    "flysfo:estimated_timestamp": 1790882100,
    "flysfo:event": "D",
    "flysfo:flight_number": "UA8215",
    "flysfo:gate": "",
    "flysfo:journey": "SFO-BUR",
    "flysfo:scheduled_timestamp": 1790882100,
    "flysfo:timestamp": 1790882100,
    "geom:area": 0,
    "geom:bbox": "-122.370943,34.196704,-118.353322,37.617990",
    "geom:latitude": 35.907347,
    "geom:longitude": -120.3621325,
    "iata:airline": "UA",
    "icao:airline": "UAL",
    "lbl:latitude": 37.61799,
    "lbl:longitude": -122.370943,
    "sfomuseum:airline_id": 1159285413,
    "sfomuseum:arrival_id": 1746879083,
    "sfomuseum:departure_id": 102527513,
    "sfomuseum:flight_id": "20261001-D-UAL-8215",
    "sfomuseum:flight_number": [
      "UAL8215",
      "UA8215"
    ],
    "sfomuseum:placetype": "flight",
    "src:geom": "flysfo",
    "wof:belongsto": [],
    "wof:country": "US",
    "wof:created": 1790957842,
    "wof:geomhash": "5b5841a3ebf3c57d9843115edfb8ee6b",
    "wof:hierarchy": [
      {
        "custom_id": 2048489699,
        "flight_id": 2048489699
      }
    ],
    "wof:id": 2048489699,
    "wof:involves": [
      1746879083,
      102527513,
      1159285413,
      -1
    ],
    "wof:lastmodified": 1790957842,
    "wof:name": "UA8215 (SFO-BUR)",
    "wof:parent_id": -1,
    "wof:placetype": "custom",
    "wof:placetype_alt": [
      "flight"
    ],
    "wof:repo": "sfomuseum-data-flights-2026-10",
    "wof:superseded_by": [],
    "wof:supersedes": []
  },
  "bbox": [
    -122.370943,
    34.196704,
    -118.353322,
    37.61799
  ],
  "geometry": {"type":"MultiPoint","coordinates":[[-122.370943,37.61799],[-118.353322,34.196704]]}
}
