{
  "id": 2048536531,
  "type": "Feature",
  "properties": {
    "date:cessation_lower": "2026-10-07",
    "date:cessation_upper": "2026-10-07",
    "date:inception_lower": "1970-01-01",
    "date:inception_upper": "1970-01-01",
    "edtf:cessation": "2026-10-07T06:50:07-07:00",
    "edtf:inception": "1970-01-01T00:00:00Z",
    "flysfo:actual_timestamp": -1,
    "flysfo:airline": "F9",
    "flysfo:base_airline": "",
    "flysfo:base_flight_number": "2770",
    "flysfo:date": "2026-10-07",
    "flysfo:estimated_timestamp": 1791406560,
    "flysfo:event": "A",
    "flysfo:flight_number": "F94401",
    "flysfo:gate": "B17",
    "flysfo:journey": "LAS-SFO",
    "flysfo:scheduled_timestamp": 1791408540,
    "flysfo:timestamp": 1791408540,
    "geom:area": 0,
    "geom:bbox": "-122.370943,36.081003,-115.156440,37.617990",
    "geom:latitude": 36.8494965,
    "geom:longitude": -118.7636915,
    "iata:airline": "F9",
    "iata:base_airline": "",
    "icao:aircraft": "A20N",
    "icao:airline": "FFT",
    "icao:base_airline": "VOI",
    "lbl:latitude": 37.61799,
    "lbl:longitude": -122.370943,
    "sfomuseum:aircraft_id": 1377564295,
    "sfomuseum:airline_id": 1159284401,
    "sfomuseum:arrival_id": 102527513,
    "sfomuseum:base_flight_id": "20261007-A-VOI-2770",
    "sfomuseum:departure_id": 102527209,
    "sfomuseum:flight_id": "20261007-A-FFT-4401",
    "sfomuseum:flight_number": [
      "FFT4401",
      "F94401"
    ],
    "sfomuseum:placetype": "flight",
    "src:geom": "flysfo",
    "src:geom_alt": [
      "swim-approach"
    ],
    "swim:tail_number": "N383FR",
    "wof:belongsto": [
      1947304067,
      102527513,
      1947304261,
      102191575,
      85633793,
      102087579,
      85922583,
      554784711,
      85688637,
      1947304285,
      1947304259,
      102085387
    ],
    "wof:country": "US",
    "wof:created": 1791475538,
    "wof:geomhash": "fcf5095e8d1a14d003993bc5070a7f0f",
    "wof:hierarchy": [
      {
        "building_id": 1947304067,
        "campus_id": 102527513,
        "concourse_id": 1947304261,
        "continent_id": 102191575,
        "country_id": 85633793,
        "county_id": 102087579,
        "custom_id": 2048536531,
        "flight_id": 2048536531,
        "locality_id": 85922583,
        "postalcode_id": 554784711,
        "region_id": 85688637,
        "venue_id": 1947304285,
        "wing_id": 1947304259
      },
      {
        "building_id": 1947304067,
        "campus_id": 102527513,
        "concourse_id": 1947304261,
        "continent_id": 102191575,
        "country_id": 85633793,
        "county_id": 102085387,
        "custom_id": 2048536531,
        "flight_id": 2048536531,
        "region_id": 85688637,
        "venue_id": 1947304285,
        "wing_id": 1947304259
      }
    ],
    "wof:id": 2048536531,
    "wof:involves": [
      1377564295,
      102527513,
      102527209,
      1159284401,
      1947304285,
      1360700749
    ],
    "wof:lastmodified": 1791476300,
    "wof:name": "F94401 (LAS-SFO)",
    "wof:parent_id": 1947304285,
    "wof:placetype": "custom",
    "wof:placetype_alt": [
      "flight"
    ],
    "wof:repo": "sfomuseum-data-flights-2026-10",
    "wof:superseded_by": [],
    "wof:supersedes": []
  },
  "bbox": [
    -122.370943,
    36.081003,
    -115.15644,
    37.61799
  ],
  "geometry": {"type":"MultiPoint","coordinates":[[-115.15644,36.081003],[-122.370943,37.61799]]}
}
