{
  "id": 2048515801,
  "type": "Feature",
  "properties": {
    "geom:area": 0,
    "geom:bbox": "-122.554330,36.721590,-122.355850,37.706240",
    "geom:latitude": 37.25247002177126,
    "geom:longitude": -122.48439361014715,
    "src:alt_label": "swim-takeoff",
    "src:geom": "swim",
    "swim:elevations": [
      274,
      723,
      885,
      1025,
      1426,
      1635,
      2000,
      2772,
      2995,
      3383,
      3782,
      3941,
      4288,
      4713,
      4977,
      5254,
      5632,
      6105,
      6484,
      6552,
      7497,
      7955,
      8016,
      8209,
      8514,
      8637,
      8901,
      9056,
      9221,
      9293,
      9353
    ],
    "swim:geom": "takeoff",
    "swim:timestamps": [
      1791119777,
      1791119815,
      1791119834,
      1791119854,
      1791119907,
      1791119923,
      1791119947,
      1791119994,
      1791120008,
      1791120031,
      1791120074,
      1791120099,
      1791120129,
      1791120162,
      1791120178,
      1791120196,
      1791120227,
      1791120266,
      1791120297,
      1791120303,
      1791120349,
      1791120383,
      1791120396,
      1791120411,
      1791120437,
      1791120452,
      1791120477,
      1791120500,
      1791120522,
      1791120532,
      1791120541
    ],
    "wof:geomhash": "74a61dbe3e2eedec5879668d63506b4c",
    "wof:id": 2048515801,
    "wof:repo": "sfomuseum-data-flights-2026-10"
  },
  "bbox": [
    -122.55433,
    36.72159,
    -122.35585,
    37.70624
  ],
  "geometry": {"type":"LineString","coordinates":[[-122.36311,37.63917],[-122.36299,37.66904],[-122.36623,37.68398],[-122.38283,37.69404],[-122.45276,37.70624],[-122.47052,37.69149],[-122.47574,37.66186],[-122.48126,37.60222],[-122.48414,37.58235],[-122.48852,37.55177],[-122.49677,37.49145],[-122.50247,37.45098],[-122.50933,37.39845],[-122.51741,37.34015],[-122.5216,37.31078],[-122.52608,37.27865],[-122.53352,37.22486],[-122.54372,37.15261],[-122.55145,37.09691],[-122.55319,37.08433],[-122.55433,37.0036],[-122.5255,36.95208],[-122.51114,36.93311],[-122.49528,36.91071],[-122.46759,36.87281],[-122.45243,36.85237],[-122.42533,36.81608],[-122.40066,36.78265],[-122.3767,36.74993],[-122.36589,36.73517],[-122.35585,36.72159]]}
}
