{
  "id": 2048518657,
  "type": "Feature",
  "properties": {
    "geom:area": 0,
    "geom:bbox": "-123.220780,37.374310,-122.125830,38.511830",
    "geom:latitude": 37.85623304894501,
    "geom:longitude": -122.59262688782322,
    "src:alt_label": "swim-approach",
    "src:geom": "swim",
    "swim:elevations": [
      7468,
      7242,
      6930,
      6674,
      6336,
      6114,
      5810,
      5563,
      5394,
      5238,
      5141,
      4983,
      4850,
      4798,
      4546,
      4422,
      4161,
      4071,
      3771,
      3691,
      3657,
      3572,
      3475,
      3353,
      3353,
      3353,
      3307,
      3081,
      2936,
      2766,
      2534,
      2435,
      2348,
      2336,
      2211,
      2001,
      1763,
      1530,
      1290,
      1069,
      937,
      803,
      690,
      528,
      436,
      364,
      220,
      121,
      6
    ],
    "swim:geom": "approach",
    "swim:timestamps": [
      1791188622,
      1791188651,
      1791188689,
      1791188716,
      1791188750,
      1791188775,
      1791188811,
      1791188843,
      1791188878,
      1791188904,
      1791188918,
      1791188945,
      1791188964,
      1791188978,
      1791189014,
      1791189038,
      1791189078,
      1791189094,
      1791189143,
      1791189154,
      1791189167,
      1791189198,
      1791189216,
      1791189259,
      1791189271,
      1791189326,
      1791189339,
      1791189375,
      1791189399,
      1791189431,
      1791189470,
      1791189504,
      1791189536,
      1791189540,
      1791189571,
      1791189616,
      1791189654,
      1791189684,
      1791189708,
      1791189732,
      1791189750,
      1791189787,
      1791189813,
      1791189851,
      1791189870,
      1791189891,
      1791189926,
      1791189950,
      1791189978
    ],
    "wof:geomhash": "8b09194ea0823eb2b2d40e77a3ce680a",
    "wof:id": 2048518657,
    "wof:repo": "sfomuseum-data-flights-2026-10"
  },
  "bbox": [
    -123.22078,
    37.37431,
    -122.12583,
    38.51183
  ],
  "geometry": {"type":"LineString","coordinates":[[-123.22078,38.51183],[-123.16165,38.47459],[-123.08566,38.42251],[-123.04233,38.38121],[-122.99721,38.32431],[-122.96516,38.28233],[-122.92136,38.22481],[-122.88503,38.17734],[-122.84814,38.129],[-122.82152,38.0944],[-122.80669,38.07492],[-122.7801,38.03994],[-122.76082,38.01463],[-122.74672,37.99625],[-122.71158,37.94995],[-122.68836,37.91929],[-122.64549,37.87322],[-122.6265,37.85543],[-122.5699,37.80215],[-122.55713,37.79013],[-122.54351,37.77728],[-122.5104,37.74578],[-122.49157,37.72793],[-122.44871,37.6878],[-122.43671,37.67649],[-122.38238,37.62533],[-122.36944,37.61316],[-122.34652,37.57418],[-122.33196,37.54657],[-122.31159,37.51244],[-122.29327,37.46914],[-122.30388,37.43009],[-122.28582,37.39569],[-122.28289,37.39165],[-122.24613,37.37431],[-122.18883,37.39732],[-122.15142,37.42949],[-122.13509,37.46034],[-122.12583,37.48362],[-122.13723,37.50578],[-122.15223,37.52027],[-122.19043,37.54093],[-122.21655,37.55203],[-122.25272,37.56734],[-122.2705,37.5748],[-122.28789,37.5821],[-122.31625,37.59407],[-122.33587,37.60229],[-122.35855,37.61187]]}
}
