{
  "id": 2048511099,
  "type": "Feature",
  "properties": {
    "geom:area": 0,
    "geom:bbox": "-122.356630,37.491400,-121.279030,37.613860",
    "geom:latitude": 37.54466830587578,
    "geom:longitude": -121.82264399880798,
    "src:alt_label": "swim-approach",
    "src:geom": "swim",
    "swim:elevations": [
      4551,
      4497,
      4392,
      4365,
      4357,
      4252,
      2953,
      2813,
      2531,
      2531,
      2421,
      2272,
      2089,
      1939,
      1761,
      1521,
      1370,
      1179,
      957,
      777,
      663,
      581,
      431,
      334,
      151,
      0
    ],
    "swim:geom": "approach",
    "swim:timestamps": [
      1791104237,
      1791104244,
      1791104254,
      1791104258,
      1791104260,
      1791104273,
      1791104481,
      1791104501,
      1791104544,
      1791104550,
      1791104568,
      1791104593,
      1791104623,
      1791104657,
      1791104693,
      1791104727,
      1791104750,
      1791104780,
      1791104813,
      1791104838,
      1791104858,
      1791104873,
      1791104900,
      1791104922,
      1791104964,
      1791104992
    ],
    "wof:geomhash": "3156c0e0f158686b4c28c28d740c1413",
    "wof:id": 2048511099,
    "wof:repo": "sfomuseum-data-flights-2026-10"
  },
  "bbox": [
    -122.35663,
    37.4914,
    -121.27903,
    37.61386
  ],
  "geometry": {"type":"LineString","coordinates":[[-121.27903,37.59031],[-121.29144,37.58886],[-121.30834,37.58714],[-121.31596,37.58638],[-121.31813,37.58616],[-121.34036,37.58394],[-121.67815,37.53803],[-121.70914,37.53062],[-121.77432,37.51499],[-121.78253,37.51303],[-121.8106,37.50634],[-121.84854,37.49728],[-121.8941,37.4914],[-121.94725,37.49278],[-122.00069,37.49876],[-122.05013,37.51489],[-122.08369,37.52576],[-122.12556,37.53927],[-122.17399,37.55489],[-122.20574,37.56522],[-122.23024,37.57319],[-122.24744,37.57884],[-122.27602,37.58743],[-122.29836,37.59392],[-122.33595,37.605],[-122.35663,37.61386]]}
}
