{
  "id": 2048521053,
  "type": "Feature",
  "properties": {
    "geom:area": 0,
    "geom:bbox": "-122.760040,38.184770,-122.685690,38.516940",
    "geom:latitude": 38.351840412022355,
    "geom:longitude": -122.72971487598969,
    "src:alt_label": "swim-approach",
    "src:geom": "swim",
    "swim:elevations": [
      7280,
      6874,
      6847,
      6565,
      6365,
      6089,
      5937,
      5657
    ],
    "swim:geom": "approach",
    "swim:timestamps": [
      1791214934,
      1791214978,
      1791214983,
      1791215013,
      1791215036,
      1791215067,
      1791215084,
      1791215118
    ],
    "wof:geomhash": "21415afa37ae484ce98e3a8a7336ffd2",
    "wof:id": 2048521053,
    "wof:repo": "sfomuseum-data-flights-2026-10"
  },
  "bbox": [
    -122.76004,
    38.18477,
    -122.68569,
    38.51694
  ],
  "geometry": {"type":"LineString","coordinates":[[-122.68569,38.51694],[-122.70801,38.4373],[-122.71033,38.42901],[-122.72606,38.37332],[-122.73765,38.33193],[-122.75277,38.27729],[-122.76004,38.2462],[-122.75588,38.18477]]}
}
