{
  "id": 2048495971,
  "type": "Feature",
  "properties": {
    "date:inception_lower": "2026-10-02",
    "date:inception_upper": "2026-10-02",
    "edtf:cessation": "",
    "edtf:inception": "2026-10-02",
    "flysfo:actual_timestamp": -1,
    "flysfo:airline": "NZ",
    "flysfo:base_airline": "",
    "flysfo:base_flight_number": "9254",
    "flysfo:date": "2026-10-02",
    "flysfo:estimated_timestamp": 1791006420,
    "flysfo:event": "D",
    "flysfo:flight_number": "NZ9254",
    "flysfo:gate": "E5",
    "flysfo:journey": "SFO-LAX",
    "flysfo:scheduled_timestamp": 1791006600,
    "flysfo:timestamp": 1791006600,
    "geom:area": 0,
    "geom:bbox": "-122.370943,33.942593,-118.389510,37.617990",
    "geom:latitude": 35.780291500000004,
    "geom:longitude": -120.38022649999999,
    "iata:airline": "NZ",
    "iata:base_airline": "",
    "icao:airline": "ANZ",
    "icao:base_airline": "ANZ",
    "lbl:latitude": 37.618486,
    "lbl:longitude": -122.384457,
    "sfomuseum:airline_id": 1159283697,
    "sfomuseum:arrival_id": 102533795,
    "sfomuseum:base_flight_id": "20261002-D-ANZ-9254",
    "sfomuseum:departure_id": 102527513,
    "sfomuseum:flight_id": "20261002-D-ANZ-9254",
    "sfomuseum:flight_number": [
      "ANZ9254",
      "NZ9254"
    ],
    "sfomuseum:placetype": "flight",
    "src:geom": "flysfo",
    "wof:belongsto": [
      1947304067,
      102527513,
      1947304511,
      102191575,
      85633793,
      102087579,
      85922583,
      554784711,
      85688637,
      1947304525,
      1947304447,
      102085387
    ],
    "wof:country": "US",
    "wof:created": 1791043895,
    "wof:geomhash": "602be2a828e3460cadf44be5b1c2e36b",
    "wof:hierarchy": [
      {
        "building_id": 1947304067,
        "campus_id": 102527513,
        "concourse_id": 1947304511,
        "continent_id": 102191575,
        "country_id": 85633793,
        "county_id": 102087579,
        "custom_id": 2048495971,
        "flight_id": 2048495971,
        "locality_id": 85922583,
        "postalcode_id": 554784711,
        "region_id": 85688637,
        "venue_id": 1947304525,
        "wing_id": 1947304447
      },
      {
        "building_id": 1947304067,
        "campus_id": 102527513,
        "concourse_id": 1947304511,
        "continent_id": 102191575,
        "country_id": 85633793,
        "county_id": 102085387,
        "custom_id": 2048495971,
        "flight_id": 2048495971,
        "region_id": 85688637,
        "venue_id": 1947304525,
        "wing_id": 1947304447
      }
    ],
    "wof:id": 2048495971,
    "wof:involves": [
      102533795,
      102527513,
      1159283697,
      1947304525,
      1159283697
    ],
    "wof:lastmodified": 1791043895,
    "wof:name": "NZ9254 (SFO-LAX)",
    "wof:parent_id": 1947304525,
    "wof:placetype": "custom",
    "wof:placetype_alt": [
      "flight"
    ],
    "wof:repo": "sfomuseum-data-flights-2026-10",
    "wof:superseded_by": [],
    "wof:supersedes": []
  },
  "bbox": [
    -122.370943,
    33.942593,
    -118.38951,
    37.61799
  ],
  "geometry": {"type":"MultiPoint","coordinates":[[-122.370943,37.61799],[-118.38951,33.942593]]}
}
