{
  "id": 2048558773,
  "type": "Feature",
  "properties": {
    "geom:area": 0,
    "geom:bbox": "-122.356620,37.641120,-121.252440,37.964240",
    "geom:latitude": 37.84033693897151,
    "geom:longitude": -121.81745265501497,
    "src:alt_label": "swim-takeoff",
    "src:geom": "swim",
    "swim:elevations": [
      327,
      627,
      675,
      907,
      1029,
      1142,
      1401,
      1735,
      2093,
      2115,
      2658,
      2785,
      3284,
      3490,
      3673,
      3772,
      4132,
      4505,
      4720,
      5084,
      5186,
      5628,
      5870,
      5980,
      6050,
      6156
    ],
    "swim:geom": "takeoff",
    "swim:timestamps": [
      1791533510,
      1791533543,
      1791533554,
      1791533585,
      1791533607,
      1791533617,
      1791533638,
      1791533667,
      1791533697,
      1791533700,
      1791533750,
      1791533761,
      1791533816,
      1791533834,
      1791533851,
      1791533861,
      1791533897,
      1791533933,
      1791533953,
      1791533996,
      1791534008,
      1791534052,
      1791534086,
      1791534114,
      1791534135,
      1791534164
    ],
    "wof:geomhash": "4865465145660acec4d75c900dfa1288",
    "wof:id": 2048558773,
    "wof:repo": "sfomuseum-data-flights-2026-10"
  },
  "bbox": [
    -122.35662,
    37.64112,
    -121.25244,
    37.96424
  ],
  "geometry": {"type":"LineString","coordinates":[[-122.35662,37.64112],[-122.32874,37.65806],[-122.31685,37.66423],[-122.28286,37.68198],[-122.25663,37.69579],[-122.24347,37.70266],[-122.21629,37.71669],[-122.17784,37.73659],[-122.1371,37.75783],[-122.13303,37.75997],[-122.06354,37.79591],[-122.04771,37.80411],[-121.96052,37.83495],[-121.92711,37.84129],[-121.89778,37.84668],[-121.87943,37.85001],[-121.81025,37.86212],[-121.74049,37.87486],[-121.70176,37.88208],[-121.61668,37.89785],[-121.59294,37.90224],[-121.50145,37.91911],[-121.43082,37.93195],[-121.36918,37.94313],[-121.32179,37.95169],[-121.25244,37.96424]]}
}
