{
  "id": 2048489641,
  "type": "Feature",
  "properties": {
    "geom:area": 0,
    "geom:bbox": "-122.557690,36.750620,-122.323000,37.696080",
    "geom:latitude": 37.238975446953525,
    "geom:longitude": -122.47073971591378,
    "src:alt_label": "swim-takeoff",
    "src:geom": "swim",
    "swim:elevations": [
      183,
      430,
      1012,
      1166,
      1549,
      1657,
      2309,
      2526,
      3159,
      3403,
      3786,
      3908,
      4422,
      4870,
      5106,
      5205,
      5357,
      5834,
      5965,
      6543,
      6765,
      6892,
      7216,
      7686,
      7939,
      8238,
      8349
    ],
    "swim:geom": "takeoff",
    "swim:timestamps": [
      1790850461,
      1790850487,
      1790850533,
      1790850553,
      1790850592,
      1790850605,
      1790850653,
      1790850667,
      1790850715,
      1790850737,
      1790850771,
      1790850780,
      1790850822,
      1790850863,
      1790850885,
      1790850895,
      1790850909,
      1790850952,
      1790850963,
      1790851018,
      1790851045,
      1790851057,
      1790851086,
      1790851129,
      1790851163,
      1790851196,
      1790851209
    ],
    "wof:geomhash": "a3a763173391659fe6a2f8a955e3c568",
    "wof:id": 2048489641,
    "wof:repo": "sfomuseum-data-flights-2026-10"
  },
  "bbox": [
    -122.55769,
    36.75062,
    -122.323,
    37.69608
  ],
  "geometry": {"type":"LineString","coordinates":[[-122.36736,37.63217],[-122.3639,37.65223],[-122.37445,37.68816],[-122.39559,37.69608],[-122.43987,37.68139],[-122.44334,37.66725],[-122.44722,37.60663],[-122.45024,37.58959],[-122.46194,37.52543],[-122.46775,37.49521],[-122.47811,37.44478],[-122.48076,37.43072],[-122.49417,37.36668],[-122.50498,37.30236],[-122.51223,37.26565],[-122.51522,37.25077],[-122.5201,37.22653],[-122.53464,37.15499],[-122.53842,37.13685],[-122.55769,37.04077],[-122.55286,36.99354],[-122.54119,36.97385],[-122.5064,36.92934],[-122.44296,36.86703],[-122.39311,36.818],[-122.34216,36.76888],[-122.323,36.75062]]}
}
