{
  "id": 2048481831,
  "type": "Feature",
  "properties": {
    "geom:area": 0,
    "geom:bbox": "-122.350940,37.491840,-121.266770,37.610900",
    "geom:latitude": 37.54563788102575,
    "geom:longitude": -121.8135111163884,
    "src:alt_label": "swim-approach",
    "src:geom": "swim",
    "swim:elevations": [
      4708,
      4461,
      4259,
      4075,
      3732,
      3477,
      3304,
      3136,
      3007,
      2763,
      2556,
      2254,
      2075,
      2054,
      1979,
      1848,
      1833,
      1687,
      1596,
      1478,
      1423,
      1152,
      1110,
      884,
      717,
      490,
      434,
      271,
      158,
      74
    ],
    "swim:geom": "approach",
    "swim:timestamps": [
      1790887315,
      1790887344,
      1790887368,
      1790887389,
      1790887432,
      1790887467,
      1790887488,
      1790887514,
      1790887532,
      1790887566,
      1790887597,
      1790887643,
      1790887677,
      1790887682,
      1790887703,
      1790887737,
      1790887740,
      1790887765,
      1790887778,
      1790887798,
      1790887810,
      1790887854,
      1790887861,
      1790887901,
      1790887930,
      1790887972,
      1790887987,
      1790888022,
      1790888052,
      1790888076
    ],
    "wof:geomhash": "2d1c549a7324247de78aa3a44e89a499",
    "wof:id": 2048481831,
    "wof:repo": "sfomuseum-data-flights-2026-10"
  },
  "bbox": [
    -122.35094,
    37.49184,
    -121.26677,
    37.6109
  ],
  "geometry": {"type":"LineString","coordinates":[[-121.26677,37.59227],[-121.32768,37.5853],[-121.37543,37.5799],[-121.41701,37.57504],[-121.50193,37.56523],[-121.56618,37.55765],[-121.60386,37.55322],[-121.64812,37.54488],[-121.67757,37.538],[-121.73256,37.52494],[-121.7808,37.51347],[-121.84915,37.49711],[-121.89874,37.49184],[-121.90674,37.49196],[-121.93606,37.49263],[-121.9818,37.49481],[-121.9859,37.49559],[-122.01881,37.50494],[-122.03456,37.51001],[-122.06122,37.51856],[-122.07521,37.52305],[-122.13049,37.54099],[-122.13886,37.5437],[-122.1868,37.55911],[-122.22,37.56987],[-122.26433,37.58403],[-122.27893,37.58821],[-122.30908,37.59711],[-122.33307,37.60435],[-122.35094,37.6109]]}
}
