{
  "id": 2048542133,
  "type": "Feature",
  "properties": {
    "geom:area": 0,
    "geom:bbox": "-122.363190,37.632890,-121.437430,38.513640",
    "geom:latitude": 38.068636763997354,
    "geom:longitude": -121.8973289833727,
    "src:alt_label": "swim-takeoff",
    "src:geom": "swim",
    "swim:elevations": [
      152,
      670,
      933,
      1037,
      1087,
      1185,
      1216,
      1700,
      1845,
      2278,
      2424,
      2946,
      3225,
      3499,
      3788,
      4167,
      4545,
      4655,
      4698,
      4788,
      4826,
      4975,
      5166,
      5543,
      5575,
      5655,
      5898,
      6186,
      6218,
      6365
    ],
    "swim:geom": "takeoff",
    "swim:timestamps": [
      1791363273,
      1791363326,
      1791363358,
      1791363381,
      1791363390,
      1791363413,
      1791363423,
      1791363477,
      1791363489,
      1791363527,
      1791363544,
      1791363595,
      1791363620,
      1791363644,
      1791363671,
      1791363702,
      1791363746,
      1791363773,
      1791363781,
      1791363808,
      1791363818,
      1791363843,
      1791363872,
      1791363926,
      1791363931,
      1791363942,
      1791363977,
      1791364018,
      1791364027,
      1791364063
    ],
    "wof:geomhash": "8feebfa26029843d5ba09937e6cbceb0",
    "wof:id": 2048542133,
    "wof:repo": "sfomuseum-data-flights-2026-10"
  },
  "bbox": [
    -122.36319,
    37.63289,
    -121.43743,
    38.51364
  ],
  "geometry": {"type":"LineString","coordinates":[[-122.36319,37.63289],[-122.31832,37.66172],[-122.28796,37.67863],[-122.26584,37.69114],[-122.25685,37.69613],[-122.22911,37.71027],[-122.21728,37.71763],[-122.16425,37.77236],[-122.15296,37.78512],[-122.11563,37.82732],[-122.09856,37.84595],[-122.0454,37.90427],[-122.01864,37.93399],[-121.99283,37.9626],[-121.96434,37.99406],[-121.93047,38.03134],[-121.88387,38.08232],[-121.85321,38.11578],[-121.84416,38.12558],[-121.81155,38.16118],[-121.79908,38.17469],[-121.76778,38.20884],[-121.72926,38.25093],[-121.65677,38.32986],[-121.65062,38.33649],[-121.63562,38.35276],[-121.58798,38.40444],[-121.52213,38.46108],[-121.50616,38.47147],[-121.43743,38.51364]]}
}
