{
  "id": 2048555657,
  "type": "Feature",
  "properties": {
    "geom:area": 0,
    "geom:bbox": "-122.364120,36.718780,-121.875960,37.615920",
    "geom:latitude": 37.22581989002118,
    "geom:longitude": -122.13136798952473,
    "src:alt_label": "swim-approach",
    "src:geom": "swim",
    "swim:elevations": [
      5319,
      5162,
      4823,
      4706,
      4507,
      4045,
      3860,
      3657,
      3509,
      3260,
      3197,
      3168,
      3080,
      3075,
      3016,
      2983,
      2912,
      2834,
      2689,
      2469,
      2224,
      2126,
      1925,
      1804,
      1759,
      1531,
      1340,
      1219,
      1219,
      1246,
      1219,
      1137,
      1004,
      961,
      814,
      722,
      680,
      593,
      411,
      302,
      180,
      53,
      0
    ],
    "swim:geom": "approach",
    "swim:timestamps": [
      1791578034,
      1791578052,
      1791578092,
      1791578108,
      1791578132,
      1791578185,
      1791578218,
      1791578247,
      1791578268,
      1791578307,
      1791578320,
      1791578336,
      1791578366,
      1791578370,
      1791578393,
      1791578406,
      1791578423,
      1791578439,
      1791578469,
      1791578507,
      1791578545,
      1791578557,
      1791578589,
      1791578607,
      1791578613,
      1791578645,
      1791578675,
      1791578708,
      1791578741,
      1791578772,
      1791578798,
      1791578825,
      1791578855,
      1791578876,
      1791578906,
      1791578929,
      1791578941,
      1791578957,
      1791578995,
      1791579022,
      1791579053,
      1791579085,
      1791579100
    ],
    "wof:geomhash": "b820b034874fd3f6388ab5a6bed40334",
    "wof:id": 2048555657,
    "wof:repo": "sfomuseum-data-flights-2026-10"
  },
  "bbox": [
    -122.36412,
    36.71878,
    -121.87596,
    37.61592
  ],
  "geometry": {"type":"LineString","coordinates":[[-121.87596,36.71878],[-121.89231,36.74487],[-121.9128,36.80828],[-121.91972,36.83304],[-121.93035,36.87027],[-121.9558,36.95139],[-121.99224,36.99334],[-122.02547,37.03013],[-122.04928,37.05668],[-122.09192,37.10503],[-122.10556,37.12051],[-122.12154,37.13867],[-122.15035,37.17136],[-122.15367,37.17513],[-122.17455,37.19894],[-122.18576,37.21172],[-122.20234,37.22659],[-122.21813,37.2393],[-122.24768,37.26307],[-122.28431,37.29267],[-122.31615,37.32367],[-122.31813,37.33626],[-122.29275,37.36241],[-122.27167,37.37273],[-122.26457,37.37613],[-122.22688,37.39407],[-122.19117,37.41039],[-122.15655,37.43065],[-122.13144,37.45408],[-122.12153,37.47768],[-122.13484,37.495],[-122.14855,37.5115],[-122.16397,37.5296],[-122.17908,37.5386],[-122.20396,37.54926],[-122.22356,37.55731],[-122.23362,37.56154],[-122.24788,37.56748],[-122.28075,37.58147],[-122.30175,37.59015],[-122.3261,37.60049],[-122.35143,37.61116],[-122.36412,37.61592]]}
}
