{
  "id": 2048546587,
  "type": "Feature",
  "properties": {
    "geom:area": 0,
    "geom:bbox": "-122.357870,37.491640,-121.243400,37.613860",
    "geom:latitude": 37.54710176770357,
    "geom:longitude": -121.805576644451,
    "src:alt_label": "swim-approach",
    "src:geom": "swim",
    "swim:elevations": [
      4392,
      4360,
      3956,
      3709,
      3581,
      3140,
      3100,
      3011,
      2914,
      2675,
      2622,
      2546,
      2298,
      2255,
      2025,
      1860,
      1696,
      1475,
      1340,
      1235,
      1068,
      976,
      775,
      610,
      409,
      393,
      391,
      271,
      158,
      56,
      115
    ],
    "swim:geom": "approach",
    "swim:timestamps": [
      1791460047,
      1791460051,
      1791460097,
      1791460126,
      1791460140,
      1791460198,
      1791460220,
      1791460249,
      1791460263,
      1791460306,
      1791460315,
      1791460329,
      1791460372,
      1791460381,
      1791460426,
      1791460465,
      1791460489,
      1791460521,
      1791460543,
      1791460562,
      1791460608,
      1791460629,
      1791460666,
      1791460699,
      1791460737,
      1791460740,
      1791460749,
      1791460771,
      1791460796,
      1791460820,
      1791460830
    ],
    "wof:geomhash": "b85500dba6742e1e6a758c9b7f18897b",
    "wof:id": 2048546587,
    "wof:repo": "sfomuseum-data-flights-2026-10"
  },
  "bbox": [
    -122.35787,
    37.49164,
    -121.2434,
    37.61386
  ],
  "geometry": {"type":"LineString","coordinates":[[-121.2434,37.59529],[-121.25155,37.59417],[-121.34732,37.58283],[-121.40701,37.57623],[-121.4351,37.57301],[-121.54934,37.5597],[-121.58854,37.55508],[-121.63889,37.54716],[-121.66306,37.54178],[-121.73057,37.52561],[-121.74438,37.52227],[-121.76691,37.51681],[-121.83197,37.50113],[-121.84529,37.49792],[-121.91509,37.49164],[-121.9742,37.49368],[-122.00949,37.50154],[-122.05185,37.51531],[-122.07892,37.52427],[-122.10055,37.53138],[-122.14821,37.54676],[-122.16916,37.55354],[-122.20858,37.56624],[-122.24306,37.57738],[-122.28202,37.58937],[-122.28477,37.59018],[-122.29238,37.59233],[-122.31192,37.59761],[-122.33181,37.60399],[-122.35049,37.61067],[-122.35787,37.61386]]}
}
