{
  "id": 2048484675,
  "type": "Feature",
  "properties": {
    "geom:area": 0,
    "geom:bbox": "-123.497250,36.903720,-122.132510,37.610810",
    "geom:latitude": 37.27017415301317,
    "geom:longitude": -122.73099615612702,
    "src:alt_label": "swim-approach",
    "src:geom": "swim",
    "swim:elevations": [
      6218,
      5818,
      5639,
      5456,
      5317,
      5157,
      4852,
      4627,
      4355,
      4108,
      4069,
      3911,
      3853,
      3576,
      3347,
      3048,
      3048,
      2986,
      2988,
      2900,
      2793,
      2567,
      2499,
      2415,
      2279,
      2127,
      1968,
      1849,
      1829,
      1829,
      1829,
      1829,
      1694,
      1575,
      1272,
      1219,
      1219,
      1211,
      1189,
      1008,
      845,
      790,
      599,
      408,
      384,
      241,
      101,
      32
    ],
    "swim:geom": "approach",
    "swim:timestamps": [
      1790882585,
      1790882625,
      1790882657,
      1790882679,
      1790882697,
      1790882717,
      1790882757,
      1790882784,
      1790882818,
      1790882847,
      1790882853,
      1790882871,
      1790882881,
      1790882913,
      1790882941,
      1790882995,
      1790883009,
      1790883040,
      1790883046,
      1790883077,
      1790883101,
      1790883145,
      1790883167,
      1790883197,
      1790883216,
      1790883241,
      1790883262,
      1790883283,
      1790883325,
      1790883347,
      1790883376,
      1790883411,
      1790883442,
      1790883460,
      1790883508,
      1790883538,
      1790883553,
      1790883579,
      1790883584,
      1790883612,
      1790883637,
      1790883650,
      1790883676,
      1790883717,
      1790883724,
      1790883756,
      1790883793,
      1790883811
    ],
    "wof:geomhash": "6f3b659f52a299737d86172af18e7d7b",
    "wof:id": 2048484675,
    "wof:repo": "sfomuseum-data-flights-2026-10"
  },
  "bbox": [
    -123.49725,
    36.90372,
    -122.13251,
    37.61081
  ],
  "geometry": {"type":"LineString","coordinates":[[-123.49725,36.90372],[-123.43134,36.94238],[-123.37761,36.97139],[-123.34089,36.99175],[-123.31346,37.00774],[-123.27956,37.02662],[-123.21568,37.06224],[-123.17104,37.08709],[-123.11791,37.11651],[-123.0715,37.14233],[-123.06249,37.14738],[-123.03284,37.16394],[-123.01818,37.17216],[-122.96889,37.19958],[-122.92611,37.22314],[-122.84101,37.26246],[-122.81913,37.26759],[-122.76887,37.27956],[-122.75987,37.28171],[-122.71521,37.29234],[-122.6826,37.29997],[-122.62121,37.31412],[-122.59072,37.32133],[-122.54974,37.33066],[-122.52412,37.33654],[-122.4901,37.34442],[-122.46111,37.35125],[-122.43326,37.35764],[-122.37777,37.37026],[-122.34925,37.37695],[-122.31032,37.3859],[-122.26367,37.39647],[-122.22265,37.40591],[-122.19866,37.4115],[-122.14701,37.43936],[-122.13251,37.46986],[-122.13426,37.48545],[-122.15261,37.50814],[-122.15603,37.512],[-122.17667,37.53346],[-122.2018,37.54561],[-122.21488,37.55151],[-122.24185,37.56293],[-122.27857,37.57818],[-122.28484,37.58083],[-122.3123,37.59242],[-122.34231,37.60494],[-122.3562,37.61081]]}
}
