{
  "id": 2048496333,
  "type": "Feature",
  "properties": {
    "date:cessation_lower": "1970-01-01",
    "date:cessation_upper": "1970-01-01",
    "date:inception_lower": "2026-10-02",
    "date:inception_upper": "2026-10-02",
    "edtf:cessation": "1970-01-01T00:00:00Z",
    "edtf:inception": "2026-10-02T03:58:22-07:00",
    "flysfo:actual_timestamp": -1,
    "flysfo:airline": "AS",
    "flysfo:base_airline": "",
    "flysfo:base_flight_number": "9434",
    "flysfo:date": "2026-10-02",
    "flysfo:estimated_timestamp": 1790963040,
    "flysfo:event": "D",
    "flysfo:flight_number": "AS718",
    "flysfo:gate": "B7",
    "flysfo:journey": "SFO-LAS",
    "flysfo:scheduled_timestamp": 1790963040,
    "flysfo:timestamp": 1790963040,
    "geom:area": 0,
    "geom:bbox": "-122.370943,36.081003,-115.156440,37.617990",
    "geom:latitude": 36.8494965,
    "geom:longitude": -118.7636915,
    "iata:airline": "AS",
    "iata:base_airline": "",
    "icao:aircraft": "B39M",
    "icao:airline": "ASA",
    "icao:base_airline": "AAL",
    "lbl:latitude": 37.61799,
    "lbl:longitude": -122.370943,
    "sfomuseum:aircraft_id": 1528104577,
    "sfomuseum:airline_id": 1159283813,
    "sfomuseum:arrival_id": 102527209,
    "sfomuseum:base_flight_id": "20261002-D-AAL-9434",
    "sfomuseum:departure_id": 102527513,
    "sfomuseum:flight_id": "20261002-D-ASA-718",
    "sfomuseum:flight_number": [
      "ASA718",
      "AS718"
    ],
    "sfomuseum:placetype": "flight",
    "src:geom": "flysfo",
    "src:geom_alt": [
      "swim-takeoff"
    ],
    "swim:tail_number": "N938AK",
    "wof:belongsto": [
      1947304067,
      102527513,
      1947304261,
      102191575,
      85633793,
      102087579,
      85922583,
      554784711,
      85688637,
      1947304293,
      1947304259,
      102085387
    ],
    "wof:country": "US",
    "wof:created": 1791043935,
    "wof:geomhash": "ccf694144ef1f7a2823fe9bc7c6018ea",
    "wof:hierarchy": [
      {
        "building_id": 1947304067,
        "campus_id": 102527513,
        "concourse_id": 1947304261,
        "continent_id": 102191575,
        "country_id": 85633793,
        "county_id": 102087579,
        "custom_id": 2048496333,
        "flight_id": 2048496333,
        "locality_id": 85922583,
        "postalcode_id": 554784711,
        "region_id": 85688637,
        "venue_id": 1947304293,
        "wing_id": 1947304259
      },
      {
        "building_id": 1947304067,
        "campus_id": 102527513,
        "concourse_id": 1947304261,
        "continent_id": 102191575,
        "country_id": 85633793,
        "county_id": 102085387,
        "custom_id": 2048496333,
        "flight_id": 2048496333,
        "region_id": 85688637,
        "venue_id": 1947304293,
        "wing_id": 1947304259
      }
    ],
    "wof:id": 2048496333,
    "wof:involves": [
      102527513,
      1159283813,
      1947304293,
      1159283849,
      1528104577,
      102527209
    ],
    "wof:lastmodified": 1791044309,
    "wof:name": "AS718 (SFO-LAS)",
    "wof:parent_id": 1947304293,
    "wof:placetype": "custom",
    "wof:placetype_alt": [
      "flight"
    ],
    "wof:repo": "sfomuseum-data-flights-2026-10",
    "wof:superseded_by": [],
    "wof:supersedes": []
  },
  "bbox": [
    -122.370943,
    36.081003,
    -115.15644,
    37.61799
  ],
  "geometry": {"type":"MultiPoint","coordinates":[[-122.370943,37.61799],[-115.15644,36.081003]]}
}
