{
  "id": 2048490763,
  "type": "Feature",
  "properties": {
    "date:inception_lower": "2026-10-02",
    "date:inception_upper": "2026-10-02",
    "edtf:cessation": "",
    "edtf:inception": "2026-10-02",
    "flysfo:actual_timestamp": -1,
    "flysfo:airline": "AC",
    "flysfo:base_airline": "",
    "flysfo:base_flight_number": "4155",
    "flysfo:date": "2026-10-02",
    "flysfo:estimated_timestamp": 1790958900,
    "flysfo:event": "A",
    "flysfo:flight_number": "AC4155",
    "flysfo:gate": "F6",
    "flysfo:journey": "TUS-SFO",
    "flysfo:scheduled_timestamp": 1790958720,
    "flysfo:timestamp": 1790958900,
    "geom:area": 0,
    "geom:bbox": "-122.370943,32.119362,-110.946818,37.617990",
    "geom:latitude": 34.868676,
    "geom:longitude": -116.6588805,
    "iata:airline": "AC",
    "iata:base_airline": "",
    "icao:airline": "ACA",
    "icao:base_airline": "ACA",
    "lbl:latitude": 37.61799,
    "lbl:longitude": -122.370943,
    "sfomuseum:airline_id": 1159283597,
    "sfomuseum:arrival_id": 102527513,
    "sfomuseum:base_flight_id": "20261002-A-ACA-4155",
    "sfomuseum:departure_id": 102527853,
    "sfomuseum:flight_id": "20261002-A-ACA-4155",
    "sfomuseum:flight_number": [
      "ACA4155",
      "AC4155"
    ],
    "sfomuseum:placetype": "flight",
    "src:geom": "flysfo",
    "wof:belongsto": [
      1947304067,
      102527513,
      1947304451,
      102191575,
      85633793,
      102087579,
      85922583,
      554784711,
      85688637,
      1947304461,
      1947304447,
      102085387
    ],
    "wof:country": "US",
    "wof:created": 1791043309,
    "wof:geomhash": "82918c5e99f5bb53bff81082f1f1666f",
    "wof:hierarchy": [
      {
        "building_id": 1947304067,
        "campus_id": 102527513,
        "concourse_id": 1947304451,
        "continent_id": 102191575,
        "country_id": 85633793,
        "county_id": 102087579,
        "custom_id": 2048490763,
        "flight_id": 2048490763,
        "locality_id": 85922583,
        "postalcode_id": 554784711,
        "region_id": 85688637,
        "venue_id": 1947304461,
        "wing_id": 1947304447
      },
      {
        "building_id": 1947304067,
        "campus_id": 102527513,
        "concourse_id": 1947304451,
        "continent_id": 102191575,
        "country_id": 85633793,
        "county_id": 102085387,
        "custom_id": 2048490763,
        "flight_id": 2048490763,
        "region_id": 85688637,
        "venue_id": 1947304461,
        "wing_id": 1947304447
      }
    ],
    "wof:id": 2048490763,
    "wof:involves": [
      102527513,
      102527853,
      1159283597,
      1947304461,
      1159283597
    ],
    "wof:lastmodified": 1791043309,
    "wof:name": "AC4155 (TUS-SFO)",
    "wof:parent_id": 1947304461,
    "wof:placetype": "custom",
    "wof:placetype_alt": [
      "flight"
    ],
    "wof:repo": "sfomuseum-data-flights-2026-10",
    "wof:superseded_by": [],
    "wof:supersedes": []
  },
  "bbox": [
    -122.370943,
    32.119362,
    -110.946818,
    37.61799
  ],
  "geometry": {"type":"MultiPoint","coordinates":[[-110.946818,32.119362],[-122.370943,37.61799]]}
}
