{
  "id": 2048498255,
  "type": "Feature",
  "properties": {
    "geom:area": 0,
    "geom:bbox": "-122.387020,37.630140,-121.282290,38.157870",
    "geom:latitude": 37.98585749157115,
    "geom:longitude": -121.95104062995287,
    "src:alt_label": "swim-takeoff",
    "src:geom": "swim",
    "swim:elevations": [
      152,
      229,
      642,
      1088,
      1188,
      1379,
      1927,
      2302,
      2785,
      3065,
      3330,
      3687,
      4202,
      4484,
      4862,
      5209,
      5297,
      5503,
      5917,
      5991,
      6438,
      6774,
      7052,
      7318,
      7420,
      7522,
      7847,
      8031,
      8265,
      8477
    ],
    "swim:geom": "takeoff",
    "swim:timestamps": [
      1790985148,
      1790985158,
      1790985191,
      1790985233,
      1790985251,
      1790985281,
      1790985327,
      1790985353,
      1790985388,
      1790985406,
      1790985438,
      1790985465,
      1790985505,
      1790985529,
      1790985565,
      1790985595,
      1790985601,
      1790985622,
      1790985658,
      1790985664,
      1790985706,
      1790985740,
      1790985774,
      1790985804,
      1790985814,
      1790985828,
      1790985868,
      1790985888,
      1790985915,
      1790985939
    ],
    "wof:geomhash": "12e982b5a35f2bb17bffb271e42163c9",
    "wof:id": 2048498255,
    "wof:repo": "sfomuseum-data-flights-2026-10"
  },
  "bbox": [
    -122.38702,
    37.63014,
    -121.28229,
    38.15787
  ],
  "geometry": {"type":"LineString","coordinates":[[-122.36517,37.63014],[-122.36097,37.63629],[-122.33766,37.65584],[-122.31353,37.68354],[-122.31292,37.70051],[-122.32899,37.73187],[-122.35778,37.78679],[-122.37393,37.8187],[-122.38702,37.86584],[-122.38538,37.89077],[-122.36349,37.93402],[-122.31949,37.95376],[-122.24529,37.9684],[-122.19919,37.97752],[-122.12774,37.99204],[-122.06683,38.00426],[-122.0545,38.0068],[-122.01106,38.01554],[-121.93579,38.03061],[-121.92304,38.03317],[-121.8327,38.05111],[-121.75687,38.06609],[-121.68033,38.08122],[-121.61076,38.09478],[-121.58675,38.09951],[-121.55375,38.10597],[-121.45698,38.12486],[-121.4079,38.1336],[-121.34154,38.14655],[-121.28229,38.15787]]}
}
