{
  "id": 2048533233,
  "type": "Feature",
  "properties": {
    "geom:area": 0,
    "geom:bbox": "-122.178150,37.736190,-121.272800,37.960570",
    "geom:latitude": 37.870134291019724,
    "geom:longitude": -121.73261210006795,
    "src:alt_label": "swim-takeoff",
    "src:geom": "swim",
    "swim:elevations": [
      2037,
      2432,
      2875,
      3150,
      3268,
      3600,
      3757,
      3866,
      4222,
      4579,
      4884,
      5266,
      5471,
      5703,
      5960,
      6262,
      6491
    ],
    "swim:geom": "takeoff",
    "swim:timestamps": [
      1791307405,
      1791307430,
      1791307460,
      1791307479,
      1791307500,
      1791307538,
      1791307555,
      1791307569,
      1791307597,
      1791307624,
      1791307656,
      1791307698,
      1791307722,
      1791307744,
      1791307773,
      1791307808,
      1791307840
    ],
    "wof:geomhash": "0e58e8a228519b05b87665654e54afe6",
    "wof:id": 2048533233,
    "wof:repo": "sfomuseum-data-flights-2026-10"
  },
  "bbox": [
    -122.17815,
    37.73619,
    -121.2728,
    37.96057
  ],
  "geometry": {"type":"LineString","coordinates":[[-122.17815,37.73619],[-122.14309,37.75448],[-122.09979,37.77705],[-122.07127,37.79163],[-122.03726,37.80915],[-121.96485,37.83319],[-121.93008,37.83986],[-121.90098,37.8454],[-121.84008,37.85678],[-121.78109,37.86768],[-121.71145,37.8806],[-121.61583,37.89819],[-121.55952,37.90849],[-121.50848,37.91781],[-121.43697,37.93082],[-121.35277,37.94618],[-121.2728,37.96057]]}
}
