{
  "id": 2048485253,
  "type": "Feature",
  "properties": {
    "date:inception_lower": "2026-10-01",
    "date:inception_upper": "2026-10-01",
    "edtf:cessation": "",
    "edtf:inception": "2026-10-01",
    "flysfo:actual_timestamp": -1,
    "flysfo:airline": "UA",
    "flysfo:base_airline": "",
    "flysfo:base_flight_number": "7205",
    "flysfo:date": "2026-10-01",
    "flysfo:estimated_timestamp": 1790887740,
    "flysfo:event": "A",
    "flysfo:flight_number": "UA889",
    "flysfo:gate": "G6",
    "flysfo:journey": "PEK-SFO",
    "flysfo:scheduled_timestamp": 1790888700,
    "flysfo:timestamp": 1790888700,
    "geom:area": 0,
    "geom:bbox": "-122.370943,37.617990,116.586155,40.068469",
    "geom:latitude": 38.8432295,
    "geom:longitude": -2.892393999999996,
    "iata:airline": "UA",
    "iata:base_airline": "",
    "icao:airline": "UAL",
    "icao:base_airline": "CCA",
    "lbl:latitude": 37.618209,
    "lbl:longitude": -122.391665,
    "sfomuseum:airline_id": 1159285413,
    "sfomuseum:arrival_id": 102527513,
    "sfomuseum:base_flight_id": "20261001-A-CCA-7205",
    "sfomuseum:departure_id": 102550367,
    "sfomuseum:flight_id": "20261001-A-UAL-889",
    "sfomuseum:flight_number": [
      "UAL889",
      "UA889"
    ],
    "sfomuseum:placetype": "flight",
    "src:geom": "flysfo",
    "wof:belongsto": [
      1947304067,
      102527513,
      1947304129,
      102191575,
      85633793,
      102087579,
      85922583,
      554784711,
      85688637,
      1947304151,
      1947304069,
      102085387
    ],
    "wof:country": "US",
    "wof:created": 1790957338,
    "wof:geomhash": "96cbe57d72475858a8ed1d7cff76fcd0",
    "wof:hierarchy": [
      {
        "building_id": 1947304067,
        "campus_id": 102527513,
        "concourse_id": 1947304129,
        "continent_id": 102191575,
        "country_id": 85633793,
        "county_id": 102087579,
        "custom_id": 2048485253,
        "flight_id": 2048485253,
        "locality_id": 85922583,
        "postalcode_id": 554784711,
        "region_id": 85688637,
        "venue_id": 1947304151,
        "wing_id": 1947304069
      },
      {
        "building_id": 1947304067,
        "campus_id": 102527513,
        "concourse_id": 1947304129,
        "continent_id": 102191575,
        "country_id": 85633793,
        "county_id": 102085387,
        "custom_id": 2048485253,
        "flight_id": 2048485253,
        "region_id": 85688637,
        "venue_id": 1947304151,
        "wing_id": 1947304069
      }
    ],
    "wof:id": 2048485253,
    "wof:involves": [
      102527513,
      102550367,
      1159285413,
      1947304151,
      1159283605
    ],
    "wof:lastmodified": 1790957338,
    "wof:name": "UA889 (PEK-SFO)",
    "wof:parent_id": 1947304151,
    "wof:placetype": "custom",
    "wof:placetype_alt": [
      "flight"
    ],
    "wof:repo": "sfomuseum-data-flights-2026-10",
    "wof:superseded_by": [],
    "wof:supersedes": []
  },
  "bbox": [
    -122.370943,
    37.61799,
    116.586155,
    40.068469
  ],
  "geometry": {"type":"MultiPoint","coordinates":[[116.586155,40.068469],[-122.370943,37.61799]]}
}
