{
  "id": 2048506413,
  "type": "Feature",
  "properties": {
    "geom:area": 0,
    "geom:bbox": "-122.379670,37.629530,-121.248580,38.155430",
    "geom:latitude": 37.96486473602605,
    "geom:longitude": -121.91756617359626,
    "src:alt_label": "swim-takeoff",
    "src:geom": "swim",
    "swim:elevations": [
      152,
      706,
      963,
      1133,
      1396,
      1632,
      1950,
      2275,
      2658,
      3068,
      3191,
      3378,
      3523,
      3743,
      4207,
      4382,
      4817,
      4959,
      5213,
      5449,
      5738,
      6028,
      6270,
      6540,
      6799,
      6913,
      7189,
      7499
    ],
    "swim:geom": "takeoff",
    "swim:timestamps": [
      1791068204,
      1791068244,
      1791068274,
      1791068299,
      1791068337,
      1791068365,
      1791068391,
      1791068415,
      1791068445,
      1791068481,
      1791068490,
      1791068518,
      1791068548,
      1791068570,
      1791068601,
      1791068623,
      1791068663,
      1791068680,
      1791068697,
      1791068724,
      1791068751,
      1791068782,
      1791068809,
      1791068842,
      1791068875,
      1791068890,
      1791068927,
      1791068966
    ],
    "wof:geomhash": "b1bfa1be02cea490b2c4fb729dffb18f",
    "wof:id": 2048506413,
    "wof:repo": "sfomuseum-data-flights-2026-10"
  },
  "bbox": [
    -122.37967,
    37.62953,
    -121.24858,
    38.15543
  ],
  "geometry": {"type":"LineString","coordinates":[[-122.36547,37.62953],[-122.34136,37.65412],[-122.3205,37.67135],[-122.30532,37.6897],[-122.32513,37.72521],[-122.34257,37.75619],[-122.35876,37.78781],[-122.37345,37.81744],[-122.37967,37.85733],[-122.33921,37.89056],[-122.32451,37.89444],[-122.27655,37.90631],[-122.21846,37.92104],[-122.17503,37.93179],[-122.11041,37.94765],[-122.06477,37.95874],[-121.97935,37.97988],[-121.94198,37.98946],[-121.90328,37.9989],[-121.8426,38.01338],[-121.78216,38.02854],[-121.70973,38.04552],[-121.64558,38.06042],[-121.56574,38.0793],[-121.4842,38.09884],[-121.44653,38.10794],[-121.35075,38.13098],[-121.24858,38.15543]]}
}
