{
  "id": 2048556071,
  "type": "Feature",
  "properties": {
    "geom:area": 0,
    "geom:bbox": "-122.348990,36.729870,-121.884900,37.607800",
    "geom:latitude": 37.214030320711196,
    "geom:longitude": -122.06813488274537,
    "src:alt_label": "swim-approach",
    "src:geom": "swim",
    "swim:elevations": [
      4699,
      4428,
      4339,
      3968,
      3895,
      3541,
      3463,
      3094,
      2889,
      2681,
      2467,
      2438,
      2438,
      2438,
      2335,
      2087,
      1985,
      1706,
      1553,
      1408,
      1138,
      866,
      853,
      635,
      455,
      344,
      332,
      139,
      63
    ],
    "swim:geom": "approach",
    "swim:timestamps": [
      1791545959,
      1791545994,
      1791546006,
      1791546052,
      1791546064,
      1791546110,
      1791546122,
      1791546171,
      1791546201,
      1791546230,
      1791546261,
      1791546281,
      1791546302,
      1791546354,
      1791546382,
      1791546414,
      1791546428,
      1791546473,
      1791546506,
      1791546529,
      1791546561,
      1791546596,
      1791546602,
      1791546654,
      1791546686,
      1791546717,
      1791546721,
      1791546774,
      1791546796
    ],
    "wof:geomhash": "5cce908b72687a4dd4fafcefa8c03830",
    "wof:id": 2048556071,
    "wof:repo": "sfomuseum-data-flights-2026-10"
  },
  "bbox": [
    -122.34899,
    36.72987,
    -121.8849,
    37.6078
  ],
  "geometry": {"type":"LineString","coordinates":[[-121.8849,36.72987],[-121.90522,36.78124],[-121.91004,36.79841],[-121.92945,36.8671],[-121.93433,36.88457],[-121.95319,36.95123],[-121.95935,36.96777],[-121.98582,37.03544],[-122.00155,37.0759],[-122.01667,37.11432],[-122.03223,37.15422],[-122.04189,37.17895],[-122.05266,37.20653],[-122.07779,37.27074],[-122.09127,37.30526],[-122.10588,37.34297],[-122.11196,37.35858],[-122.12988,37.40798],[-122.12518,37.44282],[-122.12286,37.4656],[-122.14643,37.49388],[-122.17621,37.52444],[-122.1809,37.52938],[-122.23439,37.55961],[-122.26668,37.57323],[-122.29264,37.58415],[-122.29607,37.58557],[-122.33365,37.60134],[-122.34899,37.6078]]}
}
