{
  "id": 2048558765,
  "type": "Feature",
  "properties": {
    "geom:area": 0,
    "geom:bbox": "-122.363280,37.632440,-121.301970,38.102690",
    "geom:latitude": 37.88305888643376,
    "geom:longitude": -121.8400875712906,
    "src:alt_label": "swim-takeoff",
    "src:geom": "swim",
    "swim:elevations": [
      244,
      532,
      710,
      915,
      1048,
      1201,
      1258,
      1788,
      1820,
      2106,
      2215,
      2622,
      3038,
      3181,
      3340,
      3541,
      3794,
      3878,
      4023,
      4260,
      4780,
      4933,
      5252,
      5653,
      5711,
      5789,
      5881,
      6044,
      6454,
      6511
    ],
    "swim:geom": "takeoff",
    "swim:timestamps": [
      1791581735,
      1791581757,
      1791581778,
      1791581813,
      1791581832,
      1791581850,
      1791581855,
      1791581898,
      1791581901,
      1791581921,
      1791581929,
      1791581959,
      1791581992,
      1791582005,
      1791582033,
      1791582063,
      1791582086,
      1791582092,
      1791582107,
      1791582127,
      1791582178,
      1791582191,
      1791582224,
      1791582262,
      1791582268,
      1791582277,
      1791582289,
      1791582307,
      1791582353,
      1791582361
    ],
    "wof:geomhash": "152d8ef5a56eb254b01a200a00d8dcc9",
    "wof:id": 2048558765,
    "wof:repo": "sfomuseum-data-flights-2026-10"
  },
  "bbox": [
    -122.36328,
    37.63244,
    -121.30197,
    38.10269
  ],
  "geometry": {"type":"LineString","coordinates":[[-122.36328,37.63244],[-122.34774,37.64513],[-122.32918,37.655],[-122.29374,37.67471],[-122.27151,37.68795],[-122.24876,37.70004],[-122.24193,37.70354],[-122.18225,37.73455],[-122.17803,37.73677],[-122.14977,37.75135],[-122.13867,37.75712],[-122.09543,37.77916],[-122.0476,37.80378],[-122.0279,37.81392],[-121.98381,37.83437],[-121.92873,37.85625],[-121.8851,37.87346],[-121.87353,37.87809],[-121.84387,37.88971],[-121.80474,37.90535],[-121.70038,37.94666],[-121.67371,37.95711],[-121.60576,37.98368],[-121.52327,38.01626],[-121.5102,38.02134],[-121.48997,38.02929],[-121.46349,38.03969],[-121.42359,38.05523],[-121.32079,38.09535],[-121.30197,38.10269]]}
}
