{
  "id": 2048498679,
  "type": "Feature",
  "properties": {
    "geom:area": 0,
    "geom:bbox": "-123.502470,37.412110,-122.393920,37.669250",
    "geom:latitude": 37.554288341360056,
    "geom:longitude": -122.9467641791701,
    "src:alt_label": "swim-takeoff",
    "src:geom": "swim",
    "swim:elevations": [
      122,
      415,
      558,
      889,
      1185,
      1361,
      1552,
      2224,
      2474,
      2835,
      3170,
      3255,
      3353,
      3557,
      3689,
      4132,
      4415,
      4657,
      4872,
      5208,
      5500,
      5717,
      5773
    ],
    "swim:geom": "takeoff",
    "swim:timestamps": [
      1790936366,
      1790936396,
      1790936407,
      1790936438,
      1790936486,
      1790936511,
      1790936527,
      1790936577,
      1790936597,
      1790936632,
      1790936667,
      1790936679,
      1790936716,
      1790936757,
      1790936772,
      1790936816,
      1790936843,
      1790936873,
      1790936900,
      1790936934,
      1790936967,
      1790936994,
      1790937002
    ],
    "wof:geomhash": "459d053b4714e2c679e74110c4b039f9",
    "wof:id": 2048498679,
    "wof:repo": "sfomuseum-data-flights-2026-10"
  },
  "bbox": [
    -123.50247,
    37.41211,
    -122.39392,
    37.66925
  ],
  "geometry": {"type":"LineString","coordinates":[[-122.39392,37.62656],[-122.42277,37.6388],[-122.43487,37.64404],[-122.46664,37.65834],[-122.52569,37.66925],[-122.5615,37.65956],[-122.58488,37.65332],[-122.66229,37.63271],[-122.69165,37.62524],[-122.74707,37.61117],[-122.80193,37.59718],[-122.82328,37.59156],[-122.89004,37.57374],[-122.97404,37.55215],[-123.0038,37.54441],[-123.09626,37.51951],[-123.15359,37.50376],[-123.21888,37.48652],[-123.27713,37.47172],[-123.35243,37.45184],[-123.42511,37.43261],[-123.48454,37.41684],[-123.50247,37.41211]]}
}
