{
  "id": 2048552293,
  "type": "Feature",
  "properties": {
    "geom:area": 0,
    "geom:bbox": "-122.354130,37.491560,-121.243620,37.612320",
    "geom:latitude": 37.5467822509595,
    "geom:longitude": -121.80365196765061,
    "src:alt_label": "swim-approach",
    "src:geom": "swim",
    "swim:elevations": [
      4563,
      4346,
      4189,
      3900,
      3569,
      3454,
      3155,
      3079,
      2978,
      2888,
      2713,
      2492,
      2327,
      2195,
      2132,
      2044,
      2003,
      1988,
      1863,
      1737,
      1502,
      1379,
      1313,
      1225,
      1158,
      1040,
      996,
      854,
      546,
      486,
      354,
      320,
      247,
      199,
      40
    ],
    "swim:geom": "approach",
    "swim:timestamps": [
      1791586533,
      1791586555,
      1791586572,
      1791586607,
      1791586642,
      1791586655,
      1791586697,
      1791586728,
      1791586760,
      1791586785,
      1791586820,
      1791586853,
      1791586877,
      1791586896,
      1791586914,
      1791586935,
      1791586948,
      1791586951,
      1791586980,
      1791587032,
      1791587065,
      1791587087,
      1791587105,
      1791587124,
      1791587133,
      1791587151,
      1791587166,
      1791587193,
      1791587243,
      1791587275,
      1791587308,
      1791587317,
      1791587333,
      1791587348,
      1791587388
    ],
    "wof:geomhash": "02e2d6e34bb4322c47a3d95c6c3aafe9",
    "wof:id": 2048552293,
    "wof:repo": "sfomuseum-data-flights-2026-10"
  },
  "bbox": [
    -122.35413,
    37.49156,
    -121.24362,
    37.61232
  ],
  "geometry": {"type":"LineString","coordinates":[[-121.24362,37.5953],[-121.28642,37.5896],[-121.31856,37.58594],[-121.38566,37.57858],[-121.45068,37.57106],[-121.47551,37.56814],[-121.55419,37.55901],[-121.60944,37.55248],[-121.66,37.54221],[-121.69805,37.53318],[-121.74676,37.52155],[-121.79229,37.51076],[-121.82387,37.50308],[-121.84899,37.49709],[-121.87278,37.4919],[-121.90142,37.49156],[-121.9193,37.49209],[-121.92332,37.4922],[-121.96026,37.49321],[-122.02377,37.50645],[-122.06189,37.51879],[-122.08699,37.5269],[-122.10706,37.53337],[-122.12576,37.53948],[-122.13439,37.54229],[-122.15164,37.54783],[-122.16544,37.55206],[-122.18939,37.55984],[-122.2367,37.57523],[-122.26542,37.58444],[-122.29264,37.59224],[-122.2998,37.59439],[-122.31236,37.59816],[-122.3241,37.60131],[-122.35413,37.61232]]}
}
