{
  "id": 2048494299,
  "type": "Feature",
  "properties": {
    "geom:area": 0,
    "geom:bbox": "-122.755240,37.373260,-122.067220,38.473690",
    "geom:latitude": 37.80005012922974,
    "geom:longitude": -122.44831897266985,
    "src:alt_label": "swim-approach",
    "src:geom": "swim",
    "swim:elevations": [
      7620,
      7437,
      7002,
      6910,
      6481,
      6128,
      5976,
      5750,
      5458,
      5311,
      4916,
      4629,
      4475,
      4225,
      3970,
      3655,
      3503,
      3419,
      3380,
      3353,
      3353,
      3353,
      3353,
      3353,
      3327,
      3038,
      2897,
      2714,
      2530,
      2376,
      2215,
      2134,
      2058,
      1927,
      1819,
      1643,
      1485,
      1289,
      1219,
      1219,
      1246,
      1041,
      956,
      775,
      690,
      612,
      479,
      456,
      367,
      242,
      156,
      88
    ],
    "swim:geom": "approach",
    "swim:timestamps": [
      1790966604,
      1790966622,
      1790966665,
      1790966674,
      1790966721,
      1790966758,
      1790966776,
      1790966800,
      1790966831,
      1790966852,
      1790966896,
      1790966934,
      1790966950,
      1790966982,
      1790967013,
      1790967053,
      1790967078,
      1790967091,
      1790967120,
      1790967168,
      1790967181,
      1790967197,
      1790967218,
      1790967260,
      1790967270,
      1790967317,
      1790967342,
      1790967378,
      1790967412,
      1790967437,
      1790967470,
      1790967507,
      1790967535,
      1790967561,
      1790967578,
      1790967619,
      1790967648,
      1790967679,
      1790967695,
      1790967730,
      1790967769,
      1790967807,
      1790967825,
      1790967859,
      1790967877,
      1790967897,
      1790967925,
      1790967932,
      1790967952,
      1790967979,
      1790968003,
      1790968022
    ],
    "wof:geomhash": "03847d4ff90e2aa57bcfba2ebfcb0e74",
    "wof:id": 2048494299,
    "wof:repo": "sfomuseum-data-flights-2026-10"
  },
  "bbox": [
    -122.75524,
    37.37326,
    -122.06722,
    38.47369
  ],
  "geometry": {"type":"LineString","coordinates":[[-122.51156,38.47369],[-122.53983,38.44614],[-122.60619,38.38181],[-122.61965,38.36864],[-122.68525,38.30487],[-122.73806,38.25274],[-122.75463,38.22423],[-122.75524,38.18246],[-122.74051,38.13076],[-122.73009,38.09539],[-122.70856,38.02203],[-122.69215,37.96571],[-122.68521,37.94113],[-122.66467,37.89515],[-122.62991,37.8588],[-122.58719,37.81842],[-122.56197,37.79457],[-122.54912,37.78257],[-122.52084,37.75538],[-122.47308,37.71063],[-122.46035,37.69858],[-122.44482,37.68389],[-122.42442,37.66484],[-122.38271,37.62546],[-122.37321,37.61643],[-122.33915,37.56756],[-122.32358,37.54071],[-122.30169,37.50342],[-122.29075,37.46501],[-122.30281,37.43824],[-122.30114,37.40223],[-122.26632,37.37326],[-122.22607,37.37634],[-122.18916,37.38717],[-122.16571,37.39405],[-122.11345,37.40875],[-122.0804,37.42012],[-122.06722,37.44707],[-122.07143,37.46154],[-122.08458,37.49292],[-122.11852,37.51092],[-122.15323,37.5253],[-122.16972,37.53236],[-122.19996,37.54502],[-122.21713,37.55226],[-122.23525,37.55994],[-122.26056,37.57064],[-122.26618,37.57298],[-122.28422,37.58055],[-122.30802,37.59059],[-122.32754,37.59877],[-122.3424,37.60501]]}
}
