{
  "id": 2048542485,
  "type": "Feature",
  "properties": {
    "date:cessation_lower": "1970-01-01",
    "date:cessation_upper": "1970-01-01",
    "date:inception_lower": "2026-10-07",
    "date:inception_upper": "2026-10-07",
    "edtf:cessation": "1970-01-01T00:00:00Z",
    "edtf:inception": "2026-10-07T13:15:58-07:00",
    "flysfo:actual_timestamp": -1,
    "flysfo:airline": "UA",
    "flysfo:base_airline": "",
    "flysfo:base_flight_number": "5376",
    "flysfo:date": "2026-10-07",
    "flysfo:estimated_timestamp": 1791427740,
    "flysfo:event": "D",
    "flysfo:flight_number": "UA930",
    "flysfo:gate": "G2",
    "flysfo:journey": "SFO-LHR",
    "flysfo:scheduled_timestamp": 1791427500,
    "flysfo:timestamp": 1791427740,
    "geom:area": 0,
    "geom:bbox": "-122.370943,37.617990,-0.450443,51.470087",
    "geom:latitude": 44.5440385,
    "geom:longitude": -61.410693,
    "iata:airline": "UA",
    "iata:base_airline": "",
    "icao:aircraft": "B789",
    "icao:airline": "UAL",
    "icao:base_airline": "ACA",
    "lbl:latitude": 37.617615,
    "lbl:longitude": -122.390247,
    "sfomuseum:aircraft_id": 1159293215,
    "sfomuseum:airline_id": 1159285413,
    "sfomuseum:arrival_id": 102556703,
    "sfomuseum:base_flight_id": "20261007-D-ACA-5376",
    "sfomuseum:departure_id": 102527513,
    "sfomuseum:flight_id": "20261007-D-UAL-930",
    "sfomuseum:flight_number": [
      "UAL930",
      "UA930"
    ],
    "sfomuseum:placetype": "flight",
    "src:geom": "flysfo",
    "src:geom_alt": [
      "swim-takeoff"
    ],
    "swim:tail_number": "N61109",
    "wof:belongsto": [
      1947304067,
      102527513,
      1947304129,
      102191575,
      85633793,
      102087579,
      85922583,
      554784711,
      85688637,
      1947304141,
      1947304069,
      102085387
    ],
    "wof:country": "US",
    "wof:created": 1791476217,
    "wof:geomhash": "86f41e039827d60bcd1a72801f72cbc2",
    "wof:hierarchy": [
      {
        "building_id": 1947304067,
        "campus_id": 102527513,
        "concourse_id": 1947304129,
        "continent_id": 102191575,
        "country_id": 85633793,
        "county_id": 102087579,
        "custom_id": 2048542485,
        "flight_id": 2048542485,
        "locality_id": 85922583,
        "postalcode_id": 554784711,
        "region_id": 85688637,
        "venue_id": 1947304141,
        "wing_id": 1947304069
      },
      {
        "building_id": 1947304067,
        "campus_id": 102527513,
        "concourse_id": 1947304129,
        "continent_id": 102191575,
        "country_id": 85633793,
        "county_id": 102085387,
        "custom_id": 2048542485,
        "flight_id": 2048542485,
        "region_id": 85688637,
        "venue_id": 1947304141,
        "wing_id": 1947304069
      }
    ],
    "wof:id": 2048542485,
    "wof:involves": [
      1159285413,
      1947304141,
      1159283597,
      1159293215,
      102556703,
      102527513
    ],
    "wof:lastmodified": 1791476331,
    "wof:name": "UA930 (SFO-LHR)",
    "wof:parent_id": 1947304141,
    "wof:placetype": "custom",
    "wof:placetype_alt": [
      "flight"
    ],
    "wof:repo": "sfomuseum-data-flights-2026-10",
    "wof:superseded_by": [],
    "wof:supersedes": []
  },
  "bbox": [
    -122.370943,
    37.61799,
    -0.450443,
    51.470087
  ],
  "geometry": {"type":"MultiPoint","coordinates":[[-122.370943,37.61799],[-0.450443,51.470087]]}
}
