{
  "id": 2048532407,
  "type": "Feature",
  "properties": {
    "geom:area": 0,
    "geom:bbox": "-122.387330,37.629470,-121.427490,38.519770",
    "geom:latitude": 38.122129808237965,
    "geom:longitude": -122.01241187686128,
    "src:alt_label": "swim-takeoff",
    "src:geom": "swim",
    "swim:elevations": [
      183,
      740,
      884,
      937,
      1390,
      1704,
      1845,
      2016,
      2307,
      2710,
      2930,
      3213,
      3303,
      3363,
      3570,
      3646,
      3956,
      4364,
      4762,
      4969,
      5083,
      5364,
      5464,
      5703,
      6020,
      6232,
      6406,
      6505,
      6677
    ],
    "swim:geom": "takeoff",
    "swim:timestamps": [
      1791332121,
      1791332207,
      1791332245,
      1791332251,
      1791332290,
      1791332320,
      1791332335,
      1791332354,
      1791332384,
      1791332417,
      1791332438,
      1791332477,
      1791332495,
      1791332507,
      1791332541,
      1791332551,
      1791332583,
      1791332628,
      1791332669,
      1791332693,
      1791332708,
      1791332752,
      1791332766,
      1791332799,
      1791332842,
      1791332874,
      1791332902,
      1791332917,
      1791332948
    ],
    "wof:geomhash": "dd8e9b9dab9ff45b467fd0159544232c",
    "wof:id": 2048532407,
    "wof:repo": "sfomuseum-data-flights-2026-10"
  },
  "bbox": [
    -122.38733,
    37.62947,
    -121.42749,
    38.51977
  ],
  "geometry": {"type":"LineString","coordinates":[[-122.36581,37.62947],[-122.30888,37.68641],[-122.32442,37.72573],[-122.32817,37.73233],[-122.35222,37.77573],[-122.36972,37.81075],[-122.37875,37.82885],[-122.38733,37.85298],[-122.38622,37.89444],[-122.3777,37.93946],[-122.35303,37.96068],[-122.29663,37.99361],[-122.26913,38.01035],[-122.25009,38.02197],[-122.19251,38.05742],[-122.1758,38.06764],[-122.12084,38.10129],[-122.04047,38.1501],[-121.96705,38.19453],[-121.92357,38.22077],[-121.89615,38.23737],[-121.81278,38.28757],[-121.78553,38.30403],[-121.7226,38.34173],[-121.63928,38.39174],[-121.5753,38.42998],[-121.51938,38.46335],[-121.48942,38.48162],[-121.42749,38.51977]]}
}
