{
  "id": 2048523475,
  "type": "Feature",
  "properties": {
    "geom:area": 0,
    "geom:bbox": "-122.365890,37.629140,-121.295410,37.932330",
    "geom:latitude": 37.77285812162811,
    "geom:longitude": -121.83134916636715,
    "src:alt_label": "swim-takeoff",
    "src:geom": "swim",
    "swim:elevations": [
      152,
      625,
      812,
      886,
      1427,
      1696,
      1917,
      2390,
      2497,
      3128,
      3227,
      3355,
      3598,
      3739,
      3839,
      4241,
      4519,
      4787,
      4988,
      5240,
      5598,
      5838,
      5872
    ],
    "swim:geom": "takeoff",
    "swim:timestamps": [
      1791266973,
      1791267021,
      1791267052,
      1791267064,
      1791267118,
      1791267139,
      1791267160,
      1791267208,
      1791267218,
      1791267269,
      1791267284,
      1791267314,
      1791267353,
      1791267365,
      1791267375,
      1791267413,
      1791267436,
      1791267472,
      1791267493,
      1791267524,
      1791267566,
      1791267598,
      1791267603
    ],
    "wof:geomhash": "95a75f581959be348ef7b1f3d07299c5",
    "wof:id": 2048523475,
    "wof:repo": "sfomuseum-data-flights-2026-10"
  },
  "bbox": [
    -122.36589,
    37.62914,
    -121.29541,
    37.93233
  ],
  "geometry": {"type":"LineString","coordinates":[[-122.36589,37.62914],[-122.32775,37.65117],[-122.29451,37.66314],[-122.28039,37.66802],[-122.20492,37.68196],[-122.17561,37.67581],[-122.14275,37.67105],[-122.06911,37.69199],[-122.05374,37.69675],[-121.97437,37.72167],[-121.94999,37.72931],[-121.89724,37.74587],[-121.82237,37.76919],[-121.79753,37.77695],[-121.77893,37.78276],[-121.70139,37.80688],[-121.65438,37.82145],[-121.58041,37.8444],[-121.53558,37.85831],[-121.46876,37.87897],[-121.37727,37.90707],[-121.3069,37.9288],[-121.29541,37.93233]]}
}
