{
  "id": 2048536805,
  "type": "Feature",
  "properties": {
    "geom:area": 0,
    "geom:bbox": "-122.361180,37.491110,-121.259200,37.615030",
    "geom:latitude": 37.54629039561579,
    "geom:longitude": -121.81509675014172,
    "src:alt_label": "swim-approach",
    "src:geom": "swim",
    "swim:elevations": [
      4455,
      4004,
      3997,
      3514,
      3374,
      3137,
      3105,
      2908,
      2474,
      2438,
      2427,
      2320,
      2200,
      2134,
      2009,
      1907,
      1829,
      1600,
      1380,
      1103,
      916,
      843,
      721,
      554,
      415,
      362,
      179,
      37,
      0
    ],
    "swim:geom": "approach",
    "swim:timestamps": [
      1791373965,
      1791374001,
      1791374015,
      1791374066,
      1791374081,
      1791374119,
      1791374133,
      1791374168,
      1791374207,
      1791374245,
      1791374259,
      1791374282,
      1791374304,
      1791374322,
      1791374350,
      1791374375,
      1791374410,
      1791374446,
      1791374466,
      1791374494,
      1791374525,
      1791374577,
      1791374599,
      1791374632,
      1791374665,
      1791374674,
      1791374723,
      1791374757,
      1791374766
    ],
    "wof:geomhash": "2c44329454eed4166481a1b67da8104c",
    "wof:id": 2048536805,
    "wof:repo": "sfomuseum-data-flights-2026-10"
  },
  "bbox": [
    -122.36118,
    37.49111,
    -121.2592,
    37.61503
  ],
  "geometry": {"type":"LineString","coordinates":[[-121.2592,37.59286],[-121.33368,37.58322],[-121.36215,37.58051],[-121.46562,37.56911],[-121.49458,37.5657],[-121.56713,37.55707],[-121.59351,37.55398],[-121.65269,37.54375],[-121.71561,37.52892],[-121.7723,37.51541],[-121.79095,37.51098],[-121.82353,37.50315],[-121.85289,37.49613],[-121.87664,37.49111],[-121.91633,37.49196],[-121.95153,37.49288],[-121.99845,37.49803],[-122.04257,37.51253],[-122.06655,37.52031],[-122.1011,37.53147],[-122.13797,37.54338],[-122.19531,37.56192],[-122.21757,37.56909],[-122.24985,37.57955],[-122.28164,37.58905],[-122.28939,37.59127],[-122.32961,37.60337],[-122.35446,37.61241],[-122.36118,37.61503]]}
}
