{
  "id": 2048493917,
  "type": "Feature",
  "properties": {
    "geom:area": 0,
    "geom:bbox": "-122.356270,37.491430,-121.275450,37.613280",
    "geom:latitude": 37.545561490776834,
    "geom:longitude": -121.82069010066002,
    "src:alt_label": "swim-approach",
    "src:geom": "swim",
    "swim:elevations": [
      4554,
      4234,
      3982,
      3727,
      3459,
      3223,
      3119,
      2983,
      2874,
      2543,
      2522,
      2340,
      2133,
      2083,
      1931,
      1823,
      1602,
      1454,
      1218,
      1186,
      1095,
      1064,
      916,
      800,
      728,
      546,
      485,
      273,
      244,
      119,
      38
    ],
    "swim:geom": "approach",
    "swim:timestamps": [
      1790973410,
      1790973440,
      1790973465,
      1790973492,
      1790973528,
      1790973562,
      1790973577,
      1790973617,
      1790973634,
      1790973689,
      1790973692,
      1790973730,
      1790973771,
      1790973801,
      1790973822,
      1790973842,
      1790973870,
      1790973887,
      1790973918,
      1790973934,
      1790973958,
      1790973970,
      1790974017,
      1790974043,
      1790974058,
      1790974099,
      1790974112,
      1790974166,
      1790974177,
      1790974215,
      1790974235
    ],
    "wof:geomhash": "d94f9abb9e1878a6617b569125615d56",
    "wof:id": 2048493917,
    "wof:repo": "sfomuseum-data-flights-2026-10"
  },
  "bbox": [
    -122.35627,
    37.49143,
    -121.27545,
    37.61328
  ],
  "geometry": {"type":"LineString","coordinates":[[-121.27545,37.59107],[-121.33568,37.58409],[-121.38397,37.57888],[-121.43303,37.57332],[-121.49725,37.56583],[-121.55681,37.55885],[-121.58254,37.5558],[-121.65089,37.54461],[-121.67824,37.53819],[-121.76585,37.51706],[-121.77055,37.51592],[-121.82853,37.50199],[-121.88878,37.49143],[-121.93031,37.49216],[-121.95917,37.49299],[-121.98746,37.49549],[-122.0231,37.50583],[-122.04483,37.51304],[-122.08198,37.52534],[-122.09919,37.53095],[-122.12359,37.53883],[-122.13584,37.54284],[-122.17894,37.55669],[-122.20286,37.5644],[-122.21722,37.56902],[-122.25484,37.58119],[-122.26632,37.58472],[-122.30798,37.59622],[-122.31566,37.59869],[-122.34321,37.6077],[-122.35627,37.61328]]}
}
