{
  "id": 2048508989,
  "type": "Feature",
  "properties": {
    "date:cessation_lower": "2026-10-04",
    "date:cessation_upper": "2026-10-04",
    "date:inception_lower": "1970-01-01",
    "date:inception_upper": "1970-01-01",
    "edtf:cessation": "2026-10-04T14:51:02-07:00",
    "edtf:inception": "1970-01-01T00:00:00Z",
    "flysfo:actual_timestamp": -1,
    "flysfo:airline": "AS",
    "flysfo:base_airline": "",
    "flysfo:base_flight_number": "9409",
    "flysfo:date": "2026-10-04",
    "flysfo:estimated_timestamp": 1791176220,
    "flysfo:event": "A",
    "flysfo:flight_number": "AS619",
    "flysfo:gate": "B12",
    "flysfo:journey": "SEA-SFO",
    "flysfo:scheduled_timestamp": 1791175740,
    "flysfo:timestamp": 1791176220,
    "geom:area": 0,
    "geom:bbox": "-122.370943,37.617990,-122.304268,47.441823",
    "geom:latitude": 42.529906499999996,
    "geom:longitude": -122.3376055,
    "iata:airline": "AS",
    "iata:base_airline": "",
    "icao:aircraft": "B39M",
    "icao:airline": "ASA",
    "icao:base_airline": "AAL",
    "lbl:latitude": 37.61799,
    "lbl:longitude": -122.370943,
    "sfomuseum:aircraft_id": 1528104577,
    "sfomuseum:airline_id": 1159283813,
    "sfomuseum:arrival_id": 102527513,
    "sfomuseum:base_flight_id": "20261004-A-AAL-9409",
    "sfomuseum:departure_id": 102533269,
    "sfomuseum:flight_id": "20261004-A-ASA-619",
    "sfomuseum:flight_number": [
      "ASA619",
      "AS619"
    ],
    "sfomuseum:placetype": "flight",
    "src:geom": "flysfo",
    "src:geom_alt": [
      "swim-approach"
    ],
    "swim:tail_number": "N707AL",
    "wof:belongsto": [
      1947304067,
      102527513,
      1947304261,
      102191575,
      85633793,
      102087579,
      85922583,
      554784711,
      85688637,
      1947304263,
      1947304259,
      102085387
    ],
    "wof:country": "US",
    "wof:created": 1791216241,
    "wof:geomhash": "3123a4aff4021144fa8973299956ba97",
    "wof:hierarchy": [
      {
        "building_id": 1947304067,
        "campus_id": 102527513,
        "concourse_id": 1947304261,
        "continent_id": 102191575,
        "country_id": 85633793,
        "county_id": 102087579,
        "custom_id": 2048508989,
        "flight_id": 2048508989,
        "locality_id": 85922583,
        "postalcode_id": 554784711,
        "region_id": 85688637,
        "venue_id": 1947304263,
        "wing_id": 1947304259
      },
      {
        "building_id": 1947304067,
        "campus_id": 102527513,
        "concourse_id": 1947304261,
        "continent_id": 102191575,
        "country_id": 85633793,
        "county_id": 102085387,
        "custom_id": 2048508989,
        "flight_id": 2048508989,
        "region_id": 85688637,
        "venue_id": 1947304263,
        "wing_id": 1947304259
      }
    ],
    "wof:id": 2048508989,
    "wof:involves": [
      102527513,
      102533269,
      1159283813,
      1947304263,
      1159283849,
      1528104577
    ],
    "wof:lastmodified": 1791217148,
    "wof:name": "AS619 (SEA-SFO)",
    "wof:parent_id": 1947304263,
    "wof:placetype": "custom",
    "wof:placetype_alt": [
      "flight"
    ],
    "wof:repo": "sfomuseum-data-flights-2026-10",
    "wof:superseded_by": [],
    "wof:supersedes": []
  },
  "bbox": [
    -122.370943,
    37.61799,
    -122.304268,
    47.441823
  ],
  "geometry": {"type":"MultiPoint","coordinates":[[-122.304268,47.441823],[-122.370943,37.61799]]}
}
