{
  "id": 2048515741,
  "type": "Feature",
  "properties": {
    "geom:area": 0,
    "geom:bbox": "-122.367690,37.626310,-121.247430,38.488200",
    "geom:latitude": 38.089713627580096,
    "geom:longitude": -121.88689764651676,
    "src:alt_label": "swim-takeoff",
    "src:geom": "swim",
    "swim:elevations": [
      152,
      686,
      1025,
      1117,
      1176,
      1323,
      1508,
      1838,
      2317,
      2455,
      2889,
      3245,
      3379,
      3482,
      3797,
      4038,
      4235,
      4439,
      4774,
      4950,
      5556,
      5875,
      5921,
      6047,
      6199,
      6395,
      6626,
      6797,
      7059,
      7424,
      7624,
      7653,
      7879
    ],
    "swim:geom": "takeoff",
    "swim:timestamps": [
      1791155498,
      1791155539,
      1791155577,
      1791155607,
      1791155628,
      1791155663,
      1791155680,
      1791155707,
      1791155751,
      1791155764,
      1791155799,
      1791155846,
      1791155874,
      1791155887,
      1791155920,
      1791155950,
      1791155965,
      1791155986,
      1791156019,
      1791156033,
      1791156088,
      1791156117,
      1791156121,
      1791156138,
      1791156151,
      1791156173,
      1791156194,
      1791156212,
      1791156245,
      1791156291,
      1791156324,
      1791156330,
      1791156365
    ],
    "wof:geomhash": "042e9ea016ef72e219722c3045a5302a",
    "wof:id": 2048515741,
    "wof:repo": "sfomuseum-data-flights-2026-10"
  },
  "bbox": [
    -122.36769,
    37.62631,
    -121.24743,
    38.4882
  ],
  "geometry": {"type":"LineString","coordinates":[[-122.36769,37.62631],[-122.34135,37.65054],[-122.31733,37.6728],[-122.30957,37.69641],[-122.31995,37.71561],[-122.34068,37.75289],[-122.35071,37.77263],[-122.36631,37.80535],[-122.34268,37.85554],[-122.32511,37.86385],[-122.27429,37.89057],[-122.20418,37.92639],[-122.15942,37.94911],[-122.13531,37.96143],[-122.07753,37.99088],[-122.02277,38.01869],[-121.99487,38.03283],[-121.9567,38.05216],[-121.8941,38.0839],[-121.86812,38.09696],[-121.7715,38.15589],[-121.7231,38.18936],[-121.71564,38.19443],[-121.68738,38.21414],[-121.66327,38.23112],[-121.62418,38.25897],[-121.58693,38.28541],[-121.55457,38.30856],[-121.49452,38.3517],[-121.41082,38.41321],[-121.34655,38.45595],[-121.3306,38.46257],[-121.24743,38.4882]]}
}
