{
  "id": 2048550991,
  "type": "Feature",
  "properties": {
    "geom:area": 0,
    "geom:bbox": "-122.366750,37.627610,-121.248380,37.944740",
    "geom:latitude": 37.76852427858515,
    "geom:longitude": -121.80715033968825,
    "src:alt_label": "swim-takeoff",
    "src:geom": "swim",
    "swim:elevations": [
      152,
      367,
      768,
      938,
      978,
      1190,
      1323,
      1524,
      1665,
      1878,
      2158,
      2445,
      2832,
      3202,
      3528,
      3910,
      3963,
      4020,
      4085,
      4249,
      4302,
      4403,
      4571,
      4939,
      5177,
      5291,
      5714,
      5884,
      6167,
      6394,
      6625,
      6770
    ],
    "swim:geom": "takeoff",
    "swim:timestamps": [
      1791522952,
      1791522966,
      1791522999,
      1791523017,
      1791523020,
      1791523050,
      1791523068,
      1791523097,
      1791523117,
      1791523138,
      1791523168,
      1791523189,
      1791523228,
      1791523258,
      1791523288,
      1791523312,
      1791523315,
      1791523318,
      1791523321,
      1791523330,
      1791523333,
      1791523339,
      1791523353,
      1791523405,
      1791523429,
      1791523441,
      1791523493,
      1791523517,
      1791523550,
      1791523581,
      1791523613,
      1791523632
    ],
    "wof:geomhash": "a4049bf9ad7de2a30c7ed2edad888675",
    "wof:id": 2048550991,
    "wof:repo": "sfomuseum-data-flights-2026-10"
  },
  "bbox": [
    -122.36675,
    37.62761,
    -121.24838,
    37.94474
  ],
  "geometry": {"type":"LineString","coordinates":[[-122.36675,37.62761],[-122.35933,37.63651],[-122.33012,37.64848],[-122.31182,37.64946],[-122.30875,37.64915],[-122.27636,37.6457],[-122.25586,37.6438],[-122.21879,37.64095],[-122.19071,37.63923],[-122.16141,37.64557],[-122.11936,37.66054],[-122.08856,37.67097],[-122.02869,37.69051],[-121.98091,37.70618],[-121.93203,37.72237],[-121.89175,37.73551],[-121.8868,37.73713],[-121.8817,37.73883],[-121.87665,37.7405],[-121.8617,37.74545],[-121.85674,37.74712],[-121.84676,37.75039],[-121.82275,37.75831],[-121.72606,37.78993],[-121.67853,37.80548],[-121.65471,37.81323],[-121.54998,37.84735],[-121.4995,37.86375],[-121.429,37.88651],[-121.36205,37.90812],[-121.29196,37.9307],[-121.24838,37.94474]]}
}
