{
  "id": 2048504353,
  "type": "Feature",
  "properties": {
    "date:inception_lower": "2026-10-03",
    "date:inception_upper": "2026-10-03",
    "edtf:cessation": "",
    "edtf:inception": "2026-10-03",
    "flysfo:actual_timestamp": -1,
    "flysfo:airline": "NZ",
    "flysfo:base_airline": "",
    "flysfo:base_flight_number": "9189",
    "flysfo:date": "2026-10-03",
    "flysfo:estimated_timestamp": 1791042480,
    "flysfo:event": "D",
    "flysfo:flight_number": "NZ9189",
    "flysfo:gate": "F6",
    "flysfo:journey": "SFO-EUG",
    "flysfo:scheduled_timestamp": 1791042600,
    "flysfo:timestamp": 1791042600,
    "geom:area": 0,
    "geom:bbox": "-123.213030,37.617990,-122.370943,44.119058",
    "geom:latitude": 40.868524,
    "geom:longitude": -122.79198650000001,
    "iata:airline": "NZ",
    "iata:base_airline": "",
    "icao:airline": "ANZ",
    "icao:base_airline": "ANZ",
    "lbl:latitude": 37.61799,
    "lbl:longitude": -122.370943,
    "sfomuseum:airline_id": 1159283697,
    "sfomuseum:arrival_id": 102533927,
    "sfomuseum:base_flight_id": "20261003-D-ANZ-9189",
    "sfomuseum:departure_id": 102527513,
    "sfomuseum:flight_id": "20261003-D-ANZ-9189",
    "sfomuseum:flight_number": [
      "ANZ9189",
      "NZ9189"
    ],
    "sfomuseum:placetype": "flight",
    "src:geom": "flysfo",
    "wof:belongsto": [
      1947304067,
      102527513,
      1947304451,
      102191575,
      85633793,
      102087579,
      85922583,
      554784711,
      85688637,
      1947304461,
      1947304447,
      102085387
    ],
    "wof:country": "US",
    "wof:created": 1791130239,
    "wof:geomhash": "ac29143dee46faf8dc4d82fa5cfc7601",
    "wof:hierarchy": [
      {
        "building_id": 1947304067,
        "campus_id": 102527513,
        "concourse_id": 1947304451,
        "continent_id": 102191575,
        "country_id": 85633793,
        "county_id": 102087579,
        "custom_id": 2048504353,
        "flight_id": 2048504353,
        "locality_id": 85922583,
        "postalcode_id": 554784711,
        "region_id": 85688637,
        "venue_id": 1947304461,
        "wing_id": 1947304447
      },
      {
        "building_id": 1947304067,
        "campus_id": 102527513,
        "concourse_id": 1947304451,
        "continent_id": 102191575,
        "country_id": 85633793,
        "county_id": 102085387,
        "custom_id": 2048504353,
        "flight_id": 2048504353,
        "region_id": 85688637,
        "venue_id": 1947304461,
        "wing_id": 1947304447
      }
    ],
    "wof:id": 2048504353,
    "wof:involves": [
      102533927,
      102527513,
      1159283697,
      1947304461,
      1159283697
    ],
    "wof:lastmodified": 1791130239,
    "wof:name": "NZ9189 (SFO-EUG)",
    "wof:parent_id": 1947304461,
    "wof:placetype": "custom",
    "wof:placetype_alt": [
      "flight"
    ],
    "wof:repo": "sfomuseum-data-flights-2026-10",
    "wof:superseded_by": [],
    "wof:supersedes": []
  },
  "bbox": [
    -123.21303,
    37.61799,
    -122.370943,
    44.119058
  ],
  "geometry": {"type":"MultiPoint","coordinates":[[-122.370943,37.61799],[-123.21303,44.119058]]}
}
