{
  "id": 2048502737,
  "type": "Feature",
  "properties": {
    "date:cessation_lower": "2026-10-03",
    "date:cessation_upper": "2026-10-03",
    "date:inception_lower": "1970-01-01",
    "date:inception_upper": "1970-01-01",
    "edtf:cessation": "2026-10-03T05:23:35-07:00",
    "edtf:inception": "1970-01-01T00:00:00Z",
    "flysfo:actual_timestamp": -1,
    "flysfo:airline": "UA",
    "flysfo:base_airline": "",
    "flysfo:base_flight_number": "7927",
    "flysfo:date": "2026-10-03",
    "flysfo:estimated_timestamp": 1791055560,
    "flysfo:event": "A",
    "flysfo:flight_number": "UA2802",
    "flysfo:gate": "E13",
    "flysfo:journey": "MCO-SFO",
    "flysfo:scheduled_timestamp": 1791056940,
    "flysfo:timestamp": 1791056940,
    "geom:area": 0,
    "geom:bbox": "-122.370943,28.431495,-81.307537,37.617990",
    "geom:latitude": 33.0247425,
    "geom:longitude": -101.83923999999999,
    "iata:airline": "UA",
    "iata:base_airline": "",
    "icao:aircraft": "B39M",
    "icao:airline": "UAL",
    "icao:base_airline": "AZU",
    "lbl:latitude": 37.619425,
    "lbl:longitude": -122.384028,
    "sfomuseum:aircraft_id": 1528104577,
    "sfomuseum:airline_id": 1159285413,
    "sfomuseum:arrival_id": 102527513,
    "sfomuseum:base_flight_id": "20261003-A-AZU-7927",
    "sfomuseum:departure_id": 102533657,
    "sfomuseum:flight_id": "20261003-A-UAL-2802",
    "sfomuseum:flight_number": [
      "UAL2802",
      "UA2802"
    ],
    "sfomuseum:placetype": "flight",
    "src:geom": "flysfo",
    "src:geom_alt": [
      "swim-approach"
    ],
    "swim:tail_number": "N17564",
    "wof:belongsto": [
      1947304067,
      102527513,
      1947304511,
      102191575,
      85633793,
      102087579,
      85922583,
      554784711,
      85688637,
      1947304517,
      1947304447,
      102085387
    ],
    "wof:country": "US",
    "wof:created": 1791130059,
    "wof:geomhash": "5fe9a4073f558f5d433cae4f846ab71e",
    "wof:hierarchy": [
      {
        "building_id": 1947304067,
        "campus_id": 102527513,
        "concourse_id": 1947304511,
        "continent_id": 102191575,
        "country_id": 85633793,
        "county_id": 102087579,
        "custom_id": 2048502737,
        "flight_id": 2048502737,
        "locality_id": 85922583,
        "postalcode_id": 554784711,
        "region_id": 85688637,
        "venue_id": 1947304517,
        "wing_id": 1947304447
      },
      {
        "building_id": 1947304067,
        "campus_id": 102527513,
        "concourse_id": 1947304511,
        "continent_id": 102191575,
        "country_id": 85633793,
        "county_id": 102085387,
        "custom_id": 2048502737,
        "flight_id": 2048502737,
        "region_id": 85688637,
        "venue_id": 1947304517,
        "wing_id": 1947304447
      }
    ],
    "wof:id": 2048502737,
    "wof:involves": [
      102527513,
      102533657,
      1159285413,
      1947304517,
      1779770723,
      1528104577
    ],
    "wof:lastmodified": 1791130607,
    "wof:name": "UA2802 (MCO-SFO)",
    "wof:parent_id": 1947304517,
    "wof:placetype": "custom",
    "wof:placetype_alt": [
      "flight"
    ],
    "wof:repo": "sfomuseum-data-flights-2026-10",
    "wof:superseded_by": [],
    "wof:supersedes": []
  },
  "bbox": [
    -122.370943,
    28.431495,
    -81.307537,
    37.61799
  ],
  "geometry": {"type":"MultiPoint","coordinates":[[-81.307537,28.431495],[-122.370943,37.61799]]}
}
