{
  "id": 2048550905,
  "type": "Feature",
  "properties": {
    "date:cessation_lower": "1970-01-01",
    "date:cessation_upper": "1970-01-01",
    "date:inception_lower": "2026-10-08",
    "date:inception_upper": "2026-10-08",
    "edtf:cessation": "1970-01-01T00:00:00Z",
    "edtf:inception": "2026-10-08T03:45:15-07:00",
    "flysfo:actual_timestamp": -1,
    "flysfo:airline": "UA",
    "flysfo:base_airline": "",
    "flysfo:base_flight_number": "9439",
    "flysfo:date": "2026-10-08",
    "flysfo:estimated_timestamp": 1791480120,
    "flysfo:event": "D",
    "flysfo:flight_number": "UA1050",
    "flysfo:gate": "D9",
    "flysfo:journey": "SFO-MSP",
    "flysfo:scheduled_timestamp": 1791480300,
    "flysfo:timestamp": 1791480300,
    "geom:area": 0,
    "geom:bbox": "-122.370943,37.617990,-93.200317,44.883321",
    "geom:latitude": 41.2506555,
    "geom:longitude": -107.78563,
    "iata:airline": "UA",
    "iata:base_airline": "",
    "icao:aircraft": "B38M",
    "icao:airline": "UAL",
    "icao:base_airline": "ANZ",
    "lbl:latitude": 37.61756,
    "lbl:longitude": -122.381052,
    "sfomuseum:aircraft_id": 1528104575,
    "sfomuseum:airline_id": 1159285413,
    "sfomuseum:arrival_id": 102531131,
    "sfomuseum:base_flight_id": "20261008-D-ANZ-9439",
    "sfomuseum:departure_id": 102527513,
    "sfomuseum:flight_id": "20261008-D-UAL-1050",
    "sfomuseum:flight_number": [
      "UAL1050",
      "UA1050"
    ],
    "sfomuseum:placetype": "flight",
    "src:geom": "flysfo",
    "src:geom_alt": [
      "swim-takeoff"
    ],
    "swim:tail_number": "N27292",
    "wof:belongsto": [
      1947304067,
      102527513,
      1947304595,
      102191575,
      85633793,
      102087579,
      85922583,
      554784711,
      85688637,
      1947304609,
      1947304591,
      102085387
    ],
    "wof:country": "US",
    "wof:created": 1791562619,
    "wof:geomhash": "bbdc3c5edf2b2678c807f6144214d82c",
    "wof:hierarchy": [
      {
        "building_id": 1947304067,
        "campus_id": 102527513,
        "concourse_id": 1947304595,
        "continent_id": 102191575,
        "country_id": 85633793,
        "county_id": 102087579,
        "custom_id": 2048550905,
        "flight_id": 2048550905,
        "locality_id": 85922583,
        "postalcode_id": 554784711,
        "region_id": 85688637,
        "venue_id": 1947304609,
        "wing_id": 1947304591
      },
      {
        "building_id": 1947304067,
        "campus_id": 102527513,
        "concourse_id": 1947304595,
        "continent_id": 102191575,
        "country_id": 85633793,
        "county_id": 102085387,
        "custom_id": 2048550905,
        "flight_id": 2048550905,
        "region_id": 85688637,
        "venue_id": 1947304609,
        "wing_id": 1947304591
      }
    ],
    "wof:id": 2048550905,
    "wof:involves": [
      1528104575,
      102531131,
      102527513,
      1159285413,
      1947304609,
      1159283697
    ],
    "wof:lastmodified": 1791562837,
    "wof:name": "UA1050 (SFO-MSP)",
    "wof:parent_id": 1947304609,
    "wof:placetype": "custom",
    "wof:placetype_alt": [
      "flight"
    ],
    "wof:repo": "sfomuseum-data-flights-2026-10",
    "wof:superseded_by": [],
    "wof:supersedes": []
  },
  "bbox": [
    -122.370943,
    37.61799,
    -93.200317,
    44.883321
  ],
  "geometry": {"type":"MultiPoint","coordinates":[[-122.370943,37.61799],[-93.200317,44.883321]]}
}
