{
  "id": 2048550905,
  "type": "Feature",
  "properties": {
    "geom:area": 0,
    "geom:bbox": "-122.365720,37.629190,-121.471360,38.494030",
    "geom:latitude": 38.053782444079175,
    "geom:longitude": -121.9126438688982,
    "src:alt_label": "swim-takeoff",
    "src:geom": "swim",
    "swim:elevations": [
      152,
      560,
      921,
      1059,
      1181,
      1520,
      1818,
      2166,
      2697,
      2983,
      3320,
      3434,
      4193,
      4399,
      4708,
      4936,
      5072,
      5332,
      5564,
      5635,
      5732,
      5948,
      6217,
      6359
    ],
    "swim:geom": "takeoff",
    "swim:timestamps": [
      1791456315,
      1791456354,
      1791456385,
      1791456408,
      1791456432,
      1791456468,
      1791456486,
      1791456517,
      1791456556,
      1791456576,
      1791456618,
      1791456637,
      1791456712,
      1791456736,
      1791456774,
      1791456799,
      1791456821,
      1791456852,
      1791456880,
      1791456891,
      1791456909,
      1791456949,
      1791456984,
      1791457017
    ],
    "wof:geomhash": "375e80c7dbeb27a083c5bbcd76354f5e",
    "wof:id": 2048550905,
    "wof:repo": "sfomuseum-data-flights-2026-10"
  },
  "bbox": [
    -122.36572,
    37.62919,
    -121.47136,
    38.49403
  ],
  "geometry": {"type":"LineString","coordinates":[[-122.36572,37.62919],[-122.33818,37.64956],[-122.31245,37.66358],[-122.29209,37.67559],[-122.267,37.69016],[-122.2227,37.71416],[-122.20211,37.7311],[-122.17275,37.76333],[-122.1343,37.80614],[-122.11338,37.82922],[-122.06688,37.8795],[-122.04542,37.90372],[-121.94879,38.00944],[-121.91532,38.04606],[-121.86159,38.10552],[-121.82709,38.14393],[-121.79632,38.17948],[-121.74956,38.23107],[-121.70708,38.27647],[-121.69137,38.29314],[-121.66375,38.32319],[-121.60103,38.39137],[-121.54147,38.44984],[-121.47136,38.49403]]}
}
