{
  "id": 2048525157,
  "type": "Feature",
  "properties": {
    "geom:area": 0,
    "geom:bbox": "-122.365170,37.630190,-122.144980,37.753390",
    "geom:latitude": 37.694306141896654,
    "geom:longitude": -122.25669265863431,
    "src:alt_label": "swim-takeoff",
    "src:geom": "swim",
    "swim:elevations": [
      122,
      152,
      690,
      881,
      1160,
      1331,
      1581,
      1712,
      2035
    ],
    "swim:geom": "takeoff",
    "swim:timestamps": [
      1791191727,
      1791191730,
      1791191775,
      1791191799,
      1791191848,
      1791191878,
      1791191902,
      1791191913,
      1791191939
    ],
    "wof:geomhash": "4239f4a671487f1ad5d4937aaba34b9b",
    "wof:id": 2048525157,
    "wof:repo": "sfomuseum-data-flights-2026-10"
  },
  "bbox": [
    -122.36517,
    37.63019,
    -122.14498,
    37.75339
  ],
  "geometry": {"type":"LineString","coordinates":[[-122.36517,37.63019],[-122.36383,37.63217],[-122.32891,37.65614],[-122.3085,37.66693],[-122.26168,37.69331],[-122.22671,37.71117],[-122.19392,37.7279],[-122.18004,37.73498],[-122.14498,37.75339]]}
}
