{
  "id": 2048507609,
  "type": "Feature",
  "properties": {
    "geom:area": 0,
    "geom:bbox": "-122.360740,37.491710,-121.285240,37.614600",
    "geom:latitude": 37.545477473308274,
    "geom:longitude": -121.8276990922353,
    "src:alt_label": "swim-approach",
    "src:geom": "swim",
    "swim:elevations": [
      4493,
      4189,
      4092,
      3993,
      3795,
      3399,
      3288,
      3107,
      2861,
      2664,
      2519,
      2438,
      2322,
      2259,
      2122,
      1969,
      1838,
      1642,
      1504,
      1198,
      922,
      916,
      787,
      582,
      393,
      362,
      146,
      35,
      172
    ],
    "swim:geom": "approach",
    "swim:timestamps": [
      1791105165,
      1791105198,
      1791105211,
      1791105222,
      1791105248,
      1791105297,
      1791105320,
      1791105354,
      1791105385,
      1791105405,
      1791105420,
      1791105458,
      1791105486,
      1791105499,
      1791105519,
      1791105548,
      1791105571,
      1791105618,
      1791105633,
      1791105665,
      1791105711,
      1791105721,
      1791105758,
      1791105786,
      1791105835,
      1791105843,
      1791105896,
      1791105922,
      1791105933
    ],
    "wof:geomhash": "c4fc5f4579b183c2af03218545a9e120",
    "wof:id": 2048507609,
    "wof:repo": "sfomuseum-data-flights-2026-10"
  },
  "bbox": [
    -122.36074,
    37.49171,
    -121.28524,
    37.6146
  ],
  "geometry": {"type":"LineString","coordinates":[[-121.28524,37.5896],[-121.35174,37.58222],[-121.37841,37.57929],[-121.39998,37.57688],[-121.45097,37.57083],[-121.54121,37.56043],[-121.58081,37.55589],[-121.63453,37.54838],[-121.68155,37.53708],[-121.70937,37.53051],[-121.7325,37.52501],[-121.78776,37.51187],[-121.82858,37.50204],[-121.84718,37.4976],[-121.87746,37.49171],[-121.92067,37.49216],[-121.95427,37.49306],[-122.02052,37.50518],[-122.04064,37.51185],[-122.085,37.52622],[-122.14524,37.5458],[-122.15792,37.54984],[-122.19969,37.56332],[-122.23151,37.57358],[-122.28133,37.589],[-122.28896,37.59115],[-122.33294,37.60404],[-122.35268,37.61171],[-122.36074,37.6146]]}
}
