{
  "id": 2048552363,
  "type": "Feature",
  "properties": {
    "geom:area": 0,
    "geom:bbox": "-122.350380,36.733500,-121.885770,37.608360",
    "geom:latitude": 37.22808885157296,
    "geom:longitude": -122.06567594664953,
    "src:alt_label": "swim-approach",
    "src:geom": "swim",
    "swim:elevations": [
      5838,
      5717,
      5354,
      4931,
      4648,
      4545,
      4063,
      3933,
      3464,
      3355,
      2967,
      2849,
      2746,
      2467,
      2365,
      2288,
      2191,
      2112,
      1824,
      1620,
      1546,
      1524,
      1463,
      1360,
      1244,
      1144,
      1012,
      945,
      849,
      609,
      519,
      466,
      330,
      313,
      115,
      64
    ],
    "swim:geom": "approach",
    "swim:timestamps": [
      1791586072,
      1791586085,
      1791586117,
      1791586163,
      1791586190,
      1791586200,
      1791586250,
      1791586262,
      1791586313,
      1791586323,
      1791586367,
      1791586385,
      1791586413,
      1791586464,
      1791586497,
      1791586512,
      1791586533,
      1791586551,
      1791586587,
      1791586617,
      1791586635,
      1791586667,
      1791586700,
      1791586714,
      1791586742,
      1791586766,
      1791586797,
      1791586816,
      1791586835,
      1791586887,
      1791586902,
      1791586914,
      1791586948,
      1791586954,
      1791587005,
      1791587020
    ],
    "wof:geomhash": "73f6dde50b5f06848f741a5959000fc7",
    "wof:id": 2048552363,
    "wof:repo": "sfomuseum-data-flights-2026-10"
  },
  "bbox": [
    -122.35038,
    36.7335,
    -121.88577,
    37.60836
  ],
  "geometry": {"type":"LineString","coordinates":[[-121.88577,36.7335],[-121.89517,36.75205],[-121.91069,36.80135],[-121.93012,36.86942],[-121.94104,36.90906],[-121.94485,36.92343],[-121.96956,36.99439],[-121.97641,37.01139],[-122.0032,37.08083],[-122.00827,37.09411],[-122.03119,37.15249],[-122.0403,37.1759],[-122.05425,37.21026],[-122.07617,37.26697],[-122.08892,37.29984],[-122.09434,37.31356],[-122.10199,37.33258],[-122.10827,37.34828],[-122.10927,37.3792],[-122.09297,37.40333],[-122.0829,37.41794],[-122.06991,37.44404],[-122.08746,37.46821],[-122.09585,37.4782],[-122.11165,37.49709],[-122.12753,37.51357],[-122.15739,37.52714],[-122.1745,37.53429],[-122.19166,37.54165],[-122.24241,37.563],[-122.25669,37.569],[-122.26756,37.5736],[-122.29582,37.58549],[-122.30053,37.58749],[-122.33881,37.60351],[-122.35038,37.60836]]}
}
