{
  "id": 2048503199,
  "type": "Feature",
  "properties": {
    "date:inception_lower": "2026-10-03",
    "date:inception_upper": "2026-10-03",
    "edtf:cessation": "",
    "edtf:inception": "2026-10-03",
    "flysfo:actual_timestamp": -1,
    "flysfo:airline": "VA",
    "flysfo:base_airline": "",
    "flysfo:base_flight_number": "3185",
    "flysfo:date": "2026-10-03",
    "flysfo:estimated_timestamp": 1791050880,
    "flysfo:event": "A",
    "flysfo:flight_number": "VA8122",
    "flysfo:gate": "E10",
    "flysfo:journey": "LAS-SFO",
    "flysfo:scheduled_timestamp": 1791051300,
    "flysfo:timestamp": 1791051300,
    "geom:area": 0,
    "geom:bbox": "-122.370943,36.081003,-115.156440,37.617990",
    "geom:latitude": 36.8494965,
    "geom:longitude": -118.7636915,
    "iata:airline": "VA",
    "iata:base_airline": "",
    "icao:airline": "VOZ",
    "icao:base_airline": "ACA",
    "lbl:latitude": 37.619451,
    "lbl:longitude": -122.384404,
    "sfomuseum:airline_id": 1159285485,
    "sfomuseum:arrival_id": 102527513,
    "sfomuseum:base_flight_id": "20261003-A-ACA-3185",
    "sfomuseum:departure_id": 102527209,
    "sfomuseum:flight_id": "20261003-A-VOZ-8122",
    "sfomuseum:flight_number": [
      "VOZ8122",
      "VA8122"
    ],
    "sfomuseum:placetype": "flight",
    "src:geom": "flysfo",
    "wof:belongsto": [
      1947304067,
      102527513,
      1947304511,
      102191575,
      85633793,
      102087579,
      85922583,
      554784711,
      85688637,
      1947304519,
      1947304447,
      102085387
    ],
    "wof:country": "US",
    "wof:created": 1791130112,
    "wof:geomhash": "fcf5095e8d1a14d003993bc5070a7f0f",
    "wof:hierarchy": [
      {
        "building_id": 1947304067,
        "campus_id": 102527513,
        "concourse_id": 1947304511,
        "continent_id": 102191575,
        "country_id": 85633793,
        "county_id": 102087579,
        "custom_id": 2048503199,
        "flight_id": 2048503199,
        "locality_id": 85922583,
        "postalcode_id": 554784711,
        "region_id": 85688637,
        "venue_id": 1947304519,
        "wing_id": 1947304447
      },
      {
        "building_id": 1947304067,
        "campus_id": 102527513,
        "concourse_id": 1947304511,
        "continent_id": 102191575,
        "country_id": 85633793,
        "county_id": 102085387,
        "custom_id": 2048503199,
        "flight_id": 2048503199,
        "region_id": 85688637,
        "venue_id": 1947304519,
        "wing_id": 1947304447
      }
    ],
    "wof:id": 2048503199,
    "wof:involves": [
      102527513,
      102527209,
      1159285485,
      1947304519,
      1159283597
    ],
    "wof:lastmodified": 1791130112,
    "wof:name": "VA8122 (LAS-SFO)",
    "wof:parent_id": 1947304519,
    "wof:placetype": "custom",
    "wof:placetype_alt": [
      "flight"
    ],
    "wof:repo": "sfomuseum-data-flights-2026-10",
    "wof:superseded_by": [],
    "wof:supersedes": []
  },
  "bbox": [
    -122.370943,
    36.081003,
    -115.15644,
    37.61799
  ],
  "geometry": {"type":"MultiPoint","coordinates":[[-115.15644,36.081003],[-122.370943,37.61799]]}
}
