{
  "id": 2048498449,
  "type": "Feature",
  "properties": {
    "geom:area": 0,
    "geom:bbox": "-122.362470,37.633560,-121.250500,37.964440",
    "geom:latitude": 37.83923908429307,
    "geom:longitude": -121.82086360676692,
    "src:alt_label": "swim-takeoff",
    "src:geom": "swim",
    "swim:elevations": [
      152,
      401,
      941,
      1107,
      1279,
      1339,
      1861,
      2159,
      2491,
      2685,
      3106,
      3208,
      3239,
      3576,
      3859,
      4177,
      4551,
      4783,
      5121,
      5208,
      5696,
      6029,
      6157,
      6333,
      6744
    ],
    "swim:geom": "takeoff",
    "swim:timestamps": [
      1790977362,
      1790977385,
      1790977434,
      1790977466,
      1790977495,
      1790977505,
      1790977549,
      1790977571,
      1790977596,
      1790977611,
      1790977642,
      1790977654,
      1790977663,
      1790977697,
      1790977726,
      1790977758,
      1790977795,
      1790977818,
      1790977854,
      1790977863,
      1790977914,
      1790977947,
      1790977962,
      1790977981,
      1790978027
    ],
    "wof:geomhash": "fe8cee4cfd6980687d45c600c9bbd145",
    "wof:id": 2048498449,
    "wof:repo": "sfomuseum-data-flights-2026-10"
  },
  "bbox": [
    -122.36247,
    37.63356,
    -121.2505,
    37.96444
  ],
  "geometry": {"type":"LineString","coordinates":[[-122.36247,37.63356],[-122.34562,37.64724],[-122.30309,37.66953],[-122.27279,37.68688],[-122.23781,37.70564],[-122.22614,37.71176],[-122.16465,37.7435],[-122.13238,37.7598],[-122.09787,37.77793],[-122.07601,37.78968],[-122.03053,37.81303],[-122.01231,37.82164],[-121.99773,37.82733],[-121.93756,37.83954],[-121.88238,37.84845],[-121.8197,37.86052],[-121.74608,37.87447],[-121.69952,37.88339],[-121.6251,37.89685],[-121.60707,37.9001],[-121.49809,37.92006],[-121.42685,37.93313],[-121.39442,37.93924],[-121.3519,37.9466],[-121.2505,37.96444]]}
}
