{
  "id": 2048500653,
  "type": "Feature",
  "properties": {
    "geom:area": 0,
    "geom:bbox": "-122.825360,37.430130,-122.150050,38.470670",
    "geom:latitude": 37.82606344275324,
    "geom:longitude": -122.50897248385603,
    "src:alt_label": "swim-approach",
    "src:geom": "swim",
    "swim:elevations": [
      7620,
      7590,
      7085,
      6882,
      6527,
      6303,
      5874,
      5741,
      5290,
      5122,
      4728,
      4457,
      4203,
      4002,
      3733,
      3530,
      3392,
      3353,
      3355,
      3353,
      3353,
      3281,
      2964,
      2788,
      2582,
      2263,
      1961,
      1894,
      1585,
      1493,
      1338,
      1229,
      1033,
      819,
      693,
      553,
      427,
      266,
      244,
      22,
      31
    ],
    "swim:geom": "approach",
    "swim:timestamps": [
      1791028526,
      1791028530,
      1791028581,
      1791028600,
      1791028636,
      1791028660,
      1791028703,
      1791028718,
      1791028766,
      1791028782,
      1791028825,
      1791028855,
      1791028882,
      1791028902,
      1791028934,
      1791028956,
      1791028985,
      1791029029,
      1791029066,
      1791029084,
      1791029107,
      1791029135,
      1791029180,
      1791029205,
      1791029227,
      1791029264,
      1791029307,
      1791029316,
      1791029357,
      1791029394,
      1791029423,
      1791029439,
      1791029464,
      1791029497,
      1791029537,
      1791029561,
      1791029601,
      1791029635,
      1791029640,
      1791029697,
      1791029705
    ],
    "wof:geomhash": "9a8d77698dfe4dce46579b58c737c02e",
    "wof:id": 2048500653,
    "wof:repo": "sfomuseum-data-flights-2026-10"
  },
  "bbox": [
    -122.82536,
    37.43013,
    -122.15005,
    38.47067
  ],
  "geometry": {"type":"LineString","coordinates":[[-122.82536,38.47067],[-122.82353,38.46342],[-122.80224,38.3726],[-122.79417,38.3379],[-122.77948,38.27589],[-122.76932,38.23332],[-122.7492,38.16138],[-122.74185,38.13597],[-122.71915,38.0579],[-122.71152,38.03181],[-122.69153,37.96337],[-122.67769,37.91693],[-122.65111,37.87886],[-122.62598,37.85509],[-122.58532,37.81646],[-122.55851,37.79105],[-122.52305,37.7578],[-122.47376,37.7111],[-122.43794,37.6775],[-122.42119,37.66164],[-122.39952,37.64126],[-122.37313,37.6166],[-122.34343,37.57151],[-122.3308,37.54657],[-122.31744,37.52477],[-122.29555,37.48883],[-122.27057,37.44762],[-122.26424,37.43937],[-122.21355,37.43013],[-122.1737,37.44834],[-122.15236,37.46909],[-122.15005,37.48372],[-122.16227,37.505],[-122.18546,37.52905],[-122.21635,37.5522],[-122.23755,37.5609],[-122.27319,37.5755],[-122.30374,37.58886],[-122.3076,37.59047],[-122.35614,37.6108],[-122.3636,37.61395]]}
}
