{
  "id": 2048524935,
  "type": "Feature",
  "properties": {
    "geom:area": 0,
    "geom:bbox": "-122.385380,37.636440,-121.242810,38.166130",
    "geom:latitude": 37.99283312637316,
    "geom:longitude": -121.93065151103279,
    "src:alt_label": "swim-takeoff",
    "src:geom": "swim",
    "swim:elevations": [
      213,
      516,
      680,
      981,
      1140,
      1295,
      1415,
      1434,
      1886,
      2192,
      2564,
      2864,
      3140,
      3360,
      3872,
      3920,
      4008,
      4287,
      4666,
      4804,
      5099,
      5333,
      5690,
      5904,
      6057,
      6201,
      6352,
      6550,
      6716,
      6775,
      7065
    ],
    "swim:geom": "takeoff",
    "swim:timestamps": [
      1791242782,
      1791242811,
      1791242823,
      1791242860,
      1791242890,
      1791242920,
      1791242942,
      1791242945,
      1791242993,
      1791243019,
      1791243051,
      1791243077,
      1791243101,
      1791243134,
      1791243178,
      1791243182,
      1791243193,
      1791243223,
      1791243268,
      1791243282,
      1791243316,
      1791243344,
      1791243387,
      1791243418,
      1791243441,
      1791243461,
      1791243487,
      1791243526,
      1791243562,
      1791243574,
      1791243619
    ],
    "wof:geomhash": "92967043af4ca7cba6978d0670e9a592",
    "wof:id": 2048524935,
    "wof:repo": "sfomuseum-data-flights-2026-10"
  },
  "bbox": [
    -122.38538,
    37.63644,
    -121.24281,
    38.16613
  ],
  "geometry": {"type":"LineString","coordinates":[[-122.36083,37.63644],[-122.34051,37.65466],[-122.33165,37.66153],[-122.31345,37.68719],[-122.31822,37.71233],[-122.33304,37.73992],[-122.34515,37.76265],[-122.34681,37.76592],[-122.37512,37.82263],[-122.38538,37.85585],[-122.38489,37.89799],[-122.37052,37.92963],[-122.33814,37.94935],[-122.28031,37.96189],[-122.19956,37.97734],[-122.19182,37.97891],[-122.17036,37.98332],[-122.11267,37.99515],[-122.02351,38.01321],[-121.99554,38.01882],[-121.92732,38.03235],[-121.86933,38.04379],[-121.77681,38.06207],[-121.71159,38.07501],[-121.66152,38.08491],[-121.61581,38.0938],[-121.55902,38.10493],[-121.46804,38.12269],[-121.38161,38.13936],[-121.35237,38.14499],[-121.24281,38.16613]]}
}
