{
  "id": 2048523427,
  "type": "Feature",
  "properties": {
    "date:cessation_lower": "1970-01-01",
    "date:cessation_upper": "1970-01-01",
    "date:inception_lower": "2026-10-05",
    "date:inception_upper": "2026-10-05",
    "edtf:cessation": "1970-01-01T00:00:00Z",
    "edtf:inception": "2026-10-05T04:51:08-07:00",
    "flysfo:actual_timestamp": -1,
    "flysfo:airline": "DL",
    "flysfo:base_airline": "",
    "flysfo:base_flight_number": "2134",
    "flysfo:date": "2026-10-05",
    "flysfo:estimated_timestamp": 1791225120,
    "flysfo:event": "D",
    "flysfo:flight_number": "DL2057",
    "flysfo:gate": "B5",
    "flysfo:journey": "SFO-DTW",
    "flysfo:scheduled_timestamp": 1791225420,
    "flysfo:timestamp": 1791225420,
    "geom:area": 0,
    "geom:bbox": "-122.370943,37.617990,-83.351709,42.218860",
    "geom:latitude": 39.918425,
    "geom:longitude": -102.86132599999999,
    "iata:airline": "DL",
    "iata:base_airline": "",
    "icao:aircraft": "B739",
    "icao:airline": "DAL",
    "icao:base_airline": "AFR",
    "lbl:latitude": 37.61799,
    "lbl:longitude": -122.370943,
    "sfomuseum:aircraft_id": 1377564285,
    "sfomuseum:airline_id": 1159284261,
    "sfomuseum:arrival_id": 102525635,
    "sfomuseum:base_flight_id": "20261005-D-AFR-2134",
    "sfomuseum:departure_id": 102527513,
    "sfomuseum:flight_id": "20261005-D-DAL-2057",
    "sfomuseum:flight_number": [
      "DAL2057",
      "DL2057"
    ],
    "sfomuseum:placetype": "flight",
    "src:geom": "flysfo",
    "src:geom_alt": [
      "swim-takeoff"
    ],
    "swim:tail_number": "N818DA",
    "wof:belongsto": [
      1947304067,
      102527513,
      1947304261,
      102191575,
      85633793,
      102087579,
      85922583,
      554784711,
      85688637,
      1947304299,
      1947304259,
      102085387
    ],
    "wof:country": "US",
    "wof:created": 1791303222,
    "wof:geomhash": "9151bfe07cf224e1ff61a7f7b8c30671",
    "wof:hierarchy": [
      {
        "building_id": 1947304067,
        "campus_id": 102527513,
        "concourse_id": 1947304261,
        "continent_id": 102191575,
        "country_id": 85633793,
        "county_id": 102087579,
        "custom_id": 2048523427,
        "flight_id": 2048523427,
        "locality_id": 85922583,
        "postalcode_id": 554784711,
        "region_id": 85688637,
        "venue_id": 1947304299,
        "wing_id": 1947304259
      },
      {
        "building_id": 1947304067,
        "campus_id": 102527513,
        "concourse_id": 1947304261,
        "continent_id": 102191575,
        "country_id": 85633793,
        "county_id": 102085387,
        "custom_id": 2048523427,
        "flight_id": 2048523427,
        "region_id": 85688637,
        "venue_id": 1947304299,
        "wing_id": 1947304259
      }
    ],
    "wof:id": 2048523427,
    "wof:involves": [
      1159283627,
      1377564285,
      102525635,
      102527513,
      1159284261,
      1947304299
    ],
    "wof:lastmodified": 1791303573,
    "wof:name": "DL2057 (SFO-DTW)",
    "wof:parent_id": 1947304299,
    "wof:placetype": "custom",
    "wof:placetype_alt": [
      "flight"
    ],
    "wof:repo": "sfomuseum-data-flights-2026-10",
    "wof:superseded_by": [],
    "wof:supersedes": []
  },
  "bbox": [
    -122.370943,
    37.61799,
    -83.351709,
    42.21886
  ],
  "geometry": {"type":"MultiPoint","coordinates":[[-122.370943,37.61799],[-83.351709,42.21886]]}
}
