{
  "id": 2048560175,
  "type": "Feature",
  "properties": {
    "geom:area": 0,
    "geom:bbox": "-122.367750,37.625780,-121.300170,37.958170",
    "geom:latitude": 37.81969059117219,
    "geom:longitude": -121.84198413388602,
    "src:alt_label": "swim-takeoff",
    "src:geom": "swim",
    "swim:elevations": [
      152,
      850,
      1034,
      1063,
      1103,
      1287,
      1357,
      2157,
      2728,
      2805,
      3379,
      3409,
      3518,
      3729,
      4064,
      4363,
      4437,
      5144,
      5739,
      5793,
      6434,
      6618,
      6893,
      7043
    ],
    "swim:geom": "takeoff",
    "swim:timestamps": [
      1791557941,
      1791557998,
      1791558018,
      1791558026,
      1791558036,
      1791558088,
      1791558094,
      1791558146,
      1791558178,
      1791558183,
      1791558239,
      1791558243,
      1791558260,
      1791558285,
      1791558312,
      1791558324,
      1791558327,
      1791558372,
      1791558414,
      1791558422,
      1791558477,
      1791558492,
      1791558513,
      1791558552
    ],
    "wof:geomhash": "9ddf92448036258ed85a1e23e2aeb6cc",
    "wof:id": 2048560175,
    "wof:repo": "sfomuseum-data-flights-2026-10"
  },
  "bbox": [
    -122.36775,
    37.62578,
    -121.30017,
    37.95817
  ],
  "geometry": {"type":"LineString","coordinates":[[-122.36775,37.62578],[-122.32014,37.64965],[-122.30201,37.65599],[-122.29418,37.65884],[-122.28442,37.66241],[-122.21979,37.68641],[-122.21099,37.6897],[-122.13514,37.71825],[-122.08822,37.73623],[-122.08079,37.73915],[-121.99227,37.77624],[-121.98518,37.77928],[-121.95298,37.79321],[-121.90311,37.81471],[-121.84826,37.83805],[-121.82216,37.84921],[-121.81607,37.85176],[-121.72473,37.88556],[-121.62986,37.90197],[-121.61275,37.90496],[-121.48125,37.92746],[-121.4464,37.93343],[-121.39727,37.94175],[-121.30017,37.95817]]}
}
