{
  "id": 2048505173,
  "type": "Feature",
  "properties": {
    "date:inception_lower": "2026-10-03",
    "date:inception_upper": "2026-10-03",
    "edtf:cessation": "",
    "edtf:inception": "2026-10-03",
    "flysfo:actual_timestamp": -1,
    "flysfo:airline": "CZ",
    "flysfo:base_airline": "",
    "flysfo:base_flight_number": "6507",
    "flysfo:date": "2026-10-03",
    "flysfo:estimated_timestamp": 1791077940,
    "flysfo:event": "D",
    "flysfo:flight_number": "CZ1754",
    "flysfo:gate": "B22",
    "flysfo:journey": "SFO-LAX",
    "flysfo:scheduled_timestamp": 1791069120,
    "flysfo:timestamp": 1791077940,
    "geom:area": 0,
    "geom:bbox": "-122.370943,33.942593,-118.389510,37.617990",
    "geom:latitude": 35.780291500000004,
    "geom:longitude": -120.38022649999999,
    "iata:airline": "CZ",
    "iata:base_airline": "",
    "icao:airline": "CSN",
    "icao:base_airline": "BAW",
    "lbl:latitude": 37.61799,
    "lbl:longitude": -122.370943,
    "sfomuseum:airline_id": 1159284165,
    "sfomuseum:arrival_id": 102533795,
    "sfomuseum:base_flight_id": "20261003-D-BAW-6507",
    "sfomuseum:departure_id": 102527513,
    "sfomuseum:flight_id": "20261003-D-CSN-1754",
    "sfomuseum:flight_number": [
      "CSN1754",
      "CZ1754"
    ],
    "sfomuseum:placetype": "flight",
    "src:geom": "flysfo",
    "wof:belongsto": [
      1947304067,
      102527513,
      1947304261,
      102191575,
      85633793,
      102087579,
      85922583,
      554784711,
      85688637,
      1947304295,
      1947304259,
      102085387
    ],
    "wof:country": "US",
    "wof:created": 1791130329,
    "wof:geomhash": "602be2a828e3460cadf44be5b1c2e36b",
    "wof:hierarchy": [
      {
        "building_id": 1947304067,
        "campus_id": 102527513,
        "concourse_id": 1947304261,
        "continent_id": 102191575,
        "country_id": 85633793,
        "county_id": 102087579,
        "custom_id": 2048505173,
        "flight_id": 2048505173,
        "locality_id": 85922583,
        "postalcode_id": 554784711,
        "region_id": 85688637,
        "venue_id": 1947304295,
        "wing_id": 1947304259
      },
      {
        "building_id": 1947304067,
        "campus_id": 102527513,
        "concourse_id": 1947304261,
        "continent_id": 102191575,
        "country_id": 85633793,
        "county_id": 102085387,
        "custom_id": 2048505173,
        "flight_id": 2048505173,
        "region_id": 85688637,
        "venue_id": 1947304295,
        "wing_id": 1947304259
      }
    ],
    "wof:id": 2048505173,
    "wof:involves": [
      102533795,
      102527513,
      1159284165,
      1947304295,
      1159284021
    ],
    "wof:lastmodified": 1791130329,
    "wof:name": "CZ1754 (SFO-LAX)",
    "wof:parent_id": 1947304295,
    "wof:placetype": "custom",
    "wof:placetype_alt": [
      "flight"
    ],
    "wof:repo": "sfomuseum-data-flights-2026-10",
    "wof:superseded_by": [],
    "wof:supersedes": []
  },
  "bbox": [
    -122.370943,
    33.942593,
    -118.38951,
    37.61799
  ],
  "geometry": {"type":"MultiPoint","coordinates":[[-122.370943,37.61799],[-118.38951,33.942593]]}
}
