{
  "id": 2048494049,
  "type": "Feature",
  "properties": {
    "geom:area": 0,
    "geom:bbox": "-122.356870,37.474940,-121.267090,37.644970",
    "geom:latitude": 37.55483775121512,
    "geom:longitude": -121.82106654988245,
    "src:alt_label": "swim-approach",
    "src:geom": "swim",
    "swim:elevations": [
      4588,
      4498,
      4358,
      4181,
      4016,
      3872,
      3776,
      3463,
      3353,
      3353,
      3146,
      3087,
      2982,
      2921,
      2743,
      2736,
      2623,
      2583,
      2438,
      2437,
      2255,
      2170,
      2134,
      2110,
      2032,
      1825,
      1829,
      1640,
      1451,
      1339,
      1127,
      991,
      855,
      639,
      454,
      303,
      170,
      99,
      0
    ],
    "swim:geom": "approach",
    "swim:timestamps": [
      1790932105,
      1790932117,
      1790932160,
      1790932196,
      1790932225,
      1790932246,
      1790932264,
      1790932308,
      1790932325,
      1790932351,
      1790932401,
      1790932415,
      1790932463,
      1790932472,
      1790932523,
      1790932533,
      1790932554,
      1790932563,
      1790932603,
      1790932636,
      1790932674,
      1790932691,
      1790932713,
      1790932730,
      1790932746,
      1790932786,
      1790932823,
      1790932847,
      1790932886,
      1790932912,
      1790932948,
      1790932970,
      1790932991,
      1790933025,
      1790933061,
      1790933094,
      1790933127,
      1790933141,
      1790933162
    ],
    "wof:geomhash": "76e00fa7f5d09d8101af636b7f7c47be",
    "wof:id": 2048494049,
    "wof:repo": "sfomuseum-data-flights-2026-10"
  },
  "bbox": [
    -122.35687,
    37.47494,
    -121.26709,
    37.64497
  ],
  "geometry": {"type":"LineString","coordinates":[[-121.26709,37.59203],[-121.28835,37.58931],[-121.35996,37.58182],[-121.41306,37.57564],[-121.45688,37.57033],[-121.48743,37.56664],[-121.51363,37.56358],[-121.57665,37.55639],[-121.60035,37.55363],[-121.63784,37.55049],[-121.70026,37.58183],[-121.71706,37.59169],[-121.77372,37.62504],[-121.78437,37.63131],[-121.84959,37.64497],[-121.85942,37.63807],[-121.86838,37.61699],[-121.86557,37.60703],[-121.83322,37.57249],[-121.80511,37.54498],[-121.80447,37.50503],[-121.81418,37.48935],[-121.84096,37.48088],[-121.86457,37.47994],[-121.88663,37.47911],[-121.94069,37.47713],[-121.9926,37.47494],[-122.02563,37.47519],[-122.07486,37.49469],[-122.10586,37.50737],[-122.14967,37.52613],[-122.17394,37.53625],[-122.1985,37.54667],[-122.23563,37.56244],[-122.27153,37.57754],[-122.30058,37.58983],[-122.32787,37.6012],[-122.33949,37.60622],[-122.35687,37.61338]]}
}
