{
  "id": 2048498479,
  "type": "Feature",
  "properties": {
    "geom:area": 0,
    "geom:bbox": "-122.367060,37.627360,-122.170610,37.740340",
    "geom:latitude": 37.68700632706711,
    "geom:longitude": -122.27110867281057,
    "src:alt_label": "swim-takeoff",
    "src:geom": "swim",
    "swim:elevations": [
      122,
      586,
      747,
      1094,
      1216,
      1561,
      1779,
      2007
    ],
    "swim:geom": "takeoff",
    "swim:timestamps": [
      1790941638,
      1790941670,
      1790941689,
      1790941738,
      1790941759,
      1790941795,
      1790941811,
      1790941830
    ],
    "wof:geomhash": "83f6849e232c39f342c9cf696714fbc9",
    "wof:id": 2048498479,
    "wof:repo": "sfomuseum-data-flights-2026-10"
  },
  "bbox": [
    -122.36706,
    37.62736,
    -122.17061,
    37.74034
  ],
  "geometry": {"type":"LineString","coordinates":[[-122.36706,37.62736],[-122.3479,37.64657],[-122.33254,37.65467],[-122.28885,37.67839],[-122.2644,37.69166],[-122.21831,37.71559],[-122.19603,37.72708],[-122.17061,37.74034]]}
}
