{
  "id": 2048552265,
  "type": "Feature",
  "properties": {
    "geom:area": 0,
    "geom:bbox": "-122.360430,37.492640,-121.294980,37.614680",
    "geom:latitude": 37.545042260252025,
    "geom:longitude": -121.83244353732567,
    "src:alt_label": "swim-approach",
    "src:geom": "swim",
    "swim:elevations": [
      4375,
      4252,
      3986,
      3703,
      3352,
      3262,
      3149,
      3065,
      3016,
      2573,
      2447,
      2284,
      2195,
      1902,
      1857,
      1772,
      1641,
      1242,
      977,
      914,
      814,
      663,
      518,
      478,
      340,
      233,
      193,
      121,
      0
    ],
    "swim:geom": "approach",
    "swim:timestamps": [
      1791556377,
      1791556392,
      1791556422,
      1791556454,
      1791556496,
      1791556515,
      1791556554,
      1791556566,
      1791556571,
      1791556632,
      1791556668,
      1791556696,
      1791556712,
      1791556767,
      1791556776,
      1791556812,
      1791556830,
      1791556873,
      1791556911,
      1791556936,
      1791556972,
      1791556996,
      1791557020,
      1791557044,
      1791557083,
      1791557110,
      1791557120,
      1791557142,
      1791557176
    ],
    "wof:geomhash": "655e6e1529cd576a7fbd4fa5e97ccd76",
    "wof:id": 2048552265,
    "wof:repo": "sfomuseum-data-flights-2026-10"
  },
  "bbox": [
    -122.36043,
    37.49264,
    -121.29498,
    37.61468
  ],
  "geometry": {"type":"LineString","coordinates":[[-121.29498,37.58866],[-121.32296,37.58558],[-121.38322,37.57886],[-121.44387,37.57186],[-121.52423,37.56253],[-121.55906,37.55851],[-121.62591,37.55013],[-121.64497,37.54585],[-121.65244,37.54401],[-121.74942,37.52089],[-121.80409,37.50783],[-121.84367,37.49836],[-121.86647,37.49292],[-121.94366,37.49264],[-121.95581,37.49298],[-122.00292,37.49966],[-122.02532,37.50685],[-122.07911,37.52429],[-122.12595,37.53947],[-122.15602,37.54922],[-122.19428,37.56149],[-122.21822,37.56924],[-122.24236,37.57708],[-122.26241,37.58346],[-122.29235,37.59219],[-122.31321,37.59819],[-122.3214,37.6005],[-122.33853,37.60563],[-122.36043,37.61468]]}
}
