{
  "id": 2048553667,
  "type": "Feature",
  "properties": {
    "geom:area": 0,
    "geom:bbox": "-122.361100,37.491630,-121.246110,37.614930",
    "geom:latitude": 37.54709516122311,
    "geom:longitude": -121.80854426455969,
    "src:alt_label": "swim-approach",
    "src:geom": "swim",
    "swim:elevations": [
      5170,
      5036,
      4816,
      4705,
      4366,
      4028,
      3706,
      3630,
      3542,
      3475,
      3380,
      3322,
      3206,
      2950,
      2863,
      2778,
      2521,
      2310,
      2161,
      2102,
      2018,
      1899,
      1720,
      1655,
      1451,
      1318,
      1216,
      1095,
      943,
      753,
      624,
      556,
      514,
      400,
      250,
      141,
      0
    ],
    "swim:geom": "approach",
    "swim:timestamps": [
      1791587357,
      1791587372,
      1791587397,
      1791587409,
      1791587448,
      1791587478,
      1791587516,
      1791587527,
      1791587539,
      1791587561,
      1791587595,
      1791587610,
      1791587631,
      1791587663,
      1791587672,
      1791587685,
      1791587717,
      1791587747,
      1791587778,
      1791587791,
      1791587815,
      1791587836,
      1791587874,
      1791587887,
      1791587933,
      1791587962,
      1791587980,
      1791588009,
      1791588045,
      1791588086,
      1791588117,
      1791588132,
      1791588145,
      1791588167,
      1791588206,
      1791588233,
      1791588266
    ],
    "wof:geomhash": "c4400ad1785890027670ab113096f67e",
    "wof:id": 2048553667,
    "wof:repo": "sfomuseum-data-flights-2026-10"
  },
  "bbox": [
    -122.3611,
    37.49163,
    -121.24611,
    37.61493
  ],
  "geometry": {"type":"LineString","coordinates":[[-121.24611,37.59499],[-121.27331,37.59127],[-121.31817,37.58652],[-121.33947,37.58412],[-121.40724,37.57622],[-121.45982,37.56971],[-121.52652,37.56231],[-121.54611,37.56001],[-121.56738,37.55755],[-121.60435,37.55316],[-121.65733,37.54288],[-121.67891,37.53792],[-121.70795,37.53105],[-121.75249,37.52038],[-121.76485,37.51739],[-121.78167,37.51337],[-121.8258,37.50264],[-121.86454,37.49341],[-121.90526,37.49163],[-121.92087,37.49208],[-121.94855,37.49278],[-121.9717,37.49332],[-122.01087,37.50195],[-122.02464,37.50645],[-122.06905,37.52088],[-122.09733,37.53013],[-122.11549,37.53629],[-122.14337,37.54508],[-122.17617,37.55569],[-122.2112,37.56725],[-122.23872,37.57608],[-122.25202,37.5803],[-122.26364,37.58395],[-122.28141,37.58933],[-122.31375,37.59882],[-122.33541,37.60535],[-122.3611,37.61493]]}
}
