{
  "id": 2048504645,
  "type": "Feature",
  "properties": {
    "geom:area": 0,
    "geom:bbox": "-122.558460,36.724770,-122.358640,37.321090",
    "geom:latitude": 37.008461385657796,
    "geom:longitude": -122.49645511225741,
    "src:alt_label": "swim-takeoff",
    "src:geom": "swim",
    "swim:elevations": [
      5375,
      6066,
      6389,
      6728,
      6859,
      7144,
      7496,
      8072,
      8202,
      8357,
      8536,
      8810,
      8821,
      9108
    ],
    "swim:geom": "takeoff",
    "swim:timestamps": [
      1791047343,
      1791047396,
      1791047423,
      1791047454,
      1791047465,
      1791047491,
      1791047521,
      1791047578,
      1791047592,
      1791047606,
      1791047632,
      1791047665,
      1791047670,
      1791047703
    ],
    "wof:geomhash": "9f88b91da53ea8f1c9638c9acc4cc4a4",
    "wof:id": 2048504645,
    "wof:repo": "sfomuseum-data-flights-2026-10"
  },
  "bbox": [
    -122.55846,
    36.72477,
    -122.35864,
    37.32109
  ],
  "geometry": {"type":"LineString","coordinates":[[-122.51141,37.32109],[-122.52594,37.23451],[-122.53387,37.18799],[-122.54238,37.13665],[-122.54564,37.11716],[-122.55315,37.07219],[-122.55846,37.02036],[-122.50686,36.92758],[-122.49185,36.90668],[-122.47449,36.8829],[-122.44393,36.84138],[-122.40416,36.78702],[-122.39828,36.779],[-122.35864,36.72477]]}
}
