{
  "id": 2048509555,
  "type": "Feature",
  "properties": {
    "geom:area": 0,
    "geom:bbox": "-122.362550,37.491360,-121.300720,37.616580",
    "geom:latitude": 37.54504812436462,
    "geom:longitude": -121.8366004861669,
    "src:alt_label": "swim-approach",
    "src:geom": "swim",
    "swim:elevations": [
      4317,
      3944,
      3726,
      3566,
      3173,
      3110,
      2956,
      2843,
      2816,
      2577,
      2459,
      2401,
      2227,
      2087,
      2009,
      1772,
      1608,
      1528,
      1338,
      1048,
      833,
      732,
      667,
      439,
      347,
      93,
      274
    ],
    "swim:geom": "approach",
    "swim:timestamps": [
      1791118279,
      1791118317,
      1791118339,
      1791118357,
      1791118401,
      1791118431,
      1791118467,
      1791118487,
      1791118491,
      1791118521,
      1791118546,
      1791118557,
      1791118585,
      1791118609,
      1791118627,
      1791118675,
      1791118704,
      1791118716,
      1791118743,
      1791118792,
      1791118828,
      1791118852,
      1791118864,
      1791118907,
      1791118928,
      1791118978,
      1791119003
    ],
    "wof:geomhash": "d5dbe537e28e2f6094be36746f6b2194",
    "wof:id": 2048509555,
    "wof:repo": "sfomuseum-data-flights-2026-10"
  },
  "bbox": [
    -122.36255,
    37.49136,
    -121.30072,
    37.61658
  ],
  "geometry": {"type":"LineString","coordinates":[[-121.30072,37.58773],[-121.3808,37.57933],[-121.42588,37.57436],[-121.4609,37.57036],[-121.54982,37.5598],[-121.60552,37.553],[-121.66621,37.54062],[-121.69878,37.53298],[-121.70538,37.5314],[-121.75706,37.51918],[-121.7963,37.50962],[-121.81431,37.50535],[-121.85768,37.49515],[-121.89513,37.49136],[-121.92404,37.4922],[-121.99791,37.49771],[-122.03908,37.51124],[-122.05551,37.51651],[-122.09133,37.52827],[-122.15357,37.54839],[-122.19481,37.56164],[-122.22218,37.57051],[-122.23454,37.57457],[-122.2797,37.58906],[-122.29889,37.59447],[-122.34247,37.60744],[-122.36255,37.61658]]}
}
