{
  "id": 2048509663,
  "type": "Feature",
  "properties": {
    "geom:area": 0,
    "geom:bbox": "-122.348130,37.491330,-121.283960,37.609720",
    "geom:latitude": 37.5446250848498,
    "geom:longitude": -121.82058125176877,
    "src:alt_label": "swim-approach",
    "src:geom": "swim",
    "swim:elevations": [
      4183,
      4151,
      3973,
      3573,
      3565,
      3199,
      3087,
      2949,
      2703,
      2598,
      2503,
      2245,
      2081,
      1884,
      1829,
      1746,
      1552,
      1529,
      1109,
      1014,
      884,
      803,
      536,
      479,
      314,
      232,
      82,
      59
    ],
    "swim:geom": "approach",
    "swim:timestamps": [
      1791110157,
      1791110161,
      1791110191,
      1791110246,
      1791110250,
      1791110307,
      1791110325,
      1791110350,
      1791110394,
      1791110413,
      1791110431,
      1791110482,
      1791110508,
      1791110548,
      1791110575,
      1791110594,
      1791110621,
      1791110624,
      1791110668,
      1791110680,
      1791110723,
      1791110739,
      1791110787,
      1791110804,
      1791110847,
      1791110868,
      1791110907,
      1791110911
    ],
    "wof:geomhash": "e89c7a1f02c2e29ea3fb21b52074f92d",
    "wof:id": 2048509663,
    "wof:repo": "sfomuseum-data-flights-2026-10"
  },
  "bbox": [
    -122.34813,
    37.49133,
    -121.28396,
    37.60972
  ],
  "geometry": {"type":"LineString","coordinates":[[-121.28396,37.58987],[-121.29169,37.58894],[-121.35137,37.58235],[-121.46293,37.56971],[-121.47046,37.56889],[-121.57247,37.55673],[-121.60356,37.55322],[-121.64641,37.54551],[-121.71497,37.52907],[-121.74373,37.52227],[-121.7705,37.51579],[-121.84713,37.49751],[-121.88754,37.49133],[-121.94938,37.49297],[-121.99003,37.49608],[-122.01673,37.50441],[-122.05196,37.51565],[-122.05584,37.51688],[-122.11262,37.53521],[-122.1282,37.54019],[-122.17953,37.55674],[-122.1979,37.56267],[-122.2501,37.57954],[-122.26566,37.58443],[-122.29991,37.59442],[-122.31614,37.59903],[-122.34534,37.60858],[-122.34813,37.60972]]}
}
