{
  "id": 2048494307,
  "type": "Feature",
  "properties": {
    "date:inception_lower": "2026-10-02",
    "date:inception_upper": "2026-10-02",
    "edtf:cessation": "",
    "edtf:inception": "2026-10-02",
    "flysfo:actual_timestamp": -1,
    "flysfo:airline": "UA",
    "flysfo:base_airline": "",
    "flysfo:base_flight_number": "7116",
    "flysfo:date": "2026-10-02",
    "flysfo:estimated_timestamp": 1791008220,
    "flysfo:event": "A",
    "flysfo:flight_number": "UA7116",
    "flysfo:gate": "A5",
    "flysfo:journey": "PTY-SFO",
    "flysfo:scheduled_timestamp": 1791009600,
    "flysfo:timestamp": 1791009600,
    "geom:area": 0,
    "geom:bbox": "-122.370943,9.071360,-79.383499,37.617990",
    "geom:latitude": 23.344675,
    "geom:longitude": -100.87722099999999,
    "iata:airline": "UA",
    "iata:base_airline": "",
    "icao:airline": "UAL",
    "icao:base_airline": "UAL",
    "lbl:latitude": 37.613288,
    "lbl:longitude": -122.389396,
    "sfomuseum:airline_id": 1159285413,
    "sfomuseum:arrival_id": 102527513,
    "sfomuseum:base_flight_id": "20261002-A-UAL-7116",
    "sfomuseum:departure_id": 102547051,
    "sfomuseum:flight_id": "20261002-A-UAL-7116",
    "sfomuseum:flight_number": [
      "UAL7116",
      "UA7116"
    ],
    "sfomuseum:placetype": "flight",
    "src:geom": "flysfo",
    "wof:belongsto": [
      1947304067,
      102527513,
      1947304073,
      102191575,
      85633793,
      102087579,
      85922583,
      554784711,
      85688637,
      1947304087,
      1947304069,
      102085387
    ],
    "wof:country": "US",
    "wof:created": 1791043714,
    "wof:geomhash": "a24fa29091ad40e8c2dcacd18340610c",
    "wof:hierarchy": [
      {
        "building_id": 1947304067,
        "campus_id": 102527513,
        "concourse_id": 1947304073,
        "continent_id": 102191575,
        "country_id": 85633793,
        "county_id": 102087579,
        "custom_id": 2048494307,
        "flight_id": 2048494307,
        "locality_id": 85922583,
        "postalcode_id": 554784711,
        "region_id": 85688637,
        "venue_id": 1947304087,
        "wing_id": 1947304069
      },
      {
        "building_id": 1947304067,
        "campus_id": 102527513,
        "concourse_id": 1947304073,
        "continent_id": 102191575,
        "country_id": 85633793,
        "county_id": 102085387,
        "custom_id": 2048494307,
        "flight_id": 2048494307,
        "region_id": 85688637,
        "venue_id": 1947304087,
        "wing_id": 1947304069
      }
    ],
    "wof:id": 2048494307,
    "wof:involves": [
      102527513,
      102547051,
      1159285413,
      1947304087,
      1159285413
    ],
    "wof:lastmodified": 1791043714,
    "wof:name": "UA7116 (PTY-SFO)",
    "wof:parent_id": 1947304087,
    "wof:placetype": "custom",
    "wof:placetype_alt": [
      "flight"
    ],
    "wof:repo": "sfomuseum-data-flights-2026-10",
    "wof:superseded_by": [],
    "wof:supersedes": []
  },
  "bbox": [
    -122.370943,
    9.07136,
    -79.383499,
    37.61799
  ],
  "geometry": {"type":"MultiPoint","coordinates":[[-79.383499,9.07136],[-122.370943,37.61799]]}
}
