{
  "id": 2048533325,
  "type": "Feature",
  "properties": {
    "geom:area": 0,
    "geom:bbox": "-122.366440,37.628470,-122.105870,38.517630",
    "geom:latitude": 38.04086620102084,
    "geom:longitude": -122.17689952049504,
    "src:alt_label": "swim-takeoff",
    "src:geom": "swim",
    "swim:elevations": [
      122,
      610,
      980,
      1030,
      1138,
      1424,
      1540,
      1590,
      2480,
      2952,
      3324,
      3370,
      4237,
      4288,
      5087,
      5508,
      5927,
      5972,
      6516,
      6701,
      6850,
      7230,
      7415,
      8025,
      8351
    ],
    "swim:geom": "takeoff",
    "swim:timestamps": [
      1791282053,
      1791282088,
      1791282116,
      1791282120,
      1791282133,
      1791282167,
      1791282177,
      1791282180,
      1791282237,
      1791282263,
      1791282298,
      1791282302,
      1791282356,
      1791282360,
      1791282411,
      1791282443,
      1791282477,
      1791282481,
      1791282522,
      1791282538,
      1791282552,
      1791282586,
      1791282602,
      1791282652,
      1791282673
    ],
    "wof:geomhash": "25447505ff769a720dae9e838fac8266",
    "wof:id": 2048533325,
    "wof:repo": "sfomuseum-data-flights-2026-10"
  },
  "bbox": [
    -122.36644,
    37.62847,
    -122.10587,
    38.51763
  ],
  "geometry": {"type":"LineString","coordinates":[[-122.36644,37.62847],[-122.34298,37.64728],[-122.32135,37.65908],[-122.31835,37.66081],[-122.30738,37.66755],[-122.27137,37.68846],[-122.26032,37.69443],[-122.25529,37.69704],[-122.20825,37.75393],[-122.20249,37.78949],[-122.19453,37.83953],[-122.19345,37.84589],[-122.17903,37.93324],[-122.17793,37.93998],[-122.16391,38.02741],[-122.15494,38.08219],[-122.14498,38.14254],[-122.14374,38.14977],[-122.13096,38.22591],[-122.12595,38.25564],[-122.12183,38.28045],[-122.11251,38.34693],[-122.11131,38.37656],[-122.10778,38.47453],[-122.10587,38.51763]]}
}
