{
  "id": 2048546131,
  "type": "Feature",
  "properties": {
    "geom:area": 0,
    "geom:bbox": "-122.354270,36.722360,-121.878860,37.612280",
    "geom:latitude": 37.215236399802514,
    "geom:longitude": -122.0747472534389,
    "src:alt_label": "swim-approach",
    "src:geom": "swim",
    "swim:elevations": [
      5326,
      4970,
      4764,
      4629,
      4413,
      4133,
      4014,
      3846,
      3701,
      3595,
      3230,
      3062,
      2959,
      2717,
      2553,
      2410,
      2200,
      2075,
      2039,
      1869,
      1636,
      1544,
      1401,
      1190,
      1154,
      1036,
      845,
      746,
      551,
      436,
      388,
      285,
      209,
      183,
      39
    ],
    "swim:geom": "approach",
    "swim:timestamps": [
      1791465134,
      1791465177,
      1791465205,
      1791465223,
      1791465249,
      1791465280,
      1791465301,
      1791465343,
      1791465366,
      1791465390,
      1791465443,
      1791465468,
      1791465483,
      1791465525,
      1791465554,
      1791465585,
      1791465624,
      1791465655,
      1791465675,
      1791465704,
      1791465741,
      1791465759,
      1791465793,
      1791465836,
      1791465847,
      1791465872,
      1791465918,
      1791465942,
      1791465986,
      1791466015,
      1791466030,
      1791466054,
      1791466077,
      1791466087,
      1791466125
    ],
    "wof:geomhash": "65540dd90ac72159e7a8d12406e6284f",
    "wof:id": 2048546131,
    "wof:repo": "sfomuseum-data-flights-2026-10"
  },
  "bbox": [
    -122.35427,
    36.72236,
    -121.87886,
    37.61228
  ],
  "geometry": {"type":"LineString","coordinates":[[-121.87886,36.72236],[-121.90573,36.78326],[-121.91719,36.82381],[-121.92465,36.85049],[-121.93502,36.88826],[-121.94751,36.93242],[-121.95715,36.96202],[-121.97871,37.01775],[-121.99014,37.04766],[-122.00165,37.07692],[-122.026,37.13882],[-122.0374,37.16786],[-122.04503,37.18478],[-122.08778,37.22145],[-122.11803,37.2455],[-122.14895,37.27098],[-122.1446,37.31236],[-122.12724,37.34432],[-122.11747,37.36192],[-122.10325,37.38745],[-122.10178,37.4205],[-122.11149,37.43575],[-122.12808,37.46232],[-122.14689,37.49343],[-122.15112,37.50065],[-122.161,37.51773],[-122.18946,37.54314],[-122.2106,37.55188],[-122.24861,37.56789],[-122.27378,37.57848],[-122.28605,37.58366],[-122.30387,37.59103],[-122.32112,37.59845],[-122.32812,37.60139],[-122.35427,37.61228]]}
}
