{
  "id": 2048520557,
  "type": "Feature",
  "properties": {
    "geom:area": 0,
    "geom:bbox": "-122.349780,37.492930,-121.263770,37.610390",
    "geom:latitude": 37.542071002967226,
    "geom:longitude": -121.81346745931266,
    "src:alt_label": "swim-approach",
    "src:geom": "swim",
    "swim:elevations": [
      4581,
      4444,
      4231,
      4025,
      3887,
      3684,
      3542,
      3212,
      3110,
      2738,
      2611,
      2412,
      2372,
      2061,
      1894,
      1824,
      1627,
      1444,
      1338,
      1173,
      1002,
      943,
      694,
      344,
      52
    ],
    "swim:geom": "approach",
    "swim:timestamps": [
      1791244820,
      1791244835,
      1791244856,
      1791244882,
      1791244912,
      1791244941,
      1791244957,
      1791245001,
      1791245015,
      1791245065,
      1791245083,
      1791245128,
      1791245131,
      1791245181,
      1791245217,
      1791245230,
      1791245254,
      1791245276,
      1791245294,
      1791245336,
      1791245364,
      1791245372,
      1791245423,
      1791245499,
      1791245576
    ],
    "wof:geomhash": "356c1e3bb484fdfb0c9e33dd40576225",
    "wof:id": 2048520557,
    "wof:repo": "sfomuseum-data-flights-2026-10"
  },
  "bbox": [
    -122.34978,
    37.49293,
    -121.26377,
    37.61039
  ],
  "geometry": {"type":"LineString","coordinates":[[-121.26377,37.5928],[-121.29509,37.58872],[-121.33865,37.58393],[-121.39169,37.57794],[-121.44981,37.57124],[-121.50269,37.56502],[-121.53086,37.56173],[-121.60684,37.55302],[-121.62973,37.54967],[-121.71365,37.52956],[-121.74309,37.52259],[-121.81697,37.5049],[-121.82195,37.50373],[-121.9033,37.49293],[-121.96045,37.49604],[-121.97932,37.49708],[-122.0168,37.49915],[-122.04985,37.50101],[-122.07701,37.50258],[-122.13219,37.51876],[-122.16514,37.53265],[-122.17444,37.5366],[-122.22819,37.55931],[-122.2932,37.58662],[-122.34978,37.61039]]}
}
