{
  "id": 2048489759,
  "type": "Feature",
  "properties": {
    "geom:area": 0,
    "geom:bbox": "-122.527660,37.629160,-121.799560,38.274800",
    "geom:latitude": 37.95715193924613,
    "geom:longitude": -122.23046931824368,
    "src:alt_label": "swim-takeoff",
    "src:geom": "swim",
    "swim:elevations": [
      246,
      381,
      641,
      914,
      914,
      914,
      1033,
      1233,
      1649,
      2016,
      2551,
      2838,
      3010,
      3225,
      3358,
      3553,
      3937,
      4169,
      4388,
      4657,
      5120,
      5263,
      5638
    ],
    "swim:geom": "takeoff",
    "swim:timestamps": [
      1790868866,
      1790868880,
      1790868903,
      1790868957,
      1790868965,
      1790869000,
      1790869043,
      1790869059,
      1790869093,
      1790869120,
      1790869168,
      1790869190,
      1790869204,
      1790869238,
      1790869264,
      1790869298,
      1790869347,
      1790869370,
      1790869392,
      1790869417,
      1790869464,
      1790869477,
      1790869518
    ],
    "wof:geomhash": "8e49f25924965f5caaf398ccdbc862fb",
    "wof:id": 2048489759,
    "wof:repo": "sfomuseum-data-flights-2026-10"
  },
  "bbox": [
    -122.52766,
    37.62916,
    -121.79956,
    38.2748
  ],
  "geometry": {"type":"LineString","coordinates":[[-122.39968,37.62916],[-122.41243,37.63462],[-122.4343,37.64393],[-122.49069,37.66811],[-122.50083,37.67249],[-122.52763,37.70728],[-122.52766,37.76351],[-122.52654,37.78354],[-122.49305,37.81808],[-122.45211,37.83211],[-122.38682,37.87127],[-122.35883,37.89053],[-122.33949,37.90371],[-122.29458,37.93485],[-122.25495,37.96219],[-122.20125,37.99932],[-122.1165,38.05807],[-122.07516,38.08654],[-122.03654,38.11343],[-121.99067,38.14459],[-121.90301,38.20433],[-121.87785,38.22138],[-121.79956,38.2748]]}
}
