{
  "id": 2048485795,
  "type": "Feature",
  "properties": {
    "geom:area": 0,
    "geom:bbox": "-122.385690,37.642960,-121.245080,37.991320",
    "geom:latitude": 37.939272687614796,
    "geom:longitude": -121.93205677301587,
    "src:alt_label": "swim-takeoff",
    "src:geom": "swim",
    "swim:elevations": [
      419,
      567,
      857,
      974,
      1090,
      1378,
      1712,
      2193,
      2367,
      2675,
      2964,
      3195,
      3289,
      3372,
      3537,
      3702,
      4182,
      4382,
      4653,
      4865,
      5068,
      5355,
      5667,
      5962,
      6107,
      6408,
      6461
    ],
    "swim:geom": "takeoff",
    "swim:timestamps": [
      1790919418,
      1790919436,
      1790919478,
      1790919508,
      1790919526,
      1790919556,
      1790919586,
      1790919628,
      1790919646,
      1790919681,
      1790919709,
      1790919739,
      1790919761,
      1790919785,
      1790919821,
      1790919840,
      1790919895,
      1790919915,
      1790919949,
      1790919979,
      1790920010,
      1790920046,
      1790920076,
      1790920097,
      1790920112,
      1790920166,
      1790920186
    ],
    "wof:geomhash": "62f1cc9cd0a10ee080bd8950d8109318",
    "wof:id": 2048485795,
    "wof:repo": "sfomuseum-data-flights-2026-10"
  },
  "bbox": [
    -122.38569,
    37.64296,
    -121.24508,
    37.99132
  ],
  "geometry": {"type":"LineString","coordinates":[[-122.35346,37.64296],[-122.34053,37.65452],[-122.31063,37.68532],[-122.31953,37.71621],[-122.33065,37.7363],[-122.3499,37.7723],[-122.36852,37.80957],[-122.38569,37.86407],[-122.38498,37.88894],[-122.36814,37.93546],[-122.32396,37.9525],[-122.27151,37.96291],[-122.23067,37.97127],[-122.18219,37.98106],[-122.10525,37.98825],[-122.06315,37.98853],[-121.93893,37.98945],[-121.8926,37.9897],[-121.81425,37.99012],[-121.74416,37.99038],[-121.66937,37.99068],[-121.58162,37.99096],[-121.50861,37.99107],[-121.45868,37.99127],[-121.42343,37.99132],[-121.29426,37.99123],[-121.24508,37.99122]]}
}
