{
  "id": 2048501509,
  "type": "Feature",
  "properties": {
    "geom:area": 0,
    "geom:bbox": "-122.359150,37.491390,-121.246910,37.614250",
    "geom:latitude": 37.546905893183876,
    "geom:longitude": -121.80788193553134,
    "src:alt_label": "swim-approach",
    "src:geom": "swim",
    "swim:elevations": [
      4580,
      4176,
      3794,
      3564,
      3403,
      3147,
      2964,
      2884,
      2557,
      2547,
      2384,
      2127,
      1965,
      1849,
      1770,
      1677,
      1479,
      1134,
      978,
      912,
      838,
      696,
      456,
      282,
      187,
      63,
      0
    ],
    "swim:geom": "approach",
    "swim:timestamps": [
      1791048936,
      1791048974,
      1791049013,
      1791049039,
      1791049055,
      1791049100,
      1791049135,
      1791049146,
      1791049196,
      1791049201,
      1791049238,
      1791049278,
      1791049309,
      1791049329,
      1791049376,
      1791049389,
      1791049426,
      1791049455,
      1791049472,
      1791049498,
      1791049514,
      1791049539,
      1791049578,
      1791049611,
      1791049634,
      1791049671,
      1791049686
    ],
    "wof:geomhash": "f2c523ba9a1620f1a580b2c7cfd95c55",
    "wof:id": 2048501509,
    "wof:repo": "sfomuseum-data-flights-2026-10"
  },
  "bbox": [
    -122.35915,
    37.49139,
    -121.24691,
    37.61425
  ],
  "geometry": {"type":"LineString","coordinates":[[-121.24691,37.5948],[-121.32667,37.58465],[-121.40613,37.5759],[-121.46018,37.5698],[-121.49427,37.56589],[-121.58197,37.55571],[-121.64504,37.54616],[-121.66454,37.54135],[-121.74736,37.52133],[-121.75605,37.51923],[-121.81356,37.50539],[-121.87368,37.49139],[-121.92147,37.49208],[-121.95182,37.49305],[-122.01964,37.50455],[-122.03872,37.51105],[-122.08695,37.5271],[-122.12572,37.53957],[-122.14857,37.5469],[-122.18146,37.5574],[-122.20016,37.56341],[-122.23025,37.5731],[-122.2738,37.587],[-122.30524,37.59604],[-122.32292,37.60129],[-122.34926,37.61023],[-122.35915,37.61425]]}
}
