{
  "id": 2048533717,
  "type": "Feature",
  "properties": {
    "date:inception_lower": "2026-10-06",
    "date:inception_upper": "2026-10-06",
    "edtf:cessation": "",
    "edtf:inception": "2026-10-06",
    "flysfo:actual_timestamp": -1,
    "flysfo:airline": "UA",
    "flysfo:base_airline": "",
    "flysfo:base_flight_number": "4720",
    "flysfo:date": "2026-10-06",
    "flysfo:estimated_timestamp": 1791303180,
    "flysfo:event": "D",
    "flysfo:flight_number": "UA8514",
    "flysfo:gate": "C4",
    "flysfo:journey": "SFO-YYZ",
    "flysfo:scheduled_timestamp": 1791300600,
    "flysfo:timestamp": 1791303180,
    "geom:area": 0,
    "geom:bbox": "-122.370943,37.617990,-79.628342,43.676352",
    "geom:latitude": 40.647171,
    "geom:longitude": -100.9996425,
    "iata:airline": "UA",
    "iata:base_airline": "",
    "icao:airline": "UAL",
    "icao:base_airline": "ANZ",
    "lbl:latitude": 37.614944,
    "lbl:longitude": -122.383123,
    "sfomuseum:airline_id": 1159285413,
    "sfomuseum:arrival_id": 102555091,
    "sfomuseum:base_flight_id": "20261006-D-ANZ-4720",
    "sfomuseum:departure_id": 102527513,
    "sfomuseum:flight_id": "20261006-D-UAL-8514",
    "sfomuseum:flight_number": [
      "UAL8514",
      "UA8514"
    ],
    "sfomuseum:placetype": "flight",
    "src:geom": "flysfo",
    "wof:belongsto": [
      1947304067,
      102527513,
      1947304663,
      102191575,
      85633793,
      102087579,
      85922583,
      554784711,
      85688637,
      1947304667,
      1947304591,
      102085387
    ],
    "wof:country": "US",
    "wof:created": 1791389746,
    "wof:geomhash": "1a30ef2f5f82135186aeb20f0187ac62",
    "wof:hierarchy": [
      {
        "building_id": 1947304067,
        "campus_id": 102527513,
        "concourse_id": 1947304663,
        "continent_id": 102191575,
        "country_id": 85633793,
        "county_id": 102087579,
        "custom_id": 2048533717,
        "flight_id": 2048533717,
        "locality_id": 85922583,
        "postalcode_id": 554784711,
        "region_id": 85688637,
        "venue_id": 1947304667,
        "wing_id": 1947304591
      },
      {
        "building_id": 1947304067,
        "campus_id": 102527513,
        "concourse_id": 1947304663,
        "continent_id": 102191575,
        "country_id": 85633793,
        "county_id": 102085387,
        "custom_id": 2048533717,
        "flight_id": 2048533717,
        "region_id": 85688637,
        "venue_id": 1947304667,
        "wing_id": 1947304591
      }
    ],
    "wof:id": 2048533717,
    "wof:involves": [
      102555091,
      102527513,
      1159285413,
      1947304667,
      1159283697
    ],
    "wof:lastmodified": 1791389746,
    "wof:name": "UA8514 (SFO-YYZ)",
    "wof:parent_id": 1947304667,
    "wof:placetype": "custom",
    "wof:placetype_alt": [
      "flight"
    ],
    "wof:repo": "sfomuseum-data-flights-2026-10",
    "wof:superseded_by": [],
    "wof:supersedes": []
  },
  "bbox": [
    -122.370943,
    37.61799,
    -79.628342,
    43.676352
  ],
  "geometry": {"type":"MultiPoint","coordinates":[[-122.370943,37.61799],[-79.628342,43.676352]]}
}
