{
  "id": 2048556305,
  "type": "Feature",
  "properties": {
    "geom:area": 0,
    "geom:bbox": "-123.133220,37.447270,-122.123510,38.508720",
    "geom:latitude": 37.86772372240849,
    "geom:longitude": -122.58941177713403,
    "src:alt_label": "swim-approach",
    "src:geom": "swim",
    "swim:elevations": [
      7437,
      7087,
      6881,
      6673,
      6332,
      6251,
      5911,
      5835,
      5607,
      5195,
      4955,
      4915,
      4522,
      4408,
      3944,
      3663,
      3475,
      3396,
      3353,
      3353,
      3353,
      3353,
      3107,
      2945,
      2689,
      2267,
      2097,
      1939,
      1719,
      1594,
      1383,
      1311,
      983,
      913,
      822,
      730,
      645,
      424,
      313,
      263,
      151,
      110,
      217
    ],
    "swim:geom": "approach",
    "swim:timestamps": [
      1791612400,
      1791612445,
      1791612470,
      1791612496,
      1791612538,
      1791612547,
      1791612590,
      1791612602,
      1791612630,
      1791612684,
      1791612714,
      1791612720,
      1791612773,
      1791612788,
      1791612836,
      1791612863,
      1791612895,
      1791612925,
      1791612952,
      1791612980,
      1791613004,
      1791613029,
      1791613068,
      1791613095,
      1791613127,
      1791613167,
      1791613179,
      1791613194,
      1791613227,
      1791613249,
      1791613287,
      1791613302,
      1791613345,
      1791613363,
      1791613404,
      1791613423,
      1791613442,
      1791613486,
      1791613513,
      1791613528,
      1791613554,
      1791613565,
      1791613591
    ],
    "wof:geomhash": "7dd92db8b6a06cd6608f983a15a0e381",
    "wof:id": 2048556305,
    "wof:repo": "sfomuseum-data-flights-2026-10"
  },
  "bbox": [
    -123.13322,
    37.44727,
    -122.12351,
    38.50872
  ],
  "geometry": {"type":"LineString","coordinates":[[-123.13322,38.50872],[-123.07539,38.43405],[-123.04532,38.39291],[-123.01436,38.35192],[-122.96534,38.287],[-122.95492,38.27322],[-122.90551,38.20809],[-122.89189,38.19025],[-122.85988,38.14783],[-122.80108,38.06981],[-122.769,38.02706],[-122.76258,38.01851],[-122.70692,37.94438],[-122.69113,37.92337],[-122.6322,37.86075],[-122.59551,37.82599],[-122.55365,37.78668],[-122.51655,37.75179],[-122.48533,37.72218],[-122.45301,37.69155],[-122.42558,37.66578],[-122.39656,37.63857],[-122.35493,37.5953],[-122.339,37.56082],[-122.31723,37.52141],[-122.27828,37.4791],[-122.25926,37.47204],[-122.23475,37.46411],[-122.18241,37.44727],[-122.14818,37.44884],[-122.12351,37.48151],[-122.13009,37.4937],[-122.15643,37.52364],[-122.16959,37.53386],[-122.20656,37.55007],[-122.22269,37.55695],[-122.24055,37.56448],[-122.28054,37.58132],[-122.30096,37.58987],[-122.31244,37.59466],[-122.33302,37.60344],[-122.34115,37.60679],[-122.35998,37.61485]]}
}
