{
  "id": 2048556065,
  "type": "Feature",
  "properties": {
    "date:cessation_lower": "2026-10-09",
    "date:cessation_upper": "2026-10-09",
    "date:inception_lower": "1970-01-01",
    "date:inception_upper": "1970-01-01",
    "edtf:cessation": "2026-10-09T15:29:01-07:00",
    "edtf:inception": "1970-01-01T00:00:00Z",
    "flysfo:actual_timestamp": -1,
    "flysfo:airline": "UA",
    "flysfo:base_airline": "",
    "flysfo:base_flight_number": "9036",
    "flysfo:date": "2026-10-09",
    "flysfo:estimated_timestamp": 1791607260,
    "flysfo:event": "A",
    "flysfo:flight_number": "UA504",
    "flysfo:gate": "E5",
    "flysfo:journey": "BWI-SFO",
    "flysfo:scheduled_timestamp": 1791607260,
    "flysfo:timestamp": 1791607260,
    "geom:area": 0,
    "geom:bbox": "-122.370943,37.617990,-76.671070,39.181319",
    "geom:latitude": 38.3996545,
    "geom:longitude": -99.5210065,
    "iata:airline": "UA",
    "iata:base_airline": "",
    "icao:aircraft": "B39M",
    "icao:airline": "UAL",
    "icao:base_airline": "ANZ",
    "lbl:latitude": 37.618486,
    "lbl:longitude": -122.384457,
    "sfomuseum:aircraft_id": 1528104577,
    "sfomuseum:airline_id": 1159285413,
    "sfomuseum:arrival_id": 102527513,
    "sfomuseum:base_flight_id": "20261009-A-ANZ-9036",
    "sfomuseum:departure_id": 102532047,
    "sfomuseum:flight_id": "20261009-A-UAL-504",
    "sfomuseum:flight_number": [
      "UAL504",
      "UA504"
    ],
    "sfomuseum:placetype": "flight",
    "src:geom": "flysfo",
    "src:geom_alt": [
      "swim-approach"
    ],
    "swim:tail_number": "N37567",
    "wof:belongsto": [
      1947304067,
      102527513,
      1947304511,
      102191575,
      85633793,
      102087579,
      85922583,
      554784711,
      85688637,
      1947304525,
      1947304447,
      102085387
    ],
    "wof:country": "US",
    "wof:created": 1791648506,
    "wof:geomhash": "10c01f207ef95eecc919066d165ec5eb",
    "wof:hierarchy": [
      {
        "building_id": 1947304067,
        "campus_id": 102527513,
        "concourse_id": 1947304511,
        "continent_id": 102191575,
        "country_id": 85633793,
        "county_id": 102087579,
        "custom_id": 2048556065,
        "flight_id": 2048556065,
        "locality_id": 85922583,
        "postalcode_id": 554784711,
        "region_id": 85688637,
        "venue_id": 1947304525,
        "wing_id": 1947304447
      },
      {
        "building_id": 1947304067,
        "campus_id": 102527513,
        "concourse_id": 1947304511,
        "continent_id": 102191575,
        "country_id": 85633793,
        "county_id": 102085387,
        "custom_id": 2048556065,
        "flight_id": 2048556065,
        "region_id": 85688637,
        "venue_id": 1947304525,
        "wing_id": 1947304447
      }
    ],
    "wof:id": 2048556065,
    "wof:involves": [
      1947304525,
      1159283697,
      1528104577,
      102527513,
      102532047,
      1159285413
    ],
    "wof:lastmodified": 1791649139,
    "wof:name": "UA504 (BWI-SFO)",
    "wof:parent_id": 1947304525,
    "wof:placetype": "custom",
    "wof:placetype_alt": [
      "flight"
    ],
    "wof:repo": "sfomuseum-data-flights-2026-10",
    "wof:superseded_by": [],
    "wof:supersedes": []
  },
  "bbox": [
    -122.370943,
    37.61799,
    -76.67107,
    39.181319
  ],
  "geometry": {"type":"MultiPoint","coordinates":[[-76.67107,39.181319],[-122.370943,37.61799]]}
}
