{
  "id": 2048526587,
  "type": "Feature",
  "properties": {
    "date:inception_lower": "2026-10-06",
    "date:inception_upper": "2026-10-06",
    "edtf:cessation": "",
    "edtf:inception": "2026-10-06",
    "flysfo:actual_timestamp": -1,
    "flysfo:airline": "AC",
    "flysfo:base_airline": "",
    "flysfo:base_flight_number": "4201",
    "flysfo:date": "2026-10-06",
    "flysfo:estimated_timestamp": 1791304080,
    "flysfo:event": "A",
    "flysfo:flight_number": "AC4201",
    "flysfo:gate": "F19",
    "flysfo:journey": "SAT-SFO",
    "flysfo:scheduled_timestamp": 1791304380,
    "flysfo:timestamp": 1791304380,
    "geom:area": 0,
    "geom:bbox": "-122.370943,29.534838,-98.472784,37.617990",
    "geom:latitude": 33.576414,
    "geom:longitude": -110.4218635,
    "iata:airline": "AC",
    "iata:base_airline": "",
    "icao:airline": "ACA",
    "icao:base_airline": "ACA",
    "lbl:latitude": 37.620929,
    "lbl:longitude": -122.390272,
    "sfomuseum:airline_id": 1159283597,
    "sfomuseum:arrival_id": 102527513,
    "sfomuseum:base_flight_id": "20261006-A-ACA-4201",
    "sfomuseum:departure_id": 102527373,
    "sfomuseum:flight_id": "20261006-A-ACA-4201",
    "sfomuseum:flight_number": [
      "ACA4201",
      "AC4201"
    ],
    "sfomuseum:placetype": "flight",
    "src:geom": "flysfo",
    "wof:belongsto": [
      1947304067,
      102527513,
      1947304451,
      102191575,
      85633793,
      102087579,
      85922583,
      554784711,
      85688637,
      1947304487,
      1947304447,
      102085387
    ],
    "wof:country": "US",
    "wof:created": 1791388919,
    "wof:geomhash": "d45c6baaf0d56697f52acbb8a9e14867",
    "wof:hierarchy": [
      {
        "building_id": 1947304067,
        "campus_id": 102527513,
        "concourse_id": 1947304451,
        "continent_id": 102191575,
        "country_id": 85633793,
        "county_id": 102087579,
        "custom_id": 2048526587,
        "flight_id": 2048526587,
        "locality_id": 85922583,
        "postalcode_id": 554784711,
        "region_id": 85688637,
        "venue_id": 1947304487,
        "wing_id": 1947304447
      },
      {
        "building_id": 1947304067,
        "campus_id": 102527513,
        "concourse_id": 1947304451,
        "continent_id": 102191575,
        "country_id": 85633793,
        "county_id": 102085387,
        "custom_id": 2048526587,
        "flight_id": 2048526587,
        "region_id": 85688637,
        "venue_id": 1947304487,
        "wing_id": 1947304447
      }
    ],
    "wof:id": 2048526587,
    "wof:involves": [
      102527513,
      102527373,
      1159283597,
      1947304487,
      1159283597
    ],
    "wof:lastmodified": 1791388919,
    "wof:name": "AC4201 (SAT-SFO)",
    "wof:parent_id": 1947304487,
    "wof:placetype": "custom",
    "wof:placetype_alt": [
      "flight"
    ],
    "wof:repo": "sfomuseum-data-flights-2026-10",
    "wof:superseded_by": [],
    "wof:supersedes": []
  },
  "bbox": [
    -122.370943,
    29.534838,
    -98.472784,
    37.61799
  ],
  "geometry": {"type":"MultiPoint","coordinates":[[-98.472784,29.534838],[-122.370943,37.61799]]}
}
