{
  "id": 2048512233,
  "type": "Feature",
  "properties": {
    "geom:area": 0,
    "geom:bbox": "-122.351950,36.722990,-121.277940,37.467150",
    "geom:latitude": 37.09580666626648,
    "geom:longitude": -121.81443554713704,
    "src:alt_label": "swim-takeoff",
    "src:geom": "swim",
    "swim:elevations": [
      4490,
      4737,
      4964,
      5095,
      5474,
      5841,
      5996,
      6404,
      6777,
      7033,
      7417,
      7597,
      8065,
      8230,
      8309,
      8397,
      8452,
      8558,
      8593,
      8719,
      8849,
      9112
    ],
    "swim:geom": "takeoff",
    "swim:timestamps": [
      1791141318,
      1791141358,
      1791141385,
      1791141393,
      1791141417,
      1791141445,
      1791141457,
      1791141495,
      1791141532,
      1791141556,
      1791141592,
      1791141608,
      1791141658,
      1791141686,
      1791141701,
      1791141725,
      1791141743,
      1791141772,
      1791141788,
      1791141826,
      1791141848,
      1791141890
    ],
    "wof:geomhash": "e9830f3c96561d0845ed7ab5d6084321",
    "wof:id": 2048512233,
    "wof:repo": "sfomuseum-data-flights-2026-10"
  },
  "bbox": [
    -122.35195,
    36.72299,
    -121.27794,
    37.46715
  ],
  "geometry": {"type":"LineString","coordinates":[[-122.35195,37.46715],[-122.29027,37.42417],[-122.24449,37.39352],[-122.23134,37.38468],[-122.19098,37.35673],[-122.14212,37.32294],[-122.12161,37.30889],[-122.05505,37.26322],[-121.98884,37.21772],[-121.94518,37.18766],[-121.87808,37.14126],[-121.84915,37.12126],[-121.75687,37.05727],[-121.70522,37.02109],[-121.67528,36.99987],[-121.62889,36.96756],[-121.59302,36.94238],[-121.53399,36.90089],[-121.50111,36.87784],[-121.41943,36.82016],[-121.37186,36.78719],[-121.27794,36.72299]]}
}
