{
  "id": 2048511171,
  "type": "Feature",
  "properties": {
    "date:cessation_lower": "2026-10-04",
    "date:cessation_upper": "2026-10-04",
    "date:inception_lower": "1970-01-01",
    "date:inception_upper": "1970-01-01",
    "edtf:cessation": "2026-10-04T10:54:19-07:00",
    "edtf:inception": "1970-01-01T00:00:00Z",
    "flysfo:actual_timestamp": -1,
    "flysfo:airline": "UA",
    "flysfo:date": "2026-10-04",
    "flysfo:estimated_timestamp": 1791162060,
    "flysfo:event": "A",
    "flysfo:flight_number": "UA1948",
    "flysfo:gate": "G4",
    "flysfo:journey": "CUN-SFO",
    "flysfo:scheduled_timestamp": 1791157200,
    "flysfo:timestamp": 1791162060,
    "geom:area": 0,
    "geom:bbox": "-122.370943,21.040317,-86.872856,37.617990",
    "geom:latitude": 29.3291535,
    "geom:longitude": -104.6218995,
    "iata:airline": "UA",
    "icao:aircraft": "B39M",
    "icao:airline": "UAL",
    "lbl:latitude": 37.61776,
    "lbl:longitude": -122.3918,
    "sfomuseum:aircraft_id": 1528104577,
    "sfomuseum:airline_id": 1159285413,
    "sfomuseum:arrival_id": 102527513,
    "sfomuseum:departure_id": 102536223,
    "sfomuseum:flight_id": "20261004-A-UAL-1948",
    "sfomuseum:flight_number": [
      "UAL1948",
      "UA1948"
    ],
    "sfomuseum:placetype": "flight",
    "src:geom": "flysfo",
    "src:geom_alt": [
      "swim-approach"
    ],
    "swim:tail_number": "N77544",
    "wof:belongsto": [
      1947304067,
      102527513,
      1947304129,
      102191575,
      85633793,
      102087579,
      85922583,
      554784711,
      85688637,
      1947304137,
      1947304069,
      102085387
    ],
    "wof:country": "US",
    "wof:created": 1791216493,
    "wof:geomhash": "c1b858affbd20b2c728ba535a4ce178e",
    "wof:hierarchy": [
      {
        "building_id": 1947304067,
        "campus_id": 102527513,
        "concourse_id": 1947304129,
        "continent_id": 102191575,
        "country_id": 85633793,
        "county_id": 102087579,
        "custom_id": 2048511171,
        "flight_id": 2048511171,
        "locality_id": 85922583,
        "postalcode_id": 554784711,
        "region_id": 85688637,
        "venue_id": 1947304137,
        "wing_id": 1947304069
      },
      {
        "building_id": 1947304067,
        "campus_id": 102527513,
        "concourse_id": 1947304129,
        "continent_id": 102191575,
        "country_id": 85633793,
        "county_id": 102085387,
        "custom_id": 2048511171,
        "flight_id": 2048511171,
        "region_id": 85688637,
        "venue_id": 1947304137,
        "wing_id": 1947304069
      }
    ],
    "wof:id": 2048511171,
    "wof:involves": [
      1528104577,
      102527513,
      102536223,
      1159285413,
      1947304137
    ],
    "wof:lastmodified": 1791217160,
    "wof:name": "UA1948 (CUN-SFO)",
    "wof:parent_id": 1947304137,
    "wof:placetype": "custom",
    "wof:placetype_alt": [
      "flight"
    ],
    "wof:repo": "sfomuseum-data-flights-2026-10",
    "wof:superseded_by": [],
    "wof:supersedes": []
  },
  "bbox": [
    -122.370943,
    21.040317,
    -86.872856,
    37.61799
  ],
  "geometry": {"type":"MultiPoint","coordinates":[[-86.872856,21.040317],[-122.370943,37.61799]]}
}
