{
  "id": 2048556873,
  "type": "Feature",
  "properties": {
    "geom:area": 0,
    "geom:bbox": "-122.363280,37.632690,-121.264350,37.961590",
    "geom:latitude": 37.835979158248485,
    "geom:longitude": -121.82788419927164,
    "src:alt_label": "swim-takeoff",
    "src:geom": "swim",
    "swim:elevations": [
      183,
      410,
      864,
      941,
      1129,
      1217,
      1476,
      1526,
      1678,
      1945,
      2318,
      2511,
      2713,
      3088,
      3219,
      3296,
      3347,
      3638,
      4085,
      4325,
      4573,
      4665,
      4748,
      5059,
      5276,
      5368
    ],
    "swim:geom": "takeoff",
    "swim:timestamps": [
      1791537438,
      1791537452,
      1791537501,
      1791537521,
      1791537568,
      1791537595,
      1791537627,
      1791537632,
      1791537647,
      1791537674,
      1791537713,
      1791537732,
      1791537752,
      1791537789,
      1791537812,
      1791537829,
      1791537841,
      1791537881,
      1791537916,
      1791537950,
      1791537982,
      1791538005,
      1791538025,
      1791538068,
      1791538105,
      1791538116
    ],
    "wof:geomhash": "6ebcce86a56456c83d74e7e3a1b53e78",
    "wof:id": 2048556873,
    "wof:repo": "sfomuseum-data-flights-2026-10"
  },
  "bbox": [
    -122.36328,
    37.63269,
    -121.26435,
    37.96159
  ],
  "geometry": {"type":"LineString","coordinates":[[-122.36328,37.63269],[-122.35386,37.64145],[-122.3135,37.6647],[-122.29609,37.67408],[-122.24894,37.70022],[-122.21638,37.71681],[-122.17458,37.73808],[-122.16826,37.74133],[-122.14774,37.75195],[-122.11194,37.77058],[-122.05702,37.79917],[-122.03028,37.81305],[-121.99898,37.82338],[-121.93938,37.83485],[-121.89938,37.8425],[-121.86813,37.84851],[-121.84579,37.8528],[-121.76795,37.86756],[-121.6992,37.88052],[-121.63169,37.89311],[-121.56572,37.90545],[-121.51751,37.91449],[-121.47479,37.92241],[-121.37649,37.94073],[-121.29037,37.95673],[-121.26435,37.96159]]}
}
