{
  "id": 2048529397,
  "type": "Feature",
  "properties": {
    "geom:area": 0,
    "geom:bbox": "-122.611830,36.719440,-121.876550,37.610270",
    "geom:latitude": 37.27033973019416,
    "geom:longitude": -122.2269600693418,
    "src:alt_label": "swim-approach",
    "src:geom": "swim",
    "swim:elevations": [
      5689,
      5419,
      5178,
      4779,
      4513,
      4131,
      3957,
      3528,
      3225,
      3058,
      2917,
      2866,
      2736,
      2595,
      2460,
      2267,
      2193,
      2012,
      1899,
      1828,
      1829,
      1829,
      1829,
      1829,
      1829,
      1829,
      1829,
      1829,
      1829,
      1829,
      1829,
      1829,
      1829,
      1829,
      1829,
      1829,
      1829,
      1829,
      1829,
      1829,
      1829,
      1829,
      1829,
      1829,
      1829,
      1829,
      1829,
      1829,
      1829,
      1829,
      1829,
      1829,
      1829,
      1829,
      1829,
      1829,
      1578,
      1393,
      1217,
      1162,
      1007,
      911,
      677,
      543,
      396,
      274,
      186,
      103,
      34
    ],
    "swim:geom": "approach",
    "swim:timestamps": [
      1791290636,
      1791290661,
      1791290682,
      1791290716,
      1791290742,
      1791290778,
      1791290793,
      1791290835,
      1791290872,
      1791290895,
      1791290938,
      1791290955,
      1791290982,
      1791291015,
      1791291035,
      1791291067,
      1791291080,
      1791291116,
      1791291140,
      1791291154,
      1791291200,
      1791291233,
      1791291263,
      1791291277,
      1791291327,
      1791291347,
      1791291365,
      1791291370,
      1791291418,
      1791291436,
      1791291466,
      1791291495,
      1791291533,
      1791291547,
      1791291577,
      1791291616,
      1791291657,
      1791291665,
      1791291717,
      1791291727,
      1791291762,
      1791291800,
      1791291813,
      1791291851,
      1791291887,
      1791291920,
      1791291953,
      1791291983,
      1791292009,
      1791292040,
      1791292060,
      1791292095,
      1791292114,
      1791292167,
      1791292181,
      1791292211,
      1791292258,
      1791292280,
      1791292305,
      1791292346,
      1791292377,
      1791292392,
      1791292428,
      1791292456,
      1791292487,
      1791292527,
      1791292551,
      1791292576,
      1791292596
    ],
    "wof:geomhash": "7ce82d543fc73080c1f8c12fe3646276",
    "wof:id": 2048529397,
    "wof:repo": "sfomuseum-data-flights-2026-10"
  },
  "bbox": [
    -122.61183,
    36.71944,
    -121.87655,
    37.61027
  ],
  "geometry": {"type":"LineString","coordinates":[[-121.87655,36.71944],[-121.8979,36.75862],[-121.90832,36.79347],[-121.92452,36.85063],[-121.93606,36.8933],[-121.95253,36.9506],[-121.96176,36.97356],[-121.98718,37.03869],[-122.00796,37.09376],[-122.02069,37.1263],[-122.04244,37.18046],[-122.05044,37.20089],[-122.06181,37.23074],[-122.07619,37.26605],[-122.08453,37.28651],[-122.10628,37.3154],[-122.12168,37.31977],[-122.1677,37.32887],[-122.19935,37.33517],[-122.2175,37.33874],[-122.2748,37.34994],[-122.31752,37.35828],[-122.35479,37.3655],[-122.37294,37.36897],[-122.43676,37.38142],[-122.46187,37.38636],[-122.48483,37.39089],[-122.49091,37.39199],[-122.55584,37.40252],[-122.57823,37.3948],[-122.59519,37.36549],[-122.60505,37.33418],[-122.61183,37.29328],[-122.60212,37.28005],[-122.56394,37.27053],[-122.51221,37.27812],[-122.46145,37.29759],[-122.45186,37.30127],[-122.38742,37.32622],[-122.37526,37.33095],[-122.33188,37.34781],[-122.28305,37.35761],[-122.26624,37.35421],[-122.21554,37.34413],[-122.16653,37.33425],[-122.12258,37.32531],[-122.09586,37.29976],[-122.10362,37.26672],[-122.12293,37.24386],[-122.16118,37.22866],[-122.18537,37.21903],[-122.22978,37.22652],[-122.23837,37.24614],[-122.22171,37.30194],[-122.21715,37.31652],[-122.20699,37.34925],[-122.20203,37.39967],[-122.2001,37.42239],[-122.19822,37.44812],[-122.19509,37.48714],[-122.1932,37.51395],[-122.19966,37.52554],[-122.22353,37.54902],[-122.24639,37.56444],[-122.27436,37.5763],[-122.30555,37.58938],[-122.32283,37.59675],[-122.34073,37.60425],[-122.35501,37.61027]]}
}
