{
  "id": 2048488269,
  "type": "Feature",
  "properties": {
    "geom:area": 0,
    "geom:bbox": "-122.386560,37.632750,-121.248260,37.991320",
    "geom:latitude": 37.9363994556537,
    "geom:longitude": -121.93912745754956,
    "src:alt_label": "swim-takeoff",
    "src:geom": "swim",
    "swim:elevations": [
      213,
      534,
      761,
      887,
      913,
      1349,
      1639,
      2030,
      2313,
      2518,
      2791,
      2904,
      3287,
      3373,
      3506,
      3758,
      3785,
      4188,
      4298,
      4320,
      4598,
      4834,
      5127,
      5254,
      5624,
      5823,
      6008,
      6191,
      6230
    ],
    "swim:geom": "takeoff",
    "swim:timestamps": [
      1790900846,
      1790900875,
      1790900909,
      1790900936,
      1790900952,
      1790900998,
      1790901023,
      1790901058,
      1790901086,
      1790901110,
      1790901140,
      1790901152,
      1790901206,
      1790901227,
      1790901260,
      1790901297,
      1790901301,
      1790901349,
      1790901363,
      1790901366,
      1790901402,
      1790901434,
      1790901470,
      1790901488,
      1790901535,
      1790901567,
      1790901594,
      1790901624,
      1790901630
    ],
    "wof:geomhash": "64c4d8925a6195e945b7c70e20bac283",
    "wof:id": 2048488269,
    "wof:repo": "sfomuseum-data-flights-2026-10"
  },
  "bbox": [
    -122.38656,
    37.63275,
    -121.24826,
    37.99132
  ],
  "geometry": {"type":"LineString","coordinates":[[-122.36344,37.63275],[-122.34533,37.65072],[-122.31915,37.67263],[-122.31101,37.69918],[-122.32104,37.71745],[-122.35092,37.77138],[-122.36631,37.80305],[-122.38628,37.84679],[-122.38656,37.884],[-122.38255,37.9172],[-122.34855,37.94788],[-122.32812,37.95278],[-122.23105,37.97134],[-122.19066,37.97952],[-122.1226,37.9891],[-122.04142,37.98917],[-122.03322,37.98917],[-121.92396,37.98988],[-121.89289,37.99],[-121.88602,37.99005],[-121.80334,37.99043],[-121.7263,37.99069],[-121.64081,37.99102],[-121.59783,37.99115],[-121.48461,37.99112],[-121.40804,37.99122],[-121.33871,37.99131],[-121.26338,37.99132],[-121.24826,37.99132]]}
}
