{
  "id": 2048497741,
  "type": "Feature",
  "properties": {
    "geom:area": 0,
    "geom:bbox": "-122.298480,37.672520,-121.275660,38.429990",
    "geom:latitude": 38.06964662388938,
    "geom:longitude": -121.80294678221485,
    "src:alt_label": "swim-takeoff",
    "src:geom": "swim",
    "swim:elevations": [
      975,
      1076,
      1285,
      1421,
      1848,
      1883,
      2385,
      3005,
      3221,
      3325,
      3563,
      3915,
      4187,
      4401,
      4563,
      4830,
      5021,
      5365,
      5521,
      5766,
      5979,
      6176,
      6462
    ],
    "swim:geom": "takeoff",
    "swim:timestamps": [
      1790960229,
      1790960259,
      1790960306,
      1790960330,
      1790960366,
      1790960372,
      1790960415,
      1790960472,
      1790960498,
      1790960524,
      1790960567,
      1790960597,
      1790960626,
      1790960657,
      1790960674,
      1790960710,
      1790960737,
      1790960782,
      1790960805,
      1790960836,
      1790960864,
      1790960889,
      1790960923
    ],
    "wof:geomhash": "ab5ad72037fd5b9793d31df8eee81549",
    "wof:id": 2048497741,
    "wof:repo": "sfomuseum-data-flights-2026-10"
  },
  "bbox": [
    -122.29848,
    37.67252,
    -121.27566,
    38.42999
  ],
  "geometry": {"type":"LineString","coordinates":[[-122.29848,37.67252],[-122.27158,37.68759],[-122.21741,37.7168],[-122.19255,37.74006],[-122.15705,37.78077],[-122.15134,37.78717],[-122.10698,37.8362],[-122.04808,37.90094],[-122.01984,37.93208],[-121.99004,37.96489],[-121.92273,38.01367],[-121.87347,38.0475],[-121.82593,38.08006],[-121.77237,38.11473],[-121.74289,38.1336],[-121.67834,38.17476],[-121.62876,38.20626],[-121.54635,38.25881],[-121.50236,38.28677],[-121.44429,38.32361],[-121.39044,38.35776],[-121.3429,38.38772],[-121.27566,38.42999]]}
}
