{
  "id": 2048496319,
  "type": "Feature",
  "properties": {
    "geom:area": 0,
    "geom:bbox": "-122.451660,36.719100,-121.434830,37.485160",
    "geom:latitude": 37.10231245554175,
    "geom:longitude": -121.94314577541229,
    "src:alt_label": "swim-takeoff",
    "src:geom": "swim",
    "swim:elevations": [
      3431,
      3662,
      3933,
      4213,
      4670,
      4992,
      5401,
      5859,
      5993,
      6487,
      6614,
      6785,
      7006,
      7328,
      7527,
      7884,
      7972,
      8067,
      8602,
      8870,
      9089,
      9266,
      9281
    ],
    "swim:geom": "takeoff",
    "swim:timestamps": [
      1790968997,
      1790969035,
      1790969060,
      1790969081,
      1790969124,
      1790969147,
      1790969180,
      1790969218,
      1790969228,
      1790969276,
      1790969289,
      1790969319,
      1790969350,
      1790969388,
      1790969412,
      1790969452,
      1790969464,
      1790969473,
      1790969517,
      1790969542,
      1790969565,
      1790969588,
      1790969592
    ],
    "wof:geomhash": "b5bbfc35f830eb38ec8a0f30f6575c45",
    "wof:id": 2048496319,
    "wof:repo": "sfomuseum-data-flights-2026-10"
  },
  "bbox": [
    -122.45166,
    36.7191,
    -121.43483,
    37.48516
  ],
  "geometry": {"type":"LineString","coordinates":[[-122.45166,37.48516],[-122.40246,37.44497],[-122.36599,37.41927],[-122.33559,37.39684],[-122.27129,37.34781],[-122.23391,37.31979],[-122.18229,37.28129],[-122.12027,37.23518],[-122.10328,37.22262],[-122.02385,37.16343],[-122.00149,37.14662],[-121.94974,37.10781],[-121.89277,37.06505],[-121.82284,37.01213],[-121.77831,36.97842],[-121.70129,36.9213],[-121.67768,36.90375],[-121.6593,36.89002],[-121.57512,36.82679],[-121.52681,36.79003],[-121.48439,36.75747],[-121.44205,36.7247],[-121.43483,36.7191]]}
}
