{
  "id": 2048493653,
  "type": "Feature",
  "properties": {
    "geom:area": 0,
    "geom:bbox": "-122.351390,37.491580,-121.245400,37.611210",
    "geom:latitude": 37.54635115044111,
    "geom:longitude": -121.80317682767526,
    "src:alt_label": "swim-approach",
    "src:geom": "swim",
    "swim:elevations": [
      4580,
      4439,
      4198,
      3880,
      3665,
      3549,
      3283,
      3235,
      3058,
      2932,
      2677,
      2588,
      2505,
      2400,
      2189,
      2041,
      1943,
      1859,
      1829,
      1603,
      1545,
      1184,
      914,
      907,
      579,
      490,
      462,
      331,
      231,
      185,
      61
    ],
    "swim:geom": "approach",
    "swim:timestamps": [
      1790968765,
      1790968781,
      1790968809,
      1790968843,
      1790968866,
      1790968879,
      1790968918,
      1790968935,
      1790968976,
      1790968991,
      1790969024,
      1790969040,
      1790969071,
      1790969089,
      1790969128,
      1790969153,
      1790969180,
      1790969203,
      1790969233,
      1790969276,
      1790969281,
      1790969313,
      1790969364,
      1790969376,
      1790969423,
      1790969452,
      1790969460,
      1790969486,
      1790969517,
      1790969529,
      1790969565
    ],
    "wof:geomhash": "c6a0b86cdb1a2c62485fe8af2af0b17c",
    "wof:id": 2048493653,
    "wof:repo": "sfomuseum-data-flights-2026-10"
  },
  "bbox": [
    -122.35139,
    37.49158,
    -121.2454,
    37.61121
  ],
  "geometry": {"type":"LineString","coordinates":[[-121.2454,37.59492],[-121.27819,37.59044],[-121.33354,37.58426],[-121.40161,37.57665],[-121.44711,37.5712],[-121.47391,37.56816],[-121.54989,37.55928],[-121.5804,37.55569],[-121.6481,37.54496],[-121.67137,37.53927],[-121.72249,37.52731],[-121.74704,37.52143],[-121.7923,37.51053],[-121.8197,37.50397],[-121.87654,37.49158],[-121.91147,37.49196],[-121.94761,37.4928],[-121.97955,37.49394],[-122.0173,37.50443],[-122.06655,37.52027],[-122.07223,37.52212],[-122.10733,37.53345],[-122.16464,37.552],[-122.17834,37.5564],[-122.23183,37.57378],[-122.26181,37.58336],[-122.26922,37.58553],[-122.29127,37.59182],[-122.31543,37.59895],[-122.32454,37.60172],[-122.35139,37.61121]]}
}
