{
  "id": 2048515909,
  "type": "Feature",
  "properties": {
    "geom:area": 0,
    "geom:bbox": "-122.464660,36.745850,-121.473300,37.691510",
    "geom:latitude": 37.21184682965801,
    "geom:longitude": -122.05521133738677,
    "src:alt_label": "swim-takeoff",
    "src:geom": "swim",
    "swim:elevations": [
      152,
      604,
      768,
      973,
      1007,
      1055,
      1150,
      1365,
      1986,
      2279,
      2809,
      3287,
      3698,
      4164,
      4354,
      4590,
      4890,
      5392,
      5600,
      5881,
      6408,
      6590,
      6877,
      7124,
      7279,
      7553,
      7623,
      7693,
      7749,
      7942,
      8229,
      8341,
      8529,
      8566,
      8687
    ],
    "swim:geom": "takeoff",
    "swim:timestamps": [
      1791154162,
      1791154196,
      1791154218,
      1791154254,
      1791154274,
      1791154290,
      1791154317,
      1791154334,
      1791154377,
      1791154395,
      1791154430,
      1791154464,
      1791154495,
      1791154528,
      1791154542,
      1791154567,
      1791154594,
      1791154639,
      1791154670,
      1791154694,
      1791154734,
      1791154752,
      1791154786,
      1791154811,
      1791154832,
      1791154880,
      1791154901,
      1791154916,
      1791154928,
      1791154964,
      1791155008,
      1791155037,
      1791155067,
      1791155073,
      1791155104
    ],
    "wof:geomhash": "69ee6d0ddcdb9c2d3048a71dbdb4f2ff",
    "wof:id": 2048515909,
    "wof:repo": "sfomuseum-data-flights-2026-10"
  },
  "bbox": [
    -122.46466,
    36.74585,
    -121.4733,
    37.69151
  ],
  "geometry": {"type":"LineString","coordinates":[[-122.36875,37.62936],[-122.36315,37.65381],[-122.36196,37.67006],[-122.37538,37.69151],[-122.39493,37.686],[-122.40228,37.67143],[-122.41,37.64061],[-122.41832,37.61988],[-122.44152,37.56798],[-122.45104,37.54561],[-122.46466,37.50159],[-122.44022,37.46241],[-122.40103,37.43474],[-122.35872,37.40584],[-122.34085,37.39224],[-122.30989,37.36829],[-122.27378,37.34141],[-122.21187,37.29616],[-122.16685,37.26305],[-122.13296,37.23803],[-122.07479,37.19498],[-122.04914,37.17598],[-121.99988,37.13927],[-121.96212,37.11128],[-121.93072,37.08781],[-121.85838,37.03374],[-121.82373,37.00776],[-121.79953,36.98971],[-121.77953,36.97446],[-121.71776,36.92983],[-121.64316,36.87423],[-121.59213,36.83606],[-121.53942,36.79611],[-121.52871,36.78802],[-121.4733,36.74585]]}
}
