{
  "id": 2048491191,
  "type": "Feature",
  "properties": {
    "date:inception_lower": "2026-10-02",
    "date:inception_upper": "2026-10-02",
    "edtf:cessation": "",
    "edtf:inception": "2026-10-02",
    "flysfo:actual_timestamp": -1,
    "flysfo:airline": "NZ",
    "flysfo:base_airline": "",
    "flysfo:base_flight_number": "6975",
    "flysfo:date": "2026-10-02",
    "flysfo:estimated_timestamp": 1790962680,
    "flysfo:event": "A",
    "flysfo:flight_number": "NZ4599",
    "flysfo:gate": "C10",
    "flysfo:journey": "YVR-SFO",
    "flysfo:scheduled_timestamp": 1790961600,
    "flysfo:timestamp": 1790962680,
    "geom:area": 0,
    "geom:bbox": "-123.179200,37.617990,-122.370943,49.193330",
    "geom:latitude": 43.40566,
    "geom:longitude": -122.7750715,
    "iata:airline": "NZ",
    "iata:base_airline": "",
    "icao:airline": "ANZ",
    "icao:base_airline": "AVA",
    "lbl:latitude": 37.614645,
    "lbl:longitude": -122.382263,
    "sfomuseum:airline_id": 1159283697,
    "sfomuseum:arrival_id": 102527513,
    "sfomuseum:base_flight_id": "20261002-A-AVA-6975",
    "sfomuseum:departure_id": 102555307,
    "sfomuseum:flight_id": "20261002-A-ANZ-4599",
    "sfomuseum:flight_number": [
      "ANZ4599",
      "NZ4599"
    ],
    "sfomuseum:placetype": "flight",
    "src:geom": "flysfo",
    "wof:belongsto": [
      1947304067,
      102527513,
      1947304663,
      102191575,
      85633793,
      102087579,
      85922583,
      554784711,
      85688637,
      1947304673,
      1947304591,
      102085387
    ],
    "wof:country": "US",
    "wof:created": 1791043363,
    "wof:geomhash": "e68490b7b9257816408c117e0e15f8ec",
    "wof:hierarchy": [
      {
        "building_id": 1947304067,
        "campus_id": 102527513,
        "concourse_id": 1947304663,
        "continent_id": 102191575,
        "country_id": 85633793,
        "county_id": 102087579,
        "custom_id": 2048491191,
        "flight_id": 2048491191,
        "locality_id": 85922583,
        "postalcode_id": 554784711,
        "region_id": 85688637,
        "venue_id": 1947304673,
        "wing_id": 1947304591
      },
      {
        "building_id": 1947304067,
        "campus_id": 102527513,
        "concourse_id": 1947304663,
        "continent_id": 102191575,
        "country_id": 85633793,
        "county_id": 102085387,
        "custom_id": 2048491191,
        "flight_id": 2048491191,
        "region_id": 85688637,
        "venue_id": 1947304673,
        "wing_id": 1947304591
      }
    ],
    "wof:id": 2048491191,
    "wof:involves": [
      102527513,
      102555307,
      1159283697,
      1947304673,
      1159285749
    ],
    "wof:lastmodified": 1791043363,
    "wof:name": "NZ4599 (YVR-SFO)",
    "wof:parent_id": 1947304673,
    "wof:placetype": "custom",
    "wof:placetype_alt": [
      "flight"
    ],
    "wof:repo": "sfomuseum-data-flights-2026-10",
    "wof:superseded_by": [],
    "wof:supersedes": []
  },
  "bbox": [
    -123.1792,
    37.61799,
    -122.370943,
    49.19333
  ],
  "geometry": {"type":"MultiPoint","coordinates":[[-123.1792,49.19333],[-122.370943,37.61799]]}
}
