{
  "id": 2048556883,
  "type": "Feature",
  "properties": {
    "geom:area": 0,
    "geom:bbox": "-122.358110,37.637810,-121.247070,37.928810",
    "geom:latitude": 37.767964291432584,
    "geom:longitude": -121.80109171959982,
    "src:alt_label": "swim-takeoff",
    "src:geom": "swim",
    "swim:elevations": [
      337,
      462,
      729,
      1183,
      1442,
      1884,
      2191,
      2623,
      2988,
      3240,
      3559,
      3948,
      4324,
      4774,
      5072,
      5155,
      5754,
      5966,
      6038,
      6328,
      6424,
      6536,
      6939
    ],
    "swim:geom": "takeoff",
    "swim:timestamps": [
      1791610546,
      1791610562,
      1791610594,
      1791610640,
      1791610658,
      1791610685,
      1791610703,
      1791610730,
      1791610757,
      1791610781,
      1791610820,
      1791610847,
      1791610877,
      1791610918,
      1791610945,
      1791610954,
      1791611002,
      1791611023,
      1791611032,
      1791611062,
      1791611071,
      1791611083,
      1791611125
    ],
    "wof:geomhash": "d01f9b070206ca4709a40004825c6e07",
    "wof:id": 2048556883,
    "wof:repo": "sfomuseum-data-flights-2026-10"
  },
  "bbox": [
    -122.35811,
    37.63781,
    -121.24707,
    37.92881
  ],
  "geometry": {"type":"LineString","coordinates":[[-122.35811,37.63781],[-122.34417,37.64442],[-122.30774,37.657],[-122.24092,37.66732],[-122.20921,37.6647],[-122.16226,37.66095],[-122.13079,37.65856],[-122.08426,37.66291],[-122.03958,37.67784],[-121.99836,37.69182],[-121.92522,37.71667],[-121.8716,37.73489],[-121.81079,37.75535],[-121.72513,37.7843],[-121.66715,37.80379],[-121.64732,37.81045],[-121.54002,37.84628],[-121.49233,37.86227],[-121.47159,37.86917],[-121.40174,37.8924],[-121.38065,37.89945],[-121.35221,37.90856],[-121.24707,37.92881]]}
}
