{
  "id": 2048527463,
  "type": "Feature",
  "properties": {
    "geom:area": 0,
    "geom:bbox": "-122.804330,37.423710,-122.139380,38.506310",
    "geom:latitude": 37.834204440837986,
    "geom:longitude": -122.50775211459498,
    "src:alt_label": "swim-approach",
    "src:geom": "swim",
    "swim:elevations": [
      7590,
      7228,
      6918,
      6679,
      6219,
      5977,
      5761,
      5403,
      5158,
      4843,
      4652,
      4433,
      4118,
      3881,
      3765,
      3619,
      3412,
      3355,
      3353,
      3353,
      3353,
      3335,
      3118,
      2955,
      2748,
      2637,
      2531,
      2254,
      2052,
      1779,
      1568,
      1508,
      1220,
      1138,
      946,
      794,
      703,
      476,
      416,
      272,
      121,
      80
    ],
    "swim:geom": "approach",
    "swim:timestamps": [
      1791274715,
      1791274750,
      1791274784,
      1791274807,
      1791274856,
      1791274880,
      1791274903,
      1791274941,
      1791274968,
      1791275002,
      1791275023,
      1791275048,
      1791275084,
      1791275111,
      1791275127,
      1791275142,
      1791275182,
      1791275209,
      1791275233,
      1791275258,
      1791275280,
      1791275321,
      1791275359,
      1791275392,
      1791275424,
      1791275443,
      1791275463,
      1791275512,
      1791275535,
      1791275578,
      1791275607,
      1791275615,
      1791275657,
      1791275680,
      1791275709,
      1791275731,
      1791275743,
      1791275784,
      1791275800,
      1791275833,
      1791275871,
      1791275884
    ],
    "wof:geomhash": "d5bc573f898dda0e572bb7fac8dfc6e5",
    "wof:id": 2048527463,
    "wof:repo": "sfomuseum-data-flights-2026-10"
  },
  "bbox": [
    -122.80433,
    37.42371,
    -122.13938,
    38.50631
  ],
  "geometry": {"type":"LineString","coordinates":[[-122.80433,38.50631],[-122.79566,38.44025],[-122.78743,38.37869],[-122.78204,38.33772],[-122.77075,38.24941],[-122.76232,38.20724],[-122.75073,38.16723],[-122.73201,38.10247],[-122.71901,38.05768],[-122.70288,38.00187],[-122.6929,37.96725],[-122.68185,37.92883],[-122.64918,37.87689],[-122.61586,37.84542],[-122.59484,37.82547],[-122.57602,37.80775],[-122.52733,37.76169],[-122.4963,37.73256],[-122.47021,37.70794],[-122.44174,37.68127],[-122.41874,37.65939],[-122.37853,37.6217],[-122.3497,37.5841],[-122.33294,37.54997],[-122.31253,37.51674],[-122.30074,37.49718],[-122.28838,37.47695],[-122.25001,37.43437],[-122.22012,37.42371],[-122.16687,37.42591],[-122.1426,37.4489],[-122.13938,37.45656],[-122.15608,37.49476],[-122.17355,37.5123],[-122.19482,37.5335],[-122.21136,37.54742],[-122.22331,37.55439],[-122.26376,37.57185],[-122.27827,37.57802],[-122.30529,37.58951],[-122.33681,37.60269],[-122.34701,37.60699]]}
}
