{
  "id": 2048545697,
  "type": "Feature",
  "properties": {
    "geom:area": 0,
    "geom:bbox": "-122.754770,37.414780,-122.092390,38.463530",
    "geom:latitude": 37.84662444725963,
    "geom:longitude": -122.46341876638611,
    "src:alt_label": "swim-approach",
    "src:geom": "swim",
    "swim:elevations": [
      7590,
      7376,
      7289,
      7072,
      6921,
      6493,
      6174,
      6144,
      5794,
      5422,
      5238,
      5079,
      4954,
      4621,
      4186,
      3951,
      3727,
      3655,
      3475,
      3458,
      3402,
      3353,
      3353,
      3353,
      3353,
      3320,
      3212,
      2998,
      2849,
      2708,
      2318,
      2091,
      1905,
      1433,
      1398,
      1293,
      1220,
      1219,
      1219,
      1219,
      1219,
      1216,
      1110,
      1045,
      818,
      761,
      506,
      384,
      277,
      152,
      45,
      34
    ],
    "swim:geom": "approach",
    "swim:timestamps": [
      1791497798,
      1791497839,
      1791497857,
      1791497904,
      1791497923,
      1791497966,
      1791497996,
      1791498002,
      1791498040,
      1791498073,
      1791498096,
      1791498111,
      1791498124,
      1791498158,
      1791498206,
      1791498231,
      1791498255,
      1791498265,
      1791498297,
      1791498300,
      1791498317,
      1791498351,
      1791498388,
      1791498391,
      1791498447,
      1791498461,
      1791498482,
      1791498507,
      1791498524,
      1791498542,
      1791498597,
      1791498620,
      1791498638,
      1791498687,
      1791498690,
      1791498703,
      1791498728,
      1791498773,
      1791498799,
      1791498816,
      1791498836,
      1791498847,
      1791498875,
      1791498884,
      1791498915,
      1791498925,
      1791498980,
      1791499014,
      1791499041,
      1791499077,
      1791499107,
      1791499110
    ],
    "wof:geomhash": "f7b1f52f1c8aef0530eb4d30efaa9c0c",
    "wof:id": 2048545697,
    "wof:repo": "sfomuseum-data-flights-2026-10"
  },
  "bbox": [
    -122.75477,
    37.41478,
    -122.09239,
    38.46353
  ],
  "geometry": {"type":"LineString","coordinates":[[-122.43211,38.46353],[-122.50314,38.41336],[-122.53386,38.39148],[-122.61314,38.33496],[-122.6447,38.31239],[-122.71785,38.26013],[-122.75239,38.21594],[-122.75477,38.20602],[-122.74308,38.14206],[-122.72679,38.08644],[-122.71599,38.04798],[-122.70904,38.02334],[-122.70336,38.00323],[-122.6874,37.94732],[-122.6509,37.8776],[-122.61893,37.84802],[-122.58871,37.81981],[-122.577,37.80879],[-122.54009,37.77384],[-122.53595,37.76993],[-122.51771,37.75257],[-122.4819,37.71832],[-122.44214,37.68095],[-122.43891,37.67795],[-122.3828,37.62533],[-122.37046,37.61361],[-122.35494,37.59457],[-122.34115,37.56872],[-122.33236,37.55119],[-122.32251,37.53292],[-122.28951,37.47877],[-122.2653,37.46349],[-122.24395,37.45635],[-122.18435,37.433],[-122.18077,37.43153],[-122.16556,37.4254],[-122.13547,37.41478],[-122.09239,37.43831],[-122.1039,37.46299],[-122.11713,37.47636],[-122.13246,37.49205],[-122.14148,37.50131],[-122.16263,37.52266],[-122.16856,37.5287],[-122.19607,37.54354],[-122.20494,37.54729],[-122.25553,37.56849],[-122.28382,37.58037],[-122.30338,37.58862],[-122.3291,37.59949],[-122.35166,37.60888],[-122.35382,37.60979]]}
}
