{
  "id": 2048546433,
  "type": "Feature",
  "properties": {
    "geom:area": 0,
    "geom:bbox": "-123.467500,36.884900,-122.099660,37.614370",
    "geom:latitude": 37.26559900866548,
    "geom:longitude": -122.692276560161,
    "src:alt_label": "swim-approach",
    "src:geom": "swim",
    "swim:elevations": [
      5767,
      5342,
      5333,
      4800,
      4685,
      4467,
      4428,
      3969,
      3647,
      3413,
      3261,
      3200,
      3112,
      3072,
      3048,
      3048,
      3048,
      3048,
      3048,
      2999,
      2822,
      2680,
      2572,
      2438,
      2405,
      2402,
      2303,
      2211,
      1931,
      1859,
      1734,
      1546,
      1432,
      1362,
      1254,
      1219,
      1219,
      1079,
      926,
      832,
      682,
      554,
      323,
      211,
      62,
      0
    ],
    "swim:geom": "approach",
    "swim:timestamps": [
      1791445158,
      1791445194,
      1791445207,
      1791445258,
      1791445269,
      1791445290,
      1791445294,
      1791445341,
      1791445373,
      1791445397,
      1791445421,
      1791445451,
      1791445481,
      1791445503,
      1791445530,
      1791445586,
      1791445612,
      1791445621,
      1791445651,
      1791445694,
      1791445730,
      1791445767,
      1791445786,
      1791445819,
      1791445855,
      1791445861,
      1791445877,
      1791445895,
      1791445945,
      1791445960,
      1791445991,
      1791446029,
      1791446063,
      1791446083,
      1791446115,
      1791446156,
      1791446173,
      1791446204,
      1791446233,
      1791446251,
      1791446281,
      1791446311,
      1791446362,
      1791446390,
      1791446425,
      1791446440
    ],
    "wof:geomhash": "bb73e506926a1f246d6bee0de3dbe804",
    "wof:id": 2048546433,
    "wof:repo": "sfomuseum-data-flights-2026-10"
  },
  "bbox": [
    -123.4675,
    36.8849,
    -122.09966,
    37.61437
  ],
  "geometry": {"type":"LineString","coordinates":[[-123.4675,36.8849],[-123.3962,36.93016],[-123.37172,36.94633],[-123.27644,37.00327],[-123.25605,37.01577],[-123.21776,37.03957],[-123.21104,37.04373],[-123.12948,37.09417],[-123.0737,37.12855],[-123.03507,37.15233],[-122.99356,37.17791],[-122.94814,37.20653],[-122.9022,37.23401],[-122.86667,37.25394],[-122.81945,37.2674],[-122.7257,37.28957],[-122.68562,37.29533],[-122.67258,37.29428],[-122.63123,37.28858],[-122.57403,37.28028],[-122.52494,37.27301],[-122.47461,37.2742],[-122.45574,37.29006],[-122.42955,37.32105],[-122.38159,37.33465],[-122.37346,37.33586],[-122.3511,37.33899],[-122.32747,37.34223],[-122.25927,37.35136],[-122.23886,37.35506],[-122.20777,37.37598],[-122.17232,37.40682],[-122.14211,37.43282],[-122.12514,37.4473],[-122.09966,37.46869],[-122.10667,37.50196],[-122.11974,37.51259],[-122.14942,37.52615],[-122.17794,37.53809],[-122.19553,37.54551],[-122.22418,37.55761],[-122.25216,37.56941],[-122.29824,37.58876],[-122.32033,37.59812],[-122.34813,37.60972],[-122.35973,37.61437]]}
}
