{
  "id": 2048556061,
  "type": "Feature",
  "properties": {
    "geom:area": 0,
    "geom:bbox": "-122.791440,37.340760,-122.132500,38.480440",
    "geom:latitude": 37.77133590633848,
    "geom:longitude": -122.47693216739529,
    "src:alt_label": "swim-approach",
    "src:geom": "swim",
    "swim:elevations": [
      7590,
      7278,
      7021,
      6517,
      6308,
      6063,
      5826,
      5619,
      5314,
      5180,
      4816,
      4782,
      4545,
      4434,
      4158,
      3782,
      3629,
      3419,
      3352,
      3353,
      3353,
      3353,
      3353,
      3353,
      3353,
      3174,
      3115,
      2744,
      2620,
      2270,
      2207,
      2136,
      2134,
      2008,
      1858,
      1746,
      1593,
      1570,
      1524,
      1424,
      1220,
      1180,
      1071,
      1032,
      949,
      794,
      628,
      599,
      516,
      457,
      348,
      240,
      37
    ],
    "swim:geom": "approach",
    "swim:timestamps": [
      1791538220,
      1791538245,
      1791538268,
      1791538310,
      1791538333,
      1791538374,
      1791538397,
      1791538417,
      1791538446,
      1791538460,
      1791538496,
      1791538500,
      1791538525,
      1791538534,
      1791538565,
      1791538606,
      1791538624,
      1791538660,
      1791538693,
      1791538738,
      1791538746,
      1791538777,
      1791538808,
      1791538822,
      1791538830,
      1791538856,
      1791538865,
      1791538919,
      1791538936,
      1791538977,
      1791538986,
      1791539010,
      1791539055,
      1791539098,
      1791539125,
      1791539153,
      1791539185,
      1791539192,
      1791539226,
      1791539254,
      1791539297,
      1791539314,
      1791539344,
      1791539363,
      1791539377,
      1791539416,
      1791539457,
      1791539465,
      1791539485,
      1791539502,
      1791539526,
      1791539550,
      1791539601
    ],
    "wof:geomhash": "219df89551f5848911a0bb50ba55973a",
    "wof:id": 2048556061,
    "wof:repo": "sfomuseum-data-flights-2026-10"
  },
  "bbox": [
    -122.79144,
    37.34076,
    -122.1325,
    38.48044
  ],
  "geometry": {"type":"LineString","coordinates":[[-122.79144,38.48044],[-122.7868,38.43105],[-122.7827,38.3859],[-122.77507,38.30386],[-122.77081,38.25957],[-122.75676,38.18818],[-122.74496,38.14752],[-122.73495,38.11313],[-122.72089,38.0644],[-122.71462,38.04261],[-122.6971,37.98204],[-122.69532,37.97595],[-122.68357,37.93505],[-122.67935,37.92067],[-122.65125,37.87792],[-122.59776,37.82843],[-122.57627,37.80797],[-122.53284,37.76581],[-122.49441,37.72977],[-122.44768,37.68682],[-122.44048,37.68006],[-122.41071,37.65204],[-122.38174,37.62483],[-122.36894,37.61252],[-122.36219,37.605],[-122.34492,37.57937],[-122.34055,37.56992],[-122.31137,37.51446],[-122.30465,37.49662],[-122.31765,37.45132],[-122.32065,37.44196],[-122.32843,37.41627],[-122.33913,37.36704],[-122.29591,37.34076],[-122.26086,37.3512],[-122.22742,37.36389],[-122.189,37.37857],[-122.18173,37.38338],[-122.16395,37.41239],[-122.15157,37.4352],[-122.1325,37.47031],[-122.13344,37.48535],[-122.14314,37.50989],[-122.15261,37.52391],[-122.1661,37.53079],[-122.20143,37.54579],[-122.23494,37.55986],[-122.242,37.56286],[-122.25827,37.56972],[-122.27288,37.57574],[-122.29313,37.58441],[-122.31346,37.59293],[-122.35649,37.61093]]}
}
