{
  "id": 2048502965,
  "type": "Feature",
  "properties": {
    "geom:area": 0,
    "geom:bbox": "-122.358260,37.491960,-121.248200,37.613960",
    "geom:latitude": 37.54681422384811,
    "geom:longitude": -121.80817525677438,
    "src:alt_label": "swim-approach",
    "src:geom": "swim",
    "swim:elevations": [
      4603,
      4332,
      3983,
      3628,
      3497,
      3280,
      3251,
      3081,
      3001,
      2665,
      2529,
      2437,
      2173,
      2133,
      2003,
      1859,
      1783,
      1548,
      1272,
      1217,
      1187,
      907,
      646,
      496,
      407,
      345,
      277,
      158,
      0
    ],
    "swim:geom": "approach",
    "swim:timestamps": [
      1791052010,
      1791052036,
      1791052072,
      1791052108,
      1791052120,
      1791052144,
      1791052147,
      1791052184,
      1791052203,
      1791052247,
      1791052269,
      1791052308,
      1791052348,
      1791052355,
      1791052388,
      1791052428,
      1791052440,
      1791052480,
      1791052527,
      1791052537,
      1791052569,
      1791052616,
      1791052647,
      1791052668,
      1791052691,
      1791052705,
      1791052721,
      1791052749,
      1791052786
    ],
    "wof:geomhash": "a940d0d6b0cf01bad9bea88c374afa57",
    "wof:id": 2048502965,
    "wof:repo": "sfomuseum-data-flights-2026-10"
  },
  "bbox": [
    -122.35826,
    37.49196,
    -121.2482,
    37.61396
  ],
  "geometry": {"type":"LineString","coordinates":[[-121.2482,37.59467],[-121.3036,37.58787],[-121.37806,37.57959],[-121.45133,37.57108],[-121.47618,37.56814],[-121.52499,37.56247],[-121.53111,37.56175],[-121.60526,37.55315],[-121.63935,37.54736],[-121.71442,37.52942],[-121.7513,37.5206],[-121.81045,37.5064],[-121.86679,37.49319],[-121.87703,37.49196],[-121.92335,37.49218],[-121.97791,37.49392],[-121.99421,37.49686],[-122.04546,37.51337],[-122.10532,37.53265],[-122.11814,37.53682],[-122.15604,37.54922],[-122.2074,37.56584],[-122.23935,37.57607],[-122.26095,37.58305],[-122.28255,37.58924],[-122.29446,37.59266],[-122.30771,37.59655],[-122.33017,37.60333],[-122.35826,37.61396]]}
}
