{
  "id": 2048493713,
  "type": "Feature",
  "properties": {
    "geom:area": 0,
    "geom:bbox": "-122.352030,36.766490,-121.900930,37.609040",
    "geom:latitude": 37.25235766275281,
    "geom:longitude": -122.07201602104686,
    "src:alt_label": "swim-approach",
    "src:geom": "swim",
    "swim:elevations": [
      5058,
      4860,
      4714,
      4378,
      4022,
      4019,
      3714,
      3409,
      3295,
      3160,
      3079,
      3029,
      2864,
      2709,
      2560,
      2291,
      2167,
      1881,
      1829,
      1829,
      1829,
      1829,
      1829,
      1710,
      1610,
      1360,
      1217,
      1083,
      748,
      633,
      496,
      413,
      271,
      172,
      53
    ],
    "swim:geom": "approach",
    "swim:timestamps": [
      1790945728,
      1790945751,
      1790945768,
      1790945806,
      1790945842,
      1790945852,
      1790945888,
      1790945926,
      1790945938,
      1790945957,
      1790945970,
      1790945977,
      1790946022,
      1790946053,
      1790946078,
      1790946111,
      1790946125,
      1790946159,
      1790946180,
      1790946232,
      1790946255,
      1790946294,
      1790946308,
      1790946345,
      1790946363,
      1790946403,
      1790946422,
      1790946437,
      1790946478,
      1790946495,
      1790946522,
      1790946546,
      1790946582,
      1790946612,
      1790946643
    ],
    "wof:geomhash": "73bd6f14f26b31946ffecd361e3c3140",
    "wof:id": 2048493713,
    "wof:repo": "sfomuseum-data-flights-2026-10"
  },
  "bbox": [
    -122.35203,
    36.76649,
    -121.90093,
    37.60904
  ],
  "geometry": {"type":"LineString","coordinates":[[-121.90093,36.76649],[-121.91099,36.80221],[-121.91824,36.82841],[-121.93465,36.88734],[-121.95051,36.94294],[-121.95526,36.95748],[-121.97546,37.00834],[-121.99661,37.06387],[-122.00305,37.0802],[-122.01375,37.10753],[-122.02023,37.1245],[-122.02401,37.13432],[-122.04671,37.19229],[-122.06017,37.22652],[-122.07124,37.2538],[-122.0939,37.28459],[-122.11023,37.29177],[-122.12815,37.32558],[-122.11784,37.34828],[-122.08395,37.39891],[-122.06771,37.42025],[-122.04937,37.4603],[-122.05666,37.4741],[-122.09203,37.49916],[-122.11049,37.50737],[-122.15042,37.52416],[-122.16756,37.53138],[-122.18146,37.53733],[-122.21875,37.553],[-122.2332,37.55911],[-122.25719,37.56922],[-122.27643,37.57726],[-122.30525,37.58937],[-122.32831,37.59909],[-122.35203,37.60904]]}
}
