{
  "id": 2048524503,
  "type": "Feature",
  "properties": {
    "date:cessation_lower": "1970-01-01",
    "date:cessation_upper": "1970-01-01",
    "date:inception_lower": "2026-10-05",
    "date:inception_upper": "2026-10-05",
    "edtf:cessation": "1970-01-01T00:00:00Z",
    "edtf:inception": "2026-10-05T04:20:01-07:00",
    "flysfo:actual_timestamp": -1,
    "flysfo:airline": "WN",
    "flysfo:date": "2026-10-05",
    "flysfo:estimated_timestamp": 1791222480,
    "flysfo:event": "D",
    "flysfo:flight_number": "WN3288",
    "flysfo:gate": "D3",
    "flysfo:journey": "SFO-AUS",
    "flysfo:scheduled_timestamp": 1791221400,
    "flysfo:timestamp": 1791222480,
    "geom:area": 0,
    "geom:bbox": "-122.370943,30.206175,-97.643029,37.617990",
    "geom:latitude": 33.9120825,
    "geom:longitude": -110.006986,
    "iata:airline": "WN",
    "icao:aircraft": "B738",
    "icao:airline": "SWA",
    "lbl:latitude": 37.617092,
    "lbl:longitude": -122.381656,
    "sfomuseum:aircraft_id": 1159289871,
    "sfomuseum:airline_id": 1159285591,
    "sfomuseum:arrival_id": 102521851,
    "sfomuseum:departure_id": 102527513,
    "sfomuseum:flight_id": "20261005-D-SWA-3288",
    "sfomuseum:flight_number": [
      "SWA3288",
      "WN3288"
    ],
    "sfomuseum:placetype": "flight",
    "src:geom": "flysfo",
    "src:geom_alt": [
      "swim-takeoff"
    ],
    "swim:tail_number": "N8652B",
    "wof:belongsto": [
      1947304067,
      102527513,
      1947304595,
      102191575,
      85633793,
      102087579,
      85922583,
      554784711,
      85688637,
      1947304597,
      1947304591,
      102085387
    ],
    "wof:country": "US",
    "wof:created": 1791303347,
    "wof:geomhash": "f1e29c4a83094711ef061292cfad3358",
    "wof:hierarchy": [
      {
        "building_id": 1947304067,
        "campus_id": 102527513,
        "concourse_id": 1947304595,
        "continent_id": 102191575,
        "country_id": 85633793,
        "county_id": 102087579,
        "custom_id": 2048524503,
        "flight_id": 2048524503,
        "locality_id": 85922583,
        "postalcode_id": 554784711,
        "region_id": 85688637,
        "venue_id": 1947304597,
        "wing_id": 1947304591
      },
      {
        "building_id": 1947304067,
        "campus_id": 102527513,
        "concourse_id": 1947304595,
        "continent_id": 102191575,
        "country_id": 85633793,
        "county_id": 102085387,
        "custom_id": 2048524503,
        "flight_id": 2048524503,
        "region_id": 85688637,
        "venue_id": 1947304597,
        "wing_id": 1947304591
      }
    ],
    "wof:id": 2048524503,
    "wof:involves": [
      1159289871,
      102521851,
      102527513,
      1159285591,
      1947304597
    ],
    "wof:lastmodified": 1791303579,
    "wof:name": "WN3288 (SFO-AUS)",
    "wof:parent_id": 1947304597,
    "wof:placetype": "custom",
    "wof:placetype_alt": [
      "flight"
    ],
    "wof:repo": "sfomuseum-data-flights-2026-10",
    "wof:superseded_by": [],
    "wof:supersedes": []
  },
  "bbox": [
    -122.370943,
    30.206175,
    -97.643029,
    37.61799
  ],
  "geometry": {"type":"MultiPoint","coordinates":[[-122.370943,37.61799],[-97.643029,30.206175]]}
}
