{
  "id": 2048518347,
  "type": "Feature",
  "properties": {
    "geom:area": 0,
    "geom:bbox": "-123.505310,36.964390,-122.122980,37.615930",
    "geom:latitude": 37.28753707988553,
    "geom:longitude": -122.71941363400153,
    "src:alt_label": "swim-approach",
    "src:geom": "swim",
    "swim:elevations": [
      6218,
      6021,
      5700,
      5433,
      5158,
      4986,
      4741,
      4625,
      4588,
      4454,
      4323,
      3977,
      3661,
      3364,
      3050,
      3048,
      3048,
      3042,
      2727,
      2531,
      2438,
      2438,
      2438,
      2438,
      2438,
      2438,
      2438,
      2438,
      2391,
      2231,
      1973,
      1862,
      1737,
      1450,
      1171,
      1000,
      890,
      831,
      650,
      547,
      425,
      286,
      168,
      67,
      0
    ],
    "swim:geom": "approach",
    "swim:timestamps": [
      1791249384,
      1791249413,
      1791249444,
      1791249474,
      1791249507,
      1791249526,
      1791249553,
      1791249568,
      1791249571,
      1791249589,
      1791249604,
      1791249643,
      1791249679,
      1791249709,
      1791249745,
      1791249775,
      1791249805,
      1791249832,
      1791249869,
      1791249896,
      1791249923,
      1791249932,
      1791249985,
      1791249997,
      1791250015,
      1791250043,
      1791250077,
      1791250095,
      1791250122,
      1791250161,
      1791250197,
      1791250213,
      1791250237,
      1791250273,
      1791250318,
      1791250346,
      1791250367,
      1791250389,
      1791250431,
      1791250462,
      1791250492,
      1791250527,
      1791250557,
      1791250581,
      1791250599
    ],
    "wof:geomhash": "58763983ddd3adc1ce53327166ff7ab5",
    "wof:id": 2048518347,
    "wof:repo": "sfomuseum-data-flights-2026-10"
  },
  "bbox": [
    -123.50531,
    36.96439,
    -122.12298,
    37.61593
  ],
  "geometry": {"type":"LineString","coordinates":[[-123.50531,36.96439],[-123.44952,36.99129],[-123.39094,37.01636],[-123.33406,37.04334],[-123.27499,37.07035],[-123.24091,37.08588],[-123.19276,37.10778],[-123.16633,37.11985],[-123.16105,37.12226],[-123.12961,37.13669],[-123.10359,37.14861],[-123.03666,37.17905],[-122.97595,37.20679],[-122.9258,37.22926],[-122.86564,37.25541],[-122.81374,37.26893],[-122.76478,37.28055],[-122.72117,37.29082],[-122.66103,37.30499],[-122.61697,37.31518],[-122.57379,37.32508],[-122.55939,37.32842],[-122.47443,37.34814],[-122.45522,37.35252],[-122.42675,37.35903],[-122.38494,37.36869],[-122.33466,37.38022],[-122.30806,37.38637],[-122.26828,37.39549],[-122.21489,37.40764],[-122.16719,37.41815],[-122.14782,37.42392],[-122.13085,37.44301],[-122.12298,37.47441],[-122.1531,37.50705],[-122.17108,37.5253],[-122.18347,37.53747],[-122.1988,37.54662],[-122.23112,37.56055],[-122.25473,37.57048],[-122.27792,37.58027],[-122.30588,37.59203],[-122.33049,37.60229],[-122.34902,37.61011],[-122.36301,37.61593]]}
}
