{
  "id": 2048513541,
  "type": "Feature",
  "properties": {
    "geom:area": 0,
    "geom:bbox": "-122.470380,36.728000,-121.449560,37.708860",
    "geom:latitude": 37.222591993488905,
    "geom:longitude": -122.06092257417117,
    "src:alt_label": "swim-takeoff",
    "src:geom": "swim",
    "swim:elevations": [
      183,
      452,
      476,
      626,
      791,
      1179,
      1738,
      2024,
      2602,
      2918,
      3201,
      3405,
      4126,
      4321,
      4661,
      5426,
      5578,
      5921,
      6004,
      6440,
      6914,
      7003,
      7187,
      7466,
      7891,
      8137,
      8604,
      8718,
      8800,
      8931,
      9081,
      9176,
      9418,
      9571
    ],
    "swim:geom": "takeoff",
    "swim:timestamps": [
      1791134200,
      1791134229,
      1791134236,
      1791134261,
      1791134290,
      1791134325,
      1791134366,
      1791134385,
      1791134426,
      1791134450,
      1791134477,
      1791134503,
      1791134548,
      1791134562,
      1791134586,
      1791134636,
      1791134644,
      1791134668,
      1791134673,
      1791134708,
      1791134749,
      1791134757,
      1791134773,
      1791134797,
      1791134834,
      1791134855,
      1791134908,
      1791134924,
      1791134941,
      1791134990,
      1791135010,
      1791135037,
      1791135088,
      1791135111
    ],
    "wof:geomhash": "4d9b9852097900ad4560555c8296dc61",
    "wof:id": 2048513541,
    "wof:repo": "sfomuseum-data-flights-2026-10"
  },
  "bbox": [
    -122.47038,
    36.728,
    -121.44956,
    37.70886
  ],
  "geometry": {"type":"LineString","coordinates":[[-122.36589,37.63258],[-122.36163,37.65368],[-122.36179,37.65991],[-122.36188,37.68269],[-122.38085,37.70886],[-122.43059,37.70721],[-122.4505,37.66021],[-122.45409,37.63654],[-122.46132,37.58395],[-122.46535,37.55364],[-122.47038,37.51631],[-122.45726,37.47986],[-122.3956,37.43192],[-122.37607,37.41742],[-122.34091,37.39156],[-122.2667,37.33711],[-122.2546,37.32821],[-122.21949,37.30229],[-122.21084,37.29593],[-122.15771,37.25651],[-122.09329,37.20868],[-122.0805,37.19914],[-122.05457,37.17992],[-122.01569,37.15118],[-121.95594,37.10642],[-121.92105,37.08076],[-121.8331,37.01488],[-121.80589,36.99469],[-121.77615,36.97255],[-121.68587,36.90629],[-121.64697,36.87773],[-121.59584,36.83971],[-121.49592,36.76342],[-121.44956,36.728]]}
}
