{
  "id": 2048513983,
  "type": "Feature",
  "properties": {
    "date:inception_lower": "2026-10-04",
    "date:inception_upper": "2026-10-04",
    "edtf:cessation": "",
    "edtf:inception": "2026-10-04",
    "flysfo:actual_timestamp": -1,
    "flysfo:airline": "CM",
    "flysfo:base_airline": "",
    "flysfo:base_flight_number": "1471",
    "flysfo:date": "2026-10-04",
    "flysfo:estimated_timestamp": 1791173040,
    "flysfo:event": "D",
    "flysfo:flight_number": "CM1471",
    "flysfo:gate": "E11",
    "flysfo:journey": "SFO-SBP",
    "flysfo:scheduled_timestamp": 1791171900,
    "flysfo:timestamp": 1791173040,
    "geom:area": 0,
    "geom:bbox": "-122.370943,35.236920,-120.643230,37.617990",
    "geom:latitude": 36.427454999999995,
    "geom:longitude": -121.5070865,
    "iata:airline": "CM",
    "iata:base_airline": "",
    "icao:airline": "CMP",
    "icao:base_airline": "CMP",
    "lbl:latitude": 37.619367,
    "lbl:longitude": -122.38387,
    "sfomuseum:airline_id": 1159284211,
    "sfomuseum:arrival_id": 102527351,
    "sfomuseum:base_flight_id": "20261004-D-CMP-1471",
    "sfomuseum:departure_id": 102527513,
    "sfomuseum:flight_id": "20261004-D-CMP-1471",
    "sfomuseum:flight_number": [
      "CMP1471",
      "CM1471"
    ],
    "sfomuseum:placetype": "flight",
    "src:geom": "flysfo",
    "wof:belongsto": [
      1947304067,
      102527513,
      1947304511,
      102191575,
      85633793,
      102087579,
      85922583,
      554784711,
      85688637,
      1947304527,
      1947304447,
      102085387
    ],
    "wof:country": "US",
    "wof:created": 1791216812,
    "wof:geomhash": "6ee4dc6f06435306541ac2ffbe1ad823",
    "wof:hierarchy": [
      {
        "building_id": 1947304067,
        "campus_id": 102527513,
        "concourse_id": 1947304511,
        "continent_id": 102191575,
        "country_id": 85633793,
        "county_id": 102087579,
        "custom_id": 2048513983,
        "flight_id": 2048513983,
        "locality_id": 85922583,
        "postalcode_id": 554784711,
        "region_id": 85688637,
        "venue_id": 1947304527,
        "wing_id": 1947304447
      },
      {
        "building_id": 1947304067,
        "campus_id": 102527513,
        "concourse_id": 1947304511,
        "continent_id": 102191575,
        "country_id": 85633793,
        "county_id": 102085387,
        "custom_id": 2048513983,
        "flight_id": 2048513983,
        "region_id": 85688637,
        "venue_id": 1947304527,
        "wing_id": 1947304447
      }
    ],
    "wof:id": 2048513983,
    "wof:involves": [
      102527351,
      102527513,
      1159284211,
      1947304527,
      1159284211
    ],
    "wof:lastmodified": 1791216812,
    "wof:name": "CM1471 (SFO-SBP)",
    "wof:parent_id": 1947304527,
    "wof:placetype": "custom",
    "wof:placetype_alt": [
      "flight"
    ],
    "wof:repo": "sfomuseum-data-flights-2026-10",
    "wof:superseded_by": [],
    "wof:supersedes": []
  },
  "bbox": [
    -122.370943,
    35.23692,
    -120.64323,
    37.61799
  ],
  "geometry": {"type":"MultiPoint","coordinates":[[-122.370943,37.61799],[-120.64323,35.23692]]}
}
