{
  "id": 2048502397,
  "type": "Feature",
  "properties": {
    "geom:area": 0,
    "geom:bbox": "-122.351830,37.491640,-121.267420,37.611350",
    "geom:latitude": 37.545313405114236,
    "geom:longitude": -121.81436652081028,
    "src:alt_label": "swim-approach",
    "src:geom": "swim",
    "swim:elevations": [
      4396,
      4254,
      4059,
      3964,
      3860,
      3781,
      3521,
      3381,
      3363,
      2986,
      2747,
      2646,
      2406,
      2175,
      2044,
      2005,
      1878,
      1802,
      1634,
      1499,
      1231,
      984,
      916,
      884,
      710,
      549,
      482,
      401,
      237,
      120,
      60
    ],
    "swim:geom": "approach",
    "swim:timestamps": [
      1791054267,
      1791054282,
      1791054305,
      1791054320,
      1791054346,
      1791054367,
      1791054416,
      1791054448,
      1791054451,
      1791054508,
      1791054537,
      1791054551,
      1791054590,
      1791054628,
      1791054656,
      1791054669,
      1791054702,
      1791054717,
      1791054747,
      1791054762,
      1791054790,
      1791054828,
      1791054843,
      1791054871,
      1791054898,
      1791054923,
      1791054948,
      1791054965,
      1791055011,
      1791055044,
      1791055061
    ],
    "wof:geomhash": "c6e74a494f65cecda059971197ecf3cb",
    "wof:id": 2048502397,
    "wof:repo": "sfomuseum-data-flights-2026-10"
  },
  "bbox": [
    -122.35183,
    37.49164,
    -121.26742,
    37.61135
  ],
  "geometry": {"type":"LineString","coordinates":[[-121.26742,37.59173],[-121.29794,37.58787],[-121.34621,37.58272],[-121.37796,37.57914],[-121.43079,37.57317],[-121.47024,37.56856],[-121.5557,37.55851],[-121.60774,37.55249],[-121.61291,37.55188],[-121.69716,37.53308],[-121.73879,37.52325],[-121.75917,37.51843],[-121.81381,37.50537],[-121.86574,37.49292],[-121.90607,37.49164],[-121.92302,37.49213],[-121.97001,37.49326],[-121.9911,37.49597],[-122.02827,37.50771],[-122.04729,37.51373],[-122.08208,37.52527],[-122.13078,37.54101],[-122.15076,37.54745],[-122.18324,37.55784],[-122.21258,37.5674],[-122.24018,37.57621],[-122.26556,37.58425],[-122.28025,37.5885],[-122.31643,37.59893],[-122.34008,37.60667],[-122.35183,37.61135]]}
}
