{
  "id": 2048507155,
  "type": "Feature",
  "properties": {
    "date:inception_lower": "2026-10-03",
    "date:inception_upper": "2026-10-03",
    "edtf:cessation": "",
    "edtf:inception": "2026-10-03",
    "flysfo:actual_timestamp": -1,
    "flysfo:airline": "VA",
    "flysfo:base_airline": "",
    "flysfo:base_flight_number": "9196",
    "flysfo:date": "2026-10-03",
    "flysfo:estimated_timestamp": 1791062340,
    "flysfo:event": "D",
    "flysfo:flight_number": "VA8083",
    "flysfo:gate": "E13",
    "flysfo:journey": "SFO-IAH",
    "flysfo:scheduled_timestamp": 1791062700,
    "flysfo:timestamp": 1791062700,
    "geom:area": 0,
    "geom:bbox": "-122.370943,29.977186,-95.338444,37.617990",
    "geom:latitude": 33.797588,
    "geom:longitude": -108.8546935,
    "iata:airline": "VA",
    "iata:base_airline": "",
    "icao:airline": "VOZ",
    "icao:base_airline": "ANZ",
    "lbl:latitude": 37.619425,
    "lbl:longitude": -122.384028,
    "sfomuseum:airline_id": 1159285485,
    "sfomuseum:arrival_id": 102534097,
    "sfomuseum:base_flight_id": "20261003-D-ANZ-9196",
    "sfomuseum:departure_id": 102527513,
    "sfomuseum:flight_id": "20261003-D-VOZ-8083",
    "sfomuseum:flight_number": [
      "VOZ8083",
      "VA8083"
    ],
    "sfomuseum:placetype": "flight",
    "src:geom": "flysfo",
    "wof:belongsto": [
      1947304067,
      102527513,
      1947304511,
      102191575,
      85633793,
      102087579,
      85922583,
      554784711,
      85688637,
      1947304517,
      1947304447,
      102085387
    ],
    "wof:country": "US",
    "wof:created": 1791130545,
    "wof:geomhash": "4d8eca8dfd12d13a56951180b27dbf13",
    "wof:hierarchy": [
      {
        "building_id": 1947304067,
        "campus_id": 102527513,
        "concourse_id": 1947304511,
        "continent_id": 102191575,
        "country_id": 85633793,
        "county_id": 102087579,
        "custom_id": 2048507155,
        "flight_id": 2048507155,
        "locality_id": 85922583,
        "postalcode_id": 554784711,
        "region_id": 85688637,
        "venue_id": 1947304517,
        "wing_id": 1947304447
      },
      {
        "building_id": 1947304067,
        "campus_id": 102527513,
        "concourse_id": 1947304511,
        "continent_id": 102191575,
        "country_id": 85633793,
        "county_id": 102085387,
        "custom_id": 2048507155,
        "flight_id": 2048507155,
        "region_id": 85688637,
        "venue_id": 1947304517,
        "wing_id": 1947304447
      }
    ],
    "wof:id": 2048507155,
    "wof:involves": [
      102534097,
      102527513,
      1159285485,
      1947304517,
      1159283697
    ],
    "wof:lastmodified": 1791130545,
    "wof:name": "VA8083 (SFO-IAH)",
    "wof:parent_id": 1947304517,
    "wof:placetype": "custom",
    "wof:placetype_alt": [
      "flight"
    ],
    "wof:repo": "sfomuseum-data-flights-2026-10",
    "wof:superseded_by": [],
    "wof:supersedes": []
  },
  "bbox": [
    -122.370943,
    29.977186,
    -95.338444,
    37.61799
  ],
  "geometry": {"type":"MultiPoint","coordinates":[[-122.370943,37.61799],[-95.338444,29.977186]]}
}
