{
  "id": 2048541839,
  "type": "Feature",
  "properties": {
    "geom:area": 0,
    "geom:bbox": "-123.489970,37.219740,-122.409210,37.666620",
    "geom:latitude": 37.46071278303133,
    "geom:longitude": -122.95001904207483,
    "src:alt_label": "swim-takeoff",
    "src:geom": "swim",
    "swim:elevations": [
      288,
      443,
      730,
      1042,
      1162,
      1302,
      1591,
      2150,
      2288,
      2889,
      3096,
      3292,
      3379,
      3447,
      3595,
      3779,
      4041,
      4308,
      4570,
      4971,
      5126,
      5454,
      5507
    ],
    "swim:geom": "takeoff",
    "swim:timestamps": [
      1791381115,
      1791381126,
      1791381156,
      1791381197,
      1791381225,
      1791381251,
      1791381282,
      1791381326,
      1791381339,
      1791381383,
      1791381403,
      1791381442,
      1791381457,
      1791381480,
      1791381516,
      1791381546,
      1791381584,
      1791381610,
      1791381639,
      1791381684,
      1791381704,
      1791381747,
      1791381755
    ],
    "wof:geomhash": "74ebfaded0cf94e691a44dec77c5b99e",
    "wof:id": 2048541839,
    "wof:repo": "sfomuseum-data-flights-2026-10"
  },
  "bbox": [
    -123.48997,
    37.21974,
    -122.40921,
    37.66662
  ],
  "geometry": {"type":"LineString","coordinates":[[-122.40921,37.63257],[-122.41972,37.63719],[-122.44762,37.64995],[-122.48976,37.66662],[-122.5238,37.66163],[-122.55305,37.64213],[-122.59253,37.61983],[-122.65434,37.59246],[-122.67217,37.58461],[-122.73777,37.55661],[-122.76772,37.54441],[-122.82946,37.51902],[-122.85593,37.50755],[-122.89721,37.48911],[-122.96709,37.45758],[-123.0273,37.43027],[-123.10898,37.39292],[-123.16595,37.36698],[-123.22938,37.3384],[-123.32914,37.29382],[-123.37615,37.27231],[-123.47248,37.22785],[-123.48997,37.21974]]}
}
