{
  "id": 2048496353,
  "type": "Feature",
  "properties": {
    "geom:area": 0,
    "geom:bbox": "-122.365640,37.629810,-121.283630,38.111440",
    "geom:latitude": 37.88817709863816,
    "geom:longitude": -121.83322862896496,
    "src:alt_label": "swim-takeoff",
    "src:geom": "swim",
    "swim:elevations": [
      152,
      367,
      617,
      925,
      1186,
      1360,
      1653,
      2185,
      2461,
      3018,
      3113,
      3386,
      3601,
      4010,
      4407,
      4673,
      4867,
      5272,
      5506,
      5834,
      6037,
      6238,
      6478
    ],
    "swim:geom": "takeoff",
    "swim:timestamps": [
      1790935219,
      1790935242,
      1790935274,
      1790935304,
      1790935347,
      1790935361,
      1790935385,
      1790935427,
      1790935451,
      1790935494,
      1790935503,
      1790935549,
      1790935579,
      1790935614,
      1790935643,
      1790935674,
      1790935694,
      1790935734,
      1790935758,
      1790935795,
      1790935819,
      1790935839,
      1790935867
    ],
    "wof:geomhash": "bda70307700f0228b639e5defbd4657a",
    "wof:id": 2048496353,
    "wof:repo": "sfomuseum-data-flights-2026-10"
  },
  "bbox": [
    -122.36564,
    37.62981,
    -121.28363,
    38.11144
  ],
  "geometry": {"type":"LineString","coordinates":[[-122.36564,37.62981],[-122.35113,37.64382],[-122.32028,37.66041],[-122.28962,37.67761],[-122.2378,37.70504],[-122.21837,37.71494],[-122.18545,37.73237],[-122.12714,37.76257],[-122.09243,37.78095],[-122.02816,37.81428],[-122.01488,37.82105],[-121.94103,37.85776],[-121.88404,37.87977],[-121.81725,37.90543],[-121.75855,37.92832],[-121.69653,37.95228],[-121.6572,37.96754],[-121.57317,37.99994],[-121.52232,38.01957],[-121.44291,38.05035],[-121.39099,38.07027],[-121.34582,38.08759],[-121.28363,38.11144]]}
}
