{
  "id": 2048512231,
  "type": "Feature",
  "properties": {
    "geom:area": 0,
    "geom:bbox": "-122.385150,37.629330,-121.251930,37.991390",
    "geom:latitude": 37.93579662924207,
    "geom:longitude": -121.94089559438798,
    "src:alt_label": "swim-takeoff",
    "src:geom": "swim",
    "swim:elevations": [
      152,
      463,
      617,
      710,
      1033,
      1321,
      1607,
      2159,
      2201,
      2673,
      2979,
      3141,
      3530,
      3904,
      4005,
      4148,
      4257,
      4573,
      4902,
      5109,
      5473,
      5690,
      5750,
      6153,
      6241,
      6341,
      6430,
      6827,
      6910
    ],
    "swim:geom": "takeoff",
    "swim:timestamps": [
      1791152304,
      1791152329,
      1791152347,
      1791152374,
      1791152426,
      1791152450,
      1791152475,
      1791152517,
      1791152520,
      1791152572,
      1791152601,
      1791152613,
      1791152646,
      1791152697,
      1791152720,
      1791152752,
      1791152770,
      1791152802,
      1791152841,
      1791152871,
      1791152906,
      1791152935,
      1791152943,
      1791152992,
      1791153015,
      1791153031,
      1791153043,
      1791153083,
      1791153092
    ],
    "wof:geomhash": "7bc57d7b1007daa5fc50da65c9cc111d",
    "wof:id": 2048512231,
    "wof:repo": "sfomuseum-data-flights-2026-10"
  },
  "bbox": [
    -122.38515,
    37.62933,
    -121.25193,
    37.99139
  ],
  "geometry": {"type":"LineString","coordinates":[[-122.36572,37.62933],[-122.35026,37.64467],[-122.33755,37.65621],[-122.3163,37.67636],[-122.32889,37.73305],[-122.34472,37.76069],[-122.35977,37.79064],[-122.38402,37.83967],[-122.38515,37.84334],[-122.38394,37.91112],[-122.35575,37.94402],[-122.33637,37.94996],[-122.28119,37.96108],[-122.19029,37.97964],[-122.14561,37.9874],[-122.07838,37.98838],[-122.03942,37.98877],[-121.96793,37.98939],[-121.87783,37.98987],[-121.80685,37.99019],[-121.72142,37.99055],[-121.65028,37.99074],[-121.63243,37.99084],[-121.5094,37.99112],[-121.45139,37.99118],[-121.40969,37.99121],[-121.37836,37.99131],[-121.27506,37.99134],[-121.25193,37.99139]]}
}
