{
  "id": 2048560271,
  "type": "Feature",
  "properties": {
    "geom:area": 0,
    "geom:bbox": "-122.363420,37.632440,-121.254690,38.121280",
    "geom:latitude": 37.892685732810214,
    "geom:longitude": -121.81686501906034,
    "src:alt_label": "swim-takeoff",
    "src:geom": "swim",
    "swim:elevations": [
      183,
      405,
      581,
      1012,
      1062,
      1293,
      1381,
      1724,
      1787,
      2323,
      2669,
      3060,
      3198,
      3541,
      4006,
      4349,
      4556,
      4780,
      4938,
      5183,
      5411,
      5801,
      6099,
      6313,
      6478
    ],
    "swim:geom": "takeoff",
    "swim:timestamps": [
      1791573698,
      1791573716,
      1791573728,
      1791573774,
      1791573785,
      1791573833,
      1791573842,
      1791573874,
      1791573880,
      1791573922,
      1791573947,
      1791573983,
      1791573998,
      1791574034,
      1791574076,
      1791574100,
      1791574122,
      1791574162,
      1791574185,
      1791574218,
      1791574246,
      1791574280,
      1791574315,
      1791574346,
      1791574364
    ],
    "wof:geomhash": "07cc9196e3d4fc1bd1a4562ef19cfd47",
    "wof:id": 2048560271,
    "wof:repo": "sfomuseum-data-flights-2026-10"
  },
  "bbox": [
    -122.36342,
    37.63244,
    -121.25469,
    38.12128
  ],
  "geometry": {"type":"LineString","coordinates":[[-122.36342,37.63244],[-122.35224,37.64391],[-122.34211,37.64924],[-122.30344,37.67017],[-122.29316,37.67602],[-122.24104,37.70458],[-122.22946,37.71045],[-122.18551,37.7327],[-122.17714,37.73683],[-122.11855,37.76694],[-122.08378,37.78552],[-122.03045,37.81262],[-122.00725,37.82438],[-121.94596,37.84972],[-121.87109,37.87902],[-121.82742,37.89652],[-121.78639,37.9128],[-121.71004,37.94283],[-121.66101,37.96226],[-121.59015,37.98915],[-121.52793,38.01427],[-121.45243,38.0445],[-121.37161,38.07611],[-121.29789,38.10466],[-121.25469,38.12128]]}
}
