{
  "id": 2048484811,
  "type": "Feature",
  "properties": {
    "geom:area": 0,
    "geom:bbox": "-122.358570,36.735720,-121.887390,37.611720",
    "geom:latitude": 37.21599937960635,
    "geom:longitude": -122.07285528500971,
    "src:alt_label": "swim-approach",
    "src:geom": "swim",
    "swim:elevations": [
      5283,
      5009,
      4827,
      4675,
      4175,
      4136,
      3899,
      3534,
      3237,
      3044,
      2840,
      2742,
      2609,
      2502,
      2307,
      2132,
      1848,
      1829,
      1825,
      1405,
      1259,
      882,
      795,
      617,
      349,
      219,
      136,
      0
    ],
    "swim:geom": "approach",
    "swim:timestamps": [
      1790859802,
      1790859835,
      1790859856,
      1790859873,
      1790859928,
      1790859933,
      1790859962,
      1790860008,
      1790860044,
      1790860077,
      1790860108,
      1790860131,
      1790860164,
      1790860180,
      1790860214,
      1790860240,
      1790860287,
      1790860313,
      1790860320,
      1790860378,
      1790860395,
      1790860434,
      1790860454,
      1790860496,
      1790860527,
      1790860550,
      1790860568,
      1790860594
    ],
    "wof:geomhash": "8741ebd821f5572c7e9d5c9a1ae96a54",
    "wof:id": 2048484811,
    "wof:repo": "sfomuseum-data-flights-2026-10"
  },
  "bbox": [
    -122.35857,
    36.73572,
    -121.88739,
    37.61172
  ],
  "geometry": {"type":"LineString","coordinates":[[-121.88739,36.73572],[-121.90666,36.7864],[-121.91593,36.81943],[-121.92325,36.84529],[-121.94664,36.92932],[-121.94868,36.93678],[-121.964,36.97987],[-121.98984,37.04624],[-122.00941,37.09647],[-122.02738,37.14234],[-122.04366,37.18392],[-122.05494,37.21261],[-122.07089,37.25309],[-122.07873,37.27328],[-122.09486,37.3142],[-122.10676,37.34434],[-122.12752,37.40035],[-122.13765,37.43014],[-122.14077,37.43921],[-122.171,37.49884],[-122.18283,37.51605],[-122.21349,37.55074],[-122.23626,37.55942],[-122.27738,37.57769],[-122.30499,37.58917],[-122.32495,37.59754],[-122.33854,37.6033],[-122.35857,37.61172]]}
}
