{
  "id": 2048510711,
  "type": "Feature",
  "properties": {
    "geom:area": 0,
    "geom:bbox": "-122.360070,36.718280,-121.875380,37.614780",
    "geom:latitude": 37.22536970948389,
    "geom:longitude": -122.06267185159454,
    "src:alt_label": "swim-approach",
    "src:geom": "swim",
    "swim:elevations": [
      5609,
      5589,
      5088,
      4682,
      4376,
      4047,
      3932,
      3750,
      3488,
      3138,
      3012,
      2757,
      2555,
      2439,
      2350,
      2199,
      2008,
      1807,
      1529,
      1251,
      1185,
      1096,
      968,
      921,
      650,
      555,
      301,
      244,
      175,
      164,
      66,
      198
    ],
    "swim:geom": "approach",
    "swim:timestamps": [
      1791098277,
      1791098281,
      1791098321,
      1791098354,
      1791098381,
      1791098414,
      1791098426,
      1791098444,
      1791098469,
      1791098507,
      1791098546,
      1791098578,
      1791098604,
      1791098628,
      1791098664,
      1791098696,
      1791098727,
      1791098747,
      1791098774,
      1791098805,
      1791098848,
      1791098866,
      1791098898,
      1791098910,
      1791098952,
      1791098975,
      1791099026,
      1791099041,
      1791099057,
      1791099060,
      1791099086,
      1791099104
    ],
    "wof:geomhash": "d251f2307aad2fa69f4ed022df3f069d",
    "wof:id": 2048510711,
    "wof:repo": "sfomuseum-data-flights-2026-10"
  },
  "bbox": [
    -122.36007,
    36.71828,
    -121.87538,
    37.61478
  ],
  "geometry": {"type":"LineString","coordinates":[[-121.87538,36.71828],[-121.87926,36.72407],[-121.90868,36.79421],[-121.92582,36.85496],[-121.93897,36.90239],[-121.95545,36.95861],[-121.96332,36.97827],[-121.97463,37.00724],[-121.98984,37.04626],[-122.01274,37.10506],[-122.03442,37.16066],[-122.05199,37.20552],[-122.06603,37.24133],[-122.07871,37.27384],[-122.08722,37.31877],[-122.08359,37.35746],[-122.08019,37.39308],[-122.07845,37.41591],[-122.08269,37.4462],[-122.09532,37.47926],[-122.12009,37.52017],[-122.1347,37.53512],[-122.1683,37.55321],[-122.1838,37.55812],[-122.23282,37.57402],[-122.25637,37.58165],[-122.30369,37.59557],[-122.31533,37.59897],[-122.32719,37.60245],[-122.32941,37.60304],[-122.34787,37.60964],[-122.36007,37.61478]]}
}
