{
  "id": 2048503477,
  "type": "Feature",
  "properties": {
    "geom:area": 0,
    "geom:bbox": "-122.526970,36.719140,-121.439140,37.735900",
    "geom:latitude": 37.25714046144849,
    "geom:longitude": -122.09204544107394,
    "src:alt_label": "swim-takeoff",
    "src:geom": "swim",
    "swim:elevations": [
      122,
      268,
      621,
      757,
      945,
      1294,
      1827,
      1954,
      2679,
      2988,
      3048,
      3096,
      3758,
      3978,
      4574,
      4768,
      4888,
      5356,
      5762,
      6067,
      6514,
      6804,
      7448,
      7759,
      8169,
      8491,
      8832,
      8841,
      8839,
      8839,
      8839,
      8839,
      8839,
      8839,
      8839
    ],
    "swim:geom": "takeoff",
    "swim:timestamps": [
      1791035449,
      1791035464,
      1791035513,
      1791035536,
      1791035567,
      1791035594,
      1791035635,
      1791035644,
      1791035695,
      1791035718,
      1791035750,
      1791035767,
      1791035816,
      1791035831,
      1791035871,
      1791035883,
      1791035892,
      1791035924,
      1791035952,
      1791035975,
      1791036011,
      1791036030,
      1791036085,
      1791036108,
      1791036137,
      1791036173,
      1791036206,
      1791036231,
      1791036261,
      1791036281,
      1791036317,
      1791036336,
      1791036372,
      1791036401,
      1791036444
    ],
    "wof:geomhash": "1625e418a6f1506f942a6b25449ac8f3",
    "wof:id": 2048503477,
    "wof:repo": "sfomuseum-data-flights-2026-10"
  },
  "bbox": [
    -122.52697,
    36.71914,
    -121.43914,
    37.7359
  ],
  "geometry": {"type":"LineString","coordinates":[[-122.36978,37.62789],[-122.3636,37.6379],[-122.36145,37.67878],[-122.37019,37.70096],[-122.41024,37.71978],[-122.45046,37.73351],[-122.51351,37.7359],[-122.52492,37.72832],[-122.52697,37.66581],[-122.51619,37.63665],[-122.50066,37.59451],[-122.49184,37.57054],[-122.46581,37.50009],[-122.45113,37.47914],[-122.39403,37.43605],[-122.37587,37.42257],[-122.36302,37.41299],[-122.31449,37.37664],[-122.27257,37.34546],[-122.23504,37.31763],[-122.17711,37.27479],[-122.14667,37.25214],[-122.05585,37.1842],[-122.01662,37.1548],[-121.96869,37.11897],[-121.90606,37.07202],[-121.84977,37.02974],[-121.80566,36.99699],[-121.75377,36.95767],[-121.7192,36.9315],[-121.65665,36.88473],[-121.62415,36.86051],[-121.56175,36.81259],[-121.51228,36.77453],[-121.43914,36.71914]]}
}
