{
  "id": 2048543687,
  "type": "Feature",
  "properties": {
    "geom:area": 0,
    "geom:bbox": "-122.347960,37.491800,-121.258910,37.609720",
    "geom:latitude": 37.54584972483676,
    "geom:longitude": -121.80805533883351,
    "src:alt_label": "swim-approach",
    "src:geom": "swim",
    "swim:elevations": [
      4739,
      4523,
      4413,
      4156,
      3788,
      3488,
      3317,
      3031,
      2876,
      2757,
      2466,
      2360,
      2091,
      2017,
      1973,
      1790,
      1713,
      1419,
      1330,
      1240,
      1187,
      977,
      945,
      670,
      635,
      389,
      283,
      127,
      61
    ],
    "swim:geom": "approach",
    "swim:timestamps": [
      1791461692,
      1791461719,
      1791461730,
      1791461762,
      1791461806,
      1791461844,
      1791461868,
      1791461907,
      1791461926,
      1791461944,
      1791461989,
      1791462005,
      1791462048,
      1791462067,
      1791462079,
      1791462116,
      1791462127,
      1791462178,
      1791462194,
      1791462212,
      1791462223,
      1791462268,
      1791462274,
      1791462326,
      1791462335,
      1791462382,
      1791462408,
      1791462447,
      1791462463
    ],
    "wof:geomhash": "7ceb1a393dbb809f85e769872418d356",
    "wof:id": 2048543687,
    "wof:repo": "sfomuseum-data-flights-2026-10"
  },
  "bbox": [
    -122.34796,
    37.4918,
    -121.25891,
    37.60972
  ],
  "geometry": {"type":"LineString","coordinates":[[-121.25891,37.59327],[-121.31489,37.58672],[-121.33763,37.58422],[-121.40206,37.57688],[-121.48804,37.56683],[-121.56088,37.55829],[-121.60275,37.55342],[-121.67077,37.53967],[-121.70207,37.53221],[-121.7306,37.52544],[-121.80051,37.5087],[-121.82436,37.50299],[-121.89036,37.4918],[-121.91948,37.49231],[-121.93782,37.49278],[-121.99274,37.49717],[-122.00774,37.5015],[-122.0722,37.52219],[-122.0911,37.52826],[-122.1104,37.53454],[-122.12152,37.5381],[-122.16698,37.55278],[-122.17302,37.55473],[-122.22686,37.57213],[-122.2368,37.57537],[-122.28395,37.58965],[-122.30702,37.59652],[-122.33727,37.60548],[-122.34796,37.60972]]}
}
