{
  "id": 2048542473,
  "type": "Feature",
  "properties": {
    "geom:area": 0,
    "geom:bbox": "-123.499750,37.629280,-122.395220,37.732180",
    "geom:latitude": 37.698568044983254,
    "geom:longitude": -122.94366072060515,
    "src:alt_label": "swim-takeoff",
    "src:geom": "swim",
    "swim:elevations": [
      183,
      580,
      682,
      791,
      868,
      1029,
      1489,
      1763,
      2136,
      2295,
      2675,
      2839,
      3190,
      3263,
      3377,
      3516,
      3839,
      4142,
      4473,
      4562,
      4955,
      5111
    ],
    "swim:geom": "takeoff",
    "swim:timestamps": [
      1791420913,
      1791420946,
      1791420958,
      1791420982,
      1791420997,
      1791421024,
      1791421070,
      1791421103,
      1791421136,
      1791421154,
      1791421190,
      1791421205,
      1791421246,
      1791421261,
      1791421291,
      1791421330,
      1791421364,
      1791421396,
      1791421433,
      1791421442,
      1791421490,
      1791421508
    ],
    "wof:geomhash": "7f1fc983c5b827fb6bba915fee5022fa",
    "wof:id": 2048542473,
    "wof:repo": "sfomuseum-data-flights-2026-10"
  },
  "bbox": [
    -123.49975,
    37.62928,
    -122.39522,
    37.73218
  ],
  "geometry": {"type":"LineString","coordinates":[[-122.39522,37.62928],[-122.43036,37.64374],[-122.44304,37.64911],[-122.47003,37.66066],[-122.48818,37.66817],[-122.52653,37.67654],[-122.59991,37.68065],[-122.6541,37.68371],[-122.70948,37.68729],[-122.7404,37.68905],[-122.80315,37.69266],[-122.82948,37.69427],[-122.90433,37.69863],[-122.933,37.70046],[-122.99355,37.70411],[-123.07945,37.70895],[-123.15776,37.71337],[-123.23132,37.7175],[-123.31794,37.72229],[-123.33954,37.72347],[-123.45568,37.72981],[-123.49975,37.73218]]}
}
