{
  "id": 2048527707,
  "type": "Feature",
  "properties": {
    "date:inception_lower": "2026-10-06",
    "date:inception_upper": "2026-10-06",
    "edtf:cessation": "",
    "edtf:inception": "2026-10-06",
    "flysfo:actual_timestamp": -1,
    "flysfo:airline": "SN",
    "flysfo:base_airline": "",
    "flysfo:base_flight_number": "3716",
    "flysfo:date": "2026-10-06",
    "flysfo:estimated_timestamp": 1791340560,
    "flysfo:event": "A",
    "flysfo:flight_number": "SN9106",
    "flysfo:gate": "G3",
    "flysfo:journey": "LHR-SFO",
    "flysfo:scheduled_timestamp": 1791339300,
    "flysfo:timestamp": 1791340560,
    "geom:area": 0,
    "geom:bbox": "-122.370943,37.617990,-0.450443,51.470087",
    "geom:latitude": 44.5440385,
    "geom:longitude": -61.410693,
    "iata:airline": "SN",
    "iata:base_airline": "",
    "icao:airline": "BEL",
    "icao:base_airline": "ACA",
    "lbl:latitude": 37.617458,
    "lbl:longitude": -122.391079,
    "sfomuseum:airline_id": 1377675597,
    "sfomuseum:arrival_id": 102527513,
    "sfomuseum:base_flight_id": "20261006-A-ACA-3716",
    "sfomuseum:departure_id": 102556703,
    "sfomuseum:flight_id": "20261006-A-BEL-9106",
    "sfomuseum:flight_number": [
      "BEL9106",
      "SN9106"
    ],
    "sfomuseum:placetype": "flight",
    "src:geom": "flysfo",
    "wof:belongsto": [
      1947304067,
      102527513,
      1947304129,
      102191575,
      85633793,
      102087579,
      85922583,
      554784711,
      85688637,
      1947304131,
      1947304069,
      102085387
    ],
    "wof:country": "US",
    "wof:created": 1791389055,
    "wof:geomhash": "c7bf5337358552a3a60caed0c1e9ea63",
    "wof:hierarchy": [
      {
        "building_id": 1947304067,
        "campus_id": 102527513,
        "concourse_id": 1947304129,
        "continent_id": 102191575,
        "country_id": 85633793,
        "county_id": 102087579,
        "custom_id": 2048527707,
        "flight_id": 2048527707,
        "locality_id": 85922583,
        "postalcode_id": 554784711,
        "region_id": 85688637,
        "venue_id": 1947304131,
        "wing_id": 1947304069
      },
      {
        "building_id": 1947304067,
        "campus_id": 102527513,
        "concourse_id": 1947304129,
        "continent_id": 102191575,
        "country_id": 85633793,
        "county_id": 102085387,
        "custom_id": 2048527707,
        "flight_id": 2048527707,
        "region_id": 85688637,
        "venue_id": 1947304131,
        "wing_id": 1947304069
      }
    ],
    "wof:id": 2048527707,
    "wof:involves": [
      102527513,
      102556703,
      1377675597,
      1947304131,
      1159283597
    ],
    "wof:lastmodified": 1791389055,
    "wof:name": "SN9106 (LHR-SFO)",
    "wof:parent_id": 1947304131,
    "wof:placetype": "custom",
    "wof:placetype_alt": [
      "flight"
    ],
    "wof:repo": "sfomuseum-data-flights-2026-10",
    "wof:superseded_by": [],
    "wof:supersedes": []
  },
  "bbox": [
    -122.370943,
    37.61799,
    -0.450443,
    51.470087
  ],
  "geometry": {"type":"MultiPoint","coordinates":[[-0.450443,51.470087],[-122.370943,37.61799]]}
}
