{
  "id": 2048537847,
  "type": "Feature",
  "properties": {
    "geom:area": 0,
    "geom:bbox": "-122.358370,37.491420,-121.275920,37.614310",
    "geom:latitude": 37.54572954069786,
    "geom:longitude": -121.82201512886544,
    "src:alt_label": "swim-approach",
    "src:geom": "swim",
    "swim:elevations": [
      4759,
      4649,
      4356,
      4022,
      3811,
      3793,
      3434,
      3319,
      3110,
      2990,
      2760,
      2584,
      2526,
      2390,
      2105,
      1983,
      1960,
      1888,
      1734,
      1703,
      1373,
      1211,
      1097,
      968,
      935,
      898,
      700,
      545,
      451,
      304,
      183,
      179,
      162,
      120,
      73
    ],
    "swim:geom": "approach",
    "swim:timestamps": [
      1791362398,
      1791362412,
      1791362444,
      1791362486,
      1791362518,
      1791362523,
      1791362573,
      1791362592,
      1791362626,
      1791362654,
      1791362696,
      1791362721,
      1791362738,
      1791362766,
      1791362817,
      1791362846,
      1791362856,
      1791362873,
      1791362905,
      1791362910,
      1791362967,
      1791362996,
      1791363015,
      1791363045,
      1791363054,
      1791363061,
      1791363111,
      1791363146,
      1791363174,
      1791363206,
      1791363234,
      1791363237,
      1791363241,
      1791363248,
      1791363275
    ],
    "wof:geomhash": "59e8ea101c6cd9c980b41c80d266b4b9",
    "wof:id": 2048537847,
    "wof:repo": "sfomuseum-data-flights-2026-10"
  },
  "bbox": [
    -122.35837,
    37.49142,
    -121.27592,
    37.61431
  ],
  "geometry": {"type":"LineString","coordinates":[[-121.27592,37.59098],[-121.29976,37.58804],[-121.35126,37.58257],[-121.41802,37.57498],[-121.46522,37.56979],[-121.47265,37.56886],[-121.54773,37.55963],[-121.57625,37.55635],[-121.62604,37.55019],[-121.66611,37.54081],[-121.72304,37.52717],[-121.75706,37.51905],[-121.78043,37.51358],[-121.81755,37.50471],[-121.88629,37.49142],[-121.92776,37.49229],[-121.94055,37.4926],[-121.96532,37.49337],[-122.00761,37.50102],[-122.01366,37.50309],[-122.08487,37.52596],[-122.11871,37.53694],[-122.13873,37.54355],[-122.16929,37.55352],[-122.17764,37.55627],[-122.18375,37.55822],[-122.22439,37.57127],[-122.25258,37.58036],[-122.2753,37.58698],[-122.30237,37.59511],[-122.32648,37.60217],[-122.32908,37.60296],[-122.3324,37.60401],[-122.33804,37.60577],[-122.35837,37.61431]]}
}
