{
  "id": 2048506961,
  "type": "Feature",
  "properties": {
    "geom:area": 0,
    "geom:bbox": "-122.456570,36.770570,-121.342770,37.705640",
    "geom:latitude": 37.242971306223154,
    "geom:longitude": -121.98682142688793,
    "src:alt_label": "swim-takeoff",
    "src:geom": "swim",
    "swim:elevations": [
      122,
      500,
      795,
      983,
      1121,
      1431,
      1484,
      1844,
      2429,
      2825,
      3173,
      3658,
      3723,
      3960,
      4134,
      4616,
      4789,
      5166,
      5423,
      5600,
      5975,
      6088,
      6382,
      6727,
      6864,
      7041,
      7269,
      7696,
      7916,
      8063,
      8158
    ],
    "swim:geom": "takeoff",
    "swim:timestamps": [
      1791031377,
      1791031407,
      1791031436,
      1791031453,
      1791031476,
      1791031524,
      1791031532,
      1791031565,
      1791031604,
      1791031631,
      1791031659,
      1791031703,
      1791031718,
      1791031761,
      1791031779,
      1791031828,
      1791031845,
      1791031884,
      1791031915,
      1791031934,
      1791031975,
      1791031991,
      1791032025,
      1791032065,
      1791032083,
      1791032106,
      1791032141,
      1791032202,
      1791032237,
      1791032258,
      1791032280
    ],
    "wof:geomhash": "80bba93fdf2dbc948c9a104e66163cbf",
    "wof:id": 2048506961,
    "wof:repo": "sfomuseum-data-flights-2026-10"
  },
  "bbox": [
    -122.45657,
    36.77057,
    -121.34277,
    37.70564
  ],
  "geometry": {"type":"LineString","coordinates":[[-122.36756,37.63086],[-122.36258,37.65334],[-122.36163,37.67723],[-122.36473,37.69118],[-122.38147,37.70564],[-122.43285,37.68734],[-122.43546,37.67847],[-122.44368,37.63737],[-122.45391,37.58874],[-122.45657,37.55338],[-122.42736,37.52554],[-122.36993,37.48667],[-122.34876,37.47201],[-122.28311,37.42652],[-122.25318,37.40584],[-122.17199,37.34986],[-122.14304,37.32985],[-122.0767,37.28395],[-122.02308,37.24675],[-121.98956,37.22346],[-121.91656,37.1728],[-121.88832,37.15302],[-121.82631,37.10972],[-121.75472,37.05959],[-121.72007,37.03538],[-121.67888,37.00644],[-121.61182,36.95934],[-121.4958,36.87873],[-121.4271,36.83006],[-121.38523,36.7997],[-121.34277,36.77057]]}
}
