{
  "id": 2048543081,
  "type": "Feature",
  "properties": {
    "geom:area": 0,
    "geom:bbox": "-122.354490,37.491460,-121.257030,37.612400",
    "geom:latitude": 37.54613787573164,
    "geom:longitude": -121.81059070483457,
    "src:alt_label": "swim-approach",
    "src:geom": "swim",
    "swim:elevations": [
      4706,
      4643,
      4357,
      4053,
      3751,
      3666,
      3592,
      3404,
      3135,
      2959,
      2713,
      2429,
      2367,
      2241,
      2135,
      2098,
      1993,
      1858,
      1588,
      1489,
      1223,
      1090,
      827,
      684,
      572,
      379,
      280,
      85,
      31
    ],
    "swim:geom": "approach",
    "swim:timestamps": [
      1791451588,
      1791451598,
      1791451631,
      1791451667,
      1791451706,
      1791451718,
      1791451728,
      1791451751,
      1791451789,
      1791451812,
      1791451847,
      1791451888,
      1791451897,
      1791451916,
      1791451940,
      1791451957,
      1791451998,
      1791452017,
      1791452068,
      1791452091,
      1791452125,
      1791452143,
      1791452172,
      1791452211,
      1791452232,
      1791452273,
      1791452292,
      1791452336,
      1791452352
    ],
    "wof:geomhash": "8343e6f0386f56a06bcc611cb1def389",
    "wof:id": 2048543081,
    "wof:repo": "sfomuseum-data-flights-2026-10"
  },
  "bbox": [
    -122.35449,
    37.49146,
    -121.25703,
    37.6124
  ],
  "geometry": {"type":"LineString","coordinates":[[-121.25703,37.59355],[-121.27731,37.59076],[-121.34428,37.58331],[-121.41586,37.5754],[-121.49064,37.56663],[-121.51437,37.56367],[-121.5323,37.56151],[-121.57612,37.55629],[-121.64318,37.5463],[-121.68156,37.53716],[-121.7411,37.52302],[-121.80737,37.50711],[-121.82244,37.50351],[-121.85309,37.49617],[-121.89266,37.49146],[-121.91994,37.49228],[-121.98099,37.49415],[-122.00605,37.50003],[-122.07085,37.52104],[-122.09953,37.53068],[-122.14096,37.54453],[-122.16015,37.55066],[-122.18995,37.56006],[-122.22962,37.57307],[-122.25101,37.5801],[-122.28917,37.59102],[-122.30517,37.59566],[-122.34201,37.60763],[-122.35449,37.6124]]}
}
