{
  "id": 2048560165,
  "type": "Feature",
  "properties": {
    "geom:area": 0,
    "geom:bbox": "-122.677770,36.718440,-122.283260,37.688020",
    "geom:latitude": 37.23269656891969,
    "geom:longitude": -122.52764865595387,
    "src:alt_label": "swim-takeoff",
    "src:geom": "swim",
    "swim:elevations": [
      241,
      343,
      765,
      1104,
      1433,
      1615,
      2076,
      2582,
      3312,
      3594,
      4067,
      4346,
      4742,
      5004,
      5219,
      5750,
      5958,
      6423,
      6732,
      7114,
      7412,
      7553,
      8010,
      8180,
      8357,
      8611,
      8827,
      8967
    ],
    "swim:geom": "takeoff",
    "swim:timestamps": [
      1791569127,
      1791569136,
      1791569166,
      1791569193,
      1791569246,
      1791569262,
      1791569290,
      1791569320,
      1791569363,
      1791569382,
      1791569420,
      1791569437,
      1791569465,
      1791569499,
      1791569529,
      1791569570,
      1791569585,
      1791569625,
      1791569654,
      1791569689,
      1791569722,
      1791569738,
      1791569787,
      1791569809,
      1791569832,
      1791569871,
      1791569893,
      1791569910
    ],
    "wof:geomhash": "c21b1d44bb2299f4babbc0054be0fe20",
    "wof:id": 2048560165,
    "wof:repo": "sfomuseum-data-flights-2026-10"
  },
  "bbox": [
    -122.67777,
    36.71844,
    -122.28326,
    37.68802
  ],
  "geometry": {"type":"LineString","coordinates":[[-122.36289,37.63757],[-122.36123,37.64432],[-122.36202,37.66836],[-122.36457,37.68802],[-122.42265,37.68154],[-122.44256,37.66872],[-122.47896,37.64621],[-122.51788,37.6216],[-122.57428,37.58664],[-122.59176,37.56473],[-122.59378,37.51246],[-122.59215,37.48631],[-122.58973,37.44605],[-122.60303,37.39451],[-122.61775,37.34347],[-122.6372,37.27398],[-122.64522,37.24626],[-122.66591,37.17547],[-122.67777,37.12269],[-122.64295,37.06343],[-122.58981,37.01553],[-122.56448,36.99149],[-122.48693,36.91617],[-122.4522,36.88268],[-122.41323,36.845],[-122.34915,36.78283],[-122.31257,36.74718],[-122.28326,36.71844]]}
}
