{
  "id": 2048552987,
  "type": "Feature",
  "properties": {
    "geom:area": 0,
    "geom:bbox": "-122.355560,36.722640,-121.879000,37.610550",
    "geom:latitude": 37.209705265317446,
    "geom:longitude": -122.06905557169617,
    "src:alt_label": "swim-approach",
    "src:geom": "swim",
    "swim:elevations": [
      5328,
      5218,
      4867,
      4457,
      4162,
      3943,
      3619,
      3387,
      3195,
      3080,
      2925,
      2848,
      2603,
      2249,
      2162,
      1870,
      1615,
      1543,
      1364,
      1134,
      976,
      796,
      636,
      602,
      395,
      271,
      270,
      217,
      94,
      27
    ],
    "swim:geom": "approach",
    "swim:timestamps": [
      1791550438,
      1791550450,
      1791550484,
      1791550526,
      1791550557,
      1791550580,
      1791550613,
      1791550638,
      1791550659,
      1791550691,
      1791550727,
      1791550742,
      1791550776,
      1791550826,
      1791550838,
      1791550877,
      1791550917,
      1791550925,
      1791550972,
      1791551018,
      1791551041,
      1791551090,
      1791551123,
      1791551135,
      1791551188,
      1791551216,
      1791551223,
      1791551231,
      1791551264,
      1791551283
    ],
    "wof:geomhash": "348465e4534b25fd51907c95b1da2bac",
    "wof:id": 2048552987,
    "wof:repo": "sfomuseum-data-flights-2026-10"
  },
  "bbox": [
    -122.35556,
    36.72264,
    -121.879,
    37.61055
  ],
  "geometry": {"type":"LineString","coordinates":[[-121.879,36.72264],[-121.89088,36.7425],[-121.91034,36.79974],[-121.92981,36.86961],[-121.94427,36.9201],[-121.95549,36.9579],[-121.97539,37.0095],[-121.99039,37.04816],[-122.00259,37.07921],[-122.02143,37.12698],[-122.04033,37.17505],[-122.04731,37.1931],[-122.06358,37.2348],[-122.08666,37.2935],[-122.09206,37.30739],[-122.10944,37.35129],[-122.12632,37.39655],[-122.12935,37.40558],[-122.14605,37.45349],[-122.15969,37.49393],[-122.16598,37.51276],[-122.19768,37.54431],[-122.23029,37.55789],[-122.24146,37.56258],[-122.28345,37.58027],[-122.30534,37.58943],[-122.31072,37.59167],[-122.31708,37.59439],[-122.34162,37.60466],[-122.35556,37.61055]]}
}
