{
  "id": 2048520475,
  "type": "Feature",
  "properties": {
    "date:inception_lower": "2026-10-05",
    "date:inception_upper": "2026-10-05",
    "edtf:cessation": "",
    "edtf:inception": "2026-10-05",
    "flysfo:actual_timestamp": -1,
    "flysfo:airline": "UA",
    "flysfo:base_airline": "",
    "flysfo:base_flight_number": "9528",
    "flysfo:date": "2026-10-05",
    "flysfo:estimated_timestamp": 1791239880,
    "flysfo:event": "A",
    "flysfo:flight_number": "UA1754",
    "flysfo:gate": "F15",
    "flysfo:journey": "MFR-SFO",
    "flysfo:scheduled_timestamp": 1791239700,
    "flysfo:timestamp": 1791239880,
    "geom:area": 0,
    "geom:bbox": "-122.874456,37.617990,-122.370943,42.369651",
    "geom:latitude": 39.9938205,
    "geom:longitude": -122.6226995,
    "iata:airline": "UA",
    "iata:base_airline": "",
    "icao:airline": "UAL",
    "icao:base_airline": "ANZ",
    "lbl:latitude": 37.620818,
    "lbl:longitude": -122.389182,
    "sfomuseum:airline_id": 1159285413,
    "sfomuseum:arrival_id": 102527513,
    "sfomuseum:base_flight_id": "20261005-A-ANZ-9528",
    "sfomuseum:departure_id": 102527187,
    "sfomuseum:flight_id": "20261005-A-UAL-1754",
    "sfomuseum:flight_number": [
      "UAL1754",
      "UA1754"
    ],
    "sfomuseum:placetype": "flight",
    "src:geom": "flysfo",
    "wof:belongsto": [
      1947304067,
      102527513,
      1947304451,
      102191575,
      85633793,
      102087579,
      85922583,
      554784711,
      85688637,
      1947304455,
      1947304447,
      102085387
    ],
    "wof:country": "US",
    "wof:created": 1791302885,
    "wof:geomhash": "10bf27aabb5200ef4863b11f6c2a5d60",
    "wof:hierarchy": [
      {
        "building_id": 1947304067,
        "campus_id": 102527513,
        "concourse_id": 1947304451,
        "continent_id": 102191575,
        "country_id": 85633793,
        "county_id": 102087579,
        "custom_id": 2048520475,
        "flight_id": 2048520475,
        "locality_id": 85922583,
        "postalcode_id": 554784711,
        "region_id": 85688637,
        "venue_id": 1947304455,
        "wing_id": 1947304447
      },
      {
        "building_id": 1947304067,
        "campus_id": 102527513,
        "concourse_id": 1947304451,
        "continent_id": 102191575,
        "country_id": 85633793,
        "county_id": 102085387,
        "custom_id": 2048520475,
        "flight_id": 2048520475,
        "region_id": 85688637,
        "venue_id": 1947304455,
        "wing_id": 1947304447
      }
    ],
    "wof:id": 2048520475,
    "wof:involves": [
      102527513,
      102527187,
      1159285413,
      1947304455,
      1159283697
    ],
    "wof:lastmodified": 1791302885,
    "wof:name": "UA1754 (MFR-SFO)",
    "wof:parent_id": 1947304455,
    "wof:placetype": "custom",
    "wof:placetype_alt": [
      "flight"
    ],
    "wof:repo": "sfomuseum-data-flights-2026-10",
    "wof:superseded_by": [],
    "wof:supersedes": []
  },
  "bbox": [
    -122.874456,
    37.61799,
    -122.370943,
    42.369651
  ],
  "geometry": {"type":"MultiPoint","coordinates":[[-122.874456,42.369651],[-122.370943,37.61799]]}
}
