{
  "id": 2048506127,
  "type": "Feature",
  "properties": {
    "geom:area": 0,
    "geom:bbox": "-122.365970,37.629080,-121.268780,37.953430",
    "geom:latitude": 37.817427743069025,
    "geom:longitude": -121.82786504767436,
    "src:alt_label": "swim-takeoff",
    "src:geom": "swim",
    "swim:elevations": [
      122,
      368,
      613,
      909,
      1257,
      1473,
      1915,
      2135,
      2562,
      2946,
      3367,
      3482,
      4206,
      4452,
      5010,
      5487,
      5876,
      6156,
      6514,
      6836,
      7015,
      7391
    ],
    "swim:geom": "takeoff",
    "swim:timestamps": [
      1791020591,
      1791020613,
      1791020647,
      1791020674,
      1791020717,
      1791020735,
      1791020775,
      1791020792,
      1791020823,
      1791020851,
      1791020901,
      1791020912,
      1791020964,
      1791020983,
      1791021021,
      1791021054,
      1791021081,
      1791021104,
      1791021137,
      1791021164,
      1791021180,
      1791021212
    ],
    "wof:geomhash": "f85c50d6413040c175aeb079736a1e4f",
    "wof:id": 2048506127,
    "wof:repo": "sfomuseum-data-flights-2026-10"
  },
  "bbox": [
    -122.36597,
    37.62908,
    -121.26878,
    37.95343
  ],
  "geometry": {"type":"LineString","coordinates":[[-122.36597,37.62908],[-122.35239,37.64236],[-122.32236,37.65829],[-122.29481,37.67415],[-122.24615,37.70136],[-122.22252,37.71346],[-122.16758,37.741],[-122.14203,37.75061],[-122.09231,37.76194],[-122.04651,37.7729],[-121.95787,37.79412],[-121.93716,37.79898],[-121.83185,37.82372],[-121.79344,37.83265],[-121.71054,37.85189],[-121.63964,37.86837],[-121.57946,37.88234],[-121.52638,37.89458],[-121.45047,37.91193],[-121.38451,37.92695],[-121.34698,37.93554],[-121.26878,37.95343]]}
}
