{
  "id": 2048543781,
  "type": "Feature",
  "properties": {
    "date:cessation_lower": "2026-10-08",
    "date:cessation_upper": "2026-10-08",
    "date:inception_lower": "1970-01-01",
    "date:inception_upper": "1970-01-01",
    "edtf:cessation": "2026-10-08T08:30:40-07:00",
    "edtf:inception": "1970-01-01T00:00:00Z",
    "flysfo:actual_timestamp": -1,
    "flysfo:airline": "NH",
    "flysfo:base_airline": "",
    "flysfo:base_flight_number": "7939",
    "flysfo:date": "2026-10-08",
    "flysfo:estimated_timestamp": 1791498420,
    "flysfo:event": "A",
    "flysfo:flight_number": "NH108",
    "flysfo:gate": "G2",
    "flysfo:journey": "HND-SFO",
    "flysfo:scheduled_timestamp": 1791502200,
    "flysfo:timestamp": 1791502200,
    "geom:area": 0,
    "geom:bbox": "-122.370943,35.554085,139.775638,37.617990",
    "geom:latitude": 36.5860375,
    "geom:longitude": 8.702347499999995,
    "iata:airline": "NH",
    "iata:base_airline": "",
    "icao:aircraft": "B77W",
    "icao:airline": "ANA",
    "icao:base_airline": "UAL",
    "lbl:latitude": 37.617615,
    "lbl:longitude": -122.390247,
    "sfomuseum:aircraft_id": 1159289993,
    "sfomuseum:airline_id": 1159283875,
    "sfomuseum:arrival_id": 102527513,
    "sfomuseum:base_flight_id": "20261008-A-UAL-7939",
    "sfomuseum:departure_id": 102541591,
    "sfomuseum:flight_id": "20261008-A-ANA-108",
    "sfomuseum:flight_number": [
      "ANA108",
      "NH108"
    ],
    "sfomuseum:placetype": "flight",
    "src:geom": "flysfo",
    "src:geom_alt": [
      "swim-approach"
    ],
    "swim:tail_number": "JA790A",
    "wof:belongsto": [
      1947304067,
      102527513,
      1947304129,
      102191575,
      85633793,
      102087579,
      85922583,
      554784711,
      85688637,
      1947304141,
      1947304069,
      102085387
    ],
    "wof:country": "US",
    "wof:created": 1791561792,
    "wof:geomhash": "99c2bdbe61e95eb26a51b43b0c172358",
    "wof:hierarchy": [
      {
        "building_id": 1947304067,
        "campus_id": 102527513,
        "concourse_id": 1947304129,
        "continent_id": 102191575,
        "country_id": 85633793,
        "county_id": 102087579,
        "custom_id": 2048543781,
        "flight_id": 2048543781,
        "locality_id": 85922583,
        "postalcode_id": 554784711,
        "region_id": 85688637,
        "venue_id": 1947304141,
        "wing_id": 1947304069
      },
      {
        "building_id": 1947304067,
        "campus_id": 102527513,
        "concourse_id": 1947304129,
        "continent_id": 102191575,
        "country_id": 85633793,
        "county_id": 102085387,
        "custom_id": 2048543781,
        "flight_id": 2048543781,
        "region_id": 85688637,
        "venue_id": 1947304141,
        "wing_id": 1947304069
      }
    ],
    "wof:id": 2048543781,
    "wof:involves": [
      102541591,
      1159283875,
      1947304141,
      1159285413,
      1159289993,
      102527513
    ],
    "wof:lastmodified": 1791562773,
    "wof:name": "NH108 (HND-SFO)",
    "wof:parent_id": 1947304141,
    "wof:placetype": "custom",
    "wof:placetype_alt": [
      "flight"
    ],
    "wof:repo": "sfomuseum-data-flights-2026-10",
    "wof:superseded_by": [],
    "wof:supersedes": []
  },
  "bbox": [
    -122.370943,
    35.554085,
    139.775638,
    37.61799
  ],
  "geometry": {"type":"MultiPoint","coordinates":[[139.775638,35.554085],[-122.370943,37.61799]]}
}
