{
  "id": 2048498335,
  "type": "Feature",
  "properties": {
    "date:inception_lower": "2026-10-02",
    "date:inception_upper": "2026-10-02",
    "edtf:cessation": "",
    "edtf:inception": "2026-10-02",
    "flysfo:actual_timestamp": -1,
    "flysfo:airline": "UA",
    "flysfo:base_airline": "",
    "flysfo:base_flight_number": "5366",
    "flysfo:date": "2026-10-02",
    "flysfo:estimated_timestamp": 1790945940,
    "flysfo:event": "D",
    "flysfo:flight_number": "UA2091",
    "flysfo:gate": "E9",
    "flysfo:journey": "SFO-ORD",
    "flysfo:scheduled_timestamp": 1790946600,
    "flysfo:timestamp": 1790946600,
    "geom:area": 0,
    "geom:bbox": "-122.370943,37.617990,-87.894364,41.983038",
    "geom:latitude": 39.800514,
    "geom:longitude": -105.1326535,
    "iata:airline": "UA",
    "iata:base_airline": "",
    "icao:airline": "UAL",
    "icao:base_airline": "ACA",
    "lbl:latitude": 37.619124,
    "lbl:longitude": -122.383949,
    "sfomuseum:airline_id": 1159285413,
    "sfomuseum:arrival_id": 102533631,
    "sfomuseum:base_flight_id": "20261002-D-ACA-5366",
    "sfomuseum:departure_id": 102527513,
    "sfomuseum:flight_id": "20261002-D-UAL-2091",
    "sfomuseum:flight_number": [
      "UAL2091",
      "UA2091"
    ],
    "sfomuseum:placetype": "flight",
    "src:geom": "flysfo",
    "wof:belongsto": [
      1947304067,
      102527513,
      1947304511,
      102191575,
      85633793,
      102087579,
      85922583,
      554784711,
      85688637,
      1947304523,
      1947304447,
      102085387
    ],
    "wof:country": "US",
    "wof:created": 1791044155,
    "wof:geomhash": "7a75cc81bf790964b92a4927d3978f50",
    "wof:hierarchy": [
      {
        "building_id": 1947304067,
        "campus_id": 102527513,
        "concourse_id": 1947304511,
        "continent_id": 102191575,
        "country_id": 85633793,
        "county_id": 102087579,
        "custom_id": 2048498335,
        "flight_id": 2048498335,
        "locality_id": 85922583,
        "postalcode_id": 554784711,
        "region_id": 85688637,
        "venue_id": 1947304523,
        "wing_id": 1947304447
      },
      {
        "building_id": 1947304067,
        "campus_id": 102527513,
        "concourse_id": 1947304511,
        "continent_id": 102191575,
        "country_id": 85633793,
        "county_id": 102085387,
        "custom_id": 2048498335,
        "flight_id": 2048498335,
        "region_id": 85688637,
        "venue_id": 1947304523,
        "wing_id": 1947304447
      }
    ],
    "wof:id": 2048498335,
    "wof:involves": [
      102533631,
      102527513,
      1159285413,
      1947304523,
      1159283597
    ],
    "wof:lastmodified": 1791044155,
    "wof:name": "UA2091 (SFO-ORD)",
    "wof:parent_id": 1947304523,
    "wof:placetype": "custom",
    "wof:placetype_alt": [
      "flight"
    ],
    "wof:repo": "sfomuseum-data-flights-2026-10",
    "wof:superseded_by": [],
    "wof:supersedes": []
  },
  "bbox": [
    -122.370943,
    37.61799,
    -87.894364,
    41.983038
  ],
  "geometry": {"type":"MultiPoint","coordinates":[[-122.370943,37.61799],[-87.894364,41.983038]]}
}
