{
  "id": 2048493495,
  "type": "Feature",
  "properties": {
    "date:inception_lower": "2026-10-02",
    "date:inception_upper": "2026-10-02",
    "edtf:cessation": "",
    "edtf:inception": "2026-10-02",
    "flysfo:actual_timestamp": -1,
    "flysfo:airline": "LX",
    "flysfo:base_airline": "",
    "flysfo:base_flight_number": "4355",
    "flysfo:date": "2026-10-02",
    "flysfo:estimated_timestamp": 1790979840,
    "flysfo:event": "A",
    "flysfo:flight_number": "LX3343",
    "flysfo:gate": "F21",
    "flysfo:journey": "SBA-SFO",
    "flysfo:scheduled_timestamp": 1790979540,
    "flysfo:timestamp": 1790979840,
    "geom:area": 0,
    "geom:bbox": "-122.370943,34.427974,-119.837133,37.617990",
    "geom:latitude": 36.022982,
    "geom:longitude": -121.104038,
    "iata:airline": "LX",
    "iata:base_airline": "",
    "icao:airline": "SWR",
    "icao:base_airline": "ACA",
    "lbl:latitude": 37.621173,
    "lbl:longitude": -122.390131,
    "sfomuseum:airline_id": 1159286475,
    "sfomuseum:arrival_id": 102527513,
    "sfomuseum:base_flight_id": "20261002-A-ACA-4355",
    "sfomuseum:departure_id": 102527337,
    "sfomuseum:flight_id": "20261002-A-SWR-3343",
    "sfomuseum:flight_number": [
      "SWR3343",
      "LX3343"
    ],
    "sfomuseum:placetype": "flight",
    "src:geom": "flysfo",
    "wof:belongsto": [
      1947304067,
      102527513,
      1947304451,
      102191575,
      85633793,
      102087579,
      85922583,
      554784711,
      85688637,
      1947304491,
      1947304447,
      102085387
    ],
    "wof:country": "US",
    "wof:created": 1791043623,
    "wof:geomhash": "aae625247f3652ef8a50cae9f49d2791",
    "wof:hierarchy": [
      {
        "building_id": 1947304067,
        "campus_id": 102527513,
        "concourse_id": 1947304451,
        "continent_id": 102191575,
        "country_id": 85633793,
        "county_id": 102087579,
        "custom_id": 2048493495,
        "flight_id": 2048493495,
        "locality_id": 85922583,
        "postalcode_id": 554784711,
        "region_id": 85688637,
        "venue_id": 1947304491,
        "wing_id": 1947304447
      },
      {
        "building_id": 1947304067,
        "campus_id": 102527513,
        "concourse_id": 1947304451,
        "continent_id": 102191575,
        "country_id": 85633793,
        "county_id": 102085387,
        "custom_id": 2048493495,
        "flight_id": 2048493495,
        "region_id": 85688637,
        "venue_id": 1947304491,
        "wing_id": 1947304447
      }
    ],
    "wof:id": 2048493495,
    "wof:involves": [
      102527513,
      102527337,
      1159286475,
      1947304491,
      1159283597
    ],
    "wof:lastmodified": 1791043623,
    "wof:name": "LX3343 (SBA-SFO)",
    "wof:parent_id": 1947304491,
    "wof:placetype": "custom",
    "wof:placetype_alt": [
      "flight"
    ],
    "wof:repo": "sfomuseum-data-flights-2026-10",
    "wof:superseded_by": [],
    "wof:supersedes": []
  },
  "bbox": [
    -122.370943,
    34.427974,
    -119.837133,
    37.61799
  ],
  "geometry": {"type":"MultiPoint","coordinates":[[-119.837133,34.427974],[-122.370943,37.61799]]}
}
