{
  "id": 2048519665,
  "type": "Feature",
  "properties": {
    "date:inception_lower": "2026-10-05",
    "date:inception_upper": "2026-10-05",
    "edtf:cessation": "",
    "edtf:inception": "2026-10-05",
    "flysfo:actual_timestamp": -1,
    "flysfo:airline": "MH",
    "flysfo:base_airline": "",
    "flysfo:base_flight_number": "8409",
    "flysfo:date": "2026-10-05",
    "flysfo:estimated_timestamp": 1791224220,
    "flysfo:event": "A",
    "flysfo:flight_number": "MH4404",
    "flysfo:gate": "A12",
    "flysfo:journey": "NRT-SFO",
    "flysfo:scheduled_timestamp": 1791225000,
    "flysfo:timestamp": 1791225000,
    "geom:area": 0,
    "geom:bbox": "-122.370943,35.755744,140.395257,37.617990",
    "geom:latitude": 36.686867,
    "geom:longitude": 9.012156999999995,
    "iata:airline": "MH",
    "iata:base_airline": "",
    "icao:airline": "MAS",
    "icao:base_airline": "AAL",
    "lbl:latitude": 37.611747,
    "lbl:longitude": -122.39043,
    "sfomuseum:airline_id": 1159284731,
    "sfomuseum:arrival_id": 102527513,
    "sfomuseum:base_flight_id": "20261005-A-AAL-8409",
    "sfomuseum:departure_id": 102541685,
    "sfomuseum:flight_id": "20261005-A-MAS-4404",
    "sfomuseum:flight_number": [
      "MAS4404",
      "MH4404"
    ],
    "sfomuseum:placetype": "flight",
    "src:geom": "flysfo",
    "wof:belongsto": [
      1947304067,
      102527513,
      1947304073,
      102191575,
      85633793,
      102087579,
      85922583,
      554784711,
      85688637,
      1947304083,
      1947304069,
      102085387
    ],
    "wof:country": "US",
    "wof:created": 1791302791,
    "wof:geomhash": "d46bcc8d1d94e68df95be799ac6a3b4c",
    "wof:hierarchy": [
      {
        "building_id": 1947304067,
        "campus_id": 102527513,
        "concourse_id": 1947304073,
        "continent_id": 102191575,
        "country_id": 85633793,
        "county_id": 102087579,
        "custom_id": 2048519665,
        "flight_id": 2048519665,
        "locality_id": 85922583,
        "postalcode_id": 554784711,
        "region_id": 85688637,
        "venue_id": 1947304083,
        "wing_id": 1947304069
      },
      {
        "building_id": 1947304067,
        "campus_id": 102527513,
        "concourse_id": 1947304073,
        "continent_id": 102191575,
        "country_id": 85633793,
        "county_id": 102085387,
        "custom_id": 2048519665,
        "flight_id": 2048519665,
        "region_id": 85688637,
        "venue_id": 1947304083,
        "wing_id": 1947304069
      }
    ],
    "wof:id": 2048519665,
    "wof:involves": [
      102527513,
      102541685,
      1159284731,
      1947304083,
      1159283849
    ],
    "wof:lastmodified": 1791302791,
    "wof:name": "MH4404 (NRT-SFO)",
    "wof:parent_id": 1947304083,
    "wof:placetype": "custom",
    "wof:placetype_alt": [
      "flight"
    ],
    "wof:repo": "sfomuseum-data-flights-2026-10",
    "wof:superseded_by": [],
    "wof:supersedes": []
  },
  "bbox": [
    -122.370943,
    35.755744,
    140.395257,
    37.61799
  ],
  "geometry": {"type":"MultiPoint","coordinates":[[140.395257,35.755744],[-122.370943,37.61799]]}
}
