{
  "id": 2048542409,
  "type": "Feature",
  "properties": {
    "date:cessation_lower": "1970-01-01",
    "date:cessation_upper": "1970-01-01",
    "date:inception_lower": "2026-10-07",
    "date:inception_upper": "2026-10-07",
    "edtf:cessation": "1970-01-01T00:00:00Z",
    "edtf:inception": "2026-10-07T01:44:28-07:00",
    "flysfo:actual_timestamp": -1,
    "flysfo:airline": "UA",
    "flysfo:base_airline": "",
    "flysfo:base_flight_number": "4212",
    "flysfo:date": "2026-10-07",
    "flysfo:estimated_timestamp": 1791386520,
    "flysfo:event": "D",
    "flysfo:flight_number": "UA717",
    "flysfo:gate": "F13",
    "flysfo:journey": "SFO-PSP",
    "flysfo:scheduled_timestamp": 1791387000,
    "flysfo:timestamp": 1791387000,
    "geom:area": 0,
    "geom:bbox": "-122.370943,33.824619,-116.506042,37.617990",
    "geom:latitude": 35.7213045,
    "geom:longitude": -119.4384925,
    "iata:airline": "UA",
    "iata:base_airline": "",
    "icao:aircraft": "A319",
    "icao:airline": "UAL",
    "icao:base_airline": "ACA",
    "lbl:latitude": 37.620534,
    "lbl:longitude": -122.388506,
    "sfomuseum:aircraft_id": 1159289407,
    "sfomuseum:airline_id": 1159285413,
    "sfomuseum:arrival_id": 102533591,
    "sfomuseum:base_flight_id": "20261007-D-ACA-4212",
    "sfomuseum:departure_id": 102527513,
    "sfomuseum:flight_id": "20261007-D-UAL-717",
    "sfomuseum:flight_number": [
      "UAL717",
      "UA717"
    ],
    "sfomuseum:placetype": "flight",
    "src:geom": "flysfo",
    "src:geom_alt": [
      "swim-takeoff"
    ],
    "swim:tail_number": "N851UA",
    "wof:belongsto": [
      1947304067,
      102527513,
      1947304451,
      102191575,
      85633793,
      102087579,
      85922583,
      554784711,
      85688637,
      1947304459,
      1947304447,
      102085387
    ],
    "wof:country": "US",
    "wof:created": 1791476209,
    "wof:geomhash": "e84c3ec216fbaf9440bbf99d412a1253",
    "wof:hierarchy": [
      {
        "building_id": 1947304067,
        "campus_id": 102527513,
        "concourse_id": 1947304451,
        "continent_id": 102191575,
        "country_id": 85633793,
        "county_id": 102087579,
        "custom_id": 2048542409,
        "flight_id": 2048542409,
        "locality_id": 85922583,
        "postalcode_id": 554784711,
        "region_id": 85688637,
        "venue_id": 1947304459,
        "wing_id": 1947304447
      },
      {
        "building_id": 1947304067,
        "campus_id": 102527513,
        "concourse_id": 1947304451,
        "continent_id": 102191575,
        "country_id": 85633793,
        "county_id": 102085387,
        "custom_id": 2048542409,
        "flight_id": 2048542409,
        "region_id": 85688637,
        "venue_id": 1947304459,
        "wing_id": 1947304447
      }
    ],
    "wof:id": 2048542409,
    "wof:involves": [
      1159289407,
      102533591,
      102527513,
      1159285413,
      1947304459,
      1159283597
    ],
    "wof:lastmodified": 1791476330,
    "wof:name": "UA717 (SFO-PSP)",
    "wof:parent_id": 1947304459,
    "wof:placetype": "custom",
    "wof:placetype_alt": [
      "flight"
    ],
    "wof:repo": "sfomuseum-data-flights-2026-10",
    "wof:superseded_by": [],
    "wof:supersedes": []
  },
  "bbox": [
    -122.370943,
    33.824619,
    -116.506042,
    37.61799
  ],
  "geometry": {"type":"MultiPoint","coordinates":[[-122.370943,37.61799],[-116.506042,33.824619]]}
}
