{
  "id": 2048542409,
  "type": "Feature",
  "properties": {
    "geom:area": 0,
    "geom:bbox": "-122.464710,36.726650,-121.306450,37.693330",
    "geom:latitude": 37.20057665311312,
    "geom:longitude": -121.98267997986918,
    "src:alt_label": "swim-takeoff",
    "src:geom": "swim",
    "swim:elevations": [
      122,
      429,
      676,
      918,
      1022,
      1614,
      1777,
      2209,
      2520,
      3053,
      3288,
      3512,
      3834,
      4272,
      4687,
      4812,
      4957,
      5555,
      5751,
      6172,
      6405,
      6798,
      6853,
      6922,
      7069,
      7545,
      7766,
      8038,
      8193,
      8230,
      8232,
      8304,
      8558,
      8982,
      9111
    ],
    "swim:geom": "takeoff",
    "swim:timestamps": [
      1791362668,
      1791362696,
      1791362721,
      1791362751,
      1791362763,
      1791362817,
      1791362827,
      1791362853,
      1791362870,
      1791362905,
      1791362937,
      1791362956,
      1791362981,
      1791363015,
      1791363045,
      1791363054,
      1791363065,
      1791363118,
      1791363137,
      1791363174,
      1791363201,
      1791363237,
      1791363245,
      1791363259,
      1791363275,
      1791363326,
      1791363353,
      1791363381,
      1791363410,
      1791363443,
      1791363477,
      1791363489,
      1791363527,
      1791363568,
      1791363583
    ],
    "wof:geomhash": "0ceb6072daca384d086a66591a34d55b",
    "wof:id": 2048542409,
    "wof:repo": "sfomuseum-data-flights-2026-10"
  },
  "bbox": [
    -122.46471,
    36.72665,
    -121.30645,
    37.69333
  ],
  "geometry": {"type":"LineString","coordinates":[[-122.37064,37.62644],[-122.36532,37.64418],[-122.36401,37.66119],[-122.36314,37.68435],[-122.36858,37.69333],[-122.41409,37.67587],[-122.4172,37.66624],[-122.4256,37.63927],[-122.4312,37.61982],[-122.44402,37.58015],[-122.45774,37.53829],[-122.46471,37.50953],[-122.44956,37.4741],[-122.3972,37.43994],[-122.34704,37.40785],[-122.33206,37.39817],[-122.31344,37.38625],[-122.2236,37.32838],[-122.18978,37.30646],[-122.12464,37.26433],[-122.07318,37.23088],[-122.00526,37.1867],[-121.99189,37.17801],[-121.9643,37.16002],[-121.934,37.14033],[-121.83162,37.07343],[-121.7793,37.03868],[-121.72157,37.00099],[-121.66245,36.96213],[-121.59628,36.91852],[-121.52735,36.87297],[-121.50352,36.85716],[-121.4234,36.80408],[-121.33742,36.74702],[-121.30645,36.72665]]}
}
