{
  "id": 2048520325,
  "type": "Feature",
  "properties": {
    "geom:area": 0,
    "geom:bbox": "-122.346460,37.492510,-121.284670,37.609110",
    "geom:latitude": 37.544718064453455,
    "geom:longitude": -121.82000028985425,
    "src:alt_label": "swim-approach",
    "src:geom": "swim",
    "swim:elevations": [
      4434,
      4072,
      3835,
      3670,
      3333,
      3222,
      3026,
      2926,
      2729,
      2499,
      2384,
      2306,
      2180,
      2014,
      1896,
      1735,
      1627,
      1286,
      1093,
      884,
      882,
      679,
      459,
      389,
      267,
      180,
      85
    ],
    "swim:geom": "approach",
    "swim:timestamps": [
      1791211488,
      1791211526,
      1791211550,
      1791211568,
      1791211605,
      1791211628,
      1791211673,
      1791211699,
      1791211716,
      1791211768,
      1791211791,
      1791211802,
      1791211821,
      1791211853,
      1791211883,
      1791211912,
      1791211922,
      1791211958,
      1791211989,
      1791212036,
      1791212046,
      1791212079,
      1791212127,
      1791212146,
      1791212178,
      1791212198,
      1791212228
    ],
    "wof:geomhash": "edfe9634390815dc36dce541116a6e21",
    "wof:id": 2048520325,
    "wof:repo": "sfomuseum-data-flights-2026-10"
  },
  "bbox": [
    -122.34646,
    37.49251,
    -121.28467,
    37.60911
  ],
  "geometry": {"type":"LineString","coordinates":[[-121.28467,37.59005],[-121.36062,37.58168],[-121.40797,37.57617],[-121.44329,37.57209],[-121.51405,37.56385],[-121.5582,37.55867],[-121.6377,37.54787],[-121.67997,37.53747],[-121.70631,37.53133],[-121.78797,37.51186],[-121.82185,37.50373],[-121.83832,37.49979],[-121.86653,37.49315],[-121.91477,37.49251],[-121.95946,37.49348],[-122.00108,37.49952],[-122.01602,37.50427],[-122.06644,37.52055],[-122.10886,37.53436],[-122.16861,37.55358],[-122.17927,37.55705],[-122.21688,37.56908],[-122.26677,37.585],[-122.28457,37.59017],[-122.30968,37.5974],[-122.32445,37.60178],[-122.34646,37.60911]]}
}
