{
  "id": 2048555329,
  "type": "Feature",
  "properties": {
    "geom:area": 0,
    "geom:bbox": "-122.353740,37.492320,-121.301470,37.612170",
    "geom:latitude": 37.544402086178565,
    "geom:longitude": -121.83224596885479,
    "src:alt_label": "swim-approach",
    "src:geom": "swim",
    "swim:elevations": [
      4483,
      4331,
      3859,
      3647,
      3448,
      3084,
      3020,
      2799,
      2616,
      2499,
      2435,
      2280,
      2220,
      1981,
      1950,
      1826,
      1633,
      1424,
      1224,
      1110,
      985,
      826,
      697,
      498,
      305,
      183,
      87,
      49
    ],
    "swim:geom": "approach",
    "swim:timestamps": [
      1791575846,
      1791575860,
      1791575902,
      1791575923,
      1791575942,
      1791575998,
      1791576023,
      1791576053,
      1791576078,
      1791576095,
      1791576116,
      1791576143,
      1791576154,
      1791576202,
      1791576214,
      1791576242,
      1791576276,
      1791576311,
      1791576347,
      1791576371,
      1791576393,
      1791576426,
      1791576450,
      1791576492,
      1791576538,
      1791576565,
      1791576591,
      1791576600
    ],
    "wof:geomhash": "97d4080c27a4bce28f292d2e8a85cf3f",
    "wof:id": 2048555329,
    "wof:repo": "sfomuseum-data-flights-2026-10"
  },
  "bbox": [
    -122.35374,
    37.49232,
    -121.30147,
    37.61217
  ],
  "geometry": {"type":"LineString","coordinates":[[-121.30147,37.58809],[-121.32913,37.58504],[-121.4141,37.57541],[-121.45614,37.57057],[-121.49445,37.56614],[-121.60159,37.55353],[-121.64655,37.54556],[-121.69554,37.53387],[-121.73754,37.5238],[-121.76451,37.51738],[-121.79789,37.50947],[-121.83938,37.49961],[-121.85646,37.49543],[-121.92813,37.49232],[-121.94592,37.49273],[-121.98505,37.49474],[-122.02845,37.50796],[-122.07267,37.52223],[-122.11535,37.53607],[-122.14262,37.54487],[-122.16538,37.55231],[-122.1996,37.56352],[-122.22332,37.57094],[-122.26457,37.58401],[-122.30582,37.59601],[-122.32716,37.60156],[-122.34686,37.60936],[-122.35374,37.61217]]}
}
