{
  "id": 2048506455,
  "type": "Feature",
  "properties": {
    "geom:area": 0,
    "geom:bbox": "-122.349700,37.642660,-121.260640,37.962770",
    "geom:latitude": 37.84043843678066,
    "geom:longitude": -121.81830893928814,
    "src:alt_label": "swim-takeoff",
    "src:geom": "swim",
    "swim:elevations": [
      481,
      1035,
      1221,
      1325,
      1726,
      2497,
      3099,
      3495,
      3955,
      4359,
      4904,
      5023,
      5682,
      6077,
      6160,
      6826,
      7191,
      7463,
      7705,
      8079,
      8249
    ],
    "swim:geom": "takeoff",
    "swim:timestamps": [
      1791048066,
      1791048109,
      1791048137,
      1791048151,
      1791048183,
      1791048226,
      1791048259,
      1791048295,
      1791048322,
      1791048349,
      1791048385,
      1791048394,
      1791048441,
      1791048473,
      1791048481,
      1791048536,
      1791048567,
      1791048592,
      1791048611,
      1791048651,
      1791048668
    ],
    "wof:geomhash": "7c0ae78d71b165eb58f6983b75cb7111",
    "wof:id": 2048506455,
    "wof:repo": "sfomuseum-data-flights-2026-10"
  },
  "bbox": [
    -122.3497,
    37.64266,
    -121.26064,
    37.96277
  ],
  "geometry": {"type":"LineString","coordinates":[[-122.3497,37.64266],[-122.31547,37.66228],[-122.2894,37.6775],[-122.27371,37.68649],[-122.23114,37.70883],[-122.17188,37.73953],[-122.12511,37.76349],[-122.06996,37.79234],[-122.02538,37.81516],[-121.97513,37.83184],[-121.905,37.84433],[-121.88578,37.84774],[-121.78927,37.86605],[-121.71928,37.87918],[-121.70188,37.88229],[-121.57731,37.9051],[-121.50546,37.91803],[-121.44582,37.92888],[-121.40002,37.93721],[-121.30161,37.95505],[-121.26064,37.96277]]}
}
