{
  "id": 2048546171,
  "type": "Feature",
  "properties": {
    "date:cessation_lower": "2026-10-09",
    "date:cessation_upper": "2026-10-09",
    "date:inception_lower": "1970-01-01",
    "date:inception_upper": "1970-01-01",
    "edtf:cessation": "2026-10-08T17:24:30-07:00",
    "edtf:inception": "1970-01-01T00:00:00Z",
    "flysfo:actual_timestamp": -1,
    "flysfo:airline": "WN",
    "flysfo:date": "2026-10-08",
    "flysfo:estimated_timestamp": -1,
    "flysfo:event": "A",
    "flysfo:flight_number": "WN4327",
    "flysfo:gate": "",
    "flysfo:journey": "MDW-SFO",
    "flysfo:scheduled_timestamp": 1791443400,
    "flysfo:timestamp": 1791443400,
    "geom:area": 0,
    "geom:bbox": "-122.370943,37.617990,-87.745903,41.787532",
    "geom:latitude": 39.702760999999995,
    "geom:longitude": -105.058423,
    "iata:airline": "WN",
    "icao:aircraft": "B38M",
    "icao:airline": "SWA",
    "lbl:latitude": 37.61799,
    "lbl:longitude": -122.370943,
    "sfomuseum:aircraft_id": 1528104575,
    "sfomuseum:airline_id": 1159285591,
    "sfomuseum:arrival_id": 102527513,
    "sfomuseum:departure_id": 102531205,
    "sfomuseum:flight_id": "20261008-A-SWA-4327",
    "sfomuseum:flight_number": [
      "SWA4327",
      "WN4327"
    ],
    "sfomuseum:placetype": "flight",
    "src:geom": "flysfo",
    "src:geom_alt": [
      "swim-approach"
    ],
    "swim:tail_number": "N8849Q",
    "wof:belongsto": [],
    "wof:country": "US",
    "wof:created": 1791562081,
    "wof:geomhash": "bbd014edfd8455b7d9e062bec23e52e6",
    "wof:hierarchy": [
      {
        "custom_id": 2048546171,
        "flight_id": 2048546171
      }
    ],
    "wof:id": 2048546171,
    "wof:involves": [
      1528104575,
      102527513,
      102531205,
      1159285591
    ],
    "wof:lastmodified": 1791562791,
    "wof:name": "WN4327 (MDW-SFO)",
    "wof:parent_id": -1,
    "wof:placetype": "custom",
    "wof:placetype_alt": [
      "flight"
    ],
    "wof:repo": "sfomuseum-data-flights-2026-10",
    "wof:superseded_by": [],
    "wof:supersedes": []
  },
  "bbox": [
    -122.370943,
    37.61799,
    -87.745903,
    41.787532
  ],
  "geometry": {"type":"MultiPoint","coordinates":[[-87.745903,41.787532],[-122.370943,37.61799]]}
}
