{
  "id": 2048520697,
  "type": "Feature",
  "properties": {
    "geom:area": 0,
    "geom:bbox": "-122.352120,36.734230,-121.887080,37.609170",
    "geom:latitude": 37.23982460434679,
    "geom:longitude": -122.12587105192901,
    "src:alt_label": "swim-approach",
    "src:geom": "swim",
    "swim:elevations": [
      5487,
      5311,
      4835,
      4617,
      4456,
      4278,
      3991,
      3630,
      3278,
      3121,
      3081,
      2921,
      2874,
      2752,
      2712,
      2564,
      2476,
      2353,
      2138,
      1972,
      1871,
      1829,
      1829,
      1796,
      1654,
      1472,
      1302,
      1216,
      1112,
      1083,
      1031,
      922,
      754,
      536,
      455,
      316,
      242,
      116,
      47
    ],
    "swim:geom": "approach",
    "swim:timestamps": [
      1791229155,
      1791229174,
      1791229226,
      1791229254,
      1791229273,
      1791229291,
      1791229327,
      1791229368,
      1791229408,
      1791229429,
      1791229441,
      1791229492,
      1791229505,
      1791229544,
      1791229561,
      1791229600,
      1791229618,
      1791229642,
      1791229674,
      1791229706,
      1791229721,
      1791229753,
      1791229786,
      1791229814,
      1791229851,
      1791229881,
      1791229910,
      1791229933,
      1791229968,
      1791229980,
      1791229994,
      1791230015,
      1791230043,
      1791230074,
      1791230092,
      1791230126,
      1791230156,
      1791230188,
      1791230203
    ],
    "wof:geomhash": "3ac1b44787239cb6064dbb7485fffd7c",
    "wof:id": 2048520697,
    "wof:repo": "sfomuseum-data-flights-2026-10"
  },
  "bbox": [
    -122.35212,
    36.73423,
    -121.88708,
    37.60917
  ],
  "geometry": {"type":"LineString","coordinates":[[-121.88708,36.73423],[-121.89992,36.76298],[-121.92264,36.84338],[-121.93414,36.88474],[-121.94232,36.91397],[-121.94979,36.9409],[-121.96879,36.99196],[-121.99074,37.0491],[-122.01262,37.1051],[-122.02427,37.13455],[-122.03081,37.15117],[-122.08762,37.20078],[-122.1055,37.21029],[-122.15941,37.23918],[-122.18327,37.24885],[-122.23494,37.26683],[-122.2579,37.27469],[-122.28855,37.28515],[-122.32043,37.30768],[-122.33133,37.3404],[-122.32546,37.35613],[-122.29052,37.3736],[-122.24959,37.38836],[-122.21546,37.40057],[-122.1701,37.41697],[-122.13909,37.43477],[-122.12331,37.46223],[-122.12181,37.48504],[-122.1489,37.51522],[-122.15822,37.52451],[-122.17129,37.53315],[-122.19214,37.5418],[-122.22004,37.55313],[-122.24929,37.56589],[-122.26509,37.57261],[-122.29231,37.584],[-122.31465,37.59337],[-122.33991,37.60399],[-122.35212,37.60917]]}
}
