{
  "id": 2048485925,
  "type": "Feature",
  "properties": {
    "date:inception_lower": "2026-10-01",
    "date:inception_upper": "2026-10-01",
    "edtf:cessation": "",
    "edtf:inception": "2026-10-01",
    "flysfo:actual_timestamp": -1,
    "flysfo:airline": "AA",
    "flysfo:base_airline": "",
    "flysfo:base_flight_number": "8410",
    "flysfo:date": "2026-10-01",
    "flysfo:estimated_timestamp": 1790886600,
    "flysfo:event": "D",
    "flysfo:flight_number": "AA8410",
    "flysfo:gate": "A12",
    "flysfo:journey": "SFO-NRT",
    "flysfo:scheduled_timestamp": 1790886600,
    "flysfo:timestamp": 1790886600,
    "geom:area": 0,
    "geom:bbox": "-122.370943,35.755744,140.395257,37.617990",
    "geom:latitude": 36.686867,
    "geom:longitude": 9.012156999999995,
    "iata:airline": "AA",
    "iata:base_airline": "",
    "icao:airline": "AAL",
    "icao:base_airline": "AAL",
    "lbl:latitude": 37.611747,
    "lbl:longitude": -122.39043,
    "sfomuseum:airline_id": 1159283849,
    "sfomuseum:arrival_id": 102541685,
    "sfomuseum:base_flight_id": "20261001-D-AAL-8410",
    "sfomuseum:departure_id": 102527513,
    "sfomuseum:flight_id": "20261001-D-AAL-8410",
    "sfomuseum:flight_number": [
      "AAL8410",
      "AA8410"
    ],
    "sfomuseum:placetype": "flight",
    "src:geom": "flysfo",
    "wof:belongsto": [
      1947304067,
      102527513,
      1947304073,
      102191575,
      85633793,
      102087579,
      85922583,
      554784711,
      85688637,
      1947304083,
      1947304069,
      102085387
    ],
    "wof:country": "US",
    "wof:created": 1790957412,
    "wof:geomhash": "b0708fbc9882ec26729f19c3bf135279",
    "wof:hierarchy": [
      {
        "building_id": 1947304067,
        "campus_id": 102527513,
        "concourse_id": 1947304073,
        "continent_id": 102191575,
        "country_id": 85633793,
        "county_id": 102087579,
        "custom_id": 2048485925,
        "flight_id": 2048485925,
        "locality_id": 85922583,
        "postalcode_id": 554784711,
        "region_id": 85688637,
        "venue_id": 1947304083,
        "wing_id": 1947304069
      },
      {
        "building_id": 1947304067,
        "campus_id": 102527513,
        "concourse_id": 1947304073,
        "continent_id": 102191575,
        "country_id": 85633793,
        "county_id": 102085387,
        "custom_id": 2048485925,
        "flight_id": 2048485925,
        "region_id": 85688637,
        "venue_id": 1947304083,
        "wing_id": 1947304069
      }
    ],
    "wof:id": 2048485925,
    "wof:involves": [
      102541685,
      102527513,
      1159283849,
      1947304083,
      1159283849
    ],
    "wof:lastmodified": 1790957412,
    "wof:name": "AA8410 (SFO-NRT)",
    "wof:parent_id": 1947304083,
    "wof:placetype": "custom",
    "wof:placetype_alt": [
      "flight"
    ],
    "wof:repo": "sfomuseum-data-flights-2026-10",
    "wof:superseded_by": [],
    "wof:supersedes": []
  },
  "bbox": [
    -122.370943,
    35.755744,
    140.395257,
    37.61799
  ],
  "geometry": {"type":"MultiPoint","coordinates":[[-122.370943,37.61799],[140.395257,35.755744]]}
}
