{
  "id": 2048507607,
  "type": "Feature",
  "properties": {
    "geom:area": 0,
    "geom:bbox": "-122.360430,37.492070,-121.244700,37.615280",
    "geom:latitude": 37.547129364853404,
    "geom:longitude": -121.80758863996935,
    "src:alt_label": "swim-approach",
    "src:geom": "swim",
    "swim:elevations": [
      4545,
      4218,
      3944,
      3719,
      3537,
      3309,
      3075,
      2995,
      2940,
      2731,
      2531,
      2465,
      2136,
      2134,
      2120,
      2095,
      1736,
      1451,
      1272,
      1243,
      999,
      946,
      883,
      695,
      564,
      421,
      367,
      200,
      148,
      76,
      204
    ],
    "swim:geom": "approach",
    "swim:timestamps": [
      1791155595,
      1791155633,
      1791155668,
      1791155693,
      1791155716,
      1791155743,
      1791155783,
      1791155814,
      1791155830,
      1791155874,
      1791155905,
      1791155917,
      1791155962,
      1791155995,
      1791156025,
      1791156033,
      1791156085,
      1791156107,
      1791156121,
      1791156125,
      1791156157,
      1791156169,
      1791156203,
      1791156236,
      1791156254,
      1791156297,
      1791156312,
      1791156353,
      1791156365,
      1791156383,
      1791156404
    ],
    "wof:geomhash": "a2d7ec551a0110a20b3e439d61f77a56",
    "wof:id": 2048507607,
    "wof:repo": "sfomuseum-data-flights-2026-10"
  },
  "bbox": [
    -122.36043,
    37.49207,
    -121.2447,
    37.61528
  ],
  "geometry": {"type":"LineString","coordinates":[[-121.2447,37.59525],[-121.31817,37.58607],[-121.3845,37.57873],[-121.43164,37.57329],[-121.47384,37.56826],[-121.52405,37.56246],[-121.59623,37.55413],[-121.64791,37.54515],[-121.67474,37.53869],[-121.74286,37.5226],[-121.79051,37.51112],[-121.8083,37.50684],[-121.87311,37.49207],[-121.9214,37.49228],[-121.96475,37.49331],[-121.97542,37.49367],[-122.03954,37.51172],[-122.06472,37.51967],[-122.08208,37.52525],[-122.08608,37.52656],[-122.12541,37.53933],[-122.13941,37.54385],[-122.17881,37.55648],[-122.21456,37.56808],[-122.23424,37.57434],[-122.27514,37.58711],[-122.28762,37.59064],[-122.32098,37.60079],[-122.33046,37.6037],[-122.34471,37.60868],[-122.36043,37.61528]]}
}
