{
  "id": 2048488531,
  "type": "Feature",
  "properties": {
    "date:inception_lower": "2026-10-01",
    "date:inception_upper": "2026-10-01",
    "edtf:cessation": "",
    "edtf:inception": "2026-10-01",
    "flysfo:actual_timestamp": -1,
    "flysfo:airline": "QR",
    "flysfo:base_airline": "",
    "flysfo:base_flight_number": "7408",
    "flysfo:date": "2026-10-01",
    "flysfo:estimated_timestamp": 1790902080,
    "flysfo:event": "D",
    "flysfo:flight_number": "QR2989",
    "flysfo:gate": "C1",
    "flysfo:journey": "SFO-SAN",
    "flysfo:scheduled_timestamp": 1790893500,
    "flysfo:timestamp": 1790902080,
    "geom:area": 0,
    "geom:bbox": "-122.370943,32.733534,-117.185927,37.617990",
    "geom:latitude": 35.175762,
    "geom:longitude": -119.778435,
    "iata:airline": "QR",
    "iata:base_airline": "",
    "icao:airline": "QTR",
    "icao:base_airline": "AAL",
    "lbl:latitude": 37.61799,
    "lbl:longitude": -122.370943,
    "sfomuseum:airline_id": 1159286153,
    "sfomuseum:arrival_id": 102528997,
    "sfomuseum:base_flight_id": "20261001-D-AAL-7408",
    "sfomuseum:departure_id": 102527513,
    "sfomuseum:flight_id": "20261001-D-QTR-2989",
    "sfomuseum:flight_number": [
      "QTR2989",
      "QR2989"
    ],
    "sfomuseum:placetype": "flight",
    "src:geom": "flysfo",
    "wof:belongsto": [
      1947304067,
      102527513,
      1947304383,
      102191575,
      85633793,
      102087579,
      85922583,
      554784711,
      85688637,
      1947304387,
      1947304259,
      102085387
    ],
    "wof:country": "US",
    "wof:created": 1790957710,
    "wof:geomhash": "25f5345529d944df781e36098260a435",
    "wof:hierarchy": [
      {
        "building_id": 1947304067,
        "campus_id": 102527513,
        "concourse_id": 1947304383,
        "continent_id": 102191575,
        "country_id": 85633793,
        "county_id": 102087579,
        "custom_id": 2048488531,
        "flight_id": 2048488531,
        "locality_id": 85922583,
        "postalcode_id": 554784711,
        "region_id": 85688637,
        "venue_id": 1947304387,
        "wing_id": 1947304259
      },
      {
        "building_id": 1947304067,
        "campus_id": 102527513,
        "concourse_id": 1947304383,
        "continent_id": 102191575,
        "country_id": 85633793,
        "county_id": 102085387,
        "custom_id": 2048488531,
        "flight_id": 2048488531,
        "region_id": 85688637,
        "venue_id": 1947304387,
        "wing_id": 1947304259
      }
    ],
    "wof:id": 2048488531,
    "wof:involves": [
      102528997,
      102527513,
      1159286153,
      1947304387,
      1159283849
    ],
    "wof:lastmodified": 1790957710,
    "wof:name": "QR2989 (SFO-SAN)",
    "wof:parent_id": 1947304387,
    "wof:placetype": "custom",
    "wof:placetype_alt": [
      "flight"
    ],
    "wof:repo": "sfomuseum-data-flights-2026-10",
    "wof:superseded_by": [],
    "wof:supersedes": []
  },
  "bbox": [
    -122.370943,
    32.733534,
    -117.185927,
    37.61799
  ],
  "geometry": {"type":"MultiPoint","coordinates":[[-122.370943,37.61799],[-117.185927,32.733534]]}
}
