{
  "id": 2048560459,
  "type": "Feature",
  "properties": {
    "geom:area": 0,
    "geom:bbox": "-122.369110,37.624140,-122.219950,38.488700",
    "geom:latitude": 38.01845759077578,
    "geom:longitude": -122.25288149713595,
    "src:alt_label": "swim-takeoff",
    "src:geom": "swim",
    "swim:elevations": [
      122,
      442,
      759,
      975,
      1037,
      1316,
      1501,
      1764,
      2079,
      2591,
      2733,
      2967,
      3339,
      3371,
      3655,
      4261,
      4595,
      4688,
      5070,
      5608,
      6088,
      6302,
      6364
    ],
    "swim:geom": "takeoff",
    "swim:timestamps": [
      1791550461,
      1791550490,
      1791550520,
      1791550557,
      1791550580,
      1791550617,
      1791550638,
      1791550659,
      1791550682,
      1791550717,
      1791550727,
      1791550746,
      1791550797,
      1791550801,
      1791550838,
      1791550885,
      1791550917,
      1791550925,
      1791550955,
      1791551010,
      1791551068,
      1791551094,
      1791551103
    ],
    "wof:geomhash": "67ef4288219f9e4fe6c2dc06df11df66",
    "wof:id": 2048560459,
    "wof:repo": "sfomuseum-data-flights-2026-10"
  },
  "bbox": [
    -122.36911,
    37.62414,
    -122.21995,
    38.4887
  ],
  "geometry": {"type":"LineString","coordinates":[[-122.36911,37.62414],[-122.35137,37.63917],[-122.32575,37.64912],[-122.29415,37.65974],[-122.26941,37.66865],[-122.23014,37.69296],[-122.2229,37.71738],[-122.21995,37.74324],[-122.22219,37.77493],[-122.23786,37.81922],[-122.24301,37.83347],[-122.25204,37.85811],[-122.26434,37.93348],[-122.26376,37.94002],[-122.25869,38.00401],[-122.25215,38.08581],[-122.24751,38.14401],[-122.24643,38.15855],[-122.24232,38.21183],[-122.23447,38.31361],[-122.23865,38.42174],[-122.2439,38.47249],[-122.24558,38.4887]]}
}
