{
  "id": 2048489715,
  "type": "Feature",
  "properties": {
    "geom:area": 0,
    "geom:bbox": "-123.460390,37.053920,-122.403000,37.667630",
    "geom:latitude": 37.389109424486875,
    "geom:longitude": -122.93825432829544,
    "src:alt_label": "swim-takeoff",
    "src:geom": "swim",
    "swim:elevations": [
      259,
      444,
      788,
      1064,
      1181,
      1471,
      1733,
      2181,
      2534,
      2855,
      3046,
      3422,
      3700,
      3982,
      4178,
      4317,
      4724,
      4793,
      4859,
      5121,
      5134,
      5248,
      5324,
      5505,
      5662,
      5876,
      6319,
      6279
    ],
    "swim:geom": "takeoff",
    "swim:timestamps": [
      1790901431,
      1790901452,
      1790901491,
      1790901521,
      1790901551,
      1790901594,
      1790901618,
      1790901655,
      1790901686,
      1790901716,
      1790901734,
      1790901776,
      1790901805,
      1790901835,
      1790901856,
      1790901873,
      1790901921,
      1790901934,
      1790901943,
      1790901988,
      1790901991,
      1790902012,
      1790902033,
      1790902072,
      1790902091,
      1790902118,
      1790902155,
      1790902170
    ],
    "wof:geomhash": "e9e94fdc2db89ab0b97e65bb456da5a3",
    "wof:id": 2048489715,
    "wof:repo": "sfomuseum-data-flights-2026-10"
  },
  "bbox": [
    -123.46039,
    37.05392,
    -122.403,
    37.66763
  ],
  "geometry": {"type":"LineString","coordinates":[[-122.403,37.63252],[-122.42389,37.64134],[-122.46525,37.65873],[-122.4994,37.66763],[-122.53433,37.65653],[-122.58421,37.62311],[-122.61415,37.6037],[-122.66064,37.57391],[-122.70129,37.54771],[-122.7406,37.52245],[-122.76432,37.50706],[-122.82118,37.47041],[-122.86027,37.44513],[-122.90361,37.41725],[-122.93372,37.39782],[-122.95728,37.38253],[-123.02743,37.33694],[-123.0479,37.32343],[-123.06168,37.31441],[-123.13339,37.26803],[-123.13832,37.2648],[-123.17314,37.24193],[-123.20925,37.21836],[-123.2796,37.17238],[-123.31396,37.14996],[-123.36374,37.11733],[-123.43406,37.07159],[-123.46039,37.05392]]}
}
