{
  "id": 2048520445,
  "type": "Feature",
  "properties": {
    "geom:area": 0,
    "geom:bbox": "-122.359950,37.535320,-122.112770,37.614430",
    "geom:latitude": 37.574719427913486,
    "geom:longitude": -122.23643753110659,
    "src:alt_label": "swim-approach",
    "src:geom": "swim",
    "swim:elevations": [
      1212,
      1074,
      874,
      793,
      532,
      399,
      337,
      185,
      115,
      202
    ],
    "swim:geom": "approach",
    "swim:timestamps": [
      1791219459,
      1791219488,
      1791219532,
      1791219546,
      1791219594,
      1791219624,
      1791219642,
      1791219675,
      1791219693,
      1791219722
    ],
    "wof:geomhash": "e50eba701a08dd09948b865238cfbc7b",
    "wof:id": 2048520445,
    "wof:repo": "sfomuseum-data-flights-2026-10"
  },
  "bbox": [
    -122.35995,
    37.53532,
    -122.11277,
    37.61443
  ],
  "geometry": {"type":"LineString","coordinates":[[-122.11277,37.53532],[-122.14428,37.5455],[-122.19082,37.5605],[-122.20631,37.56555],[-122.25492,37.58118],[-122.28388,37.58978],[-122.29937,37.59428],[-122.32538,37.60191],[-122.33926,37.60628],[-122.35995,37.61443]]}
}
