{
  "id": 2048537245,
  "type": "Feature",
  "properties": {
    "geom:area": 0,
    "geom:bbox": "-122.361310,37.492280,-121.300090,37.615710",
    "geom:latitude": 37.54495399799335,
    "geom:longitude": -121.83558242711203,
    "src:alt_label": "swim-approach",
    "src:geom": "swim",
    "swim:elevations": [
      4264,
      4093,
      3886,
      3602,
      3340,
      3230,
      3115,
      2978,
      2813,
      2751,
      2506,
      2288,
      2207,
      1955,
      1874,
      1795,
      1592,
      1369,
      1280,
      1118,
      1026,
      819,
      699,
      601,
      488,
      425,
      272,
      226,
      72,
      0
    ],
    "swim:geom": "approach",
    "swim:timestamps": [
      1791410849,
      1791410863,
      1791410887,
      1791410917,
      1791410962,
      1791410992,
      1791411023,
      1791411054,
      1791411085,
      1791411098,
      1791411142,
      1791411173,
      1791411185,
      1791411236,
      1791411263,
      1791411286,
      1791411321,
      1791411358,
      1791411373,
      1791411413,
      1791411430,
      1791411469,
      1791411493,
      1791411523,
      1791411546,
      1791411566,
      1791411596,
      1791411609,
      1791411644,
      1791411662
    ],
    "wof:geomhash": "abd1fe3df620349f9974ece50ada1128",
    "wof:id": 2048537245,
    "wof:repo": "sfomuseum-data-flights-2026-10"
  },
  "bbox": [
    -122.36131,
    37.49228,
    -121.30009,
    37.61571
  ],
  "geometry": {"type":"LineString","coordinates":[[-121.30009,37.58805],[-121.33185,37.58469],[-121.38198,37.57929],[-121.44413,37.57198],[-121.53097,37.56183],[-121.58519,37.55481],[-121.63397,37.54798],[-121.67911,37.53748],[-121.72331,37.52744],[-121.74014,37.52337],[-121.79985,37.5091],[-121.83949,37.49955],[-121.85531,37.4957],[-121.92484,37.49228],[-121.96278,37.4933],[-121.99267,37.49644],[-122.03735,37.51084],[-122.08298,37.52552],[-122.09982,37.53087],[-122.14056,37.54407],[-122.15877,37.55014],[-122.19792,37.56277],[-122.22012,37.5698],[-122.24541,37.578],[-122.26457,37.58425],[-122.28138,37.58886],[-122.30807,37.5967],[-122.31907,37.59996],[-122.34702,37.60923],[-122.36131,37.61571]]}
}
