{
  "id": 2048533729,
  "type": "Feature",
  "properties": {
    "geom:area": 0,
    "geom:bbox": "-123.439060,37.626310,-122.393420,37.732740",
    "geom:latitude": 37.696692396894946,
    "geom:longitude": -122.9122692953172,
    "src:alt_label": "swim-takeoff",
    "src:geom": "swim",
    "swim:elevations": [
      122,
      305,
      791,
      957,
      1157,
      1390,
      1665,
      1945,
      2369,
      2677,
      2851,
      3094,
      3168,
      3244,
      3647,
      4018,
      4378,
      4615,
      4822,
      5319,
      5369
    ],
    "swim:geom": "takeoff",
    "swim:timestamps": [
      1791284295,
      1791284310,
      1791284357,
      1791284376,
      1791284423,
      1791284454,
      1791284478,
      1791284503,
      1791284540,
      1791284567,
      1791284582,
      1791284606,
      1791284645,
      1791284672,
      1791284710,
      1791284743,
      1791284781,
      1791284803,
      1791284824,
      1791284877,
      1791284882
    ],
    "wof:geomhash": "b12d3656630d4d2d6c698a9230bc0e0d",
    "wof:id": 2048533729,
    "wof:repo": "sfomuseum-data-flights-2026-10"
  },
  "bbox": [
    -123.43906,
    37.62631,
    -122.39342,
    37.73274
  ],
  "geometry": {"type":"LineString","coordinates":[[-122.39342,37.62631],[-122.40833,37.63244],[-122.45453,37.65268],[-122.47238,37.66085],[-122.52747,37.67677],[-122.57491,37.67945],[-122.61231,37.68188],[-122.65197,37.68406],[-122.71116,37.68747],[-122.75599,37.69015],[-122.78254,37.69183],[-122.82371,37.69425],[-122.89655,37.69873],[-122.95332,37.70175],[-123.03699,37.70663],[-123.11223,37.71106],[-123.20062,37.71568],[-123.25175,37.7185],[-123.30013,37.72122],[-123.42822,37.73087],[-123.43906,37.73274]]}
}
