{
  "id": 2048487859,
  "type": "Feature",
  "properties": {
    "date:inception_lower": "2026-10-01",
    "date:inception_upper": "2026-10-01",
    "edtf:cessation": "",
    "edtf:inception": "2026-10-01",
    "flysfo:actual_timestamp": -1,
    "flysfo:airline": "LH",
    "flysfo:base_airline": "",
    "flysfo:base_flight_number": "4803",
    "flysfo:date": "2026-10-01",
    "flysfo:estimated_timestamp": 1790904180,
    "flysfo:event": "D",
    "flysfo:flight_number": "LH8857",
    "flysfo:gate": "G7",
    "flysfo:journey": "SFO-BCN",
    "flysfo:scheduled_timestamp": 1790901000,
    "flysfo:timestamp": 1790904180,
    "geom:area": 0,
    "geom:bbox": "-122.370943,37.617990,2.081322,41.296019",
    "geom:latitude": 39.4570045,
    "geom:longitude": -60.1448105,
    "iata:airline": "LH",
    "iata:base_airline": "",
    "icao:airline": "DLH",
    "icao:base_airline": "ACA",
    "lbl:latitude": 37.618057,
    "lbl:longitude": -122.392508,
    "sfomuseum:airline_id": 1159286015,
    "sfomuseum:arrival_id": 102545733,
    "sfomuseum:base_flight_id": "20261001-D-ACA-4803",
    "sfomuseum:departure_id": 102527513,
    "sfomuseum:flight_id": "20261001-D-DLH-8857",
    "sfomuseum:flight_number": [
      "DLH8857",
      "LH8857"
    ],
    "sfomuseum:placetype": "flight",
    "src:geom": "flysfo",
    "wof:belongsto": [
      1947304067,
      102527513,
      1947304129,
      102191575,
      85633793,
      102087579,
      85922583,
      554784711,
      85688637,
      1947304149,
      1947304069,
      102085387
    ],
    "wof:country": "US",
    "wof:created": 1790957631,
    "wof:geomhash": "1b844caa247a357e6d3574dc4c3eb3e8",
    "wof:hierarchy": [
      {
        "building_id": 1947304067,
        "campus_id": 102527513,
        "concourse_id": 1947304129,
        "continent_id": 102191575,
        "country_id": 85633793,
        "county_id": 102087579,
        "custom_id": 2048487859,
        "flight_id": 2048487859,
        "locality_id": 85922583,
        "postalcode_id": 554784711,
        "region_id": 85688637,
        "venue_id": 1947304149,
        "wing_id": 1947304069
      },
      {
        "building_id": 1947304067,
        "campus_id": 102527513,
        "concourse_id": 1947304129,
        "continent_id": 102191575,
        "country_id": 85633793,
        "county_id": 102085387,
        "custom_id": 2048487859,
        "flight_id": 2048487859,
        "region_id": 85688637,
        "venue_id": 1947304149,
        "wing_id": 1947304069
      }
    ],
    "wof:id": 2048487859,
    "wof:involves": [
      102545733,
      102527513,
      1159286015,
      1947304149,
      1159283597
    ],
    "wof:lastmodified": 1790957631,
    "wof:name": "LH8857 (SFO-BCN)",
    "wof:parent_id": 1947304149,
    "wof:placetype": "custom",
    "wof:placetype_alt": [
      "flight"
    ],
    "wof:repo": "sfomuseum-data-flights-2026-10",
    "wof:superseded_by": [],
    "wof:supersedes": []
  },
  "bbox": [
    -122.370943,
    37.61799,
    2.081322,
    41.296019
  ],
  "geometry": {"type":"MultiPoint","coordinates":[[-122.370943,37.61799],[2.081322,41.296019]]}
}
