{
  "id": 2048546715,
  "type": "Feature",
  "properties": {
    "geom:area": 0,
    "geom:bbox": "-122.357090,37.492340,-121.306810,37.613390",
    "geom:latitude": 37.54434250370597,
    "geom:longitude": -121.83657682585985,
    "src:alt_label": "swim-approach",
    "src:geom": "swim",
    "swim:elevations": [
      4314,
      4036,
      3787,
      3494,
      3341,
      3230,
      3008,
      2883,
      2672,
      2472,
      2365,
      2133,
      1947,
      1889,
      1705,
      1653,
      1396,
      1274,
      1079,
      1058,
      1001,
      787,
      616,
      482,
      402,
      305,
      131,
      0
    ],
    "swim:geom": "approach",
    "swim:timestamps": [
      1791460189,
      1791460220,
      1791460245,
      1791460279,
      1791460310,
      1791460336,
      1791460377,
      1791460397,
      1791460426,
      1791460456,
      1791460481,
      1791460517,
      1791460558,
      1791460576,
      1791460617,
      1791460629,
      1791460675,
      1791460699,
      1791460737,
      1791460740,
      1791460749,
      1791460788,
      1791460820,
      1791460852,
      1791460869,
      1791460890,
      1791460925,
      1791460952
    ],
    "wof:geomhash": "fb654a6ab2efa39af194bbeea3906b2a",
    "wof:id": 2048546715,
    "wof:repo": "sfomuseum-data-flights-2026-10"
  },
  "bbox": [
    -122.35709,
    37.49234,
    -121.30681,
    37.61339
  ],
  "geometry": {"type":"LineString","coordinates":[[-121.30681,37.58752],[-121.36937,37.58059],[-121.41995,37.57454],[-121.48823,37.56651],[-121.54763,37.56005],[-121.59318,37.5547],[-121.65862,37.54311],[-121.68927,37.53554],[-121.73346,37.52492],[-121.77868,37.51397],[-121.8153,37.50543],[-121.86971,37.49258],[-121.93106,37.49234],[-121.95657,37.49302],[-122.01287,37.5022],[-122.02793,37.50689],[-122.08446,37.52592],[-122.11092,37.53461],[-122.15125,37.5474],[-122.15434,37.54836],[-122.16309,37.55113],[-122.20334,37.56469],[-122.23875,37.57582],[-122.27234,37.5866],[-122.28816,37.59096],[-122.30757,37.59631],[-122.3369,37.60521],[-122.35709,37.61339]]}
}
