{
  "id": 2048555735,
  "type": "Feature",
  "properties": {
    "date:cessation_lower": "2026-10-09",
    "date:cessation_upper": "2026-10-09",
    "date:inception_lower": "1970-01-01",
    "date:inception_upper": "1970-01-01",
    "edtf:cessation": "2026-10-09T01:09:06-07:00",
    "edtf:inception": "1970-01-01T00:00:00Z",
    "flysfo:actual_timestamp": -1,
    "flysfo:airline": "UA",
    "flysfo:date": "2026-10-09",
    "flysfo:estimated_timestamp": 1791561480,
    "flysfo:event": "A",
    "flysfo:flight_number": "UA1623",
    "flysfo:gate": "D6",
    "flysfo:journey": "OMA-SFO",
    "flysfo:scheduled_timestamp": 1791560640,
    "flysfo:timestamp": 1791561480,
    "geom:area": 0,
    "geom:bbox": "-122.370943,37.617990,-95.897601,41.301438",
    "geom:latitude": 39.459714,
    "geom:longitude": -109.134272,
    "iata:airline": "UA",
    "icao:aircraft": "B738",
    "icao:airline": "UAL",
    "lbl:latitude": 37.616838,
    "lbl:longitude": -122.380969,
    "sfomuseum:aircraft_id": 1159289871,
    "sfomuseum:airline_id": 1159285413,
    "sfomuseum:arrival_id": 102527513,
    "sfomuseum:departure_id": 102524739,
    "sfomuseum:flight_id": "20261009-A-UAL-1623",
    "sfomuseum:flight_number": [
      "UAL1623",
      "UA1623"
    ],
    "sfomuseum:placetype": "flight",
    "src:geom": "flysfo",
    "src:geom_alt": [
      "swim-approach"
    ],
    "swim:tail_number": "N27239",
    "wof:belongsto": [
      1947304067,
      102527513,
      1947304595,
      102191575,
      85633793,
      102087579,
      85922583,
      554784711,
      85688637,
      1947304621,
      1947304591,
      102085387
    ],
    "wof:country": "US",
    "wof:created": 1791648468,
    "wof:geomhash": "a4023a41644574291fc7580f5443d9f4",
    "wof:hierarchy": [
      {
        "building_id": 1947304067,
        "campus_id": 102527513,
        "concourse_id": 1947304595,
        "continent_id": 102191575,
        "country_id": 85633793,
        "county_id": 102087579,
        "custom_id": 2048555735,
        "flight_id": 2048555735,
        "locality_id": 85922583,
        "postalcode_id": 554784711,
        "region_id": 85688637,
        "venue_id": 1947304621,
        "wing_id": 1947304591
      },
      {
        "building_id": 1947304067,
        "campus_id": 102527513,
        "concourse_id": 1947304595,
        "continent_id": 102191575,
        "country_id": 85633793,
        "county_id": 102085387,
        "custom_id": 2048555735,
        "flight_id": 2048555735,
        "region_id": 85688637,
        "venue_id": 1947304621,
        "wing_id": 1947304591
      }
    ],
    "wof:id": 2048555735,
    "wof:involves": [
      1159289871,
      102527513,
      102524739,
      1159285413,
      1947304621
    ],
    "wof:lastmodified": 1791649137,
    "wof:name": "UA1623 (OMA-SFO)",
    "wof:parent_id": 1947304621,
    "wof:placetype": "custom",
    "wof:placetype_alt": [
      "flight"
    ],
    "wof:repo": "sfomuseum-data-flights-2026-10",
    "wof:superseded_by": [],
    "wof:supersedes": []
  },
  "bbox": [
    -122.370943,
    37.61799,
    -95.897601,
    41.301438
  ],
  "geometry": {"type":"MultiPoint","coordinates":[[-95.897601,41.301438],[-122.370943,37.61799]]}
}
