{
  "id": 2048555735,
  "type": "Feature",
  "properties": {
    "geom:area": 0,
    "geom:bbox": "-122.363490,37.491250,-121.254510,37.612910",
    "geom:latitude": 37.5429099783072,
    "geom:longitude": -121.81563923331825,
    "src:alt_label": "swim-approach",
    "src:geom": "swim",
    "swim:elevations": [
      4565,
      4061,
      4039,
      3730,
      3558,
      3307,
      3106,
      3047,
      2962,
      2613,
      2472,
      2285,
      2132,
      2051,
      1979,
      1830,
      1640,
      1577,
      1510,
      1360,
      1339,
      1213,
      1117,
      925,
      838,
      674,
      611,
      378,
      267,
      113,
      31,
      223
    ],
    "swim:geom": "approach",
    "swim:timestamps": [
      1791532567,
      1791532617,
      1791532620,
      1791532651,
      1791532670,
      1791532695,
      1791532730,
      1791532759,
      1791532778,
      1791532828,
      1791532853,
      1791532880,
      1791532909,
      1791532922,
      1791532931,
      1791532961,
      1791533006,
      1791533015,
      1791533024,
      1791533058,
      1791533062,
      1791533088,
      1791533100,
      1791533128,
      1791533150,
      1791533178,
      1791533192,
      1791533247,
      1791533278,
      1791533308,
      1791533334,
      1791533346
    ],
    "wof:geomhash": "a4cc163650d342046ef4fbf1a8d1dd97",
    "wof:id": 2048555735,
    "wof:repo": "sfomuseum-data-flights-2026-10"
  },
  "bbox": [
    -122.36349,
    37.49125,
    -121.25451,
    37.61291
  ],
  "geometry": {"type":"LineString","coordinates":[[-121.25451,37.5937],[-121.35745,37.58188],[-121.36351,37.58125],[-121.42614,37.57423],[-121.46341,37.56972],[-121.51296,37.56377],[-121.57859,37.55617],[-121.63122,37.54919],[-121.6628,37.54167],[-121.74293,37.52261],[-121.78156,37.51341],[-121.82312,37.50336],[-121.86725,37.49311],[-121.88758,37.49125],[-121.90168,37.49144],[-121.94951,37.49573],[-122.01324,37.50116],[-122.02496,37.50222],[-122.03816,37.50339],[-122.08364,37.50744],[-122.08882,37.50788],[-122.12283,37.51291],[-122.13714,37.51842],[-122.16809,37.53182],[-122.19203,37.5418],[-122.22125,37.55417],[-122.23513,37.5599],[-122.28331,37.58016],[-122.30857,37.59084],[-122.33292,37.60094],[-122.35317,37.60953],[-122.36349,37.61291]]}
}
