{
  "id": 2048506567,
  "type": "Feature",
  "properties": {
    "geom:area": 0,
    "geom:bbox": "-122.136430,37.758660,-121.256900,38.119430",
    "geom:latitude": 37.94563647474061,
    "geom:longitude": -121.69957306814986,
    "src:alt_label": "swim-takeoff",
    "src:geom": "swim",
    "swim:elevations": [
      2784,
      3206,
      3459,
      3640,
      4085,
      4632,
      4825,
      5058,
      5277,
      5775,
      6032,
      6459,
      6751,
      7096,
      7441,
      7734,
      7860
    ],
    "swim:geom": "takeoff",
    "swim:timestamps": [
      1791053627,
      1791053656,
      1791053684,
      1791053704,
      1791053736,
      1791053772,
      1791053790,
      1791053806,
      1791053828,
      1791053861,
      1791053894,
      1791053927,
      1791053954,
      1791053986,
      1791054026,
      1791054056,
      1791054068
    ],
    "wof:geomhash": "9fd0fa7ca68e0d8b7bfcf44db8a00bab",
    "wof:id": 2048506567,
    "wof:repo": "sfomuseum-data-flights-2026-10"
  },
  "bbox": [
    -122.13643,
    37.75866,
    -121.2569,
    38.11943
  ],
  "geometry": {"type":"LineString","coordinates":[[-122.13643,37.75866],[-122.09522,37.77984],[-122.05358,37.80138],[-122.02003,37.81855],[-121.9633,37.84317],[-121.8959,37.86995],[-121.8629,37.8831],[-121.8308,37.89575],[-121.78738,37.91274],[-121.72043,37.93928],[-121.65252,37.96627],[-121.5819,37.99387],[-121.52211,38.01692],[-121.44928,38.04509],[-121.35708,38.08102],[-121.28618,38.10856],[-121.2569,38.11943]]}
}
