{
  "id": 2048550623,
  "type": "Feature",
  "properties": {
    "geom:area": 0,
    "geom:bbox": "-122.385430,37.642140,-121.251630,38.164440",
    "geom:latitude": 37.99433742874859,
    "geom:longitude": -121.93198928516982,
    "src:alt_label": "swim-takeoff",
    "src:geom": "swim",
    "swim:elevations": [
      301,
      513,
      547,
      1017,
      1069,
      1180,
      1469,
      1550,
      1678,
      2105,
      2328,
      2684,
      3001,
      3292,
      3469,
      3735,
      3933,
      4442,
      4686,
      4908,
      5077,
      5331,
      5417,
      5753,
      5993,
      6217,
      6476,
      6736,
      6982,
      7143,
      7462
    ],
    "swim:geom": "takeoff",
    "swim:timestamps": [
      1791503849,
      1791503873,
      1791503883,
      1791503931,
      1791503940,
      1791503958,
      1791503992,
      1791504001,
      1791504013,
      1791504052,
      1791504073,
      1791504109,
      1791504142,
      1791504178,
      1791504208,
      1791504232,
      1791504250,
      1791504288,
      1791504309,
      1791504342,
      1791504366,
      1791504396,
      1791504405,
      1791504438,
      1791504471,
      1791504495,
      1791504526,
      1791504556,
      1791504589,
      1791504611,
      1791504655
    ],
    "wof:geomhash": "5374eb7e049e796a53b0211b7ed35dc0",
    "wof:id": 2048550623,
    "wof:repo": "sfomuseum-data-flights-2026-10"
  },
  "bbox": [
    -122.38543,
    37.64214,
    -121.25163,
    38.16444
  ],
  "geometry": {"type":"LineString","coordinates":[[-122.35493,37.64214],[-122.3371,37.658],[-122.32819,37.66534],[-122.31615,37.71065],[-122.32117,37.71924],[-122.33153,37.73813],[-122.35211,37.77677],[-122.35743,37.78737],[-122.36468,37.80161],[-122.38487,37.84902],[-122.38543,37.87654],[-122.37739,37.92366],[-122.33474,37.95013],[-122.27381,37.96282],[-122.21924,37.974],[-122.17407,37.98304],[-122.13993,37.98989],[-122.06779,38.00443],[-122.02787,38.01227],[-121.96295,38.02505],[-121.91218,38.03522],[-121.84944,38.04775],[-121.83002,38.05163],[-121.75678,38.06611],[-121.68266,38.0807],[-121.6279,38.0915],[-121.55695,38.10535],[-121.48719,38.11893],[-121.41,38.13391],[-121.35728,38.14412],[-121.25163,38.16444]]}
}
