{
  "id": 2048489669,
  "type": "Feature",
  "properties": {
    "geom:area": 0,
    "geom:bbox": "-122.421150,36.734860,-121.552060,37.699570",
    "geom:latitude": 37.22416088230822,
    "geom:longitude": -122.06786593060394,
    "src:alt_label": "swim-takeoff",
    "src:geom": "swim",
    "swim:elevations": [
      122,
      213,
      363,
      822,
      1093,
      1239,
      1547,
      1777,
      2019,
      2264,
      2766,
      2943,
      3148,
      3568,
      3762,
      3843,
      4155,
      4400,
      4819,
      5158,
      5449,
      5741,
      6007,
      6261,
      6501,
      6749,
      6980,
      7214,
      7502,
      7559,
      7723,
      7937,
      8045
    ],
    "swim:geom": "takeoff",
    "swim:timestamps": [
      1790888215,
      1790888224,
      1790888239,
      1790888277,
      1790888304,
      1790888332,
      1790888365,
      1790888386,
      1790888403,
      1790888418,
      1790888445,
      1790888461,
      1790888481,
      1790888505,
      1790888539,
      1790888550,
      1790888603,
      1790888621,
      1790888661,
      1790888697,
      1790888727,
      1790888757,
      1790888787,
      1790888817,
      1790888847,
      1790888877,
      1790888901,
      1790888930,
      1790888967,
      1790888973,
      1790888996,
      1790889026,
      1790889047
    ],
    "wof:geomhash": "4a6950c948e977ec3598054bf35e2b2e",
    "wof:id": 2048489669,
    "wof:repo": "sfomuseum-data-flights-2026-10"
  },
  "bbox": [
    -122.42115,
    36.73486,
    -121.55206,
    37.69957
  ],
  "geometry": {"type":"LineString","coordinates":[[-122.36986,37.62758],[-122.36592,37.63336],[-122.36261,37.64473],[-122.36208,37.67633],[-122.37028,37.69688],[-122.40209,37.69957],[-122.42115,37.66808],[-122.41749,37.64334],[-122.41452,37.62237],[-122.41169,37.6026],[-122.40694,37.56904],[-122.40409,37.54924],[-122.40042,37.52399],[-122.3952,37.49167],[-122.36331,37.45368],[-122.34791,37.44079],[-122.27341,37.37552],[-122.24692,37.35214],[-122.1868,37.29924],[-122.13281,37.25182],[-122.08489,37.20955],[-122.03917,37.16918],[-121.99167,37.12718],[-121.94336,37.08441],[-121.89416,37.04084],[-121.84454,36.9967],[-121.80435,36.96102],[-121.75537,36.91732],[-121.69187,36.86065],[-121.68076,36.85075],[-121.64195,36.81564],[-121.58965,36.76832],[-121.55206,36.73486]]}
}
