{
  "id": 2048493193,
  "type": "Feature",
  "properties": {
    "date:inception_lower": "2026-10-02",
    "date:inception_upper": "2026-10-02",
    "edtf:cessation": "",
    "edtf:inception": "2026-10-02",
    "flysfo:actual_timestamp": -1,
    "flysfo:airline": "QR",
    "flysfo:base_airline": "",
    "flysfo:base_flight_number": "2079",
    "flysfo:date": "2026-10-02",
    "flysfo:estimated_timestamp": 1791010860,
    "flysfo:event": "A",
    "flysfo:flight_number": "QR2079",
    "flysfo:gate": "B3",
    "flysfo:journey": "KOA-SFO",
    "flysfo:scheduled_timestamp": 1791010740,
    "flysfo:timestamp": 1791010860,
    "geom:area": 0,
    "geom:bbox": "-156.035060,19.732444,-122.370943,37.617990",
    "geom:latitude": 28.675217,
    "geom:longitude": -139.2030015,
    "iata:airline": "QR",
    "iata:base_airline": "",
    "icao:airline": "QTR",
    "icao:base_airline": "QTR",
    "lbl:latitude": 37.61799,
    "lbl:longitude": -122.370943,
    "sfomuseum:airline_id": 1159286153,
    "sfomuseum:arrival_id": 102527513,
    "sfomuseum:base_flight_id": "20261002-A-QTR-2079",
    "sfomuseum:departure_id": 102532939,
    "sfomuseum:flight_id": "20261002-A-QTR-2079",
    "sfomuseum:flight_number": [
      "QTR2079",
      "QR2079"
    ],
    "sfomuseum:placetype": "flight",
    "src:geom": "flysfo",
    "wof:belongsto": [
      1947304067,
      102527513,
      1947304261,
      102191575,
      85633793,
      102087579,
      85922583,
      554784711,
      85688637,
      1947304289,
      1947304259,
      102085387
    ],
    "wof:country": "US",
    "wof:created": 1791043589,
    "wof:geomhash": "d5ad4a83d3d679d1b3fe86e419b08d84",
    "wof:hierarchy": [
      {
        "building_id": 1947304067,
        "campus_id": 102527513,
        "concourse_id": 1947304261,
        "continent_id": 102191575,
        "country_id": 85633793,
        "county_id": 102087579,
        "custom_id": 2048493193,
        "flight_id": 2048493193,
        "locality_id": 85922583,
        "postalcode_id": 554784711,
        "region_id": 85688637,
        "venue_id": 1947304289,
        "wing_id": 1947304259
      },
      {
        "building_id": 1947304067,
        "campus_id": 102527513,
        "concourse_id": 1947304261,
        "continent_id": 102191575,
        "country_id": 85633793,
        "county_id": 102085387,
        "custom_id": 2048493193,
        "flight_id": 2048493193,
        "region_id": 85688637,
        "venue_id": 1947304289,
        "wing_id": 1947304259
      }
    ],
    "wof:id": 2048493193,
    "wof:involves": [
      102527513,
      102532939,
      1159286153,
      1947304289,
      1159286153
    ],
    "wof:lastmodified": 1791043589,
    "wof:name": "QR2079 (KOA-SFO)",
    "wof:parent_id": 1947304289,
    "wof:placetype": "custom",
    "wof:placetype_alt": [
      "flight"
    ],
    "wof:repo": "sfomuseum-data-flights-2026-10",
    "wof:superseded_by": [],
    "wof:supersedes": []
  },
  "bbox": [
    -156.03506,
    19.732444,
    -122.370943,
    37.61799
  ],
  "geometry": {"type":"MultiPoint","coordinates":[[-156.03506,19.732444],[-122.370943,37.61799]]}
}
