{
  "id": 2048550995,
  "type": "Feature",
  "properties": {
    "geom:area": 0,
    "geom:bbox": "-122.543240,36.729360,-121.454690,37.666090",
    "geom:latitude": 37.211564836421054,
    "geom:longitude": -122.0708844175814,
    "src:alt_label": "swim-takeoff",
    "src:geom": "swim",
    "swim:elevations": [
      270,
      578,
      843,
      913,
      914,
      913,
      1033,
      1581,
      1704,
      2901,
      3177,
      3490,
      3696,
      4254,
      4529,
      4752,
      5118,
      5438,
      5991,
      6216,
      6427,
      6641,
      6886,
      6958,
      7126,
      7201,
      7399,
      7767,
      7904,
      8084,
      8275
    ],
    "swim:geom": "takeoff",
    "swim:timestamps": [
      1791464426,
      1791464453,
      1791464475,
      1791464484,
      1791464503,
      1791464536,
      1791464572,
      1791464604,
      1791464611,
      1791464691,
      1791464707,
      1791464738,
      1791464765,
      1791464817,
      1791464843,
      1791464863,
      1791464895,
      1791464932,
      1791464994,
      1791465026,
      1791465052,
      1791465079,
      1791465105,
      1791465115,
      1791465137,
      1791465152,
      1791465181,
      1791465229,
      1791465249,
      1791465274,
      1791465301
    ],
    "wof:geomhash": "871cda8d5d12de5ceb2bf9d05b17fc65",
    "wof:id": 2048550995,
    "wof:repo": "sfomuseum-data-flights-2026-10"
  },
  "bbox": [
    -122.54324,
    36.72936,
    -121.45469,
    37.66609
  ],
  "geometry": {"type":"LineString","coordinates":[[-122.40478,37.63147],[-122.43182,37.64308],[-122.4544,37.65264],[-122.46355,37.6568],[-122.48488,37.66609],[-122.53114,37.66083],[-122.54324,37.61805],[-122.52304,37.58024],[-122.51953,37.57317],[-122.46306,37.48206],[-122.44364,37.46713],[-122.40483,37.4385],[-122.36839,37.41179],[-122.29274,37.35626],[-122.25249,37.32659],[-122.22231,37.30421],[-122.17147,37.26659],[-122.11194,37.22259],[-122.00894,37.14611],[-121.95436,37.10548],[-121.9098,37.07224],[-121.86359,37.03773],[-121.81757,37.00334],[-121.79908,36.98954],[-121.75931,36.9596],[-121.73157,36.93886],[-121.67861,36.89916],[-121.5907,36.83252],[-121.55199,36.8032],[-121.50554,36.76814],[-121.45469,36.72936]]}
}
