{
  "id": 2048540435,
  "type": "Feature",
  "properties": {
    "geom:area": 0,
    "geom:bbox": "-123.501500,37.628470,-122.392920,37.732190",
    "geom:latitude": 37.69850312547088,
    "geom:longitude": -122.94329183188886,
    "src:alt_label": "swim-takeoff",
    "src:geom": "swim",
    "swim:elevations": [
      152,
      362,
      860,
      1062,
      1231,
      1636,
      1767,
      2192,
      2401,
      2529,
      2735,
      3092,
      3232,
      3375,
      3597,
      3775,
      4114,
      4247,
      4527,
      4885,
      5186,
      5338
    ],
    "swim:geom": "takeoff",
    "swim:timestamps": [
      1791379940,
      1791379955,
      1791379991,
      1791380034,
      1791380063,
      1791380098,
      1791380109,
      1791380148,
      1791380166,
      1791380178,
      1791380201,
      1791380234,
      1791380266,
      1791380300,
      1791380337,
      1791380357,
      1791380392,
      1791380407,
      1791380438,
      1791380478,
      1791380513,
      1791380532
    ],
    "wof:geomhash": "6503fb5f84eef2429f0dc5b7f0354bf8",
    "wof:id": 2048540435,
    "wof:repo": "sfomuseum-data-flights-2026-10"
  },
  "bbox": [
    -123.5015,
    37.62847,
    -122.39292,
    37.73219
  ],
  "geometry": {"type":"LineString","coordinates":[[-122.39292,37.62847],[-122.40843,37.63496],[-122.44597,37.65058],[-122.49889,37.67213],[-122.54343,37.67747],[-122.59952,37.68083],[-122.61855,37.68184],[-122.68281,37.68556],[-122.71227,37.68737],[-122.73257,37.68862],[-122.77208,37.69101],[-122.83123,37.69442],[-122.89034,37.69789],[-122.95885,37.7019],[-123.03981,37.70678],[-123.08698,37.70949],[-123.1658,37.71392],[-123.20081,37.71579],[-123.27613,37.71999],[-123.37138,37.72522],[-123.45595,37.72976],[-123.5015,37.73219]]}
}
