{
  "id": 2048484713,
  "type": "Feature",
  "properties": {
    "geom:area": 0,
    "geom:bbox": "-122.757480,37.406820,-122.110670,38.417280",
    "geom:latitude": 37.80462428874455,
    "geom:longitude": -122.46888481347608,
    "src:alt_label": "swim-approach",
    "src:geom": "swim",
    "swim:elevations": [
      7620,
      7233,
      7066,
      6665,
      6392,
      6199,
      5953,
      5493,
      5183,
      4976,
      4764,
      4430,
      4261,
      4140,
      3870,
      3679,
      3470,
      3400,
      3353,
      3353,
      3353,
      3353,
      3353,
      3353,
      3353,
      3055,
      2898,
      2757,
      2652,
      2224,
      2064,
      1700,
      1520,
      1524,
      1437,
      1230,
      1220,
      1032,
      802,
      623,
      576,
      548,
      365,
      243,
      115,
      45,
      0
    ],
    "swim:geom": "approach",
    "swim:timestamps": [
      1790887876,
      1790887914,
      1790887930,
      1790887972,
      1790888000,
      1790888022,
      1790888048,
      1790888095,
      1790888128,
      1790888151,
      1790888173,
      1790888207,
      1790888224,
      1790888236,
      1790888265,
      1790888288,
      1790888332,
      1790888348,
      1790888389,
      1790888408,
      1790888424,
      1790888457,
      1790888461,
      1790888485,
      1790888490,
      1790888547,
      1790888571,
      1790888593,
      1790888612,
      1790888664,
      1790888682,
      1790888719,
      1790888748,
      1790888787,
      1790888809,
      1790888847,
      1790888850,
      1790888892,
      1790888925,
      1790888957,
      1790888973,
      1790888978,
      1790889019,
      1790889057,
      1790889088,
      1790889109,
      1790889121
    ],
    "wof:geomhash": "356d73ee282a89ee0ef4106ae07d4d42",
    "wof:id": 2048484713,
    "wof:repo": "sfomuseum-data-flights-2026-10"
  },
  "bbox": [
    -122.75748,
    37.40682,
    -122.11067,
    38.41728
  ],
  "geometry": {"type":"LineString","coordinates":[[-122.57069,38.41728],[-122.62692,38.36134],[-122.64999,38.33879],[-122.7085,38.28189],[-122.74535,38.24247],[-122.75748,38.20669],[-122.74979,38.16271],[-122.7272,38.08548],[-122.71161,38.03302],[-122.70102,37.99684],[-122.6909,37.9619],[-122.67315,37.90839],[-122.65626,37.88429],[-122.64186,37.86899],[-122.60351,37.83286],[-122.57342,37.80522],[-122.52205,37.75738],[-122.50516,37.74142],[-122.46589,37.70408],[-122.44837,37.68749],[-122.43336,37.67334],[-122.40238,37.64436],[-122.39861,37.64077],[-122.37633,37.61974],[-122.37239,37.61601],[-122.33787,37.55712],[-122.32367,37.5327],[-122.31009,37.51074],[-122.29805,37.49179],[-122.26622,37.44169],[-122.2491,37.42921],[-122.20354,37.41478],[-122.16584,37.40682],[-122.1261,37.43345],[-122.11067,37.45595],[-122.12399,37.49403],[-122.12637,37.4967],[-122.16384,37.52975],[-122.19861,37.54451],[-122.23173,37.55847],[-122.2484,37.5655],[-122.25312,37.56753],[-122.28876,37.5825],[-122.31788,37.59472],[-122.34016,37.60408],[-122.35482,37.6102],[-122.36397,37.614]]}
}
