{
  "id": 2048551603,
  "type": "Feature",
  "properties": {
    "date:inception_lower": "2026-10-08",
    "date:inception_upper": "2026-10-08",
    "edtf:cessation": "",
    "edtf:inception": "2026-10-08",
    "flysfo:actual_timestamp": -1,
    "flysfo:airline": "UA",
    "flysfo:date": "2026-10-08",
    "flysfo:estimated_timestamp": 1791501000,
    "flysfo:event": "D",
    "flysfo:flight_number": "UA8150",
    "flysfo:gate": "",
    "flysfo:journey": "SFO-LAX",
    "flysfo:scheduled_timestamp": 1791501000,
    "flysfo:timestamp": 1791501000,
    "geom:area": 0,
    "geom:bbox": "-122.370943,33.942593,-118.389510,37.617990",
    "geom:latitude": 35.780291500000004,
    "geom:longitude": -120.38022649999999,
    "iata:airline": "UA",
    "icao:airline": "UAL",
    "lbl:latitude": 37.61799,
    "lbl:longitude": -122.370943,
    "sfomuseum:airline_id": 1159285413,
    "sfomuseum:arrival_id": 102533795,
    "sfomuseum:departure_id": 102527513,
    "sfomuseum:flight_id": "20261008-D-UAL-8150",
    "sfomuseum:flight_number": [
      "UAL8150",
      "UA8150"
    ],
    "sfomuseum:placetype": "flight",
    "src:geom": "flysfo",
    "wof:belongsto": [],
    "wof:country": "US",
    "wof:created": 1791562699,
    "wof:geomhash": "602be2a828e3460cadf44be5b1c2e36b",
    "wof:hierarchy": [
      {
        "custom_id": 2048551603,
        "flight_id": 2048551603
      }
    ],
    "wof:id": 2048551603,
    "wof:involves": [
      102533795,
      102527513,
      1159285413,
      -1
    ],
    "wof:lastmodified": 1791562699,
    "wof:name": "UA8150 (SFO-LAX)",
    "wof:parent_id": -1,
    "wof:placetype": "custom",
    "wof:placetype_alt": [
      "flight"
    ],
    "wof:repo": "sfomuseum-data-flights-2026-10",
    "wof:superseded_by": [],
    "wof:supersedes": []
  },
  "bbox": [
    -122.370943,
    33.942593,
    -118.38951,
    37.61799
  ],
  "geometry": {"type":"MultiPoint","coordinates":[[-122.370943,37.61799],[-118.38951,33.942593]]}
}
