{
  "id": 2048536285,
  "type": "Feature",
  "properties": {
    "geom:area": 0,
    "geom:bbox": "-122.361410,36.719030,-121.879370,37.614000",
    "geom:latitude": 37.22873358463798,
    "geom:longitude": -122.12195269565463,
    "src:alt_label": "swim-approach",
    "src:geom": "swim",
    "swim:elevations": [
      5587,
      5341,
      5044,
      4885,
      4634,
      4377,
      4215,
      3871,
      3690,
      3394,
      3342,
      3019,
      2852,
      2803,
      2557,
      2440,
      2441,
      2438,
      2346,
      2239,
      2001,
      1949,
      1771,
      1541,
      1495,
      1438,
      1311,
      1218,
      1219,
      1107,
      1034,
      871,
      722,
      702,
      521,
      395,
      329,
      242,
      183,
      58,
      0
    ],
    "swim:geom": "approach",
    "swim:timestamps": [
      1791403738,
      1791403762,
      1791403798,
      1791403816,
      1791403850,
      1791403882,
      1791403906,
      1791403946,
      1791403962,
      1791404003,
      1791404014,
      1791404068,
      1791404098,
      1791404108,
      1791404155,
      1791404187,
      1791404210,
      1791404216,
      1791404241,
      1791404257,
      1791404301,
      1791404310,
      1791404341,
      1791404382,
      1791404418,
      1791404433,
      1791404462,
      1791404492,
      1791404522,
      1791404575,
      1791404598,
      1791404634,
      1791404666,
      1791404672,
      1791404718,
      1791404757,
      1791404781,
      1791404805,
      1791404835,
      1791404877,
      1791404893
    ],
    "wof:geomhash": "81cc7c4aae0e0a0d4938a003c15cf2b0",
    "wof:id": 2048536285,
    "wof:repo": "sfomuseum-data-flights-2026-10"
  },
  "bbox": [
    -122.36141,
    36.71903,
    -121.87937,
    37.614
  ],
  "geometry": {"type":"LineString","coordinates":[[-121.87937,36.71903],[-121.89716,36.75527],[-121.91334,36.80893],[-121.92048,36.83543],[-121.93324,36.88251],[-121.94574,36.92743],[-121.95613,36.96004],[-121.97656,37.01285],[-121.98488,37.03389],[-122.006,37.08784],[-122.01111,37.10114],[-122.06604,37.14778],[-122.10191,37.16863],[-122.11376,37.17543],[-122.16938,37.20704],[-122.20739,37.22849],[-122.23383,37.24336],[-122.24115,37.24754],[-122.26958,37.26377],[-122.28748,37.27388],[-122.31993,37.31225],[-122.3169,37.32153],[-122.28464,37.34281],[-122.23365,37.36198],[-122.18865,37.38096],[-122.17421,37.39181],[-122.14914,37.41571],[-122.13159,37.44308],[-122.11613,37.46802],[-122.12656,37.50903],[-122.14611,37.52115],[-122.17864,37.53618],[-122.20787,37.54847],[-122.21367,37.5509],[-122.25104,37.56661],[-122.27808,37.57796],[-122.29372,37.58466],[-122.30879,37.59081],[-122.32654,37.59842],[-122.35141,37.60882],[-122.36141,37.614]]}
}
