{
  "id": 2048484721,
  "type": "Feature",
  "properties": {
    "geom:area": 0,
    "geom:bbox": "-122.356840,37.434720,-121.252850,37.613340",
    "geom:latitude": 37.54429653537063,
    "geom:longitude": -121.80795526378013,
    "src:alt_label": "swim-approach",
    "src:geom": "swim",
    "swim:elevations": [
      4732,
      4706,
      4315,
      4277,
      4018,
      3766,
      3513,
      3244,
      3049,
      3048,
      3048,
      3024,
      2773,
      2741,
      2715,
      2575,
      2440,
      2195,
      2133,
      2134,
      2134,
      2134,
      1858,
      1801,
      1691,
      1463,
      1187,
      1047,
      915,
      914,
      762,
      591,
      368,
      279,
      183,
      18
    ],
    "swim:geom": "approach",
    "swim:timestamps": [
      1790856863,
      1790856872,
      1790856928,
      1790856937,
      1790856979,
      1790857011,
      1790857038,
      1790857074,
      1790857102,
      1790857125,
      1790857148,
      1790857186,
      1790857224,
      1790857235,
      1790857272,
      1790857296,
      1790857324,
      1790857377,
      1790857393,
      1790857437,
      1790857454,
      1790857477,
      1790857529,
      1790857557,
      1790857569,
      1790857591,
      1790857644,
      1790857665,
      1790857702,
      1790857717,
      1790857750,
      1790857778,
      1790857824,
      1790857840,
      1790857869,
      1790857914
    ],
    "wof:geomhash": "d3086077b4432fcd7821664ebc652a84",
    "wof:id": 2048484721,
    "wof:repo": "sfomuseum-data-flights-2026-10"
  },
  "bbox": [
    -122.35684,
    37.43472,
    -121.25285,
    37.61334
  ],
  "geometry": {"type":"LineString","coordinates":[[-121.25285,37.59415],[-121.26935,37.59196],[-121.36993,37.58037],[-121.38529,37.57871],[-121.45153,37.57101],[-121.49986,37.5652],[-121.54113,37.56039],[-121.59342,37.5543],[-121.63459,37.54952],[-121.66704,37.5559],[-121.69557,37.57143],[-121.74102,37.59741],[-121.79207,37.61072],[-121.80555,37.60514],[-121.81751,37.5675],[-121.80295,37.54348],[-121.78532,37.51744],[-121.77828,37.46328],[-121.78557,37.44682],[-121.83984,37.43472],[-121.86179,37.44387],[-121.8919,37.45634],[-121.95604,37.48215],[-121.99137,37.49601],[-122.00675,37.50093],[-122.03432,37.50971],[-122.09577,37.5294],[-122.11977,37.53709],[-122.15897,37.55018],[-122.17515,37.55544],[-122.21129,37.56718],[-122.24158,37.57701],[-122.2893,37.59141],[-122.30405,37.59563],[-122.32636,37.60156],[-122.35684,37.61334]]}
}
