{
  "id": 2048508193,
  "type": "Feature",
  "properties": {
    "geom:area": 0,
    "geom:bbox": "-122.357140,37.491670,-121.265880,37.617740",
    "geom:latitude": 37.54622144554786,
    "geom:longitude": -121.81737858617443,
    "src:alt_label": "swim-approach",
    "src:geom": "swim",
    "swim:elevations": [
      4719,
      4524,
      4418,
      4103,
      3744,
      3724,
      3611,
      3522,
      3298,
      2976,
      2748,
      2631,
      2345,
      2274,
      2073,
      1980,
      1834,
      1785,
      1462,
      1332,
      1248,
      1067,
      920,
      759,
      555,
      502,
      431,
      314,
      183,
      102,
      0
    ],
    "swim:geom": "approach",
    "swim:timestamps": [
      1791146574,
      1791146600,
      1791146610,
      1791146651,
      1791146698,
      1791146701,
      1791146717,
      1791146730,
      1791146761,
      1791146810,
      1791146841,
      1791146863,
      1791146906,
      1791146918,
      1791146956,
      1791146981,
      1791147023,
      1791147032,
      1791147088,
      1791147112,
      1791147126,
      1791147160,
      1791147187,
      1791147217,
      1791147262,
      1791147275,
      1791147289,
      1791147320,
      1791147358,
      1791147380,
      1791147406
    ],
    "wof:geomhash": "792cc1acd298490228ee8e6b8dcb5291",
    "wof:id": 2048508193,
    "wof:repo": "sfomuseum-data-flights-2026-10"
  },
  "bbox": [
    -122.35714,
    37.49167,
    -121.26588,
    37.61774
  ],
  "geometry": {"type":"LineString","coordinates":[[-121.26588,37.59234],[-121.31666,37.58658],[-121.33621,37.58438],[-121.41393,37.57542],[-121.49966,37.56549],[-121.50559,37.56481],[-121.53361,37.56155],[-121.55543,37.55897],[-121.60651,37.5529],[-121.68403,37.53651],[-121.73262,37.52497],[-121.76472,37.5173],[-121.82647,37.50254],[-121.8427,37.49868],[-121.89386,37.49167],[-121.92728,37.49238],[-121.98364,37.49508],[-121.99544,37.49776],[-122.06392,37.51949],[-122.09272,37.52878],[-122.11028,37.53444],[-122.15013,37.54733],[-122.17855,37.55651],[-122.20987,37.56659],[-122.25124,37.57999],[-122.26232,37.58341],[-122.27497,37.58701],[-122.29988,37.5944],[-122.32778,37.60262],[-122.34337,37.60739],[-122.35714,37.61774]]}
}
