{
  "id": 2048506399,
  "type": "Feature",
  "properties": {
    "geom:area": 0,
    "geom:bbox": "-122.365620,37.628300,-122.115580,38.515140",
    "geom:latitude": 38.03813722105832,
    "geom:longitude": -122.17861848413901,
    "src:alt_label": "swim-takeoff",
    "src:geom": "swim",
    "swim:elevations": [
      250,
      624,
      745,
      1137,
      1444,
      1695,
      2221,
      2687,
      2995,
      3412,
      3607,
      3879,
      4269,
      4661,
      4994,
      5116,
      5396,
      5834,
      5879,
      6448,
      6613,
      7028,
      7159,
      7421
    ],
    "swim:geom": "takeoff",
    "swim:timestamps": [
      1791061828,
      1791061854,
      1791061869,
      1791061931,
      1791061978,
      1791062000,
      1791062031,
      1791062060,
      1791062081,
      1791062126,
      1791062141,
      1791062157,
      1791062184,
      1791062214,
      1791062241,
      1791062253,
      1791062274,
      1791062306,
      1791062310,
      1791062366,
      1791062382,
      1791062418,
      1791062436,
      1791062468
    ],
    "wof:geomhash": "46c3be86dda8ec5a45a3d3e124a4a05b",
    "wof:id": 2048506399,
    "wof:repo": "sfomuseum-data-flights-2026-10"
  },
  "bbox": [
    -122.36562,
    37.6283,
    -122.11558,
    38.51514
  ],
  "geometry": {"type":"LineString","coordinates":[[-122.36562,37.6283],[-122.34972,37.63908],[-122.34075,37.6449],[-122.29827,37.6717],[-122.25023,37.69989],[-122.2229,37.71695],[-122.20878,37.75554],[-122.20254,37.79461],[-122.19764,37.82399],[-122.18651,37.89127],[-122.18244,37.91663],[-122.17801,37.94362],[-122.17063,37.98844],[-122.16229,38.039],[-122.15453,38.08511],[-122.15104,38.10644],[-122.14474,38.14418],[-122.13496,38.20269],[-122.13369,38.21021],[-122.11963,38.31415],[-122.11908,38.34586],[-122.1176,38.41551],[-122.11693,38.45093],[-122.11558,38.51514]]}
}
