{
  "id": 2048559335,
  "type": "Feature",
  "properties": {
    "geom:area": 0,
    "geom:bbox": "-122.365890,37.629390,-121.294930,37.956230",
    "geom:latitude": 37.83324727039308,
    "geom:longitude": -121.84541285548431,
    "src:alt_label": "swim-takeoff",
    "src:geom": "swim",
    "swim:elevations": [
      122,
      455,
      775,
      926,
      1028,
      1128,
      1303,
      1354,
      1886,
      1985,
      2250,
      2763,
      2943,
      3202,
      3302,
      3411,
      3792,
      4051,
      4239,
      4641,
      4800,
      5072,
      5282,
      5424
    ],
    "swim:geom": "takeoff",
    "swim:timestamps": [
      1791543647,
      1791543671,
      1791543716,
      1791543738,
      1791543758,
      1791543789,
      1791543810,
      1791543815,
      1791543866,
      1791543875,
      1791543900,
      1791543949,
      1791543973,
      1791544010,
      1791544030,
      1791544056,
      1791544102,
      1791544129,
      1791544149,
      1791544192,
      1791544215,
      1791544248,
      1791544284,
      1791544300
    ],
    "wof:geomhash": "789d260cb9190ab227ccbd0e7bec30ce",
    "wof:id": 2048559335,
    "wof:repo": "sfomuseum-data-flights-2026-10"
  },
  "bbox": [
    -122.36589,
    37.62939,
    -121.29493,
    37.95623
  ],
  "geometry": {"type":"LineString","coordinates":[[-122.36589,37.62939],[-122.35126,37.64424],[-122.31112,37.66728],[-122.28944,37.67874],[-122.26872,37.68984],[-122.23237,37.70924],[-122.20461,37.72344],[-122.19823,37.72663],[-122.1297,37.76199],[-122.11708,37.76849],[-122.0831,37.78599],[-122.01475,37.82131],[-121.97769,37.83274],[-121.91556,37.84365],[-121.87725,37.85018],[-121.82683,37.85916],[-121.73133,37.87653],[-121.67194,37.88728],[-121.62976,37.89504],[-121.5368,37.91192],[-121.48639,37.92119],[-121.41338,37.93451],[-121.33181,37.94949],[-121.29493,37.95623]]}
}
