{
  "id": 2048498301,
  "type": "Feature",
  "properties": {
    "geom:area": 0,
    "geom:bbox": "-122.365250,37.629810,-121.275890,37.955430",
    "geom:latitude": 37.82694040988778,
    "geom:longitude": -121.83343663334033,
    "src:alt_label": "swim-takeoff",
    "src:geom": "swim",
    "swim:elevations": [
      152,
      539,
      911,
      1016,
      1223,
      1250,
      1602,
      1873,
      2279,
      2616,
      2938,
      3231,
      3428,
      3517,
      3603,
      3634,
      4030,
      4325,
      4521,
      4710,
      5031,
      5265,
      5458,
      5638
    ],
    "swim:geom": "takeoff",
    "swim:timestamps": [
      1790933621,
      1790933652,
      1790933697,
      1790933715,
      1790933752,
      1790933760,
      1790933811,
      1790933830,
      1790933872,
      1790933902,
      1790933931,
      1790933962,
      1790933998,
      1790934010,
      1790934022,
      1790934030,
      1790934081,
      1790934113,
      1790934135,
      1790934158,
      1790934197,
      1790934229,
      1790934256,
      1790934276
    ],
    "wof:geomhash": "819dca9bfdfcdbece49c6a66c1483235",
    "wof:id": 2048498301,
    "wof:repo": "sfomuseum-data-flights-2026-10"
  },
  "bbox": [
    -122.36525,
    37.62981,
    -121.27589,
    37.95543
  ],
  "geometry": {"type":"LineString","coordinates":[[-122.36525,37.62981],[-122.34422,37.6464],[-122.30664,37.66741],[-122.29159,37.67601],[-122.2542,37.69681],[-122.245,37.7015],[-122.18054,37.7347],[-122.15342,37.74895],[-122.09405,37.77961],[-122.04766,37.79724],[-121.99868,37.8071],[-121.94557,37.8176],[-121.87784,37.83192],[-121.85553,37.8366],[-121.83082,37.8417],[-121.81511,37.84489],[-121.70764,37.86697],[-121.64129,37.8807],[-121.59403,37.89071],[-121.54264,37.9013],[-121.45541,37.91885],[-121.3831,37.93386],[-121.32339,37.94605],[-121.27589,37.95543]]}
}
