{
  "id": 2048520049,
  "type": "Feature",
  "properties": {
    "geom:area": 0,
    "geom:bbox": "-122.342820,36.728240,-121.882080,37.607500",
    "geom:latitude": 37.21345145068645,
    "geom:longitude": -122.06711974678218,
    "src:alt_label": "swim-approach",
    "src:geom": "swim",
    "swim:elevations": [
      5248,
      4843,
      4607,
      4513,
      4332,
      4208,
      3764,
      3540,
      3370,
      3177,
      3072,
      2792,
      2650,
      2626,
      2426,
      2193,
      1752,
      1671,
      1378,
      1255,
      1006,
      977,
      924,
      783,
      709,
      576,
      432,
      305,
      147,
      89
    ],
    "swim:geom": "approach",
    "swim:timestamps": [
      1791192526,
      1791192568,
      1791192591,
      1791192602,
      1791192622,
      1791192635,
      1791192685,
      1791192712,
      1791192741,
      1791192774,
      1791192790,
      1791192834,
      1791192862,
      1791192875,
      1791192909,
      1791192938,
      1791193005,
      1791193020,
      1791193077,
      1791193095,
      1791193133,
      1791193138,
      1791193148,
      1791193172,
      1791193186,
      1791193209,
      1791193254,
      1791193278,
      1791193308,
      1791193320
    ],
    "wof:geomhash": "a39e09fc665681753b9b43c5b0da838b",
    "wof:id": 2048520049,
    "wof:repo": "sfomuseum-data-flights-2026-10"
  },
  "bbox": [
    -122.34282,
    36.72824,
    -121.88208,
    37.6075
  ],
  "geometry": {"type":"LineString","coordinates":[[-121.88208,36.72824],[-121.90873,36.79409],[-121.91931,36.83106],[-121.92417,36.84804],[-121.93318,36.88025],[-121.93894,36.90064],[-121.96304,36.97767],[-121.9786,37.01762],[-121.99506,37.05988],[-122.01296,37.10572],[-122.02153,37.12741],[-122.04433,37.18563],[-122.05857,37.22185],[-122.06474,37.23756],[-122.08084,37.27871],[-122.09504,37.31519],[-122.1261,37.39553],[-122.13224,37.41352],[-122.15391,37.47835],[-122.15973,37.49769],[-122.17303,37.53778],[-122.17467,37.54268],[-122.17958,37.55259],[-122.20322,37.56439],[-122.21848,37.56918],[-122.24231,37.57705],[-122.28515,37.59002],[-122.30647,37.59626],[-122.33265,37.60418],[-122.34282,37.6075]]}
}
