{
  "id": 2048489305,
  "type": "Feature",
  "properties": {
    "geom:area": 0,
    "geom:bbox": "-122.427130,36.720710,-121.404950,37.700860",
    "geom:latitude": 37.221934939145044,
    "geom:longitude": -121.9912144273389,
    "src:alt_label": "swim-takeoff",
    "src:geom": "swim",
    "swim:elevations": [
      91,
      248,
      479,
      829,
      1070,
      1209,
      1350,
      1561,
      2057,
      2305,
      2641,
      3122,
      3312,
      3740,
      4004,
      4145,
      4503,
      4830,
      5218,
      5447,
      5641,
      5774,
      5947,
      6365,
      6489,
      6530,
      6943,
      7137,
      7339,
      7565,
      7763,
      8091,
      8167,
      8289,
      8344,
      8489
    ],
    "swim:geom": "takeoff",
    "swim:timestamps": [
      1790887158,
      1790887170,
      1790887190,
      1790887220,
      1790887254,
      1790887281,
      1790887305,
      1790887321,
      1790887356,
      1790887374,
      1790887400,
      1790887436,
      1790887452,
      1790887488,
      1790887518,
      1790887550,
      1790887583,
      1790887609,
      1790887647,
      1790887670,
      1790887687,
      1790887700,
      1790887718,
      1790887765,
      1790887778,
      1790887783,
      1790887829,
      1790887851,
      1790887876,
      1790887908,
      1790887930,
      1790887978,
      1790887990,
      1790888016,
      1790888025,
      1790888052
    ],
    "wof:geomhash": "93c535c87c6790c526af8442510ee78d",
    "wof:id": 2048489305,
    "wof:repo": "sfomuseum-data-flights-2026-10"
  },
  "bbox": [
    -122.42713,
    36.72071,
    -121.40495,
    37.70086
  ],
  "geometry": {"type":"LineString","coordinates":[[-122.36939,37.62831],[-122.36375,37.63677],[-122.36106,37.65287],[-122.36225,37.67753],[-122.37849,37.70086],[-122.41014,37.69719],[-122.42713,37.67425],[-122.42675,37.65469],[-122.42199,37.60994],[-122.41931,37.58696],[-122.41316,37.55518],[-122.37546,37.51705],[-122.35623,37.50214],[-122.31249,37.46698],[-122.27493,37.43649],[-122.22977,37.39973],[-122.18252,37.36129],[-122.14346,37.32928],[-122.08583,37.28216],[-122.05045,37.25316],[-122.02334,37.23112],[-122.00289,37.21424],[-121.97431,37.19088],[-121.90001,37.12982],[-121.87992,37.11329],[-121.87011,37.10526],[-121.7957,37.04403],[-121.75787,37.01268],[-121.71603,36.97805],[-121.66181,36.93316],[-121.6231,36.90147],[-121.53761,36.83228],[-121.51595,36.81425],[-121.47076,36.77555],[-121.45429,36.76201],[-121.40495,36.72071]]}
}
