{
  "id": 2048511329,
  "type": "Feature",
  "properties": {
    "geom:area": 0,
    "geom:bbox": "-122.354530,37.491950,-121.279520,37.612400",
    "geom:latitude": 37.545368181438945,
    "geom:longitude": -121.82172559555354,
    "src:alt_label": "swim-approach",
    "src:geom": "swim",
    "swim:elevations": [
      4512,
      4246,
      3899,
      3507,
      3242,
      3147,
      3109,
      2859,
      2731,
      2530,
      2113,
      1988,
      1877,
      1736,
      1618,
      1547,
      1028,
      846,
      634,
      534,
      337,
      250,
      36
    ],
    "swim:geom": "approach",
    "swim:timestamps": [
      1791114737,
      1791114762,
      1791114797,
      1791114836,
      1791114862,
      1791114879,
      1791114903,
      1791114951,
      1791114970,
      1791115003,
      1791115065,
      1791115100,
      1791115120,
      1791115147,
      1791115163,
      1791115177,
      1791115251,
      1791115281,
      1791115311,
      1791115330,
      1791115365,
      1791115387,
      1791115436
    ],
    "wof:geomhash": "b74d8320754b8b4ff25086f2beabf42d",
    "wof:id": 2048511329,
    "wof:repo": "sfomuseum-data-flights-2026-10"
  },
  "bbox": [
    -122.35453,
    37.49195,
    -121.27952,
    37.6124
  ],
  "geometry": {"type":"LineString","coordinates":[[-121.27952,37.59043],[-121.33353,37.5843],[-121.40632,37.5765],[-121.48749,37.56712],[-121.54088,37.5608],[-121.57315,37.55699],[-121.61836,37.55138],[-121.69739,37.53348],[-121.72717,37.5262],[-121.78066,37.51344],[-121.87936,37.49195],[-121.93668,37.49263],[-121.96703,37.49339],[-122.00754,37.50099],[-122.02986,37.50831],[-122.04952,37.51462],[-122.15577,37.54906],[-122.1972,37.56246],[-122.23448,37.57454],[-122.25665,37.58174],[-122.29357,37.59244],[-122.31323,37.59816],[-122.35453,37.6124]]}
}
