{
  "id": 2048541951,
  "type": "Feature",
  "properties": {
    "geom:area": 0,
    "geom:bbox": "-123.478870,37.209630,-122.510040,37.666280",
    "geom:latitude": 37.44450093834269,
    "geom:longitude": -122.99775132894312,
    "src:alt_label": "swim-takeoff",
    "src:geom": "swim",
    "swim:elevations": [
      1057,
      1255,
      1524,
      1750,
      2460,
      2596,
      3015,
      3174,
      3231,
      3438,
      3540,
      3762,
      3947,
      4013,
      4260,
      4381,
      4664,
      4872,
      5107,
      5280,
      5427,
      5537
    ],
    "swim:geom": "takeoff",
    "swim:timestamps": [
      1791392339,
      1791392364,
      1791392383,
      1791392402,
      1791392458,
      1791392471,
      1791392506,
      1791392524,
      1791392564,
      1791392603,
      1791392619,
      1791392647,
      1791392673,
      1791392683,
      1791392719,
      1791392730,
      1791392762,
      1791392790,
      1791392827,
      1791392848,
      1791392870,
      1791392886
    ],
    "wof:geomhash": "fdbd64d789f323465691d46a467b87a9",
    "wof:id": 2048541951,
    "wof:repo": "sfomuseum-data-flights-2026-10"
  },
  "bbox": [
    -123.47887,
    37.20963,
    -122.51004,
    37.66628
  ],
  "geometry": {"type":"LineString","coordinates":[[-122.51004,37.66628],[-122.54157,37.65083],[-122.56445,37.63589],[-122.5874,37.62092],[-122.66228,37.58369],[-122.68099,37.5762],[-122.73304,37.55637],[-122.75983,37.54645],[-122.82822,37.51939],[-122.9023,37.48927],[-122.93336,37.4761],[-122.98911,37.45203],[-123.04279,37.42895],[-123.06163,37.42106],[-123.13815,37.38855],[-123.16166,37.37832],[-123.23019,37.34919],[-123.29069,37.32392],[-123.36437,37.2818],[-123.40455,37.25643],[-123.44618,37.23024],[-123.47887,37.20963]]}
}
