{
  "id": 2048502989,
  "type": "Feature",
  "properties": {
    "geom:area": 0,
    "geom:bbox": "-123.459580,37.259760,-122.127730,37.614730",
    "geom:latitude": 37.360090247612995,
    "geom:longitude": -122.68451798045795,
    "src:alt_label": "swim-approach",
    "src:geom": "swim",
    "swim:elevations": [
      5090,
      4846,
      4715,
      4281,
      4100,
      3765,
      3413,
      3301,
      3135,
      3114,
      3048,
      3048,
      3048,
      2943,
      2733,
      2657,
      2438,
      2438,
      2438,
      2438,
      2438,
      2402,
      2299,
      2245,
      1935,
      1830,
      1728,
      1451,
      1221,
      1126,
      932,
      907,
      739,
      475,
      428,
      278,
      121,
      61,
      234
    ],
    "swim:geom": "approach",
    "swim:timestamps": [
      1791020273,
      1791020298,
      1791020311,
      1791020360,
      1791020382,
      1791020420,
      1791020457,
      1791020473,
      1791020507,
      1791020513,
      1791020546,
      1791020555,
      1791020602,
      1791020627,
      1791020664,
      1791020674,
      1791020717,
      1791020753,
      1791020781,
      1791020792,
      1791020839,
      1791020874,
      1791020901,
      1791020912,
      1791020964,
      1791020983,
      1791021002,
      1791021050,
      1791021088,
      1791021104,
      1791021133,
      1791021137,
      1791021156,
      1791021201,
      1791021212,
      1791021248,
      1791021290,
      1791021304,
      1791021325
    ],
    "wof:geomhash": "3dedd904eac84f29d8b523c1abe706ac",
    "wof:id": 2048502989,
    "wof:repo": "sfomuseum-data-flights-2026-10"
  },
  "bbox": [
    -123.45958,
    37.25976,
    -122.12773,
    37.61473
  ],
  "geometry": {"type":"LineString","coordinates":[[-123.45958,37.30578],[-123.40294,37.30144],[-123.37313,37.29907],[-123.26741,37.29067],[-123.22126,37.28705],[-123.13981,37.2803],[-123.06259,37.27405],[-123.03016,37.27149],[-122.9617,37.26584],[-122.95055,37.2649],[-122.88593,37.25976],[-122.86904,37.26001],[-122.78417,37.27594],[-122.74096,37.2861],[-122.68103,37.30016],[-122.66355,37.30429],[-122.59463,37.3203],[-122.53629,37.33388],[-122.49128,37.34421],[-122.47341,37.34837],[-122.39867,37.3656],[-122.34702,37.37739],[-122.30856,37.38624],[-122.29385,37.38965],[-122.22099,37.4063],[-122.19561,37.41204],[-122.17115,37.42155],[-122.12773,37.46483],[-122.1401,37.50536],[-122.15452,37.52002],[-122.18736,37.54002],[-122.19194,37.54188],[-122.21586,37.55112],[-122.26412,37.572],[-122.27387,37.57611],[-122.30428,37.58904],[-122.3393,37.60378],[-122.35045,37.60842],[-122.36575,37.61473]]}
}
