{
  "id": 2048525453,
  "type": "Feature",
  "properties": {
    "geom:area": 0,
    "geom:bbox": "-122.528160,37.625060,-121.250630,38.147000",
    "geom:latitude": 37.92732511039455,
    "geom:longitude": -121.98030932501514,
    "src:alt_label": "swim-takeoff",
    "src:geom": "swim",
    "swim:elevations": [
      152,
      183,
      797,
      1096,
      1105,
      1158,
      1294,
      1598,
      2248,
      2490,
      2948,
      3286,
      3375,
      3619,
      3723,
      4055,
      4495,
      4870,
      5071,
      5415,
      5574,
      5798,
      6016,
      6124,
      6545,
      6797,
      6833,
      6992,
      7257,
      7377,
      7737,
      7765,
      7866
    ],
    "swim:geom": "takeoff",
    "swim:timestamps": [
      1791236608,
      1791236615,
      1791236663,
      1791236696,
      1791236700,
      1791236713,
      1791236734,
      1791236770,
      1791236814,
      1791236834,
      1791236867,
      1791236895,
      1791236910,
      1791236937,
      1791236948,
      1791236976,
      1791237016,
      1791237053,
      1791237074,
      1791237107,
      1791237124,
      1791237146,
      1791237172,
      1791237185,
      1791237235,
      1791237268,
      1791237271,
      1791237293,
      1791237325,
      1791237339,
      1791237387,
      1791237391,
      1791237408
    ],
    "wof:geomhash": "dfd485c69077df9c3ec19fbafbbd5a79",
    "wof:id": 2048525453,
    "wof:repo": "sfomuseum-data-flights-2026-10"
  },
  "bbox": [
    -122.52816,
    37.62506,
    -121.25063,
    38.147
  ],
  "geometry": {"type":"LineString","coordinates":[[-122.39019,37.62506],[-122.3965,37.62789],[-122.44024,37.64699],[-122.47091,37.66004],[-122.47478,37.66171],[-122.48897,37.66783],[-122.51414,37.67997],[-122.52816,37.72049],[-122.52278,37.77686],[-122.50474,37.79806],[-122.4517,37.81575],[-122.40415,37.82656],[-122.37652,37.83351],[-122.3262,37.84751],[-122.30681,37.85337],[-122.25258,37.86973],[-122.17063,37.89332],[-122.09389,37.91497],[-122.04894,37.92749],[-121.97714,37.94762],[-121.93905,37.95819],[-121.89007,37.97181],[-121.83115,37.98819],[-121.80031,37.99674],[-121.68289,38.02925],[-121.60373,38.05109],[-121.59642,38.05311],[-121.54243,38.06794],[-121.4626,38.08981],[-121.42865,38.09911],[-121.30548,38.13197],[-121.29568,38.13464],[-121.25063,38.147]]}
}
