{
  "id": 2048529175,
  "type": "Feature",
  "properties": {
    "geom:area": 0,
    "geom:bbox": "-122.352740,37.433320,-121.272950,37.611670",
    "geom:latitude": 37.54347955353354,
    "geom:longitude": -121.81432302883304,
    "src:alt_label": "swim-approach",
    "src:geom": "swim",
    "swim:elevations": [
      4539,
      4323,
      4191,
      4055,
      3747,
      3595,
      3387,
      3260,
      3137,
      2980,
      2931,
      2806,
      2740,
      2576,
      2437,
      2349,
      2194,
      2135,
      2134,
      1902,
      1806,
      1530,
      1429,
      1246,
      1192,
      1115,
      973,
      872,
      740,
      561,
      480,
      365,
      356,
      205,
      156,
      57
    ],
    "swim:geom": "approach",
    "swim:timestamps": [
      1791306302,
      1791306325,
      1791306347,
      1791306373,
      1791306418,
      1791306440,
      1791306470,
      1791306491,
      1791306530,
      1791306568,
      1791306580,
      1791306603,
      1791306657,
      1791306685,
      1791306707,
      1791306748,
      1791306775,
      1791306807,
      1791306820,
      1791306864,
      1791306879,
      1791306928,
      1791306947,
      1791306976,
      1791306982,
      1791306994,
      1791307011,
      1791307043,
      1791307067,
      1791307101,
      1791307122,
      1791307147,
      1791307154,
      1791307196,
      1791307210,
      1791307236
    ],
    "wof:geomhash": "a7aa798a069710ab5a1c8a79e824668a",
    "wof:id": 2048529175,
    "wof:repo": "sfomuseum-data-flights-2026-10"
  },
  "bbox": [
    -122.35274,
    37.43332,
    -121.27295,
    37.61167
  ],
  "geometry": {"type":"LineString","coordinates":[[-121.27295,37.59111],[-121.3203,37.58549],[-121.3651,37.58071],[-121.41338,37.57525],[-121.4923,37.56664],[-121.52966,37.56289],[-121.58227,37.55782],[-121.61711,37.56429],[-121.66977,37.59279],[-121.72225,37.60833],[-121.73791,37.60326],[-121.75535,37.58303],[-121.77512,37.52479],[-121.78545,37.49498],[-121.79322,37.47102],[-121.8227,37.43332],[-121.86008,37.43535],[-121.89673,37.45296],[-121.91299,37.4604],[-121.96555,37.48449],[-121.98293,37.49253],[-122.04448,37.51283],[-122.0679,37.52042],[-122.10459,37.53237],[-122.11215,37.53479],[-122.12715,37.53969],[-122.14834,37.54658],[-122.18742,37.55925],[-122.21355,37.56762],[-122.24739,37.57852],[-122.26622,37.58445],[-122.2873,37.59052],[-122.29204,37.59192],[-122.32448,37.60152],[-122.3343,37.60445],[-122.35274,37.61167]]}
}
