{
  "id": 2048522151,
  "type": "Feature",
  "properties": {
    "date:cessation_lower": "1970-01-01",
    "date:cessation_upper": "1970-01-01",
    "date:inception_lower": "2026-10-05",
    "date:inception_upper": "2026-10-05",
    "edtf:cessation": "1970-01-01T00:00:00Z",
    "edtf:inception": "2026-10-05T06:59:37-07:00",
    "flysfo:actual_timestamp": -1,
    "flysfo:airline": "AC",
    "flysfo:base_airline": "",
    "flysfo:base_flight_number": "4610",
    "flysfo:date": "2026-10-05",
    "flysfo:estimated_timestamp": 1791234600,
    "flysfo:event": "D",
    "flysfo:flight_number": "AC567",
    "flysfo:gate": "C10",
    "flysfo:journey": "SFO-YVR",
    "flysfo:scheduled_timestamp": 1791227700,
    "flysfo:timestamp": 1791234600,
    "geom:area": 0,
    "geom:bbox": "-123.179200,37.617990,-122.370943,49.193330",
    "geom:latitude": 43.40566,
    "geom:longitude": -122.7750715,
    "iata:airline": "AC",
    "iata:base_airline": "",
    "icao:aircraft": "BCS3",
    "icao:airline": "ACA",
    "icao:base_airline": "ANZ",
    "lbl:latitude": 37.614645,
    "lbl:longitude": -122.382263,
    "sfomuseum:aircraft_id": 1813375783,
    "sfomuseum:airline_id": 1159283597,
    "sfomuseum:arrival_id": 102555307,
    "sfomuseum:base_flight_id": "20261005-D-ANZ-4610",
    "sfomuseum:departure_id": 102527513,
    "sfomuseum:flight_id": "20261005-D-ACA-567",
    "sfomuseum:flight_number": [
      "ACA567",
      "AC567"
    ],
    "sfomuseum:placetype": "flight",
    "src:geom": "flysfo",
    "src:geom_alt": [
      "swim-takeoff"
    ],
    "swim:tail_number": "CGUPL",
    "wof:belongsto": [
      1947304067,
      102527513,
      1947304663,
      102191575,
      85633793,
      102087579,
      85922583,
      554784711,
      85688637,
      1947304673,
      1947304591,
      102085387
    ],
    "wof:country": "US",
    "wof:created": 1791303077,
    "wof:geomhash": "af4ccf784d832b160f78d13fe8b8589a",
    "wof:hierarchy": [
      {
        "building_id": 1947304067,
        "campus_id": 102527513,
        "concourse_id": 1947304663,
        "continent_id": 102191575,
        "country_id": 85633793,
        "county_id": 102087579,
        "custom_id": 2048522151,
        "flight_id": 2048522151,
        "locality_id": 85922583,
        "postalcode_id": 554784711,
        "region_id": 85688637,
        "venue_id": 1947304673,
        "wing_id": 1947304591
      },
      {
        "building_id": 1947304067,
        "campus_id": 102527513,
        "concourse_id": 1947304663,
        "continent_id": 102191575,
        "country_id": 85633793,
        "county_id": 102085387,
        "custom_id": 2048522151,
        "flight_id": 2048522151,
        "region_id": 85688637,
        "venue_id": 1947304673,
        "wing_id": 1947304591
      }
    ],
    "wof:id": 2048522151,
    "wof:involves": [
      102555307,
      102527513,
      1159283597,
      1947304673,
      1159283697,
      1813375783
    ],
    "wof:lastmodified": 1791303566,
    "wof:name": "AC567 (SFO-YVR)",
    "wof:parent_id": 1947304673,
    "wof:placetype": "custom",
    "wof:placetype_alt": [
      "flight"
    ],
    "wof:repo": "sfomuseum-data-flights-2026-10",
    "wof:superseded_by": [],
    "wof:supersedes": []
  },
  "bbox": [
    -123.1792,
    37.61799,
    -122.370943,
    49.19333
  ],
  "geometry": {"type":"MultiPoint","coordinates":[[-122.370943,37.61799],[-123.1792,49.19333]]}
}
