{
  "id": 2048550177,
  "type": "Feature",
  "properties": {
    "geom:area": 0,
    "geom:bbox": "-123.500160,37.633120,-122.404590,37.732140",
    "geom:latitude": 37.69924434584826,
    "geom:longitude": -122.9487966716294,
    "src:alt_label": "swim-takeoff",
    "src:geom": "swim",
    "swim:elevations": [
      267,
      409,
      756,
      980,
      1093,
      1220,
      1398,
      1772,
      2126,
      2461,
      2807,
      3158,
      3318,
      3386,
      3525,
      3768,
      4096,
      4399,
      4817,
      5131,
      5252
    ],
    "swim:geom": "takeoff",
    "swim:timestamps": [
      1791517646,
      1791517658,
      1791517682,
      1791517715,
      1791517748,
      1791517786,
      1791517816,
      1791517850,
      1791517883,
      1791517914,
      1791517944,
      1791517974,
      1791518006,
      1791518020,
      1791518044,
      1791518078,
      1791518109,
      1791518139,
      1791518177,
      1791518210,
      1791518222
    ],
    "wof:geomhash": "68ffcbc0f52f1e809664f1fff2b0117d",
    "wof:id": 2048550177,
    "wof:repo": "sfomuseum-data-flights-2026-10"
  },
  "bbox": [
    -123.50016,
    37.63312,
    -122.40459,
    37.73214
  ],
  "geometry": {"type":"LineString","coordinates":[[-122.40459,37.63312],[-122.4173,37.63858],[-122.44148,37.64868],[-122.47513,37.66324],[-122.51372,37.67533],[-122.56876,37.679],[-122.61859,37.68182],[-122.67825,37.68518],[-122.73794,37.68886],[-122.79576,37.69239],[-122.85269,37.69582],[-122.91159,37.69923],[-122.97582,37.70301],[-123.00651,37.70476],[-123.05984,37.70781],[-123.14024,37.71238],[-123.21578,37.71665],[-123.28984,37.72082],[-123.38566,37.72602],[-123.46947,37.73052],[-123.50016,37.73214]]}
}
