{
  "id": 2048551501,
  "type": "Feature",
  "properties": {
    "geom:area": 0,
    "geom:bbox": "-122.364080,37.631920,-121.244070,37.965830",
    "geom:latitude": 37.839317315119835,
    "geom:longitude": -121.81900212654138,
    "src:alt_label": "swim-takeoff",
    "src:geom": "swim",
    "swim:elevations": [
      122,
      329,
      762,
      933,
      1071,
      1279,
      1346,
      1655,
      2088,
      2181,
      2591,
      2926,
      3373,
      3451,
      3794,
      4036,
      4122,
      4307,
      4671,
      4955,
      5244,
      5368,
      5619,
      5732
    ],
    "swim:geom": "takeoff",
    "swim:timestamps": [
      1791449673,
      1791449690,
      1791449728,
      1791449753,
      1791449777,
      1791449815,
      1791449829,
      1791449865,
      1791449902,
      1791449911,
      1791449948,
      1791449974,
      1791450028,
      1791450042,
      1791450086,
      1791450114,
      1791450123,
      1791450145,
      1791450192,
      1791450222,
      1791450264,
      1791450284,
      1791450320,
      1791450347
    ],
    "wof:geomhash": "f540f56fc7c1f1430d34b0454023369a",
    "wof:id": 2048551501,
    "wof:repo": "sfomuseum-data-flights-2026-10"
  },
  "bbox": [
    -122.36408,
    37.63192,
    -121.24407,
    37.96583
  ],
  "geometry": {"type":"LineString","coordinates":[[-122.36408,37.63192],[-122.35468,37.64367],[-122.3206,37.66114],[-122.29944,37.67251],[-122.27725,37.68501],[-122.23585,37.70708],[-122.2196,37.7153],[-122.1707,37.74036],[-122.1202,37.76648],[-122.10821,37.77267],[-122.05508,37.80029],[-122.0176,37.81897],[-121.92568,37.84119],[-121.90003,37.84597],[-121.81482,37.86185],[-121.75618,37.87273],[-121.73738,37.87613],[-121.69098,37.88455],[-121.59117,37.9029],[-121.52605,37.91473],[-121.43372,37.93151],[-121.38921,37.93952],[-121.30768,37.95434],[-121.24407,37.96583]]}
}
