{
  "id": 2048513411,
  "type": "Feature",
  "properties": {
    "date:inception_lower": "2026-10-04",
    "date:inception_upper": "2026-10-04",
    "edtf:cessation": "",
    "edtf:inception": "2026-10-04",
    "flysfo:actual_timestamp": -1,
    "flysfo:airline": "NZ",
    "flysfo:base_airline": "",
    "flysfo:base_flight_number": "9489",
    "flysfo:date": "2026-10-04",
    "flysfo:estimated_timestamp": 1791145260,
    "flysfo:event": "D",
    "flysfo:flight_number": "NZ9489",
    "flysfo:gate": "D8",
    "flysfo:journey": "SFO-JAC",
    "flysfo:scheduled_timestamp": 1791145560,
    "flysfo:timestamp": 1791145560,
    "geom:area": 0,
    "geom:bbox": "-122.370943,37.617990,-110.738540,43.606600",
    "geom:latitude": 40.612295,
    "geom:longitude": -116.5547415,
    "iata:airline": "NZ",
    "iata:base_airline": "",
    "icao:airline": "ANZ",
    "icao:base_airline": "ANZ",
    "lbl:latitude": 37.617421,
    "lbl:longitude": -122.380916,
    "sfomuseum:airline_id": 1159283697,
    "sfomuseum:arrival_id": 102534217,
    "sfomuseum:base_flight_id": "20261004-D-ANZ-9489",
    "sfomuseum:departure_id": 102527513,
    "sfomuseum:flight_id": "20261004-D-ANZ-9489",
    "sfomuseum:flight_number": [
      "ANZ9489",
      "NZ9489"
    ],
    "sfomuseum:placetype": "flight",
    "src:geom": "flysfo",
    "wof:belongsto": [
      1947304067,
      102527513,
      1947304595,
      102191575,
      85633793,
      102087579,
      85922583,
      554784711,
      85688637,
      1947304617,
      1947304591,
      102085387
    ],
    "wof:country": "US",
    "wof:created": 1791216747,
    "wof:geomhash": "9f2aefec298b0356dc0b4065c5b61f73",
    "wof:hierarchy": [
      {
        "building_id": 1947304067,
        "campus_id": 102527513,
        "concourse_id": 1947304595,
        "continent_id": 102191575,
        "country_id": 85633793,
        "county_id": 102087579,
        "custom_id": 2048513411,
        "flight_id": 2048513411,
        "locality_id": 85922583,
        "postalcode_id": 554784711,
        "region_id": 85688637,
        "venue_id": 1947304617,
        "wing_id": 1947304591
      },
      {
        "building_id": 1947304067,
        "campus_id": 102527513,
        "concourse_id": 1947304595,
        "continent_id": 102191575,
        "country_id": 85633793,
        "county_id": 102085387,
        "custom_id": 2048513411,
        "flight_id": 2048513411,
        "region_id": 85688637,
        "venue_id": 1947304617,
        "wing_id": 1947304591
      }
    ],
    "wof:id": 2048513411,
    "wof:involves": [
      102534217,
      102527513,
      1159283697,
      1947304617,
      1159283697
    ],
    "wof:lastmodified": 1791216747,
    "wof:name": "NZ9489 (SFO-JAC)",
    "wof:parent_id": 1947304617,
    "wof:placetype": "custom",
    "wof:placetype_alt": [
      "flight"
    ],
    "wof:repo": "sfomuseum-data-flights-2026-10",
    "wof:superseded_by": [],
    "wof:supersedes": []
  },
  "bbox": [
    -122.370943,
    37.61799,
    -110.73854,
    43.6066
  ],
  "geometry": {"type":"MultiPoint","coordinates":[[-122.370943,37.61799],[-110.73854,43.6066]]}
}
