{
  "id": 2048496347,
  "type": "Feature",
  "properties": {
    "geom:area": 0,
    "geom:bbox": "-123.479360,37.618660,-122.404830,37.683430",
    "geom:latitude": 37.666516240671086,
    "geom:longitude": -122.94055266264319,
    "src:alt_label": "swim-takeoff",
    "src:geom": "swim",
    "swim:elevations": [
      262,
      432,
      609,
      721,
      1090,
      1417,
      1742,
      2050,
      2310,
      2617,
      2834,
      3116,
      3277,
      3420,
      3534,
      3780,
      3991,
      4238,
      4638,
      5002,
      5263,
      5586,
      5665
    ],
    "swim:geom": "takeoff",
    "swim:timestamps": [
      1790926587,
      1790926610,
      1790926644,
      1790926660,
      1790926706,
      1790926738,
      1790926768,
      1790926798,
      1790926823,
      1790926853,
      1790926873,
      1790926899,
      1790926930,
      1790926959,
      1790926978,
      1790927006,
      1790927027,
      1790927053,
      1790927091,
      1790927126,
      1790927149,
      1790927184,
      1790927192
    ],
    "wof:geomhash": "080552ce30d4b5e397053575989cea34",
    "wof:id": 2048496347,
    "wof:repo": "sfomuseum-data-flights-2026-10"
  },
  "bbox": [
    -123.47936,
    37.61866,
    -122.40483,
    37.68343
  ],
  "geometry": {"type":"LineString","coordinates":[[-122.40483,37.63356],[-122.42752,37.64261],[-122.46666,37.65863],[-122.48739,37.66719],[-122.55639,37.67751],[-122.60677,37.68058],[-122.65522,37.68343],[-122.70498,37.68203],[-122.74574,37.68101],[-122.79405,37.67997],[-122.82816,37.67925],[-122.87232,37.67823],[-122.92754,37.67684],[-122.98264,37.67549],[-123.02195,37.67447],[-123.07916,37.67305],[-123.12354,37.67183],[-123.17895,37.67043],[-123.26021,37.66294],[-123.33519,37.64712],[-123.38557,37.63688],[-123.46102,37.62218],[-123.47936,37.61866]]}
}
