{
  "id": 2048537607,
  "type": "Feature",
  "properties": {
    "geom:area": 0,
    "geom:bbox": "-122.361480,37.541220,-122.190810,37.613300",
    "geom:latitude": 37.57716457374762,
    "geom:longitude": -122.2761862005066,
    "src:alt_label": "swim-approach",
    "src:geom": "swim",
    "swim:elevations": [
      800,
      658,
      549,
      357,
      270,
      199,
      121,
      0
    ],
    "swim:geom": "approach",
    "swim:timestamps": [
      1791392231,
      1791392266,
      1791392292,
      1791392339,
      1791392364,
      1791392387,
      1791392405,
      1791392438
    ],
    "wof:geomhash": "5943c5af661d6a2ecb93f8aec9611568",
    "wof:id": 2048537607,
    "wof:repo": "sfomuseum-data-flights-2026-10"
  },
  "bbox": [
    -122.36148,
    37.54122,
    -122.19081,
    37.6133
  ],
  "geometry": {"type":"LineString","coordinates":[[-122.19081,37.54122],[-122.22385,37.55524],[-122.24766,37.56522],[-122.28784,37.582],[-122.30658,37.58992],[-122.32362,37.59698],[-122.33758,37.60287],[-122.36148,37.6133]]}
}
