{
  "id": 2048541073,
  "type": "Feature",
  "properties": {
    "geom:area": 0,
    "geom:bbox": "-122.366110,37.628670,-121.443160,38.510240",
    "geom:latitude": 38.064703173191106,
    "geom:longitude": -121.90151369150345,
    "src:alt_label": "swim-takeoff",
    "src:geom": "swim",
    "swim:elevations": [
      122,
      362,
      548,
      777,
      969,
      1129,
      1187,
      1506,
      1724,
      2293,
      2336,
      2820,
      2986,
      3280,
      3452,
      3675,
      3794,
      3951,
      4424,
      4586,
      4651,
      5068,
      5190,
      5323,
      5627,
      5716,
      5918
    ],
    "swim:geom": "takeoff",
    "swim:timestamps": [
      1791361108,
      1791361125,
      1791361148,
      1791361175,
      1791361209,
      1791361242,
      1791361262,
      1791361306,
      1791361327,
      1791361376,
      1791361380,
      1791361433,
      1791361448,
      1791361476,
      1791361509,
      1791361554,
      1791361575,
      1791361595,
      1791361647,
      1791361674,
      1791361682,
      1791361734,
      1791361755,
      1791361777,
      1791361821,
      1791361833,
      1791361865
    ],
    "wof:geomhash": "250aeac4b4817a5d545c8eec6d9e148c",
    "wof:id": 2048541073,
    "wof:repo": "sfomuseum-data-flights-2026-10"
  },
  "bbox": [
    -122.36611,
    37.62867,
    -121.44316,
    38.51024
  ],
  "geometry": {"type":"LineString","coordinates":[[-122.36611,37.62867],[-122.35664,37.63982],[-122.33733,37.65131],[-122.31302,37.66474],[-122.28181,37.68187],[-122.248,37.70099],[-122.22459,37.71311],[-122.17907,37.75447],[-122.15868,37.7777],[-122.11175,37.83134],[-122.10807,37.8354],[-122.05335,37.89537],[-122.03747,37.91298],[-122.00771,37.94598],[-121.96982,37.98734],[-121.91448,38.04811],[-121.88764,38.07766],[-121.85957,38.10862],[-121.78909,38.1857],[-121.75174,38.22648],[-121.74091,38.2383],[-121.66534,38.32025],[-121.63589,38.35236],[-121.60298,38.38819],[-121.53289,38.45632],[-121.50775,38.47144],[-121.44316,38.51024]]}
}
