{
  "id": 2048529201,
  "type": "Feature",
  "properties": {
    "geom:area": 0,
    "geom:bbox": "-122.852530,37.406370,-122.095500,38.512710",
    "geom:latitude": 37.819871515374224,
    "geom:longitude": -122.49320246980241,
    "src:alt_label": "swim-approach",
    "src:geom": "swim",
    "swim:elevations": [
      7774,
      7553,
      7182,
      6819,
      6564,
      6229,
      5960,
      5616,
      5290,
      4969,
      4884,
      4437,
      4135,
      4014,
      3575,
      3482,
      3382,
      3353,
      3353,
      3353,
      3330,
      3135,
      3033,
      2775,
      2624,
      2405,
      2211,
      1853,
      1830,
      1768,
      1591,
      1527,
      1524,
      1524,
      1524,
      1393,
      1219,
      1039,
      902,
      785,
      650,
      583,
      455,
      324,
      124,
      34
    ],
    "swim:geom": "approach",
    "swim:timestamps": [
      1791286787,
      1791286808,
      1791286844,
      1791286881,
      1791286905,
      1791286938,
      1791286965,
      1791287000,
      1791287034,
      1791287068,
      1791287076,
      1791287123,
      1791287155,
      1791287168,
      1791287215,
      1791287228,
      1791287257,
      1791287288,
      1791287333,
      1791287351,
      1791287377,
      1791287416,
      1791287435,
      1791287464,
      1791287481,
      1791287504,
      1791287526,
      1791287572,
      1791287586,
      1791287632,
      1791287663,
      1791287677,
      1791287709,
      1791287730,
      1791287765,
      1791287794,
      1791287825,
      1791287866,
      1791287897,
      1791287928,
      1791287960,
      1791287976,
      1791288007,
      1791288035,
      1791288081,
      1791288103
    ],
    "wof:geomhash": "bf9537b2ff8b82d057fb7c6a0ef24bae",
    "wof:id": 2048529201,
    "wof:repo": "sfomuseum-data-flights-2026-10"
  },
  "bbox": [
    -122.85253,
    37.40637,
    -122.0955,
    38.51271
  ],
  "geometry": {"type":"LineString","coordinates":[[-122.85253,38.51271],[-122.83993,38.4722],[-122.82052,38.40495],[-122.80037,38.33684],[-122.78759,38.29363],[-122.77048,38.2349],[-122.75632,38.18552],[-122.73876,38.12592],[-122.72222,38.0682],[-122.70556,38.01149],[-122.70146,37.99751],[-122.67928,37.92069],[-122.64704,37.87465],[-122.63013,37.85881],[-122.56887,37.80072],[-122.55245,37.78531],[-122.51649,37.75173],[-122.48138,37.71843],[-122.43461,37.67446],[-122.41746,37.65821],[-122.39325,37.63545],[-122.3586,37.60013],[-122.3466,37.58167],[-122.33326,37.55122],[-122.32353,37.53411],[-122.30988,37.51177],[-122.29603,37.48911],[-122.26012,37.44909],[-122.24299,37.44268],[-122.1873,37.421],[-122.15452,37.40765],[-122.13797,37.40637],[-122.1139,37.42577],[-122.10371,37.44276],[-122.0955,37.46992],[-122.11587,37.48699],[-122.14154,37.50212],[-122.17331,37.52013],[-122.19549,37.53315],[-122.21838,37.54652],[-122.24109,37.55977],[-122.25332,37.56676],[-122.27802,37.57785],[-122.30077,37.58744],[-122.33717,37.60281],[-122.35376,37.60974]]}
}
