{
  "id": 2048493965,
  "type": "Feature",
  "properties": {
    "geom:area": 0,
    "geom:bbox": "-122.359110,36.759280,-121.898250,37.611630",
    "geom:latitude": 37.23818644081356,
    "geom:longitude": -122.07586948663037,
    "src:alt_label": "swim-approach",
    "src:geom": "swim",
    "swim:elevations": [
      4831,
      4369,
      4266,
      4034,
      3591,
      3442,
      3361,
      3187,
      3106,
      2794,
      2701,
      2522,
      2436,
      2438,
      2169,
      1945,
      1707,
      1523,
      1524,
      1023,
      748,
      673,
      454,
      367,
      210,
      150,
      0
    ],
    "swim:geom": "approach",
    "swim:timestamps": [
      1790942314,
      1790942367,
      1790942381,
      1790942407,
      1790942458,
      1790942482,
      1790942501,
      1790942536,
      1790942555,
      1790942608,
      1790942620,
      1790942651,
      1790942675,
      1790942705,
      1790942756,
      1790942778,
      1790942815,
      1790942847,
      1790942856,
      1790942917,
      1790942959,
      1790942979,
      1790943021,
      1790943042,
      1790943080,
      1790943098,
      1790943137
    ],
    "wof:geomhash": "5e28a2c5f61aa479004fbe9ff073e407",
    "wof:id": 2048493965,
    "wof:repo": "sfomuseum-data-flights-2026-10"
  },
  "bbox": [
    -122.35911,
    36.75928,
    -121.89825,
    37.61163
  ],
  "geometry": {"type":"LineString","coordinates":[[-121.89825,36.75928],[-121.92398,36.8477],[-121.93011,36.87009],[-121.94211,36.91312],[-121.96911,36.99355],[-121.98371,37.03084],[-121.99488,37.05944],[-122.01343,37.10668],[-122.02319,37.13174],[-122.04911,37.19783],[-122.05531,37.21375],[-122.0705,37.25242],[-122.08194,37.28142],[-122.09572,37.3162],[-122.11796,37.37272],[-122.12533,37.39796],[-122.11441,37.44076],[-122.10927,37.47809],[-122.114,37.48663],[-122.16192,37.52906],[-122.20529,37.54727],[-122.22596,37.55607],[-122.26916,37.57423],[-122.28764,37.58196],[-122.31707,37.59419],[-122.33066,37.60007],[-122.35911,37.61163]]}
}
