{
  "id": 2048552311,
  "type": "Feature",
  "properties": {
    "geom:area": 0,
    "geom:bbox": "-122.360320,37.491770,-121.272870,37.615780",
    "geom:latitude": 37.546050949981115,
    "geom:longitude": -121.821635441407,
    "src:alt_label": "swim-approach",
    "src:geom": "swim",
    "swim:elevations": [
      4355,
      3981,
      3766,
      3460,
      3215,
      3171,
      3036,
      2727,
      2655,
      2469,
      2417,
      2280,
      2103,
      2066,
      1977,
      1901,
      1797,
      1704,
      1542,
      1488,
      1407,
      1070,
      926,
      676,
      546,
      541,
      357,
      242,
      83,
      236
    ],
    "swim:geom": "approach",
    "swim:timestamps": [
      1791577423,
      1791577468,
      1791577489,
      1791577525,
      1791577555,
      1791577567,
      1791577613,
      1791577648,
      1791577665,
      1791577705,
      1791577732,
      1791577755,
      1791577790,
      1791577803,
      1791577820,
      1791577830,
      1791577850,
      1791577877,
      1791577911,
      1791577944,
      1791577960,
      1791578004,
      1791578025,
      1791578065,
      1791578092,
      1791578102,
      1791578149,
      1791578178,
      1791578218,
      1791578237
    ],
    "wof:geomhash": "da73f36caa936283ec9fa74fde90109d",
    "wof:id": 2048552311,
    "wof:repo": "sfomuseum-data-flights-2026-10"
  },
  "bbox": [
    -122.36032,
    37.49177,
    -121.27287,
    37.61578
  ],
  "geometry": {"type":"LineString","coordinates":[[-121.27287,37.59156],[-121.35967,37.58159],[-121.39928,37.57713],[-121.46722,37.56918],[-121.52436,37.56255],[-121.54679,37.55995],[-121.62803,37.54992],[-121.68366,37.53652],[-121.71021,37.53033],[-121.77133,37.51584],[-121.81148,37.50619],[-121.84529,37.49805],[-121.8989,37.49177],[-121.91796,37.49221],[-121.94218,37.49288],[-121.95735,37.49325],[-121.98618,37.49514],[-122.02011,37.50527],[-122.06139,37.51865],[-122.09804,37.53048],[-122.11363,37.53557],[-122.15575,37.54926],[-122.17561,37.55565],[-122.21399,37.56786],[-122.23944,37.57621],[-122.24874,37.57926],[-122.29056,37.5916],[-122.31385,37.59867],[-122.34592,37.60891],[-122.36032,37.61578]]}
}
