{
  "id": 2048542135,
  "type": "Feature",
  "properties": {
    "geom:area": 0,
    "geom:bbox": "-122.364000,37.631830,-121.289580,38.512310",
    "geom:latitude": 38.11980433244768,
    "geom:longitude": -121.89157559914611,
    "src:alt_label": "swim-takeoff",
    "src:geom": "swim",
    "swim:elevations": [
      152,
      375,
      686,
      806,
      1132,
      1241,
      1330,
      1706,
      1852,
      2261,
      2336,
      2447,
      2942,
      3163,
      3387,
      3494,
      3731,
      3944,
      4069,
      4391,
      4549,
      4676,
      4915,
      5208,
      5380,
      5424,
      5668,
      5806,
      5946,
      6109,
      6161
    ],
    "swim:geom": "takeoff",
    "swim:timestamps": [
      1791384388,
      1791384409,
      1791384441,
      1791384455,
      1791384502,
      1791384530,
      1791384553,
      1791384594,
      1791384609,
      1791384645,
      1791384652,
      1791384662,
      1791384712,
      1791384731,
      1791384768,
      1791384788,
      1791384829,
      1791384867,
      1791384885,
      1791384923,
      1791384941,
      1791384960,
      1791384998,
      1791385047,
      1791385074,
      1791385080,
      1791385116,
      1791385140,
      1791385164,
      1791385195,
      1791385203
    ],
    "wof:geomhash": "e40e150747734758911ede36f960e3c0",
    "wof:id": 2048542135,
    "wof:repo": "sfomuseum-data-flights-2026-10"
  },
  "bbox": [
    -122.364,
    37.63183,
    -121.28958,
    38.51231
  ],
  "geometry": {"type":"LineString","coordinates":[[-122.364,37.63183],[-122.3502,37.64549],[-122.32029,37.66066],[-122.30747,37.66775],[-122.26784,37.69604],[-122.25818,37.7243],[-122.25113,37.75101],[-122.2732,37.80001],[-122.27859,37.81943],[-122.25704,37.86417],[-122.24881,37.87117],[-122.23687,37.88096],[-122.17485,37.93075],[-122.15047,37.9519],[-122.1014,37.99307],[-122.07253,38.01653],[-122.01148,38.06686],[-121.95178,38.11638],[-121.92208,38.14102],[-121.85901,38.19263],[-121.82898,38.21724],[-121.79782,38.24281],[-121.73457,38.29459],[-121.63407,38.34853],[-121.57561,38.37679],[-121.56111,38.38375],[-121.48341,38.42062],[-121.42921,38.44623],[-121.37594,38.4715],[-121.30582,38.50467],[-121.28958,38.51231]]}
}
