{
  "id": 2048551465,
  "type": "Feature",
  "properties": {
    "date:inception_lower": "2026-10-08",
    "date:inception_upper": "2026-10-08",
    "edtf:cessation": "",
    "edtf:inception": "2026-10-08",
    "flysfo:actual_timestamp": -1,
    "flysfo:airline": "UA",
    "flysfo:base_airline": "",
    "flysfo:base_flight_number": "9369",
    "flysfo:date": "2026-10-08",
    "flysfo:estimated_timestamp": 1791502020,
    "flysfo:event": "D",
    "flysfo:flight_number": "UA5711",
    "flysfo:gate": "E6",
    "flysfo:journey": "SFO-ASE",
    "flysfo:scheduled_timestamp": 1791502500,
    "flysfo:timestamp": 1791502500,
    "geom:area": 0,
    "geom:bbox": "-122.370943,37.617990,-106.869003,39.223202",
    "geom:latitude": 38.420596,
    "geom:longitude": -114.619973,
    "iata:airline": "UA",
    "iata:base_airline": "",
    "icao:airline": "UAL",
    "icao:base_airline": "ANZ",
    "lbl:latitude": 37.618774,
    "lbl:longitude": -122.384852,
    "sfomuseum:airline_id": 1159285413,
    "sfomuseum:arrival_id": 102531993,
    "sfomuseum:base_flight_id": "20261008-D-ANZ-9369",
    "sfomuseum:departure_id": 102527513,
    "sfomuseum:flight_id": "20261008-D-UAL-5711",
    "sfomuseum:flight_number": [
      "UAL5711",
      "UA5711"
    ],
    "sfomuseum:placetype": "flight",
    "src:geom": "flysfo",
    "wof:belongsto": [
      1947304067,
      102527513,
      1947304511,
      102191575,
      85633793,
      102087579,
      85922583,
      554784711,
      85688637,
      1947304513,
      1947304447,
      102085387
    ],
    "wof:country": "US",
    "wof:created": 1791562683,
    "wof:geomhash": "95a2235904af21042840e5d37d42d65b",
    "wof:hierarchy": [
      {
        "building_id": 1947304067,
        "campus_id": 102527513,
        "concourse_id": 1947304511,
        "continent_id": 102191575,
        "country_id": 85633793,
        "county_id": 102087579,
        "custom_id": 2048551465,
        "flight_id": 2048551465,
        "locality_id": 85922583,
        "postalcode_id": 554784711,
        "region_id": 85688637,
        "venue_id": 1947304513,
        "wing_id": 1947304447
      },
      {
        "building_id": 1947304067,
        "campus_id": 102527513,
        "concourse_id": 1947304511,
        "continent_id": 102191575,
        "country_id": 85633793,
        "county_id": 102085387,
        "custom_id": 2048551465,
        "flight_id": 2048551465,
        "region_id": 85688637,
        "venue_id": 1947304513,
        "wing_id": 1947304447
      }
    ],
    "wof:id": 2048551465,
    "wof:involves": [
      102531993,
      102527513,
      1159285413,
      1947304513,
      1159283697
    ],
    "wof:lastmodified": 1791562683,
    "wof:name": "UA5711 (SFO-ASE)",
    "wof:parent_id": 1947304513,
    "wof:placetype": "custom",
    "wof:placetype_alt": [
      "flight"
    ],
    "wof:repo": "sfomuseum-data-flights-2026-10",
    "wof:superseded_by": [],
    "wof:supersedes": []
  },
  "bbox": [
    -122.370943,
    37.61799,
    -106.869003,
    39.223202
  ],
  "geometry": {"type":"MultiPoint","coordinates":[[-122.370943,37.61799],[-106.869003,39.223202]]}
}
