{
  "id": 2048547509,
  "type": "Feature",
  "properties": {
    "date:inception_lower": "2026-10-08",
    "date:inception_upper": "2026-10-08",
    "edtf:cessation": "",
    "edtf:inception": "2026-10-08",
    "flysfo:actual_timestamp": -1,
    "flysfo:airline": "VA",
    "flysfo:base_airline": "",
    "flysfo:base_flight_number": "7021",
    "flysfo:date": "2026-10-08",
    "flysfo:estimated_timestamp": 1791474240,
    "flysfo:event": "A",
    "flysfo:flight_number": "VA8451",
    "flysfo:gate": "E6",
    "flysfo:journey": "PHL-SFO",
    "flysfo:scheduled_timestamp": 1791475380,
    "flysfo:timestamp": 1791475380,
    "geom:area": 0,
    "geom:bbox": "-122.370943,37.617990,-75.247885,39.880952",
    "geom:latitude": 38.749471,
    "geom:longitude": -98.809414,
    "iata:airline": "VA",
    "iata:base_airline": "",
    "icao:airline": "VOZ",
    "icao:base_airline": "ANA",
    "lbl:latitude": 37.618774,
    "lbl:longitude": -122.384852,
    "sfomuseum:airline_id": 1159285485,
    "sfomuseum:arrival_id": 102527513,
    "sfomuseum:base_flight_id": "20261008-A-ANA-7021",
    "sfomuseum:departure_id": 102529403,
    "sfomuseum:flight_id": "20261008-A-VOZ-8451",
    "sfomuseum:flight_number": [
      "VOZ8451",
      "VA8451"
    ],
    "sfomuseum:placetype": "flight",
    "src:geom": "flysfo",
    "wof:belongsto": [
      1947304067,
      102527513,
      1947304511,
      102191575,
      85633793,
      102087579,
      85922583,
      554784711,
      85688637,
      1947304513,
      1947304447,
      102085387
    ],
    "wof:country": "US",
    "wof:created": 1791562236,
    "wof:geomhash": "70ecaf1bff2da3af9ba52c9bde5534af",
    "wof:hierarchy": [
      {
        "building_id": 1947304067,
        "campus_id": 102527513,
        "concourse_id": 1947304511,
        "continent_id": 102191575,
        "country_id": 85633793,
        "county_id": 102087579,
        "custom_id": 2048547509,
        "flight_id": 2048547509,
        "locality_id": 85922583,
        "postalcode_id": 554784711,
        "region_id": 85688637,
        "venue_id": 1947304513,
        "wing_id": 1947304447
      },
      {
        "building_id": 1947304067,
        "campus_id": 102527513,
        "concourse_id": 1947304511,
        "continent_id": 102191575,
        "country_id": 85633793,
        "county_id": 102085387,
        "custom_id": 2048547509,
        "flight_id": 2048547509,
        "region_id": 85688637,
        "venue_id": 1947304513,
        "wing_id": 1947304447
      }
    ],
    "wof:id": 2048547509,
    "wof:involves": [
      102527513,
      102529403,
      1159285485,
      1947304513,
      1159283875
    ],
    "wof:lastmodified": 1791562236,
    "wof:name": "VA8451 (PHL-SFO)",
    "wof:parent_id": 1947304513,
    "wof:placetype": "custom",
    "wof:placetype_alt": [
      "flight"
    ],
    "wof:repo": "sfomuseum-data-flights-2026-10",
    "wof:superseded_by": [],
    "wof:supersedes": []
  },
  "bbox": [
    -122.370943,
    37.61799,
    -75.247885,
    39.880952
  ],
  "geometry": {"type":"MultiPoint","coordinates":[[-75.247885,39.880952],[-122.370943,37.61799]]}
}
