{
  "id": 2048511341,
  "type": "Feature",
  "properties": {
    "geom:area": 0,
    "geom:bbox": "-122.357320,37.491550,-121.271140,37.613550",
    "geom:latitude": 37.5458094081683,
    "geom:longitude": -121.81904120705924,
    "src:alt_label": "swim-approach",
    "src:geom": "swim",
    "swim:elevations": [
      4526,
      4339,
      4116,
      4052,
      3855,
      3567,
      3386,
      3232,
      3052,
      2839,
      2723,
      2491,
      2334,
      2240,
      2058,
      1909,
      1785,
      1603,
      1424,
      1260,
      1069,
      1024,
      731,
      544,
      504,
      231,
      198,
      41
    ],
    "swim:geom": "approach",
    "swim:timestamps": [
      1791107875,
      1791107898,
      1791107937,
      1791107948,
      1791107982,
      1791108023,
      1791108056,
      1791108078,
      1791108107,
      1791108146,
      1791108163,
      1791108204,
      1791108231,
      1791108250,
      1791108286,
      1791108324,
      1791108350,
      1791108383,
      1791108414,
      1791108441,
      1791108471,
      1791108481,
      1791108534,
      1791108568,
      1791108573,
      1791108628,
      1791108639,
      1791108679
    ],
    "wof:geomhash": "ef4f0bb8aef88e2b88b0faba348ad1e5",
    "wof:id": 2048511341,
    "wof:repo": "sfomuseum-data-flights-2026-10"
  },
  "bbox": [
    -122.35732,
    37.49155,
    -121.27114,
    37.61355
  ],
  "geometry": {"type":"LineString","coordinates":[[-121.27114,37.59159],[-121.31467,37.58665],[-121.38543,37.57877],[-121.40586,37.57639],[-121.4618,37.56953],[-121.52858,37.56219],[-121.57998,37.55594],[-121.61186,37.55223],[-121.65429,37.54358],[-121.70977,37.53052],[-121.73345,37.52485],[-121.78904,37.51156],[-121.82684,37.50249],[-121.85209,37.49646],[-121.90292,37.49155],[-121.95855,37.49304],[-121.9945,37.49686],[-122.03757,37.51072],[-122.07726,37.52361],[-122.11167,37.53477],[-122.14653,37.54596],[-122.15821,37.54967],[-122.21866,37.5695],[-122.25661,37.58166],[-122.2623,37.58344],[-122.31506,37.59878],[-122.32384,37.60146],[-122.35732,37.61355]]}
}
