{
  "id": 2048545095,
  "type": "Feature",
  "properties": {
    "geom:area": 0,
    "geom:bbox": "-122.897560,37.432990,-122.096660,38.442690",
    "geom:latitude": 37.794395649294856,
    "geom:longitude": -122.54343414162426,
    "src:alt_label": "swim-approach",
    "src:geom": "swim",
    "swim:elevations": [
      8504,
      8250,
      8050,
      7629,
      7314,
      6980,
      6860,
      6805,
      6516,
      6277,
      5805,
      5579,
      5384,
      4975,
      4927,
      4476,
      4217,
      3947,
      3784,
      3475,
      3353,
      3167,
      3096,
      2966,
      2873,
      2503,
      2279,
      2051,
      1849,
      1421,
      1281,
      1102,
      962,
      939,
      743,
      534,
      470,
      337,
      244,
      99,
      63
    ],
    "swim:geom": "approach",
    "swim:timestamps": [
      1791463018,
      1791463046,
      1791463064,
      1791463103,
      1791463133,
      1791463164,
      1791463176,
      1791463183,
      1791463211,
      1791463236,
      1791463284,
      1791463309,
      1791463336,
      1791463375,
      1791463381,
      1791463431,
      1791463460,
      1791463493,
      1791463512,
      1791463550,
      1791463566,
      1791463616,
      1791463636,
      1791463674,
      1791463697,
      1791463736,
      1791463760,
      1791463784,
      1791463809,
      1791463856,
      1791463880,
      1791463916,
      1791463946,
      1791463953,
      1791463993,
      1791464033,
      1791464046,
      1791464078,
      1791464102,
      1791464145,
      1791464161
    ],
    "wof:geomhash": "5c591928dfdd9d6dbc4b12b477d93a7e",
    "wof:id": 2048545095,
    "wof:repo": "sfomuseum-data-flights-2026-10"
  },
  "bbox": [
    -122.89756,
    37.43299,
    -122.09666,
    38.44269
  ],
  "geometry": {"type":"LineString","coordinates":[[-122.89756,38.44269],[-122.8925,38.3808],[-122.88933,38.34123],[-122.88236,38.25961],[-122.87732,38.19832],[-122.87248,38.13788],[-122.87068,38.11484],[-122.86941,38.10156],[-122.85418,38.04941],[-122.83571,38.00641],[-122.79969,37.92336],[-122.78146,37.88116],[-122.75947,37.83739],[-122.69723,37.79172],[-122.68641,37.78588],[-122.59817,37.73863],[-122.54815,37.71167],[-122.49199,37.68136],[-122.45969,37.66389],[-122.40025,37.6317],[-122.37625,37.61873],[-122.32844,37.5647],[-122.31394,37.5415],[-122.28824,37.50072],[-122.26932,37.47991],[-122.21996,37.46252],[-122.18991,37.45282],[-122.15909,37.44251],[-122.12887,37.43299],[-122.09666,37.46581],[-122.114,37.48646],[-122.14187,37.5149],[-122.16825,37.53102],[-122.17506,37.53405],[-122.21476,37.55121],[-122.25404,37.5678],[-122.26646,37.57307],[-122.29294,37.58455],[-122.31002,37.59386],[-122.34124,37.60685],[-122.35185,37.61132]]}
}
