{
  "id": 2048487785,
  "type": "Feature",
  "properties": {
    "date:inception_lower": "2026-10-01",
    "date:inception_upper": "2026-10-01",
    "edtf:cessation": "",
    "edtf:inception": "2026-10-01",
    "flysfo:actual_timestamp": -1,
    "flysfo:airline": "DL",
    "flysfo:date": "2026-10-01",
    "flysfo:estimated_timestamp": 1790862000,
    "flysfo:event": "D",
    "flysfo:flight_number": "DL8838",
    "flysfo:gate": "C3",
    "flysfo:journey": "SFO-DAL",
    "flysfo:scheduled_timestamp": 1790860500,
    "flysfo:timestamp": 1790862000,
    "geom:area": 0,
    "geom:bbox": "-122.370943,32.845849,-96.850523,37.617990",
    "geom:latitude": 35.231919500000004,
    "geom:longitude": -109.610733,
    "iata:airline": "DL",
    "icao:airline": "DAL",
    "lbl:latitude": 37.615398,
    "lbl:longitude": -122.383426,
    "sfomuseum:airline_id": 1159284261,
    "sfomuseum:arrival_id": 102525799,
    "sfomuseum:departure_id": 102527513,
    "sfomuseum:flight_id": "20261001-D-DAL-8838",
    "sfomuseum:flight_number": [
      "DAL8838",
      "DL8838"
    ],
    "sfomuseum:placetype": "flight",
    "src:geom": "flysfo",
    "wof:belongsto": [
      1947304067,
      102527513,
      1947304663,
      102191575,
      85633793,
      102087579,
      85922583,
      554784711,
      85688637,
      1947304671,
      1947304591,
      102085387
    ],
    "wof:country": "US",
    "wof:created": 1790957623,
    "wof:geomhash": "a08c5b1a6c329f228ec453404f254a51",
    "wof:hierarchy": [
      {
        "building_id": 1947304067,
        "campus_id": 102527513,
        "concourse_id": 1947304663,
        "continent_id": 102191575,
        "country_id": 85633793,
        "county_id": 102087579,
        "custom_id": 2048487785,
        "flight_id": 2048487785,
        "locality_id": 85922583,
        "postalcode_id": 554784711,
        "region_id": 85688637,
        "venue_id": 1947304671,
        "wing_id": 1947304591
      },
      {
        "building_id": 1947304067,
        "campus_id": 102527513,
        "concourse_id": 1947304663,
        "continent_id": 102191575,
        "country_id": 85633793,
        "county_id": 102085387,
        "custom_id": 2048487785,
        "flight_id": 2048487785,
        "region_id": 85688637,
        "venue_id": 1947304671,
        "wing_id": 1947304591
      }
    ],
    "wof:id": 2048487785,
    "wof:involves": [
      102525799,
      102527513,
      1159284261,
      1947304671
    ],
    "wof:lastmodified": 1790957623,
    "wof:name": "DL8838 (SFO-DAL)",
    "wof:parent_id": 1947304671,
    "wof:placetype": "custom",
    "wof:placetype_alt": [
      "flight"
    ],
    "wof:repo": "sfomuseum-data-flights-2026-10",
    "wof:superseded_by": [],
    "wof:supersedes": []
  },
  "bbox": [
    -122.370943,
    32.845849,
    -96.850523,
    37.61799
  ],
  "geometry": {"type":"MultiPoint","coordinates":[[-122.370943,37.61799],[-96.850523,32.845849]]}
}
