{
  "id": 2048515935,
  "type": "Feature",
  "properties": {
    "date:inception_lower": "2026-10-04",
    "date:inception_upper": "2026-10-04",
    "edtf:cessation": "",
    "edtf:inception": "2026-10-04",
    "flysfo:actual_timestamp": -1,
    "flysfo:airline": "UA",
    "flysfo:base_airline": "",
    "flysfo:base_flight_number": "9319",
    "flysfo:date": "2026-10-04",
    "flysfo:estimated_timestamp": 1791146460,
    "flysfo:event": "D",
    "flysfo:flight_number": "UA4715",
    "flysfo:gate": "F8",
    "flysfo:journey": "SFO-ACV",
    "flysfo:scheduled_timestamp": 1791147000,
    "flysfo:timestamp": 1791147000,
    "geom:area": 0,
    "geom:bbox": "-124.108020,37.617990,-122.370943,40.971689",
    "geom:latitude": 39.294839499999995,
    "geom:longitude": -123.2394815,
    "iata:airline": "UA",
    "iata:base_airline": "",
    "icao:airline": "UAL",
    "icao:base_airline": "ANZ",
    "lbl:latitude": 37.61799,
    "lbl:longitude": -122.370943,
    "sfomuseum:airline_id": 1159285413,
    "sfomuseum:arrival_id": 102531997,
    "sfomuseum:base_flight_id": "20261004-D-ANZ-9319",
    "sfomuseum:departure_id": 102527513,
    "sfomuseum:flight_id": "20261004-D-UAL-4715",
    "sfomuseum:flight_number": [
      "UAL4715",
      "UA4715"
    ],
    "sfomuseum:placetype": "flight",
    "src:geom": "flysfo",
    "wof:belongsto": [
      1947304067,
      102527513,
      1947304451,
      102191575,
      85633793,
      102087579,
      85922583,
      554784711,
      85688637,
      1947304469,
      1947304447,
      102085387
    ],
    "wof:country": "US",
    "wof:created": 1791217035,
    "wof:geomhash": "5815a5b1ad78885fe3ae36c1daab138f",
    "wof:hierarchy": [
      {
        "building_id": 1947304067,
        "campus_id": 102527513,
        "concourse_id": 1947304451,
        "continent_id": 102191575,
        "country_id": 85633793,
        "county_id": 102087579,
        "custom_id": 2048515935,
        "flight_id": 2048515935,
        "locality_id": 85922583,
        "postalcode_id": 554784711,
        "region_id": 85688637,
        "venue_id": 1947304469,
        "wing_id": 1947304447
      },
      {
        "building_id": 1947304067,
        "campus_id": 102527513,
        "concourse_id": 1947304451,
        "continent_id": 102191575,
        "country_id": 85633793,
        "county_id": 102085387,
        "custom_id": 2048515935,
        "flight_id": 2048515935,
        "region_id": 85688637,
        "venue_id": 1947304469,
        "wing_id": 1947304447
      }
    ],
    "wof:id": 2048515935,
    "wof:involves": [
      102531997,
      102527513,
      1159285413,
      1947304469,
      1159283697
    ],
    "wof:lastmodified": 1791217035,
    "wof:name": "UA4715 (SFO-ACV)",
    "wof:parent_id": 1947304469,
    "wof:placetype": "custom",
    "wof:placetype_alt": [
      "flight"
    ],
    "wof:repo": "sfomuseum-data-flights-2026-10",
    "wof:superseded_by": [],
    "wof:supersedes": []
  },
  "bbox": [
    -124.10802,
    37.61799,
    -122.370943,
    40.971689
  ],
  "geometry": {"type":"MultiPoint","coordinates":[[-122.370943,37.61799],[-124.10802,40.971689]]}
}
