{
  "id": 2048559817,
  "type": "Feature",
  "properties": {
    "geom:area": 0,
    "geom:bbox": "-122.461630,36.738490,-121.437430,37.715120",
    "geom:latitude": 37.24072138985468,
    "geom:longitude": -122.03606433112384,
    "src:alt_label": "swim-takeoff",
    "src:geom": "swim",
    "swim:elevations": [
      220,
      269,
      534,
      726,
      1165,
      1399,
      2388,
      2605,
      3197,
      3364,
      3476,
      3735,
      4072,
      4744,
      4959,
      5645,
      5890,
      6469,
      7028,
      7409,
      7645,
      7998,
      8312,
      8628,
      8959,
      9081,
      9266,
      9665,
      10084,
      10240,
      10372
    ],
    "swim:geom": "takeoff",
    "swim:timestamps": [
      1791585924,
      1791585931,
      1791585965,
      1791585980,
      1791586005,
      1791586026,
      1791586078,
      1791586092,
      1791586136,
      1791586151,
      1791586163,
      1791586184,
      1791586203,
      1791586250,
      1791586265,
      1791586307,
      1791586323,
      1791586363,
      1791586404,
      1791586432,
      1791586452,
      1791586488,
      1791586517,
      1791586551,
      1791586587,
      1791586604,
      1791586621,
      1791586661,
      1791586708,
      1791586733,
      1791586749
    ],
    "wof:geomhash": "2ea5101198036c525f063434817e4059",
    "wof:id": 2048559817,
    "wof:repo": "sfomuseum-data-flights-2026-10"
  },
  "bbox": [
    -122.46163,
    36.73849,
    -121.43743,
    37.71512
  ],
  "geometry": {"type":"LineString","coordinates":[[-122.3664,37.63255],[-122.3641,37.63742],[-122.36274,37.66549],[-122.36163,37.68018],[-122.3701,37.70333],[-122.39126,37.71512],[-122.44566,37.69568],[-122.44975,37.68157],[-122.45668,37.62766],[-122.45941,37.60704],[-122.46163,37.58944],[-122.45872,37.55656],[-122.43728,37.53055],[-122.36362,37.47328],[-122.33872,37.45397],[-122.26856,37.3994],[-122.24157,37.37829],[-122.17205,37.32367],[-122.09964,37.26634],[-122.04877,37.226],[-122.01346,37.19796],[-121.94679,37.14469],[-121.8917,37.1009],[-121.8267,37.04925],[-121.75687,36.99317],[-121.72303,36.96652],[-121.68941,36.93989],[-121.61109,36.87853],[-121.51806,36.80373],[-121.46843,36.76365],[-121.43743,36.73849]]}
}
