{
  "id": 2048506771,
  "type": "Feature",
  "properties": {
    "geom:area": 0,
    "geom:bbox": "-122.525620,37.633870,-121.423690,38.518950",
    "geom:latitude": 38.089228080764485,
    "geom:longitude": -122.05075893532572,
    "src:alt_label": "swim-takeoff",
    "src:geom": "swim",
    "swim:elevations": [
      313,
      615,
      988,
      1128,
      1218,
      1422,
      1943,
      2214,
      2716,
      2809,
      3204,
      3323,
      3660,
      3720,
      4134,
      4261,
      4517,
      4726,
      4914,
      5206,
      5603,
      5866,
      6106,
      6345,
      6532,
      6767,
      7071,
      7263,
      7389
    ],
    "swim:geom": "takeoff",
    "swim:timestamps": [
      1791039048,
      1791039078,
      1791039117,
      1791039145,
      1791039171,
      1791039190,
      1791039235,
      1791039260,
      1791039298,
      1791039305,
      1791039350,
      1791039366,
      1791039412,
      1791039422,
      1791039473,
      1791039486,
      1791039510,
      1791039532,
      1791039551,
      1791039583,
      1791039623,
      1791039653,
      1791039686,
      1791039717,
      1791039743,
      1791039772,
      1791039808,
      1791039836,
      1791039850
    ],
    "wof:geomhash": "a6b22e54cb0d7df7d5d0ca3349ee022f",
    "wof:id": 2048506771,
    "wof:repo": "sfomuseum-data-flights-2026-10"
  },
  "bbox": [
    -122.52562,
    37.63387,
    -121.42369,
    38.51895
  ],
  "geometry": {"type":"LineString","coordinates":[[-122.41156,37.63387],[-122.44167,37.6471],[-122.48283,37.66502],[-122.51341,37.6815],[-122.52556,37.70949],[-122.52562,37.73428],[-122.52362,37.7932],[-122.49399,37.81736],[-122.43554,37.84194],[-122.4266,37.84733],[-122.36593,37.88964],[-122.34234,37.90599],[-122.27109,37.9549],[-122.25511,37.96584],[-122.16617,38.02669],[-122.14456,38.04162],[-122.10252,38.0706],[-122.06189,38.0984],[-122.02788,38.1214],[-121.96898,38.16127],[-121.89269,38.21323],[-121.83489,38.25235],[-121.7716,38.2953],[-121.70826,38.33818],[-121.65706,38.37278],[-121.59572,38.41405],[-121.51843,38.46322],[-121.45598,38.49985],[-121.42369,38.51895]]}
}
