{
  "id": 2048556299,
  "type": "Feature",
  "properties": {
    "geom:area": 0,
    "geom:bbox": "-123.506830,37.259080,-122.110060,37.612150",
    "geom:latitude": 37.357437699358755,
    "geom:longitude": -122.69632453933353,
    "src:alt_label": "swim-approach",
    "src:geom": "swim",
    "swim:elevations": [
      5060,
      4695,
      4347,
      4093,
      3908,
      3542,
      3291,
      3261,
      3171,
      3075,
      2983,
      2966,
      2893,
      2837,
      2807,
      2773,
      2740,
      2681,
      2630,
      2570,
      2509,
      2381,
      2285,
      2035,
      1927,
      1695,
      1523,
      1386,
      1219,
      1219,
      1219,
      1187,
      1081,
      1063,
      970,
      871,
      711,
      575,
      422,
      380,
      236,
      115,
      32
    ],
    "swim:geom": "approach",
    "swim:timestamps": [
      1791614118,
      1791614154,
      1791614187,
      1791614214,
      1791614229,
      1791614262,
      1791614303,
      1791614311,
      1791614347,
      1791614388,
      1791614426,
      1791614438,
      1791614477,
      1791614513,
      1791614525,
      1791614546,
      1791614573,
      1791614603,
      1791614637,
      1791614657,
      1791614671,
      1791614698,
      1791614719,
      1791614752,
      1791614767,
      1791614795,
      1791614817,
      1791614840,
      1791614877,
      1791614886,
      1791614921,
      1791614936,
      1791614964,
      1791614970,
      1791615006,
      1791615055,
      1791615083,
      1791615115,
      1791615147,
      1791615159,
      1791615197,
      1791615224,
      1791615244
    ],
    "wof:geomhash": "442f1d684f883e4f6fe898a8ce502540",
    "wof:id": 2048556299,
    "wof:repo": "sfomuseum-data-flights-2026-10"
  },
  "bbox": [
    -123.50683,
    37.25908,
    -122.11006,
    37.61215
  ],
  "geometry": {"type":"LineString","coordinates":[[-123.50683,37.30028],[-123.41552,37.29478],[-123.33379,37.28934],[-123.26823,37.28499],[-123.23217,37.28259],[-123.15356,37.27765],[-123.05978,37.27122],[-123.04158,37.26995],[-122.96459,37.26458],[-122.88071,37.25908],[-122.80943,37.27037],[-122.78925,37.27505],[-122.72194,37.29071],[-122.66041,37.30501],[-122.64076,37.30954],[-122.60814,37.31711],[-122.56692,37.32675],[-122.52113,37.33733],[-122.46836,37.34945],[-122.43926,37.35616],[-122.41932,37.36077],[-122.37964,37.36989],[-122.34989,37.3766],[-122.30405,37.38727],[-122.28314,37.39208],[-122.24433,37.40107],[-122.21415,37.40789],[-122.18134,37.41522],[-122.13284,37.42899],[-122.12499,37.43592],[-122.11006,37.46942],[-122.11188,37.48421],[-122.12915,37.5063],[-122.13309,37.51082],[-122.16053,37.53089],[-122.20182,37.54819],[-122.225,37.55795],[-122.25324,37.56983],[-122.28012,37.58115],[-122.28937,37.58496],[-122.31805,37.59713],[-122.33847,37.60564],[-122.35384,37.61215]]}
}
