{
  "id": 2048490475,
  "type": "Feature",
  "properties": {
    "geom:area": 0,
    "geom:bbox": "-122.351650,37.472500,-121.253500,37.611180",
    "geom:latitude": 37.527727985078286,
    "geom:longitude": -121.79914463591342,
    "src:alt_label": "swim-approach",
    "src:geom": "swim",
    "swim:elevations": [
      4513,
      4273,
      4005,
      3753,
      3431,
      3355,
      3353,
      3353,
      3291,
      3206,
      3030,
      2731,
      2560,
      2446,
      2282,
      2190,
      2058,
      1859,
      1829,
      1829,
      1694,
      1650,
      1130,
      971,
      827,
      704,
      516,
      336,
      243,
      138,
      43
    ],
    "swim:geom": "approach",
    "swim:timestamps": [
      1790935427,
      1790935451,
      1790935491,
      1790935517,
      1790935558,
      1790935579,
      1790935614,
      1790935631,
      1790935678,
      1790935698,
      1790935723,
      1790935758,
      1790935787,
      1790935810,
      1790935854,
      1790935867,
      1790935915,
      1790935944,
      1790935968,
      1790935997,
      1790936035,
      1790936040,
      1790936098,
      1790936113,
      1790936141,
      1790936163,
      1790936202,
      1790936243,
      1790936271,
      1790936296,
      1790936318
    ],
    "wof:geomhash": "791b09a0f171e294169d86377bbc5001",
    "wof:id": 2048490475,
    "wof:repo": "sfomuseum-data-flights-2026-10"
  },
  "bbox": [
    -122.35165,
    37.4725,
    -121.2535,
    37.61118
  ],
  "geometry": {"type":"LineString","coordinates":[[-121.2535,37.59389],[-121.29478,37.58403],[-121.33387,37.53874],[-121.37227,37.51811],[-121.44271,37.52422],[-121.47928,37.52953],[-121.53889,37.53826],[-121.56918,37.54275],[-121.64499,37.54539],[-121.673,37.53962],[-121.70802,37.54423],[-121.75589,37.54214],[-121.77349,37.51505],[-121.78213,37.49207],[-121.83449,37.47625],[-121.85189,37.47583],[-121.91838,37.47455],[-121.95718,37.47351],[-121.99023,37.4725],[-122.03045,37.47692],[-122.0783,37.49603],[-122.08383,37.49833],[-122.15458,37.52832],[-122.17148,37.53537],[-122.20351,37.54887],[-122.22611,37.55833],[-122.26283,37.57386],[-122.29559,37.58756],[-122.31721,37.59677],[-122.33494,37.60422],[-122.35165,37.61118]]}
}
