{
  "id": 2048538023,
  "type": "Feature",
  "properties": {
    "geom:area": 0,
    "geom:bbox": "-122.349740,37.473840,-121.288920,37.610370",
    "geom:latitude": 37.54604821213085,
    "geom:longitude": -121.82196328816912,
    "src:alt_label": "swim-approach",
    "src:geom": "swim",
    "swim:elevations": [
      4503,
      4397,
      4293,
      4056,
      4020,
      3721,
      3600,
      3466,
      3382,
      3357,
      3276,
      3120,
      3048,
      3035,
      2874,
      2639,
      2499,
      2355,
      2255,
      2116,
      2039,
      1888,
      1828,
      1685,
      1479,
      1304,
      1180,
      1149,
      1089,
      944,
      745,
      670,
      548,
      393,
      246,
      123,
      66
    ],
    "swim:geom": "approach",
    "swim:timestamps": [
      1791363230,
      1791363241,
      1791363253,
      1791363294,
      1791363303,
      1791363358,
      1791363381,
      1791363404,
      1791363416,
      1791363420,
      1791363467,
      1791363493,
      1791363533,
      1791363561,
      1791363583,
      1791363620,
      1791363635,
      1791363685,
      1791363713,
      1791363746,
      1791363757,
      1791363781,
      1791363808,
      1791363830,
      1791363864,
      1791363898,
      1791363926,
      1791363931,
      1791363942,
      1791363973,
      1791364018,
      1791364037,
      1791364063,
      1791364098,
      1791364138,
      1791364167,
      1791364180
    ],
    "wof:geomhash": "986f31d4db81eba363846fb0e8edca9c",
    "wof:id": 2048538023,
    "wof:repo": "sfomuseum-data-flights-2026-10"
  },
  "bbox": [
    -122.34974,
    37.47384,
    -121.28892,
    37.61037
  ],
  "geometry": {"type":"LineString","coordinates":[[-121.28892,37.58935],[-121.31146,37.58698],[-121.33511,37.58447],[-121.41344,37.57553],[-121.43058,37.57354],[-121.52291,37.56272],[-121.55831,37.55853],[-121.59376,37.55444],[-121.61163,37.55233],[-121.61757,37.55157],[-121.68299,37.54134],[-121.71738,37.55755],[-121.7701,37.58154],[-121.80571,37.56943],[-121.81448,37.5478],[-121.79454,37.51176],[-121.79285,37.49621],[-121.84845,37.47384],[-121.88658,37.47945],[-121.92812,37.48539],[-121.94153,37.48733],[-121.96968,37.49147],[-122.00013,37.49855],[-122.02376,37.50629],[-122.06093,37.51828],[-122.09755,37.53037],[-122.12861,37.54016],[-122.13327,37.5418],[-122.14447,37.54555],[-122.17394,37.55511],[-122.21467,37.56819],[-122.23087,37.57335],[-122.25335,37.58063],[-122.28307,37.58932],[-122.31567,37.59915],[-122.33966,37.60647],[-122.34974,37.61037]]}
}
