{
  "id": 2048504709,
  "type": "Feature",
  "properties": {
    "geom:area": 0,
    "geom:bbox": "-122.364530,37.631060,-121.251540,38.122420",
    "geom:latitude": 37.89294837185504,
    "geom:longitude": -121.81604493773737,
    "src:alt_label": "swim-takeoff",
    "src:geom": "swim",
    "swim:elevations": [
      152,
      356,
      425,
      481,
      849,
      972,
      1177,
      1518,
      1991,
      2280,
      2527,
      2933,
      3400,
      3657,
      3856,
      4030,
      4217,
      4519,
      4742,
      5019,
      5170,
      5244,
      5665,
      5865,
      6010,
      6302,
      6377
    ],
    "swim:geom": "takeoff",
    "swim:timestamps": [
      1791035668,
      1791035686,
      1791035695,
      1791035703,
      1791035757,
      1791035771,
      1791035799,
      1791035831,
      1791035871,
      1791035897,
      1791035920,
      1791035952,
      1791035991,
      1791036015,
      1791036048,
      1791036081,
      1791036101,
      1791036131,
      1791036159,
      1791036189,
      1791036206,
      1791036215,
      1791036265,
      1791036289,
      1791036313,
      1791036355,
      1791036367
    ],
    "wof:geomhash": "e3136ba8927dcb0621503d3144669ea5",
    "wof:id": 2048504709,
    "wof:repo": "sfomuseum-data-flights-2026-10"
  },
  "bbox": [
    -122.36453,
    37.63106,
    -121.25154,
    38.12242
  ],
  "geometry": {"type":"LineString","coordinates":[[-122.36453,37.63106],[-122.35291,37.64289],[-122.34518,37.6473],[-122.33808,37.65119],[-122.2805,37.68261],[-122.2652,37.69135],[-122.23134,37.70899],[-122.18794,37.73125],[-122.13357,37.75914],[-122.09771,37.77784],[-122.06466,37.79507],[-122.02018,37.81855],[-121.95992,37.84435],[-121.92324,37.859],[-121.86907,37.88013],[-121.81187,37.90266],[-121.77388,37.91776],[-121.7186,37.93974],[-121.66756,37.95971],[-121.60875,37.98272],[-121.57638,37.99544],[-121.55864,38.00236],[-121.4603,38.04105],[-121.41356,38.05926],[-121.36449,38.0783],[-121.27693,38.11253],[-121.25154,38.12242]]}
}
