{
  "id": 2048525237,
  "type": "Feature",
  "properties": {
    "geom:area": 0,
    "geom:bbox": "-122.363920,37.632220,-121.258460,38.119900",
    "geom:latitude": 37.89180236778409,
    "geom:longitude": -121.81893233735356,
    "src:alt_label": "swim-takeoff",
    "src:geom": "swim",
    "swim:elevations": [
      152,
      520,
      839,
      1023,
      1090,
      1322,
      1611,
      2009,
      2191,
      2464,
      3000,
      3286,
      3430,
      3701,
      4143,
      4194,
      4345,
      4670,
      4885,
      5126,
      5583,
      5829,
      6146,
      6404,
      6524,
      6678
    ],
    "swim:geom": "takeoff",
    "swim:timestamps": [
      1791184793,
      1791184826,
      1791184858,
      1791184882,
      1791184897,
      1791184942,
      1791184977,
      1791185005,
      1791185021,
      1791185046,
      1791185090,
      1791185118,
      1791185147,
      1791185171,
      1791185208,
      1791185214,
      1791185229,
      1791185261,
      1791185283,
      1791185311,
      1791185360,
      1791185390,
      1791185427,
      1791185454,
      1791185471,
      1791185494
    ],
    "wof:geomhash": "6506033cb80b8b77eeff7b9cf45c0023",
    "wof:id": 2048525237,
    "wof:repo": "sfomuseum-data-flights-2026-10"
  },
  "bbox": [
    -122.36392,
    37.63222,
    -121.25846,
    38.1199
  ],
  "geometry": {"type":"LineString","coordinates":[[-122.36392,37.63222],[-122.34024,37.65199],[-122.31035,37.66612],[-122.2896,37.67777],[-122.27553,37.68577],[-122.22457,37.71245],[-122.17871,37.73589],[-122.14139,37.75553],[-122.11916,37.76702],[-122.08546,37.78448],[-122.0215,37.81766],[-121.98021,37.83702],[-121.93169,37.85584],[-121.88905,37.87184],[-121.82163,37.89787],[-121.81188,37.90175],[-121.78474,37.91277],[-121.72561,37.93649],[-121.68434,37.95289],[-121.62999,37.97425],[-121.53405,38.01206],[-121.47389,38.03567],[-121.39776,38.06546],[-121.34293,38.08708],[-121.30726,38.10103],[-121.25846,38.1199]]}
}
