{
  "id": 2048498705,
  "type": "Feature",
  "properties": {
    "date:cessation_lower": "1970-01-01",
    "date:cessation_upper": "1970-01-01",
    "date:inception_lower": "2026-10-02",
    "date:inception_upper": "2026-10-02",
    "edtf:cessation": "1970-01-01T00:00:00Z",
    "edtf:inception": "2026-10-02T02:39:07-07:00",
    "flysfo:actual_timestamp": -1,
    "flysfo:airline": "UA",
    "flysfo:base_airline": "",
    "flysfo:base_flight_number": "7938",
    "flysfo:date": "2026-10-02",
    "flysfo:estimated_timestamp": 1790955420,
    "flysfo:event": "D",
    "flysfo:flight_number": "UA583",
    "flysfo:gate": "F11",
    "flysfo:journey": "SFO-MCO",
    "flysfo:scheduled_timestamp": 1790955600,
    "flysfo:timestamp": 1790955600,
    "geom:area": 0,
    "geom:bbox": "-122.370943,28.431495,-81.307537,37.617990",
    "geom:latitude": 33.0247425,
    "geom:longitude": -101.83923999999999,
    "iata:airline": "UA",
    "iata:base_airline": "",
    "icao:aircraft": "B39M",
    "icao:airline": "UAL",
    "icao:base_airline": "AZU",
    "lbl:latitude": 37.620244,
    "lbl:longitude": -122.387813,
    "sfomuseum:aircraft_id": 1528104577,
    "sfomuseum:airline_id": 1159285413,
    "sfomuseum:arrival_id": 102533657,
    "sfomuseum:base_flight_id": "20261002-D-AZU-7938",
    "sfomuseum:departure_id": 102527513,
    "sfomuseum:flight_id": "20261002-D-UAL-583",
    "sfomuseum:flight_number": [
      "UAL583",
      "UA583"
    ],
    "sfomuseum:placetype": "flight",
    "src:geom": "flysfo",
    "src:geom_alt": [
      "swim-takeoff"
    ],
    "swim:tail_number": "N17401",
    "wof:belongsto": [
      1947304067,
      102527513,
      1947304451,
      102191575,
      85633793,
      102087579,
      85922583,
      554784711,
      85688637,
      1947304463,
      1947304447,
      102085387
    ],
    "wof:country": "US",
    "wof:created": 1791044195,
    "wof:geomhash": "33c9625a4901edf29154e5ec4b308b8b",
    "wof:hierarchy": [
      {
        "building_id": 1947304067,
        "campus_id": 102527513,
        "concourse_id": 1947304451,
        "continent_id": 102191575,
        "country_id": 85633793,
        "county_id": 102087579,
        "custom_id": 2048498705,
        "flight_id": 2048498705,
        "locality_id": 85922583,
        "postalcode_id": 554784711,
        "region_id": 85688637,
        "venue_id": 1947304463,
        "wing_id": 1947304447
      },
      {
        "building_id": 1947304067,
        "campus_id": 102527513,
        "concourse_id": 1947304451,
        "continent_id": 102191575,
        "country_id": 85633793,
        "county_id": 102085387,
        "custom_id": 2048498705,
        "flight_id": 2048498705,
        "region_id": 85688637,
        "venue_id": 1947304463,
        "wing_id": 1947304447
      }
    ],
    "wof:id": 2048498705,
    "wof:involves": [
      102527513,
      1159285413,
      1947304463,
      1779770723,
      1528104577,
      102533657
    ],
    "wof:lastmodified": 1791044321,
    "wof:name": "UA583 (SFO-MCO)",
    "wof:parent_id": 1947304463,
    "wof:placetype": "custom",
    "wof:placetype_alt": [
      "flight"
    ],
    "wof:repo": "sfomuseum-data-flights-2026-10",
    "wof:superseded_by": [],
    "wof:supersedes": []
  },
  "bbox": [
    -122.370943,
    28.431495,
    -81.307537,
    37.61799
  ],
  "geometry": {"type":"MultiPoint","coordinates":[[-122.370943,37.61799],[-81.307537,28.431495]]}
}
