{
  "id": 2048516211,
  "type": "Feature",
  "properties": {
    "geom:area": 0,
    "geom:bbox": "-122.526970,37.635040,-121.446750,38.505600",
    "geom:latitude": 38.08197569541703,
    "geom:longitude": -122.05904823130486,
    "src:alt_label": "swim-takeoff",
    "src:geom": "swim",
    "swim:elevations": [
      398,
      566,
      877,
      979,
      1068,
      1371,
      1501,
      2019,
      2211,
      2600,
      2827,
      3354,
      3379,
      3416,
      3538,
      4020,
      4262,
      4373,
      4725,
      4956,
      5134,
      5288,
      5470,
      5603,
      5778,
      5944,
      6106,
      6202,
      6456,
      6660,
      7003,
      7163,
      7405
    ],
    "swim:geom": "takeoff",
    "swim:timestamps": [
      1791119846,
      1791119863,
      1791119907,
      1791119923,
      1791119947,
      1791119998,
      1791120008,
      1791120056,
      1791120074,
      1791120107,
      1791120129,
      1791120175,
      1791120178,
      1791120190,
      1791120222,
      1791120266,
      1791120293,
      1791120303,
      1791120352,
      1791120377,
      1791120398,
      1791120414,
      1791120437,
      1791120452,
      1791120477,
      1791120500,
      1791120522,
      1791120532,
      1791120565,
      1791120594,
      1791120640,
      1791120661,
      1791120692
    ],
    "wof:geomhash": "e2022aafc4163fc3c342e502ed7a83a8",
    "wof:id": 2048516211,
    "wof:repo": "sfomuseum-data-flights-2026-10"
  },
  "bbox": [
    -122.52697,
    37.63504,
    -121.44675,
    38.5056
  ],
  "geometry": {"type":"LineString","coordinates":[[-122.41428,37.63504],[-122.43086,37.64238],[-122.47574,37.66171],[-122.49338,37.66938],[-122.51786,37.68461],[-122.52676,37.74559],[-122.52697,37.75979],[-122.49977,37.81493],[-122.47417,37.82385],[-122.4258,37.84389],[-122.39776,37.86406],[-122.33768,37.90482],[-122.33366,37.90745],[-122.31723,37.9188],[-122.27133,37.95102],[-122.2042,37.99747],[-122.16341,38.02554],[-122.14644,38.03728],[-122.06702,38.09214],[-122.02686,38.11969],[-121.99054,38.14461],[-121.96287,38.16368],[-121.92318,38.19089],[-121.89863,38.20765],[-121.85417,38.23787],[-121.81308,38.26569],[-121.77214,38.29355],[-121.75384,38.30603],[-121.69307,38.34746],[-121.63881,38.38447],[-121.55296,38.44202],[-121.50935,38.46889],[-121.44675,38.5056]]}
}
