{
  "id": 2048529509,
  "type": "Feature",
  "properties": {
    "geom:area": 0,
    "geom:bbox": "-122.358880,37.491630,-121.415820,37.614410",
    "geom:latitude": 37.540339613080555,
    "geom:longitude": -121.89137551155754,
    "src:alt_label": "swim-approach",
    "src:geom": "swim",
    "swim:elevations": [
      3804,
      3541,
      3194,
      3096,
      3075,
      2962,
      2725,
      2476,
      2317,
      2132,
      2044,
      1898,
      1687,
      1581,
      1492,
      1172,
      988,
      846,
      719,
      520,
      471,
      283,
      172,
      129,
      0
    ],
    "swim:geom": "approach",
    "swim:timestamps": [
      1791310402,
      1791310429,
      1791310468,
      1791310498,
      1791310507,
      1791310533,
      1791310567,
      1791310612,
      1791310642,
      1791310674,
      1791310694,
      1791310726,
      1791310766,
      1791310786,
      1791310800,
      1791310854,
      1791310885,
      1791310909,
      1791310936,
      1791310976,
      1791310987,
      1791311032,
      1791311061,
      1791311072,
      1791311102
    ],
    "wof:geomhash": "b99c45179adeac613e9913c0fd031713",
    "wof:id": 2048529509,
    "wof:repo": "sfomuseum-data-flights-2026-10"
  },
  "bbox": [
    -122.35888,
    37.49163,
    -121.41582,
    37.61441
  ],
  "geometry": {"type":"LineString","coordinates":[[-121.41582,37.57527],[-121.47149,37.56865],[-121.54781,37.55974],[-121.60578,37.55299],[-121.6213,37.55096],[-121.6667,37.54059],[-121.72132,37.52811],[-121.79049,37.51102],[-121.83371,37.50049],[-121.88049,37.49163],[-121.90997,37.49172],[-121.9589,37.49298],[-122.01473,37.50337],[-122.04242,37.5122],[-122.06017,37.51797],[-122.12785,37.53999],[-122.16398,37.55174],[-122.19219,37.56116],[-122.22041,37.57011],[-122.2585,37.58222],[-122.26891,37.58532],[-122.30683,37.59632],[-122.32954,37.60325],[-122.3373,37.60568],[-122.35888,37.61441]]}
}
