{
  "id": 2048542369,
  "type": "Feature",
  "properties": {
    "date:inception_lower": "2026-10-07",
    "date:inception_upper": "2026-10-07",
    "edtf:cessation": "",
    "edtf:inception": "2026-10-07",
    "flysfo:actual_timestamp": -1,
    "flysfo:airline": "UA",
    "flysfo:base_airline": "",
    "flysfo:base_flight_number": "7325",
    "flysfo:date": "2026-10-07",
    "flysfo:estimated_timestamp": 1791416280,
    "flysfo:event": "D",
    "flysfo:flight_number": "UA5951",
    "flysfo:gate": "E11",
    "flysfo:journey": "SFO-MSP",
    "flysfo:scheduled_timestamp": 1791416580,
    "flysfo:timestamp": 1791416580,
    "geom:area": 0,
    "geom:bbox": "-122.370943,37.617990,-93.200317,44.883321",
    "geom:latitude": 41.2506555,
    "geom:longitude": -107.78563,
    "iata:airline": "UA",
    "iata:base_airline": "",
    "icao:airline": "UAL",
    "icao:base_airline": "CCA",
    "lbl:latitude": 37.619367,
    "lbl:longitude": -122.38387,
    "sfomuseum:airline_id": 1159285413,
    "sfomuseum:arrival_id": 102531131,
    "sfomuseum:base_flight_id": "20261007-D-CCA-7325",
    "sfomuseum:departure_id": 102527513,
    "sfomuseum:flight_id": "20261007-D-UAL-5951",
    "sfomuseum:flight_number": [
      "UAL5951",
      "UA5951"
    ],
    "sfomuseum:placetype": "flight",
    "src:geom": "flysfo",
    "wof:belongsto": [
      1947304067,
      102527513,
      1947304511,
      102191575,
      85633793,
      102087579,
      85922583,
      554784711,
      85688637,
      1947304527,
      1947304447,
      102085387
    ],
    "wof:country": "US",
    "wof:created": 1791476204,
    "wof:geomhash": "bbdc3c5edf2b2678c807f6144214d82c",
    "wof:hierarchy": [
      {
        "building_id": 1947304067,
        "campus_id": 102527513,
        "concourse_id": 1947304511,
        "continent_id": 102191575,
        "country_id": 85633793,
        "county_id": 102087579,
        "custom_id": 2048542369,
        "flight_id": 2048542369,
        "locality_id": 85922583,
        "postalcode_id": 554784711,
        "region_id": 85688637,
        "venue_id": 1947304527,
        "wing_id": 1947304447
      },
      {
        "building_id": 1947304067,
        "campus_id": 102527513,
        "concourse_id": 1947304511,
        "continent_id": 102191575,
        "country_id": 85633793,
        "county_id": 102085387,
        "custom_id": 2048542369,
        "flight_id": 2048542369,
        "region_id": 85688637,
        "venue_id": 1947304527,
        "wing_id": 1947304447
      }
    ],
    "wof:id": 2048542369,
    "wof:involves": [
      102531131,
      102527513,
      1159285413,
      1947304527,
      1159283605
    ],
    "wof:lastmodified": 1791476204,
    "wof:name": "UA5951 (SFO-MSP)",
    "wof:parent_id": 1947304527,
    "wof:placetype": "custom",
    "wof:placetype_alt": [
      "flight"
    ],
    "wof:repo": "sfomuseum-data-flights-2026-10",
    "wof:superseded_by": [],
    "wof:supersedes": []
  },
  "bbox": [
    -122.370943,
    37.61799,
    -93.200317,
    44.883321
  ],
  "geometry": {"type":"MultiPoint","coordinates":[[-122.370943,37.61799],[-93.200317,44.883321]]}
}
