{
  "id": 2048518129,
  "type": "Feature",
  "properties": {
    "date:inception_lower": "2026-10-05",
    "date:inception_upper": "2026-10-05",
    "edtf:cessation": "",
    "edtf:inception": "2026-10-05",
    "flysfo:actual_timestamp": -1,
    "flysfo:airline": "NZ",
    "flysfo:base_airline": "",
    "flysfo:base_flight_number": "9418",
    "flysfo:date": "2026-10-05",
    "flysfo:estimated_timestamp": 1791218400,
    "flysfo:event": "A",
    "flysfo:flight_number": "NZ9418",
    "flysfo:gate": "F5",
    "flysfo:journey": "MSP-SFO",
    "flysfo:scheduled_timestamp": 1791217800,
    "flysfo:timestamp": 1791218400,
    "geom:area": 0,
    "geom:bbox": "-122.370943,37.617990,-93.200317,44.883321",
    "geom:latitude": 41.2506555,
    "geom:longitude": -107.78563,
    "iata:airline": "NZ",
    "iata:base_airline": "",
    "icao:airline": "ANZ",
    "icao:base_airline": "ANZ",
    "lbl:latitude": 37.620164,
    "lbl:longitude": -122.387194,
    "sfomuseum:airline_id": 1159283697,
    "sfomuseum:arrival_id": 102527513,
    "sfomuseum:base_flight_id": "20261005-A-ANZ-9418",
    "sfomuseum:departure_id": 102531131,
    "sfomuseum:flight_id": "20261005-A-ANZ-9418",
    "sfomuseum:flight_number": [
      "ANZ9418",
      "NZ9418"
    ],
    "sfomuseum:placetype": "flight",
    "src:geom": "flysfo",
    "wof:belongsto": [
      1914600839,
      102527513,
      1914600845,
      102191575,
      85633793,
      102087579,
      85922583,
      554784711,
      85688637,
      1930457221,
      1914600841,
      102085387
    ],
    "wof:country": "US",
    "wof:created": 1791302608,
    "wof:geomhash": "0c6e1b69ec0e7e239d3f5365b057a47f",
    "wof:hierarchy": [
      {
        "building_id": 1914600839,
        "campus_id": 102527513,
        "concourse_id": 1914600845,
        "continent_id": 102191575,
        "country_id": 85633793,
        "county_id": 102087579,
        "custom_id": 2048518129,
        "flight_id": 2048518129,
        "locality_id": 85922583,
        "postalcode_id": 554784711,
        "region_id": 85688637,
        "venue_id": 1930457221,
        "wing_id": 1914600841
      },
      {
        "building_id": 1914600839,
        "campus_id": 102527513,
        "concourse_id": 1914600845,
        "continent_id": 102191575,
        "country_id": 85633793,
        "county_id": 102085387,
        "custom_id": 2048518129,
        "flight_id": 2048518129,
        "region_id": 85688637,
        "venue_id": 1930457221,
        "wing_id": 1914600841
      }
    ],
    "wof:id": 2048518129,
    "wof:involves": [
      102527513,
      102531131,
      1159283697,
      1930457221,
      1159283697
    ],
    "wof:lastmodified": 1791302608,
    "wof:name": "NZ9418 (MSP-SFO)",
    "wof:parent_id": 1930457221,
    "wof:placetype": "custom",
    "wof:placetype_alt": [
      "flight"
    ],
    "wof:repo": "sfomuseum-data-flights-2026-10",
    "wof:superseded_by": [],
    "wof:supersedes": []
  },
  "bbox": [
    -122.370943,
    37.61799,
    -93.200317,
    44.883321
  ],
  "geometry": {"type":"MultiPoint","coordinates":[[-93.200317,44.883321],[-122.370943,37.61799]]}
}
