{
  "id": 2048537831,
  "type": "Feature",
  "properties": {
    "geom:area": 0,
    "geom:bbox": "-122.356650,37.491490,-121.446320,37.613410",
    "geom:latitude": 37.53895087028399,
    "geom:longitude": -121.90530039563812,
    "src:alt_label": "swim-approach",
    "src:geom": "swim",
    "swim:elevations": [
      3668,
      3284,
      3055,
      3048,
      2983,
      2898,
      2785,
      2544,
      2426,
      2242,
      2134,
      2080,
      1970,
      1889,
      1833,
      1667,
      1600,
      1340,
      1221,
      1134,
      1042,
      957,
      865,
      798,
      642,
      552,
      485,
      430,
      295,
      199,
      151,
      0
    ],
    "swim:geom": "approach",
    "swim:timestamps": [
      1791401775,
      1791401813,
      1791401848,
      1791401869,
      1791401898,
      1791401911,
      1791401929,
      1791401962,
      1791401993,
      1791402025,
      1791402046,
      1791402065,
      1791402090,
      1791402113,
      1791402133,
      1791402168,
      1791402182,
      1791402233,
      1791402259,
      1791402280,
      1791402302,
      1791402322,
      1791402344,
      1791402361,
      1791402397,
      1791402421,
      1791402434,
      1791402450,
      1791402485,
      1791402507,
      1791402517,
      1791402547
    ],
    "wof:geomhash": "eb79b478154b7733d307b40e3ca015a9",
    "wof:id": 2048537831,
    "wof:repo": "sfomuseum-data-flights-2026-10"
  },
  "bbox": [
    -122.35665,
    37.49149,
    -121.44632,
    37.61341
  ],
  "geometry": {"type":"LineString","coordinates":[[-121.44632,37.57161],[-121.52369,37.56255],[-121.59355,37.55448],[-121.63019,37.54942],[-121.67571,37.53867],[-121.69458,37.53425],[-121.71939,37.52817],[-121.76435,37.5174],[-121.80493,37.50767],[-121.84763,37.49747],[-121.87643,37.49196],[-121.90022,37.49149],[-121.9332,37.49234],[-121.96199,37.49315],[-121.98521,37.4948],[-122.02208,37.50561],[-122.03646,37.51027],[-122.08976,37.52768],[-122.11501,37.53591],[-122.13446,37.5422],[-122.15396,37.54852],[-122.17193,37.5543],[-122.19014,37.56026],[-122.20501,37.565],[-122.23522,37.57481],[-122.25507,37.58122],[-122.26651,37.58466],[-122.27885,37.58814],[-122.30739,37.59659],[-122.32565,37.602],[-122.33349,37.6043],[-122.35665,37.61341]]}
}
