{
  "id": 2048537879,
  "type": "Feature",
  "properties": {
    "date:cessation_lower": "2026-10-07",
    "date:cessation_upper": "2026-10-07",
    "date:inception_lower": "1970-01-01",
    "date:inception_upper": "1970-01-01",
    "edtf:cessation": "2026-10-07T03:04:00-07:00",
    "edtf:inception": "1970-01-01T00:00:00Z",
    "flysfo:actual_timestamp": -1,
    "flysfo:airline": "UA",
    "flysfo:base_airline": "",
    "flysfo:base_flight_number": "2776",
    "flysfo:date": "2026-10-07",
    "flysfo:estimated_timestamp": 1791393120,
    "flysfo:event": "A",
    "flysfo:flight_number": "UA369",
    "flysfo:gate": "E3",
    "flysfo:journey": "DCA-SFO",
    "flysfo:scheduled_timestamp": 1791393900,
    "flysfo:timestamp": 1791393900,
    "geom:area": 0,
    "geom:bbox": "-122.370943,37.617990,-77.041643,38.850639",
    "geom:latitude": 38.234314499999996,
    "geom:longitude": -99.70629299999999,
    "iata:airline": "UA",
    "iata:base_airline": "",
    "icao:aircraft": "B38M",
    "icao:airline": "UAL",
    "icao:base_airline": "ANZ",
    "lbl:latitude": 37.618578,
    "lbl:longitude": -122.385434,
    "sfomuseum:aircraft_id": 1528104575,
    "sfomuseum:airline_id": 1159285413,
    "sfomuseum:arrival_id": 102527513,
    "sfomuseum:base_flight_id": "20261007-A-ANZ-2776",
    "sfomuseum:departure_id": 1746879047,
    "sfomuseum:flight_id": "20261007-A-UAL-369",
    "sfomuseum:flight_number": [
      "UAL369",
      "UA369"
    ],
    "sfomuseum:placetype": "flight",
    "src:geom": "flysfo",
    "src:geom_alt": [
      "swim-approach"
    ],
    "swim:tail_number": "N37353",
    "wof:belongsto": [
      1947304067,
      102527513,
      1947304451,
      102191575,
      85633793,
      102087579,
      85922583,
      554784711,
      85688637,
      1947304495,
      1947304447,
      102085387
    ],
    "wof:country": "US",
    "wof:created": 1791475693,
    "wof:geomhash": "cfff966b0a5de3ca50080923c4337cfe",
    "wof:hierarchy": [
      {
        "building_id": 1947304067,
        "campus_id": 102527513,
        "concourse_id": 1947304451,
        "continent_id": 102191575,
        "country_id": 85633793,
        "county_id": 102087579,
        "custom_id": 2048537879,
        "flight_id": 2048537879,
        "locality_id": 85922583,
        "postalcode_id": 554784711,
        "region_id": 85688637,
        "venue_id": 1947304495,
        "wing_id": 1947304447
      },
      {
        "building_id": 1947304067,
        "campus_id": 102527513,
        "concourse_id": 1947304451,
        "continent_id": 102191575,
        "country_id": 85633793,
        "county_id": 102085387,
        "custom_id": 2048537879,
        "flight_id": 2048537879,
        "region_id": 85688637,
        "venue_id": 1947304495,
        "wing_id": 1947304447
      }
    ],
    "wof:id": 2048537879,
    "wof:involves": [
      102527513,
      1746879047,
      1159285413,
      1947304495,
      1159283697,
      1528104575
    ],
    "wof:lastmodified": 1791476306,
    "wof:name": "UA369 (DCA-SFO)",
    "wof:parent_id": 1947304495,
    "wof:placetype": "custom",
    "wof:placetype_alt": [
      "flight"
    ],
    "wof:repo": "sfomuseum-data-flights-2026-10",
    "wof:superseded_by": [],
    "wof:supersedes": []
  },
  "bbox": [
    -122.370943,
    37.61799,
    -77.041643,
    38.850639
  ],
  "geometry": {"type":"MultiPoint","coordinates":[[-77.041643,38.850639],[-122.370943,37.61799]]}
}
