{
  "id": 2048498175,
  "type": "Feature",
  "properties": {
    "geom:area": 0,
    "geom:bbox": "-122.385270,37.630250,-121.269930,38.410790",
    "geom:latitude": 38.08066695827037,
    "geom:longitude": -121.93764820863163,
    "src:alt_label": "swim-takeoff",
    "src:geom": "swim",
    "swim:elevations": [
      152,
      399,
      728,
      1069,
      1253,
      1538,
      1853,
      2363,
      2532,
      2960,
      3336,
      3514,
      3670,
      4006,
      4404,
      4608,
      4919,
      5226,
      5291,
      5872,
      5892,
      6354,
      6485,
      6847,
      6922,
      7084,
      7152,
      7328,
      7580
    ],
    "swim:geom": "takeoff",
    "swim:timestamps": [
      1790979383,
      1790979409,
      1790979433,
      1790979469,
      1790979501,
      1790979534,
      1790979558,
      1790979594,
      1790979611,
      1790979641,
      1790979679,
      1790979708,
      1790979739,
      1790979768,
      1790979806,
      1790979826,
      1790979861,
      1790979895,
      1790979901,
      1790979957,
      1790979960,
      1790980011,
      1790980026,
      1790980073,
      1790980083,
      1790980114,
      1790980124,
      1790980153,
      1790980190
    ],
    "wof:geomhash": "db83c6fb2de4e36cf35c46f6ef855e0a",
    "wof:id": 2048498175,
    "wof:repo": "sfomuseum-data-flights-2026-10"
  },
  "bbox": [
    -122.38527,
    37.63025,
    -121.26993,
    38.41079
  ],
  "geometry": {"type":"LineString","coordinates":[[-122.36508,37.63025],[-122.34887,37.64699],[-122.33185,37.66097],[-122.31293,37.68649],[-122.32121,37.71796],[-122.34143,37.75388],[-122.35554,37.78285],[-122.37787,37.82782],[-122.38527,37.84916],[-122.38499,37.89154],[-122.3651,37.94371],[-122.31728,37.96767],[-122.25929,37.99091],[-122.20101,38.0143],[-122.12535,38.04471],[-122.08299,38.06171],[-122.01067,38.09062],[-121.93772,38.11968],[-121.9242,38.1251],[-121.80097,38.17409],[-121.79437,38.17671],[-121.68051,38.22176],[-121.64653,38.23514],[-121.53833,38.2778],[-121.51482,38.28706],[-121.44136,38.31596],[-121.41721,38.32572],[-121.35048,38.36091],[-121.26993,38.41079]]}
}
