{
  "id": 2048545551,
  "type": "Feature",
  "properties": {
    "geom:area": 0,
    "geom:bbox": "-122.350570,37.408480,-122.087380,37.610820",
    "geom:latitude": 37.49284746547267,
    "geom:longitude": -122.2198594333017,
    "src:alt_label": "swim-approach",
    "src:geom": "swim",
    "swim:elevations": [
      2957,
      2721,
      2564,
      2379,
      2349,
      2217,
      2071,
      2025,
      1829,
      1829,
      1829,
      1829,
      1829,
      1787,
      1525,
      1524,
      1294,
      1070,
      940,
      756,
      669,
      519,
      301,
      281,
      121,
      64
    ],
    "swim:geom": "approach",
    "swim:timestamps": [
      1791478673,
      1791478702,
      1791478733,
      1791478765,
      1791478771,
      1791478797,
      1791478825,
      1791478834,
      1791478863,
      1791478918,
      1791478939,
      1791478946,
      1791478969,
      1791478983,
      1791479038,
      1791479049,
      1791479085,
      1791479114,
      1791479136,
      1791479179,
      1791479199,
      1791479245,
      1791479307,
      1791479311,
      1791479361,
      1791479380
    ],
    "wof:geomhash": "236decdf27b72cb552e518bd3a108ef5",
    "wof:id": 2048545551,
    "wof:repo": "sfomuseum-data-flights-2026-10"
  },
  "bbox": [
    -122.35057,
    37.40848,
    -122.08738,
    37.61082
  ],
  "geometry": {"type":"LineString","coordinates":[[-122.32999,37.56123],[-122.31209,37.53228],[-122.30976,37.49919],[-122.3199,37.46454],[-122.31919,37.45787],[-122.29757,37.43599],[-122.26426,37.42368],[-122.25395,37.42002],[-122.22128,37.40848],[-122.15422,37.40877],[-122.13012,37.41476],[-122.12171,37.41802],[-122.09783,37.42811],[-122.08738,37.43886],[-122.09403,37.48954],[-122.09917,37.49823],[-122.1268,37.51616],[-122.15443,37.52795],[-122.17423,37.53652],[-122.21011,37.55168],[-122.22596,37.55831],[-122.2583,37.572],[-122.30271,37.59067],[-122.30529,37.59174],[-122.33862,37.60579],[-122.35057,37.61082]]}
}
