{
  "id": 2048485259,
  "type": "Feature",
  "properties": {
    "geom:area": 0,
    "geom:bbox": "-122.760830,37.513730,-121.983970,38.515610",
    "geom:latitude": 37.85303140174699,
    "geom:longitude": -122.42814359258053,
    "src:alt_label": "swim-approach",
    "src:geom": "swim",
    "swim:elevations": [
      7387,
      7296,
      6906,
      6769,
      6322,
      6057,
      5831,
      5591,
      5265,
      4770,
      4480,
      4359,
      4142,
      3706,
      3461,
      3411,
      3350,
      3353,
      3353,
      3095,
      3042,
      2598,
      2436,
      2438,
      2438,
      2403,
      2217,
      1856,
      1431,
      1372,
      1117,
      978,
      820,
      766,
      554,
      542,
      259,
      182,
      51
    ],
    "swim:geom": "approach",
    "swim:timestamps": [
      1790858247,
      1790858259,
      1790858303,
      1790858318,
      1790858368,
      1790858397,
      1790858424,
      1790858451,
      1790858486,
      1790858541,
      1790858576,
      1790858590,
      1790858615,
      1790858660,
      1790858696,
      1790858715,
      1790858732,
      1790858786,
      1790858817,
      1790858848,
      1790858853,
      1790858902,
      1790858927,
      1790858945,
      1790858972,
      1790859021,
      1790859073,
      1790859099,
      1790859145,
      1790859161,
      1790859193,
      1790859212,
      1790859265,
      1790859284,
      1790859327,
      1790859344,
      1790859383,
      1790859408,
      1790859440
    ],
    "wof:geomhash": "f20877befc5d9a6a7173961cef9bbdb6",
    "wof:id": 2048485259,
    "wof:repo": "sfomuseum-data-flights-2026-10"
  },
  "bbox": [
    -122.76083,
    37.51373,
    -121.98397,
    38.51561
  ],
  "geometry": {"type":"LineString","coordinates":[[-122.68606,38.51561],[-122.69247,38.49281],[-122.71519,38.41205],[-122.7227,38.38561],[-122.74743,38.29676],[-122.76083,38.24519],[-122.7589,38.19604],[-122.74562,38.14977],[-122.72772,38.0881],[-122.7009,37.99507],[-122.68426,37.93787],[-122.67689,37.9162],[-122.65285,37.88063],[-122.59418,37.82499],[-122.54835,37.78173],[-122.525,37.75958],[-122.5013,37.74397],[-122.40756,37.7263],[-122.35348,37.71772],[-122.30056,37.70919],[-122.29122,37.70771],[-122.20853,37.69434],[-122.16681,37.68776],[-122.13751,37.68198],[-122.10003,37.66039],[-122.03975,37.61744],[-121.98397,37.56943],[-121.98548,37.54033],[-122.03427,37.51373],[-122.05359,37.51894],[-122.09347,37.53058],[-122.11784,37.53796],[-122.18289,37.55783],[-122.20572,37.56527],[-122.25267,37.58044],[-122.27048,37.58573],[-122.30656,37.59437],[-122.32732,37.60097],[-122.35212,37.61145]]}
}
