{
  "id": 2048514127,
  "type": "Feature",
  "properties": {
    "geom:area": 0,
    "geom:bbox": "-122.358780,37.638110,-121.242320,38.117170",
    "geom:latitude": 37.86174953720934,
    "geom:longitude": -121.80581072392667,
    "src:alt_label": "swim-takeoff",
    "src:geom": "swim",
    "swim:elevations": [
      314,
      490,
      706,
      907,
      986,
      1594,
      1765,
      2026,
      2343,
      2558,
      2968,
      3122,
      3330,
      3599,
      3827,
      4029,
      4082,
      4324,
      4496,
      4685,
      4870,
      5054,
      5242,
      5434,
      5621,
      5670
    ],
    "swim:geom": "takeoff",
    "swim:timestamps": [
      1791100368,
      1791100383,
      1791100419,
      1791100464,
      1791100470,
      1791100525,
      1791100546,
      1791100579,
      1791100613,
      1791100634,
      1791100676,
      1791100691,
      1791100714,
      1791100742,
      1791100777,
      1791100826,
      1791100839,
      1791100885,
      1791100909,
      1791100935,
      1791100955,
      1791100982,
      1791101008,
      1791101034,
      1791101064,
      1791101072
    ],
    "wof:geomhash": "f4d0ac8a98c0319895095e60adfbef7a",
    "wof:id": 2048514127,
    "wof:repo": "sfomuseum-data-flights-2026-10"
  },
  "bbox": [
    -122.35878,
    37.63811,
    -121.24232,
    38.11717
  ],
  "geometry": {"type":"LineString","coordinates":[[-122.35878,37.63811],[-122.34601,37.64548],[-122.3088,37.66013],[-122.24808,37.65925],[-122.23923,37.65875],[-122.16008,37.65599],[-122.12786,37.65612],[-122.08567,37.6799],[-122.0635,37.72332],[-122.05,37.75004],[-121.99657,37.78834],[-121.97423,37.79816],[-121.93967,37.81391],[-121.89458,37.83379],[-121.83866,37.85832],[-121.75326,37.89569],[-121.72704,37.90708],[-121.63626,37.94667],[-121.58642,37.96843],[-121.53334,37.99143],[-121.49192,38.0094],[-121.43478,38.03404],[-121.37986,38.05786],[-121.32278,38.08254],[-121.25813,38.11035],[-121.24232,38.11717]]}
}
