{
  "id": 2048495717,
  "type": "Feature",
  "properties": {
    "date:inception_lower": "2026-10-02",
    "date:inception_upper": "2026-10-02",
    "edtf:cessation": "",
    "edtf:inception": "2026-10-02",
    "flysfo:actual_timestamp": -1,
    "flysfo:airline": "NZ",
    "flysfo:base_airline": "",
    "flysfo:base_flight_number": "2731",
    "flysfo:date": "2026-10-02",
    "flysfo:estimated_timestamp": 1791008640,
    "flysfo:event": "D",
    "flysfo:flight_number": "NZ2731",
    "flysfo:gate": "A15",
    "flysfo:journey": "SFO-IND",
    "flysfo:scheduled_timestamp": 1791008700,
    "flysfo:timestamp": 1791008700,
    "geom:area": 0,
    "geom:bbox": "-122.370943,37.617990,-86.278675,39.730262",
    "geom:latitude": 38.674126,
    "geom:longitude": -104.324809,
    "iata:airline": "NZ",
    "iata:base_airline": "",
    "icao:airline": "ANZ",
    "icao:base_airline": "ANZ",
    "lbl:latitude": 37.611664,
    "lbl:longitude": -122.390495,
    "sfomuseum:airline_id": 1159283697,
    "sfomuseum:arrival_id": 102534155,
    "sfomuseum:base_flight_id": "20261002-D-ANZ-2731",
    "sfomuseum:departure_id": 102527513,
    "sfomuseum:flight_id": "20261002-D-ANZ-2731",
    "sfomuseum:flight_number": [
      "ANZ2731",
      "NZ2731"
    ],
    "sfomuseum:placetype": "flight",
    "src:geom": "flysfo",
    "wof:belongsto": [
      1947304067,
      102527513,
      1947304073,
      102191575,
      85633793,
      102087579,
      85922583,
      554784711,
      85688637,
      1947304095,
      1947304069,
      102085387
    ],
    "wof:country": "US",
    "wof:created": 1791043868,
    "wof:geomhash": "75b67362ad403f806ec665af17b684aa",
    "wof:hierarchy": [
      {
        "building_id": 1947304067,
        "campus_id": 102527513,
        "concourse_id": 1947304073,
        "continent_id": 102191575,
        "country_id": 85633793,
        "county_id": 102087579,
        "custom_id": 2048495717,
        "flight_id": 2048495717,
        "locality_id": 85922583,
        "postalcode_id": 554784711,
        "region_id": 85688637,
        "venue_id": 1947304095,
        "wing_id": 1947304069
      },
      {
        "building_id": 1947304067,
        "campus_id": 102527513,
        "concourse_id": 1947304073,
        "continent_id": 102191575,
        "country_id": 85633793,
        "county_id": 102085387,
        "custom_id": 2048495717,
        "flight_id": 2048495717,
        "region_id": 85688637,
        "venue_id": 1947304095,
        "wing_id": 1947304069
      }
    ],
    "wof:id": 2048495717,
    "wof:involves": [
      102534155,
      102527513,
      1159283697,
      1947304095,
      1159283697
    ],
    "wof:lastmodified": 1791043868,
    "wof:name": "NZ2731 (SFO-IND)",
    "wof:parent_id": 1947304095,
    "wof:placetype": "custom",
    "wof:placetype_alt": [
      "flight"
    ],
    "wof:repo": "sfomuseum-data-flights-2026-10",
    "wof:superseded_by": [],
    "wof:supersedes": []
  },
  "bbox": [
    -122.370943,
    37.61799,
    -86.278675,
    39.730262
  ],
  "geometry": {"type":"MultiPoint","coordinates":[[-122.370943,37.61799],[-86.278675,39.730262]]}
}
