{
  "id": 2048503543,
  "type": "Feature",
  "properties": {
    "geom:area": 0,
    "geom:bbox": "-122.365470,37.629670,-121.245050,38.124900",
    "geom:latitude": 37.89399824843123,
    "geom:longitude": -121.81348923283788,
    "src:alt_label": "swim-takeoff",
    "src:geom": "swim",
    "swim:elevations": [
      152,
      382,
      642,
      987,
      1111,
      1538,
      1680,
      1757,
      1818,
      1876,
      1941,
      2111,
      2193,
      2679,
      3055,
      3308,
      3582,
      4106,
      4390,
      4641,
      4859,
      5166,
      5390,
      5591,
      5630,
      5935,
      6285,
      6365,
      6504,
      6840,
      6951
    ],
    "swim:geom": "takeoff",
    "swim:timestamps": [
      1791063593,
      1791063608,
      1791063633,
      1791063688,
      1791063700,
      1791063734,
      1791063746,
      1791063752,
      1791063756,
      1791063761,
      1791063765,
      1791063777,
      1791063783,
      1791063822,
      1791063852,
      1791063890,
      1791063921,
      1791063957,
      1791063986,
      1791064010,
      1791064032,
      1791064063,
      1791064090,
      1791064107,
      1791064110,
      1791064147,
      1791064180,
      1791064189,
      1791064204,
      1791064248,
      1791064266
    ],
    "wof:geomhash": "1963c722498f920799d85372dce47c88",
    "wof:id": 2048503543,
    "wof:repo": "sfomuseum-data-flights-2026-10"
  },
  "bbox": [
    -122.36547,
    37.62967,
    -121.24505,
    38.1249
  ],
  "geometry": {"type":"LineString","coordinates":[[-122.36547,37.62967],[-122.35582,37.63951],[-122.33539,37.65224],[-122.27695,37.68507],[-122.26192,37.69337],[-122.21896,37.7155],[-122.20304,37.72378],[-122.19495,37.72799],[-122.18852,37.73131],[-122.18287,37.73422],[-122.17711,37.73722],[-122.1612,37.74544],[-122.15308,37.74966],[-122.09916,37.77749],[-122.05606,37.79981],[-121.99572,37.82988],[-121.94138,37.85123],[-121.87452,37.87811],[-121.82173,37.89888],[-121.77694,37.91662],[-121.73339,37.93381],[-121.67224,37.95791],[-121.61825,37.97915],[-121.58363,37.99271],[-121.57748,37.99512],[-121.50049,38.02526],[-121.43255,38.0519],[-121.41351,38.05937],[-121.38155,38.0718],[-121.28519,38.10934],[-121.24505,38.1249]]}
}
