{
  "id": 2048533675,
  "type": "Feature",
  "properties": {
    "geom:area": 0,
    "geom:bbox": "-122.539140,36.737480,-121.299860,37.667820",
    "geom:latitude": 37.22633473155108,
    "geom:longitude": -121.98228807414732,
    "src:alt_label": "swim-takeoff",
    "src:geom": "swim",
    "swim:elevations": [
      259,
      322,
      985,
      1110,
      1320,
      1484,
      1955,
      2315,
      2825,
      3510,
      3935,
      4263,
      4620,
      5170,
      5326,
      5777,
      5970,
      6285,
      6498,
      6913,
      7020,
      7404,
      7696,
      7923,
      8099,
      8395,
      8494,
      8740,
      8860,
      9119,
      9413,
      9489,
      9822,
      9909
    ],
    "swim:geom": "takeoff",
    "swim:timestamps": [
      1791276595,
      1791276601,
      1791276658,
      1791276675,
      1791276705,
      1791276724,
      1791276766,
      1791276788,
      1791276821,
      1791276868,
      1791276896,
      1791276916,
      1791276941,
      1791276982,
      1791276994,
      1791277047,
      1791277070,
      1791277103,
      1791277120,
      1791277158,
      1791277172,
      1791277217,
      1791277250,
      1791277284,
      1791277305,
      1791277341,
      1791277354,
      1791277388,
      1791277401,
      1791277429,
      1791277467,
      1791277476,
      1791277519,
      1791277531
    ],
    "wof:geomhash": "ef305551ffd969e380d4adaa6a1bf9aa",
    "wof:id": 2048533675,
    "wof:repo": "sfomuseum-data-flights-2026-10"
  },
  "bbox": [
    -122.53914,
    36.73748,
    -121.29986,
    37.66782
  ],
  "geometry": {"type":"LineString","coordinates":[[-122.39044,37.62527],[-122.39504,37.6273],[-122.44137,37.64725],[-122.45496,37.65316],[-122.48277,37.66539],[-122.50546,37.66782],[-122.53914,37.63614],[-122.53059,37.6129],[-122.50916,37.58109],[-122.45083,37.54194],[-122.41471,37.51699],[-122.38933,37.4995],[-122.3546,37.47605],[-122.29858,37.43684],[-122.28267,37.42568],[-122.2041,37.37151],[-122.16735,37.34618],[-122.11364,37.30915],[-122.08433,37.28889],[-122.02025,37.2444],[-121.99574,37.22738],[-121.91612,37.17195],[-121.85545,37.12947],[-121.79273,37.08535],[-121.75168,37.05666],[-121.68346,37.00851],[-121.65729,36.99019],[-121.58929,36.94215],[-121.56304,36.92394],[-121.50699,36.88402],[-121.42981,36.82929],[-121.41302,36.81734],[-121.32405,36.75478],[-121.29986,36.73748]]}
}
