{
  "id": 2048553703,
  "type": "Feature",
  "properties": {
    "geom:area": 0,
    "geom:bbox": "-122.361370,37.422150,-122.131550,37.613330",
    "geom:latitude": 37.50685698002577,
    "geom:longitude": -122.23073291661127,
    "src:alt_label": "swim-approach",
    "src:geom": "swim",
    "swim:elevations": [
      2681,
      2427,
      2167,
      1842,
      1687,
      1465,
      1309,
      1171,
      1159,
      943,
      947,
      873,
      648,
      486,
      388,
      263,
      190,
      54,
      218
    ],
    "swim:geom": "approach",
    "swim:timestamps": [
      1791567277,
      1791567311,
      1791567345,
      1791567388,
      1791567410,
      1791567438,
      1791567463,
      1791567501,
      1791567511,
      1791567568,
      1791567577,
      1791567603,
      1791567651,
      1791567688,
      1791567712,
      1791567747,
      1791567762,
      1791567808,
      1791567813
    ],
    "wof:geomhash": "5eec5b57c6f76e1679bfa884bb9dbe81",
    "wof:id": 2048553703,
    "wof:repo": "sfomuseum-data-flights-2026-10"
  },
  "bbox": [
    -122.36137,
    37.42215,
    -122.13155,
    37.61333
  ],
  "geometry": {"type":"LineString","coordinates":[[-122.31998,37.52883],[-122.29835,37.49329],[-122.27521,37.45931],[-122.22238,37.43592],[-122.1961,37.42522],[-122.16043,37.42215],[-122.13841,37.44024],[-122.13155,37.47425],[-122.13449,37.48266],[-122.15909,37.52257],[-122.16503,37.52808],[-122.1871,37.53974],[-122.22999,37.55772],[-122.26238,37.5713],[-122.28227,37.57979],[-122.30891,37.59093],[-122.32106,37.59594],[-122.3581,37.61166],[-122.36137,37.61333]]}
}
