{
  "id": 2048492615,
  "type": "Feature",
  "properties": {
    "date:cessation_lower": "2026-10-03",
    "date:cessation_upper": "2026-10-03",
    "date:inception_lower": "1970-01-01",
    "date:inception_upper": "1970-01-01",
    "edtf:cessation": "2026-10-02T17:18:58-07:00",
    "edtf:inception": "1970-01-01T00:00:00Z",
    "flysfo:actual_timestamp": -1,
    "flysfo:airline": "F9",
    "flysfo:base_airline": "",
    "flysfo:base_flight_number": "2608",
    "flysfo:date": "2026-10-02",
    "flysfo:estimated_timestamp": 1790926260,
    "flysfo:event": "A",
    "flysfo:flight_number": "F93439",
    "flysfo:gate": "B17",
    "flysfo:journey": "DEN-SFO",
    "flysfo:scheduled_timestamp": 1790925240,
    "flysfo:timestamp": 1790926260,
    "geom:area": 0,
    "geom:bbox": "-122.370943,37.617990,-104.672219,39.864939",
    "geom:latitude": 38.7414645,
    "geom:longitude": -113.521581,
    "iata:airline": "F9",
    "iata:base_airline": "",
    "icao:aircraft": "A21N",
    "icao:airline": "FFT",
    "icao:base_airline": "VOI",
    "lbl:latitude": 37.61799,
    "lbl:longitude": -122.370943,
    "sfomuseum:aircraft_id": 1377564297,
    "sfomuseum:airline_id": 1159284401,
    "sfomuseum:arrival_id": 102527513,
    "sfomuseum:base_flight_id": "20261002-A-VOI-2608",
    "sfomuseum:departure_id": 102531189,
    "sfomuseum:flight_id": "20261002-A-FFT-3439",
    "sfomuseum:flight_number": [
      "FFT3439",
      "F93439"
    ],
    "sfomuseum:placetype": "flight",
    "src:geom": "flysfo",
    "src:geom_alt": [
      "swim-approach"
    ],
    "swim:tail_number": "N650FR",
    "wof:belongsto": [
      1947304067,
      102527513,
      1947304261,
      102191575,
      85633793,
      102087579,
      85922583,
      554784711,
      85688637,
      1947304285,
      1947304259,
      102085387
    ],
    "wof:country": "US",
    "wof:created": 1791043525,
    "wof:geomhash": "736fe0d2ebd38878be6950e82908a686",
    "wof:hierarchy": [
      {
        "building_id": 1947304067,
        "campus_id": 102527513,
        "concourse_id": 1947304261,
        "continent_id": 102191575,
        "country_id": 85633793,
        "county_id": 102087579,
        "custom_id": 2048492615,
        "flight_id": 2048492615,
        "locality_id": 85922583,
        "postalcode_id": 554784711,
        "region_id": 85688637,
        "venue_id": 1947304285,
        "wing_id": 1947304259
      },
      {
        "building_id": 1947304067,
        "campus_id": 102527513,
        "concourse_id": 1947304261,
        "continent_id": 102191575,
        "country_id": 85633793,
        "county_id": 102085387,
        "custom_id": 2048492615,
        "flight_id": 2048492615,
        "region_id": 85688637,
        "venue_id": 1947304285,
        "wing_id": 1947304259
      }
    ],
    "wof:id": 2048492615,
    "wof:involves": [
      1377564297,
      102527513,
      102531189,
      1159284401,
      1947304285,
      1360700749
    ],
    "wof:lastmodified": 1791044291,
    "wof:name": "F93439 (DEN-SFO)",
    "wof:parent_id": 1947304285,
    "wof:placetype": "custom",
    "wof:placetype_alt": [
      "flight"
    ],
    "wof:repo": "sfomuseum-data-flights-2026-10",
    "wof:superseded_by": [],
    "wof:supersedes": []
  },
  "bbox": [
    -122.370943,
    37.61799,
    -104.672219,
    39.864939
  ],
  "geometry": {"type":"MultiPoint","coordinates":[[-104.672219,39.864939],[-122.370943,37.61799]]}
}
