{
  "id": 2048524979,
  "type": "Feature",
  "properties": {
    "geom:area": 0,
    "geom:bbox": "-122.462000,36.720600,-121.440800,37.708080",
    "geom:latitude": 37.226737328654764,
    "geom:longitude": -122.04103323148507,
    "src:alt_label": "swim-takeoff",
    "src:geom": "swim",
    "swim:elevations": [
      122,
      431,
      950,
      1074,
      1196,
      1278,
      1637,
      2239,
      2484,
      3273,
      3619,
      3894,
      4236,
      4375,
      4760,
      5235,
      5622,
      5996,
      6098,
      6335,
      7032,
      7128,
      7490,
      7560,
      7591,
      7745,
      8062,
      8241,
      8541,
      8714,
      8839,
      8839
    ],
    "swim:geom": "takeoff",
    "swim:timestamps": [
      1791227335,
      1791227358,
      1791227398,
      1791227413,
      1791227435,
      1791227446,
      1791227479,
      1791227514,
      1791227527,
      1791227571,
      1791227601,
      1791227632,
      1791227659,
      1791227673,
      1791227710,
      1791227747,
      1791227780,
      1791227815,
      1791227824,
      1791227852,
      1791227908,
      1791227918,
      1791227956,
      1791227974,
      1791227985,
      1791228010,
      1791228050,
      1791228073,
      1791228111,
      1791228127,
      1791228162,
      1791228181
    ],
    "wof:geomhash": "817e5a0d6bb33d81aa8389cbac93f937",
    "wof:id": 2048524979,
    "wof:repo": "sfomuseum-data-flights-2026-10"
  },
  "bbox": [
    -122.462,
    36.7206,
    -121.4408,
    37.70808
  ],
  "geometry": {"type":"LineString","coordinates":[[-122.37008,37.62697],[-122.36449,37.64307],[-122.36331,37.67143],[-122.36145,37.68287],[-122.37023,37.70114],[-122.3823,37.70808],[-122.42901,37.70023],[-122.44618,37.65768],[-122.44688,37.64044],[-122.45523,37.58155],[-122.462,37.53773],[-122.43325,37.49652],[-122.39211,37.46726],[-122.36981,37.45018],[-122.30966,37.40371],[-122.24693,37.35569],[-122.19175,37.31362],[-122.13112,37.26725],[-122.11529,37.25513],[-122.06582,37.21708],[-121.9649,37.1392],[-121.94721,37.12558],[-121.87869,37.07251],[-121.84532,37.04668],[-121.82259,37.02889],[-121.77593,36.99193],[-121.69607,36.9298],[-121.65086,36.89463],[-121.57304,36.83417],[-121.5414,36.80803],[-121.47571,36.75085],[-121.4408,36.7206]]}
}
