{
  "id": 2048540001,
  "type": "Feature",
  "properties": {
    "geom:area": 0,
    "geom:bbox": "-122.555210,36.772270,-122.363150,37.736460",
    "geom:latitude": 37.3039795105839,
    "geom:longitude": -122.49916537806557,
    "src:alt_label": "swim-takeoff",
    "src:geom": "swim",
    "swim:elevations": [
      360,
      405,
      778,
      913,
      1080,
      1354,
      1540,
      1680,
      2185,
      2262,
      2952,
      3289,
      3438,
      3717,
      4453,
      4915,
      5383,
      5757,
      5912,
      6391,
      6873,
      6943,
      7561,
      7811,
      7950,
      8137,
      8386,
      8683,
      8795
    ],
    "swim:geom": "takeoff",
    "swim:timestamps": [
      1791362218,
      1791362224,
      1791362278,
      1791362291,
      1791362307,
      1791362333,
      1791362348,
      1791362360,
      1791362398,
      1791362403,
      1791362443,
      1791362482,
      1791362503,
      1791362523,
      1791362576,
      1791362606,
      1791362638,
      1791362667,
      1791362679,
      1791362717,
      1791362756,
      1791362763,
      1791362817,
      1791362839,
      1791362853,
      1791362870,
      1791362899,
      1791362934,
      1791362947
    ],
    "wof:geomhash": "75caa756b81edc4a785967b1682024fc",
    "wof:id": 2048540001,
    "wof:repo": "sfomuseum-data-flights-2026-10"
  },
  "bbox": [
    -122.55521,
    36.77227,
    -122.36315,
    37.73646
  ],
  "geometry": {"type":"LineString","coordinates":[[-122.36334,37.64588],[-122.36315,37.65067],[-122.37315,37.70077],[-122.38746,37.70908],[-122.40514,37.71879],[-122.43963,37.73558],[-122.46226,37.73646],[-122.47885,37.73056],[-122.50316,37.69024],[-122.5037,37.68315],[-122.50716,37.63348],[-122.51123,37.58333],[-122.5139,37.55275],[-122.51688,37.52153],[-122.52506,37.43526],[-122.5297,37.38497],[-122.53464,37.33036],[-122.53916,37.28037],[-122.54107,37.25972],[-122.54731,37.19149],[-122.55394,37.11924],[-122.55521,37.10591],[-122.55445,37.00389],[-122.53267,36.96329],[-122.51565,36.94034],[-122.49338,36.90927],[-122.45623,36.85858],[-122.40976,36.79554],[-122.39288,36.77227]]}
}
