{
  "id": 2048531375,
  "type": "Feature",
  "properties": {
    "geom:area": 0,
    "geom:bbox": "-122.547530,36.767250,-121.519980,37.669050",
    "geom:latitude": 37.23663445055901,
    "geom:longitude": -122.10256352446399,
    "src:alt_label": "swim-takeoff",
    "src:geom": "swim",
    "swim:elevations": [
      213,
      543,
      595,
      690,
      1026,
      1191,
      1780,
      1986,
      2496,
      3164,
      3531,
      3772,
      3887,
      4428,
      4947,
      5232,
      5724,
      6250,
      6655,
      6856,
      7182,
      7601,
      7887,
      8020,
      8308,
      8688,
      8692,
      8958,
      9084,
      9303
    ],
    "swim:geom": "takeoff",
    "swim:timestamps": [
      1791278360,
      1791278398,
      1791278409,
      1791278423,
      1791278446,
      1791278460,
      1791278509,
      1791278521,
      1791278554,
      1791278595,
      1791278632,
      1791278646,
      1791278653,
      1791278687,
      1791278721,
      1791278740,
      1791278772,
      1791278815,
      1791278848,
      1791278863,
      1791278892,
      1791278929,
      1791278958,
      1791278976,
      1791279008,
      1791279053,
      1791279065,
      1791279115,
      1791279133,
      1791279161
    ],
    "wof:geomhash": "5213f0a8b158dc9d27db5ac35713b193",
    "wof:id": 2048531375,
    "wof:repo": "sfomuseum-data-flights-2026-10"
  },
  "bbox": [
    -122.54753,
    36.76725,
    -121.51998,
    37.66905
  ],
  "geometry": {"type":"LineString","coordinates":[[-122.39192,37.62569],[-122.4258,37.64049],[-122.4375,37.64569],[-122.45444,37.65323],[-122.48273,37.66555],[-122.50209,37.66905],[-122.54753,37.62826],[-122.54146,37.61369],[-122.52004,37.57396],[-122.49276,37.52343],[-122.45787,37.47793],[-122.43831,37.46317],[-122.42788,37.45546],[-122.37832,37.41854],[-122.32787,37.3815],[-122.29878,37.36022],[-122.2484,37.32332],[-122.17711,37.27073],[-122.12298,37.23054],[-122.09606,37.21062],[-122.04654,37.174],[-121.98094,37.12512],[-121.92763,37.08463],[-121.89384,37.05955],[-121.83099,37.01265],[-121.74343,36.94731],[-121.71744,36.92772],[-121.61291,36.84683],[-121.57666,36.81596],[-121.51998,36.76725]]}
}
