{
  "id": 2048495615,
  "type": "Feature",
  "properties": {
    "date:cessation_lower": "1970-01-01",
    "date:cessation_upper": "1970-01-01",
    "date:inception_lower": "2026-10-02",
    "date:inception_upper": "2026-10-02",
    "edtf:cessation": "1970-01-01T00:00:00Z",
    "edtf:inception": "2026-10-02T08:10:54-07:00",
    "flysfo:actual_timestamp": -1,
    "flysfo:airline": "AM",
    "flysfo:base_airline": "",
    "flysfo:base_flight_number": "7965",
    "flysfo:date": "2026-10-02",
    "flysfo:estimated_timestamp": 1790977800,
    "flysfo:event": "D",
    "flysfo:flight_number": "AM669",
    "flysfo:gate": "A4",
    "flysfo:journey": "SFO-MEX",
    "flysfo:scheduled_timestamp": 1790977800,
    "flysfo:timestamp": 1790977800,
    "geom:area": 0,
    "geom:bbox": "-122.370943,19.431302,-99.080804,37.617990",
    "geom:latitude": 28.524645999999997,
    "geom:longitude": -110.7258735,
    "iata:airline": "AM",
    "iata:base_airline": "",
    "icao:aircraft": "B38M",
    "icao:airline": "AMX",
    "icao:base_airline": "DAL",
    "lbl:latitude": 37.61799,
    "lbl:longitude": -122.370943,
    "sfomuseum:aircraft_id": 1528104575,
    "sfomuseum:airline_id": 1159283539,
    "sfomuseum:arrival_id": 102536579,
    "sfomuseum:base_flight_id": "20261002-D-DAL-7965",
    "sfomuseum:departure_id": 102527513,
    "sfomuseum:flight_id": "20261002-D-AMX-669",
    "sfomuseum:flight_number": [
      "AMX669",
      "AM669"
    ],
    "sfomuseum:placetype": "flight",
    "src:geom": "flysfo",
    "src:geom_alt": [
      "swim-takeoff"
    ],
    "swim:tail_number": "XAGOS",
    "wof:belongsto": [
      1947304067,
      102527513,
      1947304073,
      102191575,
      85633793,
      102087579,
      85922583,
      554784711,
      85688637,
      1947304081,
      1947304069,
      102085387
    ],
    "wof:country": "US",
    "wof:created": 1791043857,
    "wof:geomhash": "01999c4327be8e36df88ffd5cda77111",
    "wof:hierarchy": [
      {
        "building_id": 1947304067,
        "campus_id": 102527513,
        "concourse_id": 1947304073,
        "continent_id": 102191575,
        "country_id": 85633793,
        "county_id": 102087579,
        "custom_id": 2048495615,
        "flight_id": 2048495615,
        "locality_id": 85922583,
        "postalcode_id": 554784711,
        "region_id": 85688637,
        "venue_id": 1947304081,
        "wing_id": 1947304069
      },
      {
        "building_id": 1947304067,
        "campus_id": 102527513,
        "concourse_id": 1947304073,
        "continent_id": 102191575,
        "country_id": 85633793,
        "county_id": 102085387,
        "custom_id": 2048495615,
        "flight_id": 2048495615,
        "region_id": 85688637,
        "venue_id": 1947304081,
        "wing_id": 1947304069
      }
    ],
    "wof:id": 2048495615,
    "wof:involves": [
      1159283539,
      1947304081,
      1159284261,
      1528104575,
      102536579,
      102527513
    ],
    "wof:lastmodified": 1791044306,
    "wof:name": "AM669 (SFO-MEX)",
    "wof:parent_id": 1947304081,
    "wof:placetype": "custom",
    "wof:placetype_alt": [
      "flight"
    ],
    "wof:repo": "sfomuseum-data-flights-2026-10",
    "wof:superseded_by": [],
    "wof:supersedes": []
  },
  "bbox": [
    -122.370943,
    19.431302,
    -99.080804,
    37.61799
  ],
  "geometry": {"type":"MultiPoint","coordinates":[[-122.370943,37.61799],[-99.080804,19.431302]]}
}
