{
  "id": 2048497775,
  "type": "Feature",
  "properties": {
    "geom:area": 0,
    "geom:bbox": "-123.465160,37.631280,-122.405220,37.775650",
    "geom:latitude": 37.713511654230324,
    "geom:longitude": -122.93182860488811,
    "src:alt_label": "swim-takeoff",
    "src:geom": "swim",
    "swim:elevations": [
      315,
      584,
      635,
      695,
      818,
      841,
      1317,
      1505,
      1904,
      2189,
      2425,
      2764,
      3003,
      3313,
      3504,
      3721,
      3847,
      3904,
      4103,
      4350,
      4536,
      4642,
      4932
    ],
    "swim:geom": "takeoff",
    "swim:timestamps": [
      1790980281,
      1790980318,
      1790980330,
      1790980348,
      1790980378,
      1790980384,
      1790980429,
      1790980451,
      1790980490,
      1790980520,
      1790980550,
      1790980587,
      1790980611,
      1790980645,
      1790980669,
      1790980699,
      1790980738,
      1790980748,
      1790980798,
      1790980823,
      1790980847,
      1790980863,
      1790980901
    ],
    "wof:geomhash": "22ca8c2f47cb84644be84a52704c8c16",
    "wof:id": 2048497775,
    "wof:repo": "sfomuseum-data-flights-2026-10"
  },
  "bbox": [
    -123.46516,
    37.63128,
    -122.40522,
    37.77565
  ],
  "geometry": {"type":"LineString","coordinates":[[-122.40522,37.63128],[-122.44008,37.64668],[-122.45264,37.65237],[-122.47293,37.66145],[-122.51213,37.67592],[-122.52124,37.67683],[-122.59069,37.68015],[-122.62461,37.68219],[-122.68564,37.68591],[-122.73376,37.68881],[-122.78227,37.69274],[-122.84483,37.70149],[-122.88502,37.70679],[-122.94348,37.71391],[-122.98493,37.7189],[-123.03795,37.72524],[-123.11187,37.73399],[-123.13181,37.73634],[-123.23727,37.74887],[-123.29288,37.75547],[-123.34517,37.76164],[-123.37942,37.76565],[-123.46516,37.77565]]}
}
