{
  "id": 2048542855,
  "type": "Feature",
  "properties": {
    "date:inception_lower": "2026-10-07",
    "date:inception_upper": "2026-10-07",
    "edtf:cessation": "",
    "edtf:inception": "2026-10-07",
    "flysfo:actual_timestamp": -1,
    "flysfo:airline": "VA",
    "flysfo:base_airline": "",
    "flysfo:base_flight_number": "5289",
    "flysfo:date": "2026-10-07",
    "flysfo:estimated_timestamp": 1791387240,
    "flysfo:event": "D",
    "flysfo:flight_number": "VA8467",
    "flysfo:gate": "D8",
    "flysfo:journey": "SFO-AUS",
    "flysfo:scheduled_timestamp": 1791387000,
    "flysfo:timestamp": 1791387240,
    "geom:area": 0,
    "geom:bbox": "-122.370943,30.206175,-97.643029,37.617990",
    "geom:latitude": 33.9120825,
    "geom:longitude": -110.006986,
    "iata:airline": "VA",
    "iata:base_airline": "",
    "icao:airline": "VOZ",
    "icao:base_airline": "ACA",
    "lbl:latitude": 37.617421,
    "lbl:longitude": -122.380916,
    "sfomuseum:airline_id": 1159285485,
    "sfomuseum:arrival_id": 102521851,
    "sfomuseum:base_flight_id": "20261007-D-ACA-5289",
    "sfomuseum:departure_id": 102527513,
    "sfomuseum:flight_id": "20261007-D-VOZ-8467",
    "sfomuseum:flight_number": [
      "VOZ8467",
      "VA8467"
    ],
    "sfomuseum:placetype": "flight",
    "src:geom": "flysfo",
    "wof:belongsto": [
      1947304067,
      102527513,
      1947304595,
      102191575,
      85633793,
      102087579,
      85922583,
      554784711,
      85688637,
      1947304617,
      1947304591,
      102085387
    ],
    "wof:country": "US",
    "wof:created": 1791476259,
    "wof:geomhash": "f1e29c4a83094711ef061292cfad3358",
    "wof:hierarchy": [
      {
        "building_id": 1947304067,
        "campus_id": 102527513,
        "concourse_id": 1947304595,
        "continent_id": 102191575,
        "country_id": 85633793,
        "county_id": 102087579,
        "custom_id": 2048542855,
        "flight_id": 2048542855,
        "locality_id": 85922583,
        "postalcode_id": 554784711,
        "region_id": 85688637,
        "venue_id": 1947304617,
        "wing_id": 1947304591
      },
      {
        "building_id": 1947304067,
        "campus_id": 102527513,
        "concourse_id": 1947304595,
        "continent_id": 102191575,
        "country_id": 85633793,
        "county_id": 102085387,
        "custom_id": 2048542855,
        "flight_id": 2048542855,
        "region_id": 85688637,
        "venue_id": 1947304617,
        "wing_id": 1947304591
      }
    ],
    "wof:id": 2048542855,
    "wof:involves": [
      102521851,
      102527513,
      1159285485,
      1947304617,
      1159283597
    ],
    "wof:lastmodified": 1791476259,
    "wof:name": "VA8467 (SFO-AUS)",
    "wof:parent_id": 1947304617,
    "wof:placetype": "custom",
    "wof:placetype_alt": [
      "flight"
    ],
    "wof:repo": "sfomuseum-data-flights-2026-10",
    "wof:superseded_by": [],
    "wof:supersedes": []
  },
  "bbox": [
    -122.370943,
    30.206175,
    -97.643029,
    37.61799
  ],
  "geometry": {"type":"MultiPoint","coordinates":[[-122.370943,37.61799],[-97.643029,30.206175]]}
}
