{
  "id": 2048482497,
  "type": "Feature",
  "properties": {
    "date:inception_lower": "2026-10-01",
    "date:inception_upper": "2026-10-01",
    "edtf:cessation": "",
    "edtf:inception": "2026-10-01",
    "flysfo:actual_timestamp": -1,
    "flysfo:airline": "NZ",
    "flysfo:base_airline": "",
    "flysfo:base_flight_number": "3480",
    "flysfo:date": "2026-10-01",
    "flysfo:estimated_timestamp": 1790913720,
    "flysfo:event": "A",
    "flysfo:flight_number": "NZ9820",
    "flysfo:gate": "G6",
    "flysfo:journey": "MEX-SFO",
    "flysfo:scheduled_timestamp": 1790913600,
    "flysfo:timestamp": 1790913720,
    "geom:area": 0,
    "geom:bbox": "-122.370943,19.431302,-99.080804,37.617990",
    "geom:latitude": 28.524645999999997,
    "geom:longitude": -110.7258735,
    "iata:airline": "NZ",
    "iata:base_airline": "",
    "icao:airline": "ANZ",
    "icao:base_airline": "ACA",
    "lbl:latitude": 37.618209,
    "lbl:longitude": -122.391665,
    "sfomuseum:airline_id": 1159283697,
    "sfomuseum:arrival_id": 102527513,
    "sfomuseum:base_flight_id": "20261001-A-ACA-3480",
    "sfomuseum:departure_id": 102536579,
    "sfomuseum:flight_id": "20261001-A-ANZ-9820",
    "sfomuseum:flight_number": [
      "ANZ9820",
      "NZ9820"
    ],
    "sfomuseum:placetype": "flight",
    "src:geom": "flysfo",
    "wof:belongsto": [
      1947304067,
      102527513,
      1947304129,
      102191575,
      85633793,
      102087579,
      85922583,
      554784711,
      85688637,
      1947304151,
      1947304069,
      102085387
    ],
    "wof:country": "US",
    "wof:created": 1790957020,
    "wof:geomhash": "4224d1c4c9907a232ddfbf90e60373e4",
    "wof:hierarchy": [
      {
        "building_id": 1947304067,
        "campus_id": 102527513,
        "concourse_id": 1947304129,
        "continent_id": 102191575,
        "country_id": 85633793,
        "county_id": 102087579,
        "custom_id": 2048482497,
        "flight_id": 2048482497,
        "locality_id": 85922583,
        "postalcode_id": 554784711,
        "region_id": 85688637,
        "venue_id": 1947304151,
        "wing_id": 1947304069
      },
      {
        "building_id": 1947304067,
        "campus_id": 102527513,
        "concourse_id": 1947304129,
        "continent_id": 102191575,
        "country_id": 85633793,
        "county_id": 102085387,
        "custom_id": 2048482497,
        "flight_id": 2048482497,
        "region_id": 85688637,
        "venue_id": 1947304151,
        "wing_id": 1947304069
      }
    ],
    "wof:id": 2048482497,
    "wof:involves": [
      102527513,
      102536579,
      1159283697,
      1947304151,
      1159283597
    ],
    "wof:lastmodified": 1790957020,
    "wof:name": "NZ9820 (MEX-SFO)",
    "wof:parent_id": 1947304151,
    "wof:placetype": "custom",
    "wof:placetype_alt": [
      "flight"
    ],
    "wof:repo": "sfomuseum-data-flights-2026-10",
    "wof:superseded_by": [],
    "wof:supersedes": []
  },
  "bbox": [
    -122.370943,
    19.431302,
    -99.080804,
    37.61799
  ],
  "geometry": {"type":"MultiPoint","coordinates":[[-99.080804,19.431302],[-122.370943,37.61799]]}
}
