{
  "id": 2048494963,
  "type": "Feature",
  "properties": {
    "geom:area": 0,
    "geom:bbox": "-122.386870,37.635550,-121.246610,38.165400",
    "geom:latitude": 37.99184462788144,
    "geom:longitude": -121.93200181259499,
    "src:alt_label": "swim-takeoff",
    "src:geom": "swim",
    "swim:elevations": [
      291,
      562,
      776,
      944,
      1197,
      1835,
      2068,
      2642,
      3137,
      3173,
      3779,
      4116,
      4498,
      4798,
      5041,
      5352,
      5538,
      5926,
      6262,
      6559,
      6695,
      6788,
      7006,
      7238,
      7578,
      7736,
      8076
    ],
    "swim:geom": "takeoff",
    "swim:timestamps": [
      1791007704,
      1791007734,
      1791007758,
      1791007789,
      1791007810,
      1791007852,
      1791007870,
      1791007908,
      1791007948,
      1791007951,
      1791008006,
      1791008030,
      1791008057,
      1791008083,
      1791008110,
      1791008154,
      1791008172,
      1791008202,
      1791008238,
      1791008276,
      1791008291,
      1791008300,
      1791008324,
      1791008354,
      1791008392,
      1791008410,
      1791008457
    ],
    "wof:geomhash": "fc2b2672b73d63b1154d309e6a19802c",
    "wof:id": 2048494963,
    "wof:repo": "sfomuseum-data-flights-2026-10"
  },
  "bbox": [
    -122.38687,
    37.63555,
    -121.24661,
    38.1654
  ],
  "geometry": {"type":"LineString","coordinates":[[-122.36177,37.63555],[-122.34194,37.65373],[-122.32208,37.67006],[-122.31311,37.70345],[-122.32692,37.72824],[-122.35391,37.77904],[-122.36475,37.80136],[-122.38687,37.85107],[-122.38298,37.90794],[-122.38161,37.91229],[-122.29678,37.95846],[-122.24961,37.9677],[-122.19623,37.97821],[-122.1457,37.98889],[-122.08846,38.00019],[-121.99153,38.01985],[-121.9506,38.02841],[-121.88186,38.04191],[-121.79809,38.0583],[-121.7078,38.07622],[-121.67097,38.08355],[-121.64871,38.08797],[-121.58893,38.0996],[-121.5133,38.1145],[-121.41576,38.13327],[-121.36759,38.14217],[-121.24661,38.1654]]}
}
