{
  "id": 2048494963,
  "type": "Feature",
  "properties": {
    "date:inception_lower": "2026-10-02",
    "date:inception_upper": "2026-10-02",
    "edtf:cessation": "",
    "edtf:inception": "2026-10-02",
    "flysfo:actual_timestamp": -1,
    "flysfo:airline": "AA",
    "flysfo:base_airline": "",
    "flysfo:base_flight_number": "5618",
    "flysfo:date": "2026-10-02",
    "flysfo:estimated_timestamp": 1790946000,
    "flysfo:event": "D",
    "flysfo:flight_number": "AA2161",
    "flysfo:gate": "B26",
    "flysfo:journey": "SFO-PHL",
    "flysfo:scheduled_timestamp": 1790946000,
    "flysfo:timestamp": 1790946000,
    "geom:area": 0,
    "geom:bbox": "-122.370943,37.617990,-75.247885,39.880952",
    "geom:latitude": 38.749471,
    "geom:longitude": -98.809414,
    "iata:airline": "AA",
    "iata:base_airline": "",
    "icao:airline": "AAL",
    "icao:base_airline": "BAW",
    "lbl:latitude": 37.61799,
    "lbl:longitude": -122.370943,
    "sfomuseum:airline_id": 1159283849,
    "sfomuseum:arrival_id": 102529403,
    "sfomuseum:base_flight_id": "20261002-D-BAW-5618",
    "sfomuseum:departure_id": 102527513,
    "sfomuseum:flight_id": "20261002-D-AAL-2161",
    "sfomuseum:flight_number": [
      "AAL2161",
      "AA2161"
    ],
    "sfomuseum:placetype": "flight",
    "src:geom": "flysfo",
    "wof:belongsto": [
      1947304067,
      102527513,
      1947304261,
      102191575,
      85633793,
      102087579,
      85922583,
      554784711,
      85688637,
      1947304283,
      1947304259,
      102085387
    ],
    "wof:country": "US",
    "wof:created": 1791043785,
    "wof:geomhash": "262283982e32a09ea653beb1776c6fc7",
    "wof:hierarchy": [
      {
        "building_id": 1947304067,
        "campus_id": 102527513,
        "concourse_id": 1947304261,
        "continent_id": 102191575,
        "country_id": 85633793,
        "county_id": 102087579,
        "custom_id": 2048494963,
        "flight_id": 2048494963,
        "locality_id": 85922583,
        "postalcode_id": 554784711,
        "region_id": 85688637,
        "venue_id": 1947304283,
        "wing_id": 1947304259
      },
      {
        "building_id": 1947304067,
        "campus_id": 102527513,
        "concourse_id": 1947304261,
        "continent_id": 102191575,
        "country_id": 85633793,
        "county_id": 102085387,
        "custom_id": 2048494963,
        "flight_id": 2048494963,
        "region_id": 85688637,
        "venue_id": 1947304283,
        "wing_id": 1947304259
      }
    ],
    "wof:id": 2048494963,
    "wof:involves": [
      102529403,
      102527513,
      1159283849,
      1947304283,
      1159284021
    ],
    "wof:lastmodified": 1791043785,
    "wof:name": "AA2161 (SFO-PHL)",
    "wof:parent_id": 1947304283,
    "wof:placetype": "custom",
    "wof:placetype_alt": [
      "flight"
    ],
    "wof:repo": "sfomuseum-data-flights-2026-10",
    "wof:superseded_by": [],
    "wof:supersedes": []
  },
  "bbox": [
    -122.370943,
    37.61799,
    -75.247885,
    39.880952
  ],
  "geometry": {"type":"MultiPoint","coordinates":[[-122.370943,37.61799],[-75.247885,39.880952]]}
}
