{
  "id": 2048507011,
  "type": "Feature",
  "properties": {
    "date:inception_lower": "2026-10-03",
    "date:inception_upper": "2026-10-03",
    "edtf:cessation": "",
    "edtf:inception": "2026-10-03",
    "flysfo:actual_timestamp": -1,
    "flysfo:airline": "UA",
    "flysfo:base_airline": "",
    "flysfo:base_flight_number": "7011",
    "flysfo:date": "2026-10-03",
    "flysfo:estimated_timestamp": 1791049260,
    "flysfo:event": "D",
    "flysfo:flight_number": "UA875",
    "flysfo:gate": "G9",
    "flysfo:journey": "SFO-HND",
    "flysfo:scheduled_timestamp": 1791048900,
    "flysfo:timestamp": 1791049260,
    "geom:area": 0,
    "geom:bbox": "-122.370943,35.554085,139.775638,37.617990",
    "geom:latitude": 36.5860375,
    "geom:longitude": 8.702347499999995,
    "iata:airline": "UA",
    "iata:base_airline": "",
    "icao:airline": "UAL",
    "icao:base_airline": "ANA",
    "lbl:latitude": 37.61844,
    "lbl:longitude": -122.392214,
    "sfomuseum:airline_id": 1159285413,
    "sfomuseum:arrival_id": 102541591,
    "sfomuseum:base_flight_id": "20261003-D-ANA-7011",
    "sfomuseum:departure_id": 102527513,
    "sfomuseum:flight_id": "20261003-D-UAL-875",
    "sfomuseum:flight_number": [
      "UAL875",
      "UA875"
    ],
    "sfomuseum:placetype": "flight",
    "src:geom": "flysfo",
    "wof:belongsto": [
      1947304067,
      102527513,
      1947304129,
      102191575,
      85633793,
      102087579,
      85922583,
      554784711,
      85688637,
      1947304153,
      1947304069,
      102085387
    ],
    "wof:country": "US",
    "wof:created": 1791130530,
    "wof:geomhash": "64252c90f74b3e5d6a354a131140ee76",
    "wof:hierarchy": [
      {
        "building_id": 1947304067,
        "campus_id": 102527513,
        "concourse_id": 1947304129,
        "continent_id": 102191575,
        "country_id": 85633793,
        "county_id": 102087579,
        "custom_id": 2048507011,
        "flight_id": 2048507011,
        "locality_id": 85922583,
        "postalcode_id": 554784711,
        "region_id": 85688637,
        "venue_id": 1947304153,
        "wing_id": 1947304069
      },
      {
        "building_id": 1947304067,
        "campus_id": 102527513,
        "concourse_id": 1947304129,
        "continent_id": 102191575,
        "country_id": 85633793,
        "county_id": 102085387,
        "custom_id": 2048507011,
        "flight_id": 2048507011,
        "region_id": 85688637,
        "venue_id": 1947304153,
        "wing_id": 1947304069
      }
    ],
    "wof:id": 2048507011,
    "wof:involves": [
      102541591,
      102527513,
      1159285413,
      1947304153,
      1159283875
    ],
    "wof:lastmodified": 1791130530,
    "wof:name": "UA875 (SFO-HND)",
    "wof:parent_id": 1947304153,
    "wof:placetype": "custom",
    "wof:placetype_alt": [
      "flight"
    ],
    "wof:repo": "sfomuseum-data-flights-2026-10",
    "wof:superseded_by": [],
    "wof:supersedes": []
  },
  "bbox": [
    -122.370943,
    35.554085,
    139.775638,
    37.61799
  ],
  "geometry": {"type":"MultiPoint","coordinates":[[-122.370943,37.61799],[139.775638,35.554085]]}
}
