{
  "id": 2048537813,
  "type": "Feature",
  "properties": {
    "geom:area": 0,
    "geom:bbox": "-122.353400,37.491840,-121.244470,37.611900",
    "geom:latitude": 37.546720651031116,
    "geom:longitude": -121.80373522071365,
    "src:alt_label": "swim-approach",
    "src:geom": "swim",
    "swim:elevations": [
      4614,
      4384,
      4181,
      3775,
      3474,
      3449,
      3141,
      3107,
      2944,
      2774,
      2533,
      2376,
      2238,
      2041,
      1921,
      1789,
      1605,
      1421,
      1297,
      1120,
      1000,
      826,
      728,
      584,
      406,
      251,
      165,
      32
    ],
    "swim:geom": "approach",
    "swim:timestamps": [
      1791382736,
      1791382761,
      1791382783,
      1791382826,
      1791382856,
      1791382861,
      1791382915,
      1791382933,
      1791382966,
      1791382991,
      1791383024,
      1791383059,
      1791383082,
      1791383118,
      1791383153,
      1791383177,
      1791383208,
      1791383247,
      1791383269,
      1791383304,
      1791383331,
      1791383363,
      1791383384,
      1791383411,
      1791383449,
      1791383488,
      1791383509,
      1791383540
    ],
    "wof:geomhash": "6e31e79fedf5a498ecfbc2a4c45dd06a",
    "wof:id": 2048537813,
    "wof:repo": "sfomuseum-data-flights-2026-10"
  },
  "bbox": [
    -122.3534,
    37.49184,
    -121.24447,
    37.6119
  ],
  "geometry": {"type":"LineString","coordinates":[[-121.24447,37.59524],[-121.29628,37.58852],[-121.3405,37.58393],[-121.42812,37.57379],[-121.48798,37.56685],[-121.49713,37.56572],[-121.59972,37.55371],[-121.62941,37.54963],[-121.6808,37.53735],[-121.71938,37.5282],[-121.77072,37.51586],[-121.82138,37.50378],[-121.85546,37.49563],[-121.9092,37.49184],[-121.96041,37.49306],[-121.99279,37.49662],[-122.0316,37.50883],[-122.07643,37.52321],[-122.10014,37.53101],[-122.13619,37.54272],[-122.16308,37.55148],[-122.19615,37.56224],[-122.21771,37.56908],[-122.24506,37.57795],[-122.27858,37.58795],[-122.31184,37.59796],[-122.32851,37.60296],[-122.3534,37.6119]]}
}
