{
  "id": 2048557645,
  "type": "Feature",
  "properties": {
    "date:inception_lower": "2026-10-09",
    "date:inception_upper": "2026-10-09",
    "edtf:cessation": "",
    "edtf:inception": "2026-10-09",
    "flysfo:actual_timestamp": -1,
    "flysfo:airline": "NH",
    "flysfo:base_airline": "",
    "flysfo:base_flight_number": "3115",
    "flysfo:date": "2026-10-09",
    "flysfo:estimated_timestamp": -1,
    "flysfo:event": "D",
    "flysfo:flight_number": "NH7828",
    "flysfo:gate": "",
    "flysfo:journey": "SFO-SAL",
    "flysfo:scheduled_timestamp": 1791615300,
    "flysfo:timestamp": 1791615300,
    "geom:area": 0,
    "geom:bbox": "-122.370943,13.444749,-89.058566,37.617990",
    "geom:latitude": 25.5313695,
    "geom:longitude": -105.7147545,
    "iata:airline": "NH",
    "iata:base_airline": "",
    "icao:airline": "ANA",
    "icao:base_airline": "EVA",
    "lbl:latitude": 37.61799,
    "lbl:longitude": -122.370943,
    "sfomuseum:airline_id": 1159283875,
    "sfomuseum:arrival_id": 102556081,
    "sfomuseum:base_flight_id": "20261009-D-EVA-3115",
    "sfomuseum:departure_id": 102527513,
    "sfomuseum:flight_id": "20261009-D-ANA-7828",
    "sfomuseum:flight_number": [
      "ANA7828",
      "NH7828"
    ],
    "sfomuseum:placetype": "flight",
    "src:geom": "flysfo",
    "wof:belongsto": [],
    "wof:country": "US",
    "wof:created": 1791648684,
    "wof:geomhash": "5e2e6299deb3a59dda4e65fa5b8c6ddb",
    "wof:hierarchy": [
      {
        "custom_id": 2048557645,
        "flight_id": 2048557645
      }
    ],
    "wof:id": 2048557645,
    "wof:involves": [
      102556081,
      102527513,
      1159283875,
      -1,
      1159284349
    ],
    "wof:lastmodified": 1791648684,
    "wof:name": "NH7828 (SFO-SAL)",
    "wof:parent_id": -1,
    "wof:placetype": "custom",
    "wof:placetype_alt": [
      "flight"
    ],
    "wof:repo": "sfomuseum-data-flights-2026-10",
    "wof:superseded_by": [],
    "wof:supersedes": []
  },
  "bbox": [
    -122.370943,
    13.444749,
    -89.058566,
    37.61799
  ],
  "geometry": {"type":"MultiPoint","coordinates":[[-122.370943,37.61799],[-89.058566,13.444749]]}
}
