{
  "id": 2048538185,
  "type": "Feature",
  "properties": {
    "geom:area": 0,
    "geom:bbox": "-122.761400,37.349800,-122.132140,38.466580",
    "geom:latitude": 37.763526285948224,
    "geom:longitude": -122.46448007244872,
    "src:alt_label": "swim-approach",
    "src:geom": "swim",
    "swim:elevations": [
      7397,
      7316,
      7315,
      6969,
      6732,
      6274,
      5830,
      5487,
      5317,
      4853,
      4678,
      4334,
      4023,
      3784,
      3658,
      3446,
      3406,
      3384,
      3353,
      3353,
      3353,
      3353,
      3257,
      3169,
      2873,
      2638,
      2554,
      2437,
      2438,
      2438,
      2262,
      2076,
      1991,
      1829,
      1829,
      1829,
      1829,
      1784,
      1501,
      1226,
      915,
      795,
      690,
      582,
      457,
      345,
      218,
      158,
      138,
      68
    ],
    "swim:geom": "approach",
    "swim:timestamps": [
      1791370137,
      1791370164,
      1791370183,
      1791370227,
      1791370244,
      1791370279,
      1791370314,
      1791370341,
      1791370358,
      1791370406,
      1791370425,
      1791370463,
      1791370497,
      1791370524,
      1791370538,
      1791370565,
      1791370585,
      1791370590,
      1791370646,
      1791370670,
      1791370705,
      1791370712,
      1791370762,
      1791370776,
      1791370824,
      1791370853,
      1791370865,
      1791370898,
      1791370939,
      1791370962,
      1791370999,
      1791371025,
      1791371036,
      1791371064,
      1791371092,
      1791371121,
      1791371150,
      1791371162,
      1791371218,
      1791371248,
      1791371291,
      1791371331,
      1791371364,
      1791371389,
      1791371422,
      1791371454,
      1791371487,
      1791371505,
      1791371511,
      1791371530
    ],
    "wof:geomhash": "a027c26ab66a6c0a1286ec3f5fe27485",
    "wof:id": 2048538185,
    "wof:repo": "sfomuseum-data-flights-2026-10"
  },
  "bbox": [
    -122.7614,
    37.3498,
    -122.13214,
    38.46658
  ],
  "geometry": {"type":"LineString","coordinates":[[-122.69983,38.46658],[-122.71365,38.41726],[-122.72311,38.38351],[-122.74567,38.30291],[-122.75438,38.27186],[-122.7614,38.21108],[-122.74586,38.15],[-122.7323,38.10336],[-122.72353,38.07362],[-122.70033,37.99414],[-122.69161,37.96364],[-122.67097,37.9041],[-122.63198,37.86027],[-122.59674,37.82712],[-122.57921,37.81084],[-122.54475,37.77849],[-122.52111,37.75635],[-122.51537,37.75091],[-122.45798,37.69647],[-122.43742,37.67697],[-122.40558,37.64707],[-122.40025,37.64203],[-122.35901,37.59873],[-122.35261,37.58486],[-122.32775,37.53885],[-122.31033,37.51113],[-122.30395,37.49894],[-122.31204,37.46578],[-122.33429,37.42496],[-122.34076,37.40162],[-122.31949,37.36536],[-122.28919,37.35246],[-122.2741,37.35197],[-122.23658,37.35109],[-122.19687,37.3498],[-122.15888,37.35559],[-122.13834,37.38234],[-122.13214,37.39437],[-122.13252,37.45179],[-122.14324,37.48029],[-122.15811,37.52088],[-122.19149,37.54131],[-122.2192,37.55324],[-122.23996,37.562],[-122.26662,37.57319],[-122.29048,37.58322],[-122.31577,37.59384],[-122.32999,37.59978],[-122.33421,37.60157],[-122.34806,37.60738]]}
}
