{
  "id": 2048551087,
  "type": "Feature",
  "properties": {
    "geom:area": 0,
    "geom:bbox": "-122.366640,37.627220,-121.589480,38.497630",
    "geom:latitude": 38.05432101745659,
    "geom:longitude": -121.97280031301936,
    "src:alt_label": "swim-takeoff",
    "src:geom": "swim",
    "swim:elevations": [
      213,
      274,
      605,
      743,
      960,
      1265,
      1809,
      2002,
      2414,
      2742,
      3038,
      3078,
      3063,
      3048,
      3048,
      3078,
      3078,
      3078,
      3046,
      3047,
      3067,
      3078,
      3078,
      2832,
      2667,
      2577,
      2470,
      2379,
      2294,
      2164,
      2102,
      1973,
      1523,
      1412,
      1185,
      1124,
      996
    ],
    "swim:geom": "takeoff",
    "swim:timestamps": [
      1791493678,
      1791493681,
      1791493699,
      1791493712,
      1791493731,
      1791493762,
      1791493796,
      1791493808,
      1791493832,
      1791493856,
      1791493882,
      1791493891,
      1791493915,
      1791493948,
      1791493970,
      1791494003,
      1791494029,
      1791494063,
      1791494084,
      1791494107,
      1791494122,
      1791494149,
      1791494162,
      1791494215,
      1791494236,
      1791494252,
      1791494272,
      1791494285,
      1791494297,
      1791494321,
      1791494344,
      1791494377,
      1791494424,
      1791494435,
      1791494469,
      1791494491,
      1791494521
    ],
    "wof:geomhash": "792d89bfd907262afaab4d769724a812",
    "wof:id": 2048551087,
    "wof:repo": "sfomuseum-data-flights-2026-10"
  },
  "bbox": [
    -122.36664,
    37.62722,
    -121.58948,
    38.49763
  ],
  "geometry": {"type":"LineString","coordinates":[[-122.36664,37.62722],[-122.36475,37.62942],[-122.34991,37.63995],[-122.33773,37.64698],[-122.31828,37.65864],[-122.28402,37.67998],[-122.24134,37.7036],[-122.22483,37.71305],[-122.20287,37.73835],[-122.18686,37.76667],[-122.16772,37.80023],[-122.16118,37.81184],[-122.14284,37.84428],[-122.11743,37.88901],[-122.10014,37.91932],[-122.07257,37.96806],[-122.05037,38.00702],[-122.02226,38.05623],[-122.00148,38.08356],[-121.97249,38.10939],[-121.95396,38.12426],[-121.92074,38.15083],[-121.90553,38.16297],[-121.83992,38.21517],[-121.8147,38.23529],[-121.79438,38.2515],[-121.77068,38.27029],[-121.75532,38.28245],[-121.74185,38.2932],[-121.71352,38.31566],[-121.69032,38.33589],[-121.66762,38.36958],[-121.64062,38.4142],[-121.63448,38.42411],[-121.61541,38.4553],[-121.60406,38.47367],[-121.58948,38.49763]]}
}
