{
  "id": 2048512117,
  "type": "Feature",
  "properties": {
    "date:inception_lower": "2026-10-04",
    "date:inception_upper": "2026-10-04",
    "edtf:cessation": "",
    "edtf:inception": "2026-10-04",
    "flysfo:actual_timestamp": -1,
    "flysfo:airline": "VA",
    "flysfo:base_airline": "",
    "flysfo:base_flight_number": "7928",
    "flysfo:date": "2026-10-04",
    "flysfo:estimated_timestamp": 1791184680,
    "flysfo:event": "A",
    "flysfo:flight_number": "VA8521",
    "flysfo:gate": "E2",
    "flysfo:journey": "MCO-SFO",
    "flysfo:scheduled_timestamp": 1791175800,
    "flysfo:timestamp": 1791184680,
    "geom:area": 0,
    "geom:bbox": "-122.370943,28.431495,-81.307537,37.617990",
    "geom:latitude": 33.0247425,
    "geom:longitude": -101.83923999999999,
    "iata:airline": "VA",
    "iata:base_airline": "",
    "icao:airline": "VOZ",
    "icao:base_airline": "AZU",
    "lbl:latitude": 37.618678,
    "lbl:longitude": -122.385955,
    "sfomuseum:airline_id": 1159285485,
    "sfomuseum:arrival_id": 102527513,
    "sfomuseum:base_flight_id": "20261004-A-AZU-7928",
    "sfomuseum:departure_id": 102533657,
    "sfomuseum:flight_id": "20261004-A-VOZ-8521",
    "sfomuseum:flight_number": [
      "VOZ8521",
      "VA8521"
    ],
    "sfomuseum:placetype": "flight",
    "src:geom": "flysfo",
    "wof:belongsto": [
      1947304067,
      102527513,
      1947304451,
      102191575,
      85633793,
      102087579,
      85922583,
      554784711,
      85688637,
      1947304481,
      1947304447,
      102085387
    ],
    "wof:country": "US",
    "wof:created": 1791216600,
    "wof:geomhash": "5fe9a4073f558f5d433cae4f846ab71e",
    "wof:hierarchy": [
      {
        "building_id": 1947304067,
        "campus_id": 102527513,
        "concourse_id": 1947304451,
        "continent_id": 102191575,
        "country_id": 85633793,
        "county_id": 102087579,
        "custom_id": 2048512117,
        "flight_id": 2048512117,
        "locality_id": 85922583,
        "postalcode_id": 554784711,
        "region_id": 85688637,
        "venue_id": 1947304481,
        "wing_id": 1947304447
      },
      {
        "building_id": 1947304067,
        "campus_id": 102527513,
        "concourse_id": 1947304451,
        "continent_id": 102191575,
        "country_id": 85633793,
        "county_id": 102085387,
        "custom_id": 2048512117,
        "flight_id": 2048512117,
        "region_id": 85688637,
        "venue_id": 1947304481,
        "wing_id": 1947304447
      }
    ],
    "wof:id": 2048512117,
    "wof:involves": [
      102527513,
      102533657,
      1159285485,
      1947304481,
      1779770723
    ],
    "wof:lastmodified": 1791216600,
    "wof:name": "VA8521 (MCO-SFO)",
    "wof:parent_id": 1947304481,
    "wof:placetype": "custom",
    "wof:placetype_alt": [
      "flight"
    ],
    "wof:repo": "sfomuseum-data-flights-2026-10",
    "wof:superseded_by": [],
    "wof:supersedes": []
  },
  "bbox": [
    -122.370943,
    28.431495,
    -81.307537,
    37.61799
  ],
  "geometry": {"type":"MultiPoint","coordinates":[[-81.307537,28.431495],[-122.370943,37.61799]]}
}
