{
  "id": 2048502657,
  "type": "Feature",
  "properties": {
    "geom:area": 0,
    "geom:bbox": "-122.355710,37.491890,-121.301480,37.612910",
    "geom:latitude": 37.544620339151834,
    "geom:longitude": -121.83315107436798,
    "src:alt_label": "swim-approach",
    "src:geom": "swim",
    "swim:elevations": [
      4596,
      4417,
      4152,
      3730,
      3347,
      3278,
      3067,
      2870,
      2753,
      2560,
      2424,
      2282,
      2035,
      1919,
      1905,
      1678,
      1587,
      1451,
      1388,
      1165,
      975,
      843,
      729,
      579,
      480,
      326,
      186,
      69,
      29
    ],
    "swim:geom": "approach",
    "swim:timestamps": [
      1791010977,
      1791010995,
      1791011020,
      1791011060,
      1791011097,
      1791011106,
      1791011158,
      1791011188,
      1791011208,
      1791011243,
      1791011269,
      1791011292,
      1791011337,
      1791011367,
      1791011370,
      1791011428,
      1791011444,
      1791011477,
      1791011486,
      1791011507,
      1791011543,
      1791011574,
      1791011599,
      1791011635,
      1791011656,
      1791011696,
      1791011728,
      1791011756,
      1791011765
    ],
    "wof:geomhash": "7116957b921b7439c58d85cde8d6efdc",
    "wof:id": 2048502657,
    "wof:repo": "sfomuseum-data-flights-2026-10"
  },
  "bbox": [
    -122.35571,
    37.49189,
    -121.30148,
    37.61291
  ],
  "geometry": {"type":"LineString","coordinates":[[-121.30148,37.58793],[-121.33916,37.58405],[-121.39075,37.57815],[-121.4728,37.56853],[-121.54583,37.56012],[-121.56409,37.55792],[-121.65647,37.54322],[-121.70357,37.53204],[-121.73359,37.52479],[-121.78192,37.51333],[-121.81677,37.50489],[-121.84793,37.49738],[-121.91178,37.49189],[-121.95325,37.49281],[-121.95749,37.49293],[-122.03576,37.5102],[-122.05608,37.51675],[-122.09463,37.52929],[-122.10508,37.53267],[-122.12806,37.54003],[-122.16565,37.55233],[-122.19476,37.5617],[-122.21679,37.56889],[-122.2486,37.57902],[-122.26646,37.58471],[-122.29962,37.5943],[-122.32664,37.60232],[-122.349,37.61001],[-122.35571,37.61291]]}
}
