{
  "id": 2048550621,
  "type": "Feature",
  "properties": {
    "geom:area": 0,
    "geom:bbox": "-122.620730,36.718420,-121.330310,37.669150",
    "geom:latitude": 37.203770913037644,
    "geom:longitude": -122.08788851656834,
    "src:alt_label": "swim-takeoff",
    "src:geom": "swim",
    "swim:elevations": [
      152,
      689,
      1177,
      1388,
      1439,
      1452,
      2077,
      2375,
      3026,
      3310,
      3902,
      4179,
      4259,
      4666,
      4924,
      5524,
      5657,
      5877,
      6302,
      6412,
      6665,
      6916,
      7103,
      7449,
      7740,
      7931,
      7993,
      8269,
      8446,
      8727,
      8867
    ],
    "swim:geom": "takeoff",
    "swim:timestamps": [
      1791466542,
      1791466614,
      1791466648,
      1791466676,
      1791466688,
      1791466691,
      1791466731,
      1791466750,
      1791466791,
      1791466821,
      1791466886,
      1791466918,
      1791466925,
      1791466961,
      1791466981,
      1791467038,
      1791467051,
      1791467076,
      1791467127,
      1791467137,
      1791467165,
      1791467197,
      1791467222,
      1791467271,
      1791467296,
      1791467335,
      1791467347,
      1791467385,
      1791467412,
      1791467448,
      1791467466
    ],
    "wof:geomhash": "e0242be95f9658e6bf63470ceff308e9",
    "wof:id": 2048550621,
    "wof:repo": "sfomuseum-data-flights-2026-10"
  },
  "bbox": [
    -122.62073,
    36.71842,
    -121.33031,
    37.66915
  ],
  "geometry": {"type":"LineString","coordinates":[[-122.38606,37.62319],[-122.45715,37.6539],[-122.49778,37.66915],[-122.53496,37.6604],[-122.55079,37.65352],[-122.55519,37.65173],[-122.60816,37.62231],[-122.61278,37.59888],[-122.61678,37.54533],[-122.62073,37.50473],[-122.54397,37.43053],[-122.48533,37.40071],[-122.47139,37.39292],[-122.4048,37.35394],[-122.36748,37.3317],[-122.25925,37.26799],[-122.23429,37.25343],[-122.18405,37.22393],[-122.07947,37.16268],[-122.05858,37.15047],[-122.00034,37.11634],[-121.93349,37.0771],[-121.87976,37.04536],[-121.7721,36.98178],[-121.7169,36.94893],[-121.63003,36.8969],[-121.60347,36.88134],[-121.51528,36.82854],[-121.45417,36.79235],[-121.37158,36.74364],[-121.33031,36.71842]]}
}
