{
  "id": 2048502405,
  "type": "Feature",
  "properties": {
    "geom:area": 0,
    "geom:bbox": "-122.347360,36.746280,-121.894020,37.607070",
    "geom:latitude": 37.20902918933208,
    "geom:longitude": -122.1591668941548,
    "src:alt_label": "swim-approach",
    "src:geom": "swim",
    "swim:elevations": [
      5791,
      5415,
      5269,
      4921,
      4222,
      4043,
      3907,
      3757,
      3581,
      3437,
      3273,
      3155,
      2907,
      2884,
      2745,
      2491,
      2293,
      2155,
      2006,
      1826,
      1829,
      1829,
      1829,
      1829,
      1466,
      1274,
      1220,
      1219,
      1219,
      1083,
      818,
      607,
      486,
      311,
      273,
      138,
      74
    ],
    "swim:geom": "approach",
    "swim:timestamps": [
      1791048173,
      1791048206,
      1791048219,
      1791048242,
      1791048295,
      1791048322,
      1791048349,
      1791048381,
      1791048415,
      1791048441,
      1791048463,
      1791048477,
      1791048508,
      1791048511,
      1791048540,
      1791048585,
      1791048623,
      1791048646,
      1791048672,
      1791048715,
      1791048744,
      1791048753,
      1791048785,
      1791048813,
      1791048868,
      1791048894,
      1791048907,
      1791048936,
      1791048965,
      1791049000,
      1791049025,
      1791049059,
      1791049089,
      1791049135,
      1791049146,
      1791049193,
      1791049211
    ],
    "wof:geomhash": "9061173254696dee2b5a75ec57bf98f1",
    "wof:id": 2048502405,
    "wof:repo": "sfomuseum-data-flights-2026-10"
  },
  "bbox": [
    -122.34736,
    36.74628,
    -121.89402,
    37.60707
  ],
  "geometry": {"type":"LineString","coordinates":[[-121.89402,36.74628],[-121.91045,36.79936],[-121.91679,36.82189],[-121.92702,36.8587],[-121.94993,36.94174],[-121.96709,36.97774],[-122.00461,37.00021],[-122.04811,37.02386],[-122.09287,37.04864],[-122.12783,37.06774],[-122.15671,37.08365],[-122.17471,37.09338],[-122.21372,37.1146],[-122.21839,37.1172],[-122.2553,37.13796],[-122.30738,37.17125],[-122.32587,37.21458],[-122.33516,37.23981],[-122.34586,37.26894],[-122.34464,37.31558],[-122.31408,37.33598],[-122.30411,37.34139],[-122.26234,37.35303],[-122.22619,37.36146],[-122.16864,37.39862],[-122.15517,37.42393],[-122.1511,37.4376],[-122.14514,37.46795],[-122.15746,37.49641],[-122.18299,37.52352],[-122.20029,37.54113],[-122.23201,37.55848],[-122.26077,37.57073],[-122.2969,37.58589],[-122.30469,37.58918],[-122.33535,37.6021],[-122.34736,37.60707]]}
}
