{
  "id": 2048547701,
  "type": "Feature",
  "properties": {
    "geom:area": 0,
    "geom:bbox": "-122.362570,37.633810,-121.262550,37.950890",
    "geom:latitude": 37.804921361113664,
    "geom:longitude": -121.81675761981934,
    "src:alt_label": "swim-takeoff",
    "src:geom": "swim",
    "swim:elevations": [
      194,
      484,
      719,
      805,
      1121,
      1782,
      1887,
      2558,
      2844,
      3208,
      3328,
      3520,
      3739,
      3955,
      4269,
      4767,
      5091,
      5562,
      5711,
      5951,
      6352,
      6606,
      6650
    ],
    "swim:geom": "takeoff",
    "swim:timestamps": [
      1791463856,
      1791463880,
      1791463912,
      1791463926,
      1791463962,
      1791464005,
      1791464011,
      1791464060,
      1791464078,
      1791464108,
      1791464130,
      1791464158,
      1791464174,
      1791464190,
      1791464214,
      1791464257,
      1791464287,
      1791464334,
      1791464347,
      1791464383,
      1791464426,
      1791464457,
      1791464461
    ],
    "wof:geomhash": "b9638b6dc2f15e1d7c75f77edfc8489e",
    "wof:id": 2048547701,
    "wof:repo": "sfomuseum-data-flights-2026-10"
  },
  "bbox": [
    -122.36257,
    37.63381,
    -121.26255,
    37.95089
  ],
  "geometry": {"type":"LineString","coordinates":[[-122.36257,37.63381],[-122.3431,37.64482],[-122.30944,37.65833],[-122.29342,37.66446],[-122.24441,37.68299],[-122.18142,37.70719],[-122.17236,37.71098],[-122.09708,37.73538],[-122.06921,37.74267],[-122.01946,37.75587],[-121.97993,37.76601],[-121.92669,37.77989],[-121.89424,37.78833],[-121.86138,37.79698],[-121.81177,37.80985],[-121.72333,37.83288],[-121.65753,37.84977],[-121.55518,37.87615],[-121.52669,37.88347],[-121.44574,37.90425],[-121.34545,37.92981],[-121.27161,37.94855],[-121.26255,37.95089]]}
}
