{
  "id": 2048557615,
  "type": "Feature",
  "properties": {
    "date:inception_lower": "2026-10-09",
    "date:inception_upper": "2026-10-09",
    "edtf:cessation": "",
    "edtf:inception": "2026-10-09",
    "flysfo:actual_timestamp": -1,
    "flysfo:airline": "NH",
    "flysfo:base_airline": "",
    "flysfo:base_flight_number": "3774",
    "flysfo:date": "2026-10-09",
    "flysfo:estimated_timestamp": 1791575100,
    "flysfo:event": "D",
    "flysfo:flight_number": "NH7332",
    "flysfo:gate": "E4",
    "flysfo:journey": "SFO-AUS",
    "flysfo:scheduled_timestamp": 1791575100,
    "flysfo:timestamp": 1791575100,
    "geom:area": 0,
    "geom:bbox": "-122.370943,30.206175,-97.643029,37.617990",
    "geom:latitude": 33.9120825,
    "geom:longitude": -110.006986,
    "iata:airline": "NH",
    "iata:base_airline": "",
    "icao:airline": "ANA",
    "icao:base_airline": "ACA",
    "lbl:latitude": 37.618161,
    "lbl:longitude": -122.384735,
    "sfomuseum:airline_id": 1159283875,
    "sfomuseum:arrival_id": 102521851,
    "sfomuseum:base_flight_id": "20261009-D-ACA-3774",
    "sfomuseum:departure_id": 102527513,
    "sfomuseum:flight_id": "20261009-D-ANA-7332",
    "sfomuseum:flight_number": [
      "ANA7332",
      "NH7332"
    ],
    "sfomuseum:placetype": "flight",
    "src:geom": "flysfo",
    "wof:belongsto": [
      1763588121,
      102527513,
      1763588335,
      102191575,
      85633793,
      102087579,
      85922583,
      554784711,
      85688637,
      1763588337,
      1763588269,
      102085387
    ],
    "wof:country": "US",
    "wof:created": 1791648681,
    "wof:geomhash": "f1e29c4a83094711ef061292cfad3358",
    "wof:hierarchy": [
      {
        "building_id": 1763588121,
        "campus_id": 102527513,
        "concourse_id": 1763588335,
        "continent_id": 102191575,
        "country_id": 85633793,
        "county_id": 102087579,
        "custom_id": 2048557615,
        "flight_id": 2048557615,
        "locality_id": 85922583,
        "postalcode_id": 554784711,
        "region_id": 85688637,
        "venue_id": 1763588337,
        "wing_id": 1763588269
      },
      {
        "building_id": 1763588121,
        "campus_id": 102527513,
        "concourse_id": 1763588335,
        "continent_id": 102191575,
        "country_id": 85633793,
        "county_id": 102085387,
        "custom_id": 2048557615,
        "flight_id": 2048557615,
        "region_id": 85688637,
        "venue_id": 1763588337,
        "wing_id": 1763588269
      }
    ],
    "wof:id": 2048557615,
    "wof:involves": [
      102521851,
      102527513,
      1159283875,
      1763588337,
      1159283597
    ],
    "wof:lastmodified": 1791648681,
    "wof:name": "NH7332 (SFO-AUS)",
    "wof:parent_id": 1763588337,
    "wof:placetype": "custom",
    "wof:placetype_alt": [
      "flight"
    ],
    "wof:repo": "sfomuseum-data-flights-2026-10",
    "wof:superseded_by": [],
    "wof:supersedes": []
  },
  "bbox": [
    -122.370943,
    30.206175,
    -97.643029,
    37.61799
  ],
  "geometry": {"type":"MultiPoint","coordinates":[[-122.370943,37.61799],[-97.643029,30.206175]]}
}
