{
  "id": 2048529223,
  "type": "Feature",
  "properties": {
    "geom:area": 0,
    "geom:bbox": "-122.362650,37.491510,-121.248010,37.615930",
    "geom:latitude": 37.54714933460366,
    "geom:longitude": -121.81033001844166,
    "src:alt_label": "swim-approach",
    "src:geom": "swim",
    "swim:elevations": [
      4616,
      4492,
      4196,
      4001,
      3784,
      3453,
      3387,
      3191,
      3112,
      2893,
      2682,
      2550,
      2530,
      2231,
      2123,
      2022,
      1914,
      1826,
      1765,
      1642,
      1525,
      1352,
      1245,
      1072,
      962,
      634,
      549,
      458,
      359,
      286,
      166,
      279
    ],
    "swim:geom": "approach",
    "swim:timestamps": [
      1791320785,
      1791320796,
      1791320828,
      1791320848,
      1791320872,
      1791320908,
      1791320914,
      1791320953,
      1791320975,
      1791321009,
      1791321035,
      1791321058,
      1791321063,
      1791321116,
      1791321133,
      1791321154,
      1791321178,
      1791321200,
      1791321213,
      1791321236,
      1791321264,
      1791321292,
      1791321310,
      1791321350,
      1791321366,
      1791321416,
      1791321440,
      1791321472,
      1791321494,
      1791321514,
      1791321549,
      1791321595
    ],
    "wof:geomhash": "5677707d3837786f1e82f89068653eeb",
    "wof:id": 2048529223,
    "wof:repo": "sfomuseum-data-flights-2026-10"
  },
  "bbox": [
    -122.36265,
    37.49151,
    -121.24801,
    37.61593
  ],
  "geometry": {"type":"LineString","coordinates":[[-121.24801,37.5949],[-121.27061,37.59183],[-121.3365,37.58416],[-121.37767,37.57961],[-121.42634,37.57395],[-121.49848,37.5655],[-121.51028,37.56413],[-121.58701,37.55507],[-121.62579,37.55001],[-121.68461,37.53605],[-121.72682,37.52625],[-121.76381,37.51756],[-121.77224,37.51561],[-121.85539,37.49563],[-121.88371,37.49151],[-121.91639,37.49238],[-121.95551,37.49314],[-121.99015,37.4963],[-122.00935,37.50235],[-122.03946,37.51185],[-122.07406,37.52284],[-122.10525,37.53285],[-122.12374,37.53893],[-122.16179,37.55117],[-122.17572,37.55562],[-122.22152,37.5704],[-122.24324,37.57741],[-122.27029,37.58582],[-122.28899,37.59112],[-122.30368,37.59547],[-122.32872,37.60296],[-122.36265,37.61593]]}
}
