{
  "id": 2048510219,
  "type": "Feature",
  "properties": {
    "geom:area": 0,
    "geom:bbox": "-122.365220,37.491240,-121.268840,37.617650",
    "geom:latitude": 37.54635017092827,
    "geom:longitude": -121.82214102622652,
    "src:alt_label": "swim-approach",
    "src:geom": "swim",
    "swim:elevations": [
      4367,
      4108,
      3843,
      3495,
      3308,
      3144,
      3079,
      2725,
      2601,
      2453,
      2438,
      2437,
      2226,
      2073,
      2072,
      1886,
      1773,
      1650,
      1332,
      1176,
      1071,
      1000,
      963,
      754,
      610,
      484,
      420,
      292,
      131,
      64,
      0
    ],
    "swim:geom": "approach",
    "swim:timestamps": [
      1791138642,
      1791138670,
      1791138700,
      1791138737,
      1791138761,
      1791138798,
      1791138818,
      1791138863,
      1791138873,
      1791138898,
      1791138915,
      1791138943,
      1791138983,
      1791139017,
      1791139023,
      1791139065,
      1791139106,
      1791139120,
      1791139148,
      1791139173,
      1791139197,
      1791139218,
      1791139247,
      1791139284,
      1791139315,
      1791139336,
      1791139351,
      1791139382,
      1791139426,
      1791139441,
      1791139465
    ],
    "wof:geomhash": "47c22a1fa409713d89bd2e9adf11e9ae",
    "wof:id": 2048510219,
    "wof:repo": "sfomuseum-data-flights-2026-10"
  },
  "bbox": [
    -122.36522,
    37.49124,
    -121.26884,
    37.61765
  ],
  "geometry": {"type":"LineString","coordinates":[[-121.26884,37.59168],[-121.32667,37.58452],[-121.38909,37.57771],[-121.4589,37.57],[-121.50198,37.56505],[-121.56803,37.55718],[-121.60478,37.55299],[-121.67826,37.53771],[-121.69393,37.53411],[-121.73345,37.52472],[-121.75896,37.51862],[-121.79767,37.50934],[-121.85119,37.49646],[-121.89602,37.49124],[-121.90451,37.49157],[-121.96122,37.49315],[-122.01546,37.50348],[-122.03255,37.50923],[-122.06641,37.52027],[-122.09554,37.52964],[-122.12429,37.53904],[-122.14694,37.54627],[-122.17641,37.55576],[-122.21409,37.56798],[-122.24494,37.578],[-122.26535,37.58442],[-122.27883,37.58823],[-122.3043,37.59566],[-122.33843,37.60602],[-122.34894,37.61029],[-122.36522,37.61765]]}
}
