{
  "id": 2048534871,
  "type": "Feature",
  "properties": {
    "date:cessation_lower": "2026-10-07",
    "date:cessation_upper": "2026-10-07",
    "date:inception_lower": "1970-01-01",
    "date:inception_upper": "1970-01-01",
    "edtf:cessation": "2026-10-07T03:11:14-07:00",
    "edtf:inception": "1970-01-01T00:00:00Z",
    "flysfo:actual_timestamp": -1,
    "flysfo:airline": "AC",
    "flysfo:base_airline": "",
    "flysfo:base_flight_number": "6975",
    "flysfo:date": "2026-10-07",
    "flysfo:estimated_timestamp": 1791393360,
    "flysfo:event": "A",
    "flysfo:flight_number": "AC562",
    "flysfo:gate": "D11",
    "flysfo:journey": "YVR-SFO",
    "flysfo:scheduled_timestamp": 1791393600,
    "flysfo:timestamp": 1791393600,
    "geom:area": 0,
    "geom:bbox": "-123.179200,37.617990,-122.370943,49.193330",
    "geom:latitude": 43.40566,
    "geom:longitude": -122.7750715,
    "iata:airline": "AC",
    "iata:base_airline": "",
    "icao:aircraft": "BCS3",
    "icao:airline": "ACA",
    "icao:base_airline": "AVA",
    "lbl:latitude": 37.618139,
    "lbl:longitude": -122.381258,
    "sfomuseum:aircraft_id": 1813375783,
    "sfomuseum:airline_id": 1159283597,
    "sfomuseum:arrival_id": 102527513,
    "sfomuseum:base_flight_id": "20261007-A-AVA-6975",
    "sfomuseum:departure_id": 102555307,
    "sfomuseum:flight_id": "20261007-A-ACA-562",
    "sfomuseum:flight_number": [
      "ACA562",
      "AC562"
    ],
    "sfomuseum:placetype": "flight",
    "src:geom": "flysfo",
    "src:geom_alt": [
      "swim-approach"
    ],
    "swim:tail_number": "CFHNB",
    "wof:belongsto": [
      1947304067,
      102527513,
      1947304595,
      102191575,
      85633793,
      102087579,
      85922583,
      554784711,
      85688637,
      1947304627,
      1947304591,
      102085387
    ],
    "wof:country": "US",
    "wof:created": 1791475341,
    "wof:geomhash": "e68490b7b9257816408c117e0e15f8ec",
    "wof:hierarchy": [
      {
        "building_id": 1947304067,
        "campus_id": 102527513,
        "concourse_id": 1947304595,
        "continent_id": 102191575,
        "country_id": 85633793,
        "county_id": 102087579,
        "custom_id": 2048534871,
        "flight_id": 2048534871,
        "locality_id": 85922583,
        "postalcode_id": 554784711,
        "region_id": 85688637,
        "venue_id": 1947304627,
        "wing_id": 1947304591
      },
      {
        "building_id": 1947304067,
        "campus_id": 102527513,
        "concourse_id": 1947304595,
        "continent_id": 102191575,
        "country_id": 85633793,
        "county_id": 102085387,
        "custom_id": 2048534871,
        "flight_id": 2048534871,
        "region_id": 85688637,
        "venue_id": 1947304627,
        "wing_id": 1947304591
      }
    ],
    "wof:id": 2048534871,
    "wof:involves": [
      1813375783,
      102527513,
      102555307,
      1159283597,
      1947304627,
      1159285749
    ],
    "wof:lastmodified": 1791476282,
    "wof:name": "AC562 (YVR-SFO)",
    "wof:parent_id": 1947304627,
    "wof:placetype": "custom",
    "wof:placetype_alt": [
      "flight"
    ],
    "wof:repo": "sfomuseum-data-flights-2026-10",
    "wof:superseded_by": [],
    "wof:supersedes": []
  },
  "bbox": [
    -123.1792,
    37.61799,
    -122.370943,
    49.19333
  ],
  "geometry": {"type":"MultiPoint","coordinates":[[-123.1792,49.19333],[-122.370943,37.61799]]}
}
