{
  "id": 2048560223,
  "type": "Feature",
  "properties": {
    "geom:area": 0,
    "geom:bbox": "-122.544490,37.196070,-121.277210,37.666670",
    "geom:latitude": 37.384580747428046,
    "geom:longitude": -122.013198992599,
    "src:alt_label": "swim-takeoff",
    "src:geom": "swim",
    "swim:elevations": [
      183,
      213,
      678,
      791,
      1097,
      1417,
      1662,
      2218,
      2753,
      3061,
      3412,
      3740,
      4046,
      4417,
      4695,
      4862,
      5043,
      5456,
      5628,
      5763,
      5920,
      6121,
      6349,
      6486,
      6706,
      6947,
      7082,
      7283
    ],
    "swim:geom": "takeoff",
    "swim:timestamps": [
      1791550979,
      1791550982,
      1791551032,
      1791551041,
      1791551074,
      1791551117,
      1791551135,
      1791551173,
      1791551209,
      1791551231,
      1791551264,
      1791551304,
      1791551340,
      1791551396,
      1791551423,
      1791551445,
      1791551462,
      1791551507,
      1791551522,
      1791551552,
      1791551577,
      1791551607,
      1791551637,
      1791551662,
      1791551696,
      1791551728,
      1791551747,
      1791551775
    ],
    "wof:geomhash": "245197d747abe125c9714b2c54d4f792",
    "wof:id": 2048560223,
    "wof:repo": "sfomuseum-data-flights-2026-10"
  },
  "bbox": [
    -122.54449,
    37.19607,
    -121.27721,
    37.66667
  ],
  "geometry": {"type":"LineString","coordinates":[[-122.39094,37.62525],[-122.39425,37.62669],[-122.44108,37.64689],[-122.45078,37.65075],[-122.48691,37.66667],[-122.542,37.6507],[-122.54449,37.62753],[-122.52052,37.58138],[-122.49863,37.53784],[-122.48523,37.51047],[-122.45125,37.47607],[-122.39127,37.44201],[-122.33024,37.41176],[-122.20992,37.38643],[-122.14952,37.37417],[-122.09982,37.36383],[-122.05959,37.35562],[-121.95492,37.33491],[-121.91823,37.32754],[-121.84662,37.3133],[-121.78401,37.30055],[-121.711,37.28544],[-121.63343,37.26961],[-121.57105,37.25743],[-121.48129,37.23891],[-121.39838,37.22157],[-121.34887,37.21125],[-121.27721,37.19607]]}
}
