{
  "id": 2048511219,
  "type": "Feature",
  "properties": {
    "geom:area": 0,
    "geom:bbox": "-122.366830,36.721590,-121.878230,37.612790",
    "geom:latitude": 37.23147985435473,
    "geom:longitude": -122.1451573723126,
    "src:alt_label": "swim-approach",
    "src:geom": "swim",
    "swim:elevations": [
      5085,
      4786,
      4680,
      4421,
      4120,
      3921,
      3871,
      3599,
      3452,
      3390,
      3347,
      3052,
      2921,
      2834,
      2745,
      2717,
      2588,
      2497,
      2436,
      2286,
      2264,
      2113,
      1950,
      1829,
      1829,
      1829,
      1829,
      1829,
      1829,
      1829,
      1796,
      1706,
      1495,
      1469,
      1158,
      833,
      610,
      471,
      274,
      178,
      93,
      171
    ],
    "swim:geom": "approach",
    "swim:timestamps": [
      1791134855,
      1791134898,
      1791134914,
      1791134953,
      1791134995,
      1791135025,
      1791135032,
      1791135082,
      1791135116,
      1791135123,
      1791135128,
      1791135177,
      1791135203,
      1791135221,
      1791135241,
      1791135249,
      1791135289,
      1791135318,
      1791135337,
      1791135376,
      1791135379,
      1791135406,
      1791135430,
      1791135502,
      1791135536,
      1791135550,
      1791135584,
      1791135596,
      1791135611,
      1791135652,
      1791135664,
      1791135691,
      1791135747,
      1791135751,
      1791135798,
      1791135835,
      1791135865,
      1791135889,
      1791135925,
      1791135956,
      1791135979,
      1791136004
    ],
    "wof:geomhash": "ab4f7aa9ae349071f7bd9ffb5906949c",
    "wof:id": 2048511219,
    "wof:repo": "sfomuseum-data-flights-2026-10"
  },
  "bbox": [
    -122.36683,
    36.72159,
    -121.87823,
    37.61279
  ],
  "geometry": {"type":"LineString","coordinates":[[-121.87823,36.72159],[-121.90669,36.78647],[-121.91331,36.81047],[-121.92989,36.86903],[-121.94716,36.93076],[-121.96176,36.97421],[-121.96589,36.98499],[-121.9918,37.05132],[-122.00771,37.09234],[-122.01081,37.10024],[-122.01306,37.1059],[-122.06431,37.14737],[-122.0961,37.16572],[-122.11882,37.17868],[-122.14433,37.18905],[-122.15546,37.19164],[-122.21102,37.20456],[-122.25093,37.21364],[-122.27718,37.21968],[-122.32454,37.23953],[-122.32693,37.24227],[-122.34724,37.26668],[-122.36683,37.29003],[-122.34718,37.36085],[-122.30558,37.37781],[-122.28801,37.38484],[-122.24505,37.40217],[-122.22992,37.40825],[-122.2112,37.41564],[-122.15989,37.43655],[-122.14862,37.44671],[-122.1327,37.47361],[-122.14001,37.51993],[-122.14403,37.52174],[-122.19002,37.54084],[-122.22343,37.55494],[-122.24948,37.56607],[-122.2711,37.57493],[-122.30079,37.58718],[-122.32439,37.59735],[-122.34221,37.60488],[-122.3608,37.61279]]}
}
