{
  "id": 2048512271,
  "type": "Feature",
  "properties": {
    "geom:area": 0,
    "geom:bbox": "-122.385340,37.650210,-121.243500,37.991210",
    "geom:latitude": 37.945099806093545,
    "geom:longitude": -121.92197994131119,
    "src:alt_label": "swim-takeoff",
    "src:geom": "swim",
    "swim:elevations": [
      479,
      1477,
      2737,
      3141,
      3760,
      3894,
      4420,
      4673,
      5106,
      5279,
      5749,
      5934,
      6266,
      6552,
      6694,
      6948,
      7008,
      7226,
      7426,
      7631
    ],
    "swim:geom": "takeoff",
    "swim:timestamps": [
      1791159183,
      1791159290,
      1791159388,
      1791159424,
      1791159508,
      1791159520,
      1791159566,
      1791159584,
      1791159626,
      1791159641,
      1791159687,
      1791159705,
      1791159742,
      1791159775,
      1791159792,
      1791159819,
      1791159828,
      1791159861,
      1791159889,
      1791159914
    ],
    "wof:geomhash": "d8da0d0f0d12151bc2adeadd7e4292c0",
    "wof:id": 2048512271,
    "wof:repo": "sfomuseum-data-flights-2026-10"
  },
  "bbox": [
    -122.38534,
    37.65021,
    -121.2435,
    37.99121
  ],
  "geometry": {"type":"LineString","coordinates":[[-122.34426,37.65021],[-122.34406,37.75917],[-122.38534,37.88074],[-122.37229,37.9303],[-122.21639,37.97462],[-122.19113,37.97971],[-122.09157,37.98833],[-122.05137,37.98866],[-121.95685,37.98938],[-121.92228,37.9896],[-121.81345,37.9901],[-121.77066,37.99028],[-121.68314,37.99059],[-121.60026,37.99083],[-121.55965,37.99088],[-121.49171,37.99103],[-121.46901,37.99106],[-121.38445,37.99116],[-121.31047,37.9912],[-121.2435,37.99121]]}
}
