{
  "id": 2048492289,
  "type": "Feature",
  "properties": {
    "geom:area": 0,
    "geom:bbox": "-122.788700,37.443170,-122.158150,38.499210",
    "geom:latitude": 37.845637516860336,
    "geom:longitude": -122.51545490762862,
    "src:alt_label": "swim-approach",
    "src:geom": "swim",
    "swim:elevations": [
      7524,
      7166,
      6845,
      6557,
      6273,
      6062,
      5756,
      5575,
      5245,
      5045,
      4771,
      4686,
      4258,
      4176,
      3922,
      3561,
      3380,
      3355,
      3353,
      3353,
      3336,
      3056,
      2635,
      2309,
      2074,
      1768,
      1623,
      1433,
      1217,
      1219,
      1161,
      1034,
      914,
      778,
      636,
      560,
      383,
      276,
      188,
      79
    ],
    "swim:geom": "approach",
    "swim:timestamps": [
      1790988404,
      1790988439,
      1790988474,
      1790988504,
      1790988537,
      1790988561,
      1790988597,
      1790988618,
      1790988655,
      1790988679,
      1790988712,
      1790988721,
      1790988776,
      1790988785,
      1790988818,
      1790988866,
      1790988893,
      1790988911,
      1790988957,
      1790988975,
      1790988996,
      1790989032,
      1790989077,
      1790989108,
      1790989132,
      1790989165,
      1790989186,
      1790989218,
      1790989248,
      1790989283,
      1790989313,
      1790989343,
      1790989367,
      1790989402,
      1790989432,
      1790989447,
      1790989486,
      1790989516,
      1790989540,
      1790989573
    ],
    "wof:geomhash": "b001e1c065beed6e87f987cefb2708b8",
    "wof:id": 2048492289,
    "wof:repo": "sfomuseum-data-flights-2026-10"
  },
  "bbox": [
    -122.7887,
    37.44317,
    -122.15815,
    38.49921
  ],
  "geometry": {"type":"LineString","coordinates":[[-122.7887,38.49921],[-122.78338,38.43061],[-122.77837,38.36526],[-122.77424,38.31128],[-122.76977,38.25337],[-122.76303,38.21165],[-122.74583,38.15082],[-122.73537,38.11465],[-122.71809,38.05473],[-122.70692,38.01585],[-122.69143,37.9623],[-122.68722,37.94781],[-122.64057,37.86868],[-122.629,37.8577],[-122.58759,37.81861],[-122.53094,37.76498],[-122.50065,37.7364],[-122.48076,37.71757],[-122.43122,37.67105],[-122.41345,37.65433],[-122.39386,37.63588],[-122.36248,37.60355],[-122.33657,37.55869],[-122.31865,37.52836],[-122.30481,37.50531],[-122.28572,37.47382],[-122.26638,37.45857],[-122.23136,37.44685],[-122.19787,37.44317],[-122.17717,37.47067],[-122.16281,37.49649],[-122.15815,37.52206],[-122.17546,37.53675],[-122.20871,37.55098],[-122.23752,37.56321],[-122.25185,37.56923],[-122.28564,37.58339],[-122.30849,37.59301],[-122.3263,37.60054],[-122.35057,37.61076]]}
}
