{
  "id": 2048481413,
  "type": "Feature",
  "properties": {
    "date:inception_lower": "2026-10-01",
    "date:inception_upper": "2026-10-01",
    "edtf:cessation": "",
    "edtf:inception": "2026-10-01",
    "flysfo:actual_timestamp": -1,
    "flysfo:airline": "OZ",
    "flysfo:base_airline": "",
    "flysfo:base_flight_number": "4115",
    "flysfo:date": "2026-10-01",
    "flysfo:estimated_timestamp": 1790914680,
    "flysfo:event": "A",
    "flysfo:flight_number": "OZ6304",
    "flysfo:gate": "F20",
    "flysfo:journey": "ORD-SFO",
    "flysfo:scheduled_timestamp": 1790914500,
    "flysfo:timestamp": 1790914680,
    "geom:area": 0,
    "geom:bbox": "-122.370943,37.617990,-87.894364,41.983038",
    "geom:latitude": 39.800514,
    "geom:longitude": -105.1326535,
    "iata:airline": "OZ",
    "iata:base_airline": "",
    "icao:airline": "AAR",
    "icao:base_airline": "ACA",
    "lbl:latitude": 37.621076,
    "lbl:longitude": -122.390239,
    "sfomuseum:airline_id": 1159283917,
    "sfomuseum:arrival_id": 102527513,
    "sfomuseum:base_flight_id": "20261001-A-ACA-4115",
    "sfomuseum:departure_id": 102533631,
    "sfomuseum:flight_id": "20261001-A-AAR-6304",
    "sfomuseum:flight_number": [
      "AAR6304",
      "OZ6304"
    ],
    "sfomuseum:placetype": "flight",
    "src:geom": "flysfo",
    "wof:belongsto": [
      1947304067,
      102527513,
      1947304451,
      102191575,
      85633793,
      102087579,
      85922583,
      554784711,
      85688637,
      1947304489,
      1947304447,
      102085387
    ],
    "wof:country": "US",
    "wof:created": 1790956879,
    "wof:geomhash": "81d390dcf2582f737869c573200abb8f",
    "wof:hierarchy": [
      {
        "building_id": 1947304067,
        "campus_id": 102527513,
        "concourse_id": 1947304451,
        "continent_id": 102191575,
        "country_id": 85633793,
        "county_id": 102087579,
        "custom_id": 2048481413,
        "flight_id": 2048481413,
        "locality_id": 85922583,
        "postalcode_id": 554784711,
        "region_id": 85688637,
        "venue_id": 1947304489,
        "wing_id": 1947304447
      },
      {
        "building_id": 1947304067,
        "campus_id": 102527513,
        "concourse_id": 1947304451,
        "continent_id": 102191575,
        "country_id": 85633793,
        "county_id": 102085387,
        "custom_id": 2048481413,
        "flight_id": 2048481413,
        "region_id": 85688637,
        "venue_id": 1947304489,
        "wing_id": 1947304447
      }
    ],
    "wof:id": 2048481413,
    "wof:involves": [
      102527513,
      102533631,
      1159283917,
      1947304489,
      1159283597
    ],
    "wof:lastmodified": 1790956879,
    "wof:name": "OZ6304 (ORD-SFO)",
    "wof:parent_id": 1947304489,
    "wof:placetype": "custom",
    "wof:placetype_alt": [
      "flight"
    ],
    "wof:repo": "sfomuseum-data-flights-2026-10",
    "wof:superseded_by": [],
    "wof:supersedes": []
  },
  "bbox": [
    -122.370943,
    37.61799,
    -87.894364,
    41.983038
  ],
  "geometry": {"type":"MultiPoint","coordinates":[[-87.894364,41.983038],[-122.370943,37.61799]]}
}
