{
  "id": 2048543119,
  "type": "Feature",
  "properties": {
    "geom:area": 0,
    "geom:bbox": "-122.355580,37.491600,-121.245620,37.612910",
    "geom:latitude": 37.54676963773702,
    "geom:longitude": -121.80545874058109,
    "src:alt_label": "swim-approach",
    "src:geom": "swim",
    "swim:elevations": [
      5187,
      4997,
      4380,
      4110,
      3852,
      3653,
      3286,
      2919,
      2807,
      2712,
      2504,
      2267,
      2238,
      2138,
      2134,
      1935,
      1829,
      1784,
      1461,
      1405,
      1264,
      1040,
      932,
      782,
      581,
      549,
      533,
      421,
      377,
      259,
      152,
      16
    ],
    "swim:geom": "approach",
    "swim:timestamps": [
      1791487633,
      1791487651,
      1791487695,
      1791487716,
      1791487749,
      1791487771,
      1791487812,
      1791487852,
      1791487884,
      1791487906,
      1791487949,
      1791487978,
      1791487981,
      1791488002,
      1791488015,
      1791488047,
      1791488090,
      1791488111,
      1791488155,
      1791488166,
      1791488200,
      1791488236,
      1791488264,
      1791488290,
      1791488328,
      1791488355,
      1791488365,
      1791488390,
      1791488401,
      1791488436,
      1791488463,
      1791488496
    ],
    "wof:geomhash": "26bb698ea2807f5f87368daac7381f09",
    "wof:id": 2048543119,
    "wof:repo": "sfomuseum-data-flights-2026-10"
  },
  "bbox": [
    -122.35558,
    37.4916,
    -121.24562,
    37.61291
  ],
  "geometry": {"type":"LineString","coordinates":[[-121.24562,37.59512],[-121.27924,37.59063],[-121.36265,37.58133],[-121.40428,37.57652],[-121.46617,37.56938],[-121.50833,37.56442],[-121.58222,37.55579],[-121.652,37.54423],[-121.70437,37.5318],[-121.73923,37.52343],[-121.80096,37.50871],[-121.84217,37.49885],[-121.84632,37.49784],[-121.87532,37.49183],[-121.8927,37.4916],[-121.93642,37.49261],[-121.99217,37.49651],[-122.01632,37.50394],[-122.06644,37.52034],[-122.07851,37.52421],[-122.11565,37.53618],[-122.15216,37.54804],[-122.17826,37.55637],[-122.20015,37.56352],[-122.23156,37.57367],[-122.25176,37.58011],[-122.25951,37.58257],[-122.27961,37.58856],[-122.28802,37.5909],[-122.31248,37.59834],[-122.33218,37.6042],[-122.35558,37.61291]]}
}
