{
  "id": 2048532667,
  "type": "Feature",
  "properties": {
    "date:inception_lower": "2026-10-06",
    "date:inception_upper": "2026-10-06",
    "edtf:cessation": "",
    "edtf:inception": "2026-10-06",
    "flysfo:actual_timestamp": -1,
    "flysfo:airline": "QR",
    "flysfo:base_airline": "",
    "flysfo:base_flight_number": "7632",
    "flysfo:date": "2026-10-06",
    "flysfo:estimated_timestamp": 1791318300,
    "flysfo:event": "D",
    "flysfo:flight_number": "QR2102",
    "flysfo:gate": "C1",
    "flysfo:journey": "SFO-GEG",
    "flysfo:scheduled_timestamp": 1791317700,
    "flysfo:timestamp": 1791318300,
    "geom:area": 0,
    "geom:bbox": "-122.370943,37.617990,-117.531916,47.625686",
    "geom:latitude": 42.621838,
    "geom:longitude": -119.95142949999999,
    "iata:airline": "QR",
    "iata:base_airline": "",
    "icao:airline": "QTR",
    "icao:base_airline": "AAL",
    "lbl:latitude": 37.61799,
    "lbl:longitude": -122.370943,
    "sfomuseum:airline_id": 1159286153,
    "sfomuseum:arrival_id": 102533331,
    "sfomuseum:base_flight_id": "20261006-D-AAL-7632",
    "sfomuseum:departure_id": 102527513,
    "sfomuseum:flight_id": "20261006-D-QTR-2102",
    "sfomuseum:flight_number": [
      "QTR2102",
      "QR2102"
    ],
    "sfomuseum:placetype": "flight",
    "src:geom": "flysfo",
    "wof:belongsto": [
      1947304067,
      102527513,
      1947304383,
      102191575,
      85633793,
      102087579,
      85922583,
      554784711,
      85688637,
      1947304387,
      1947304259,
      102085387
    ],
    "wof:country": "US",
    "wof:created": 1791389627,
    "wof:geomhash": "9d5970fb497c224f692cb976d5929b90",
    "wof:hierarchy": [
      {
        "building_id": 1947304067,
        "campus_id": 102527513,
        "concourse_id": 1947304383,
        "continent_id": 102191575,
        "country_id": 85633793,
        "county_id": 102087579,
        "custom_id": 2048532667,
        "flight_id": 2048532667,
        "locality_id": 85922583,
        "postalcode_id": 554784711,
        "region_id": 85688637,
        "venue_id": 1947304387,
        "wing_id": 1947304259
      },
      {
        "building_id": 1947304067,
        "campus_id": 102527513,
        "concourse_id": 1947304383,
        "continent_id": 102191575,
        "country_id": 85633793,
        "county_id": 102085387,
        "custom_id": 2048532667,
        "flight_id": 2048532667,
        "region_id": 85688637,
        "venue_id": 1947304387,
        "wing_id": 1947304259
      }
    ],
    "wof:id": 2048532667,
    "wof:involves": [
      102533331,
      102527513,
      1159286153,
      1947304387,
      1159283849
    ],
    "wof:lastmodified": 1791389627,
    "wof:name": "QR2102 (SFO-GEG)",
    "wof:parent_id": 1947304387,
    "wof:placetype": "custom",
    "wof:placetype_alt": [
      "flight"
    ],
    "wof:repo": "sfomuseum-data-flights-2026-10",
    "wof:superseded_by": [],
    "wof:supersedes": []
  },
  "bbox": [
    -122.370943,
    37.61799,
    -117.531916,
    47.625686
  ],
  "geometry": {"type":"MultiPoint","coordinates":[[-122.370943,37.61799],[-117.531916,47.625686]]}
}
