{
  "id": 2048533747,
  "type": "Feature",
  "properties": {
    "geom:area": 0,
    "geom:bbox": "-122.527290,37.626890,-121.335900,38.499210",
    "geom:latitude": 38.078931054806326,
    "geom:longitude": -122.0120464370213,
    "src:alt_label": "swim-takeoff",
    "src:geom": "swim",
    "swim:elevations": [
      152,
      258,
      379,
      572,
      907,
      1090,
      1254,
      1527,
      1671,
      2148,
      2516,
      2802,
      3159,
      3309,
      3532,
      3745,
      3893,
      4029,
      4325,
      4526,
      4707,
      4813,
      4924,
      5103,
      5385,
      5605,
      5883,
      6137,
      6288,
      6351,
      6606,
      6802,
      6934
    ],
    "swim:geom": "takeoff",
    "swim:timestamps": [
      1791316067,
      1791316078,
      1791316092,
      1791316115,
      1791316153,
      1791316184,
      1791316221,
      1791316251,
      1791316267,
      1791316318,
      1791316346,
      1791316373,
      1791316405,
      1791316418,
      1791316445,
      1791316489,
      1791316526,
      1791316554,
      1791316585,
      1791316608,
      1791316633,
      1791316649,
      1791316663,
      1791316685,
      1791316724,
      1791316749,
      1791316795,
      1791316828,
      1791316852,
      1791316862,
      1791316901,
      1791316934,
      1791316952
    ],
    "wof:geomhash": "8752db2f9cd245967664e01d97bf1a4c",
    "wof:id": 2048533747,
    "wof:repo": "sfomuseum-data-flights-2026-10"
  },
  "bbox": [
    -122.52729,
    37.62689,
    -121.3359,
    38.49921
  ],
  "geometry": {"type":"LineString","coordinates":[[-122.39458,37.62689],[-122.40483,37.63104],[-122.4172,37.6363],[-122.43966,37.64626],[-122.47724,37.66247],[-122.50892,37.67717],[-122.52519,37.71344],[-122.52639,37.75131],[-122.52729,37.77142],[-122.49229,37.82658],[-122.44479,37.83778],[-122.40593,37.8577],[-122.36268,37.88762],[-122.34609,37.89937],[-122.30854,37.92518],[-122.24423,37.96956],[-122.18478,38.01058],[-122.13681,38.04375],[-122.08327,38.08088],[-122.04366,38.10752],[-121.99328,38.13407],[-121.96249,38.14923],[-121.93215,38.16401],[-121.88816,38.18516],[-121.80618,38.22433],[-121.75177,38.25013],[-121.65239,38.29711],[-121.579,38.33176],[-121.52506,38.35668],[-121.50272,38.36686],[-121.41812,38.41439],[-121.36425,38.46836],[-121.3359,38.49921]]}
}
