{
  "id": 2048549087,
  "type": "Feature",
  "properties": {
    "geom:area": 0,
    "geom:bbox": "-122.541220,36.748780,-121.476410,37.668710",
    "geom:latitude": 37.22537734212386,
    "geom:longitude": -122.08516275843883,
    "src:alt_label": "swim-takeoff",
    "src:geom": "swim",
    "swim:elevations": [
      152,
      432,
      524,
      926,
      1336,
      1556,
      1857,
      1995,
      2103,
      2513,
      2827,
      3272,
      3536,
      4088,
      4256,
      4592,
      5287,
      5445,
      5759,
      6008,
      6399,
      6600,
      6968,
      7128,
      7275,
      7748,
      8001,
      8051,
      8251,
      8493,
      8737,
      8945
    ],
    "swim:geom": "takeoff",
    "swim:timestamps": [
      1791466830,
      1791466879,
      1791466892,
      1791466932,
      1791466961,
      1791466999,
      1791467023,
      1791467035,
      1791467047,
      1791467076,
      1791467100,
      1791467137,
      1791467165,
      1791467200,
      1791467222,
      1791467252,
      1791467308,
      1791467326,
      1791467358,
      1791467385,
      1791467428,
      1791467448,
      1791467486,
      1791467506,
      1791467523,
      1791467576,
      1791467605,
      1791467613,
      1791467634,
      1791467677,
      1791467704,
      1791467734
    ],
    "wof:geomhash": "642cca54ebb19f5b6900525ef243fee9",
    "wof:id": 2048549087,
    "wof:repo": "sfomuseum-data-flights-2026-10"
  },
  "bbox": [
    -122.54122,
    36.74878,
    -121.47641,
    37.66871
  ],
  "geometry": {"type":"LineString","coordinates":[[-122.38731,37.62394],[-122.43349,37.64307],[-122.44784,37.64938],[-122.49733,37.66871],[-122.53344,37.65797],[-122.54122,37.61665],[-122.52658,37.58913],[-122.51885,37.57493],[-122.51156,37.56114],[-122.4925,37.52625],[-122.47577,37.49806],[-122.4352,37.46181],[-122.39903,37.43512],[-122.353,37.40059],[-122.32375,37.37895],[-122.28052,37.3475],[-122.1994,37.2874],[-122.17278,37.26768],[-122.12255,37.23049],[-122.08028,37.19907],[-122.01181,37.14823],[-121.98015,37.12467],[-121.91704,37.0777],[-121.88258,37.05202],[-121.8549,37.0313],[-121.76219,36.96215],[-121.70951,36.92451],[-121.69599,36.91462],[-121.65751,36.88581],[-121.58087,36.82798],[-121.53058,36.7904],[-121.47641,36.74878]]}
}
