{
  "id": 2048527715,
  "type": "Feature",
  "properties": {
    "geom:area": 0,
    "geom:bbox": "-123.292640,37.533360,-122.109930,38.513330",
    "geom:latitude": 37.92295119402332,
    "geom:longitude": -122.65022464745189,
    "src:alt_label": "swim-approach",
    "src:geom": "swim",
    "swim:elevations": [
      7559,
      7346,
      7315,
      7006,
      6805,
      6539,
      6340,
      6018,
      5820,
      5694,
      5339,
      5086,
      4999,
      4786,
      4408,
      4205,
      3849,
      3785,
      3507,
      3354,
      3353,
      3353,
      3353,
      3353,
      3288,
      3020,
      2835,
      2265,
      1910,
      1746,
      1441,
      1313,
      1022,
      914,
      914,
      830,
      616,
      523,
      365,
      266,
      102,
      48
    ],
    "swim:geom": "approach",
    "swim:timestamps": [
      1791270873,
      1791270897,
      1791270901,
      1791270937,
      1791270971,
      1791271004,
      1791271033,
      1791271075,
      1791271101,
      1791271118,
      1791271166,
      1791271197,
      1791271209,
      1791271238,
      1791271288,
      1791271312,
      1791271344,
      1791271350,
      1791271382,
      1791271425,
      1791271448,
      1791271466,
      1791271489,
      1791271501,
      1791271515,
      1791271545,
      1791271563,
      1791271610,
      1791271641,
      1791271654,
      1791271696,
      1791271715,
      1791271752,
      1791271777,
      1791271807,
      1791271837,
      1791271881,
      1791271900,
      1791271941,
      1791271967,
      1791272003,
      1791272015
    ],
    "wof:geomhash": "0b6cad176aa068f03b3d3f3b257b97d5",
    "wof:id": 2048527715,
    "wof:repo": "sfomuseum-data-flights-2026-10"
  },
  "bbox": [
    -123.29264,
    37.53336,
    -122.10993,
    38.51333
  ],
  "geometry": {"type":"LineString","coordinates":[[-123.29264,38.51333],[-123.25394,38.47636],[-123.24731,38.46981],[-123.19112,38.41612],[-123.14008,38.36521],[-123.09,38.31539],[-123.04832,38.27404],[-122.98666,38.21298],[-122.94992,38.17638],[-122.92558,38.15199],[-122.85969,38.0864],[-122.81677,38.0435],[-122.79976,38.02639],[-122.76094,37.98758],[-122.69583,37.92211],[-122.66447,37.8907],[-122.62076,37.84976],[-122.61265,37.84226],[-122.57019,37.80285],[-122.51939,37.75459],[-122.49354,37.73012],[-122.47324,37.71086],[-122.44885,37.68793],[-122.43492,37.6755],[-122.4158,37.66549],[-122.36761,37.65549],[-122.33873,37.65031],[-122.26427,37.63637],[-122.21631,37.62728],[-122.19594,37.62319],[-122.1359,37.60627],[-122.11428,37.59564],[-122.10993,37.55865],[-122.12969,37.53656],[-122.16713,37.53336],[-122.19676,37.5462],[-122.23815,37.56349],[-122.25655,37.57123],[-122.29043,37.58552],[-122.31237,37.59466],[-122.34258,37.60738],[-122.35203,37.6114]]}
}
