{
  "id": 2048560095,
  "type": "Feature",
  "properties": {
    "geom:area": 0,
    "geom:bbox": "-122.364860,37.630530,-121.265350,38.117040",
    "geom:latitude": 37.89004561894937,
    "geom:longitude": -121.82308710623604,
    "src:alt_label": "swim-takeoff",
    "src:geom": "swim",
    "swim:elevations": [
      122,
      422,
      547,
      920,
      1055,
      1346,
      1647,
      2160,
      2600,
      2695,
      2999,
      3205,
      3324,
      3652,
      3805,
      4163,
      4808,
      5246,
      5372,
      5736,
      5989,
      6431,
      6490,
      6550,
      6617,
      6649
    ],
    "swim:geom": "takeoff",
    "swim:timestamps": [
      1791582821,
      1791582847,
      1791582856,
      1791582888,
      1791582906,
      1791582957,
      1791582984,
      1791583019,
      1791583048,
      1791583054,
      1791583078,
      1791583102,
      1791583125,
      1791583165,
      1791583180,
      1791583215,
      1791583257,
      1791583284,
      1791583299,
      1791583342,
      1791583356,
      1791583405,
      1791583424,
      1791583444,
      1791583466,
      1791583475
    ],
    "wof:geomhash": "4527b0a02561e65ba9c9bba2615f2671",
    "wof:id": 2048560095,
    "wof:repo": "sfomuseum-data-flights-2026-10"
  },
  "bbox": [
    -122.36486,
    37.63053,
    -121.26535,
    38.11704
  ],
  "geometry": {"type":"LineString","coordinates":[[-122.36486,37.63053],[-122.34674,37.64649],[-122.33898,37.6506],[-122.31053,37.66533],[-122.29413,37.67447],[-122.23552,37.70698],[-122.19834,37.72599],[-122.14935,37.75162],[-122.10765,37.77336],[-122.0991,37.77785],[-122.06408,37.79593],[-122.02768,37.81457],[-121.98811,37.83298],[-121.91177,37.86344],[-121.88287,37.87469],[-121.81101,37.9029],[-121.72419,37.93711],[-121.6718,37.95785],[-121.64186,37.96966],[-121.55251,38.00476],[-121.52351,38.01616],[-121.42351,38.05541],[-121.38267,38.07136],[-121.33854,38.08861],[-121.28589,38.10905],[-121.26535,38.11704]]}
}
