{
  "id": 2048545173,
  "type": "Feature",
  "properties": {
    "geom:area": 0,
    "geom:bbox": "-122.359390,37.492070,-121.264390,37.614660",
    "geom:latitude": 37.546155891725405,
    "geom:longitude": -121.81678174725948,
    "src:alt_label": "swim-approach",
    "src:geom": "swim",
    "swim:elevations": [
      4679,
      4633,
      4516,
      4196,
      4081,
      3844,
      3782,
      3524,
      3175,
      3030,
      2764,
      2546,
      2340,
      2250,
      2009,
      1962,
      1921,
      1778,
      1735,
      1598,
      1462,
      1318,
      1190,
      960,
      911,
      780,
      659,
      615,
      462,
      428,
      272,
      180,
      104,
      0
    ],
    "swim:geom": "approach",
    "swim:timestamps": [
      1791497814,
      1791497842,
      1791497867,
      1791497904,
      1791497923,
      1791497966,
      1791497975,
      1791498014,
      1791498057,
      1791498076,
      1791498108,
      1791498139,
      1791498168,
      1791498184,
      1791498231,
      1791498242,
      1791498261,
      1791498297,
      1791498303,
      1791498322,
      1791498346,
      1791498375,
      1791498406,
      1791498447,
      1791498470,
      1791498488,
      1791498507,
      1791498514,
      1791498568,
      1791498574,
      1791498616,
      1791498646,
      1791498669,
      1791498693
    ],
    "wof:geomhash": "555c7010fd4c8329216fa02c589af787",
    "wof:id": 2048545173,
    "wof:repo": "sfomuseum-data-flights-2026-10"
  },
  "bbox": [
    -122.35939,
    37.49207,
    -121.26439,
    37.61466
  ],
  "geometry": {"type":"LineString","coordinates":[[-121.26439,37.59249],[-121.3191,37.58584],[-121.36538,37.58074],[-121.43137,37.5731],[-121.46435,37.56943],[-121.53516,37.56105],[-121.54907,37.55939],[-121.60794,37.55251],[-121.67159,37.53931],[-121.6995,37.53264],[-121.74702,37.52134],[-121.79128,37.51071],[-121.83436,37.50044],[-121.85597,37.49524],[-121.92334,37.49207],[-121.9394,37.49248],[-121.96538,37.49313],[-122.00767,37.50117],[-122.01505,37.50361],[-122.03579,37.51033],[-122.06146,37.5186],[-122.09322,37.52871],[-122.12294,37.53827],[-122.16064,37.55061],[-122.18024,37.55693],[-122.19669,37.56226],[-122.21462,37.56818],[-122.22105,37.57031],[-122.2682,37.58518],[-122.27352,37.58669],[-122.30525,37.59598],[-122.32617,37.60229],[-122.34321,37.60787],[-122.35939,37.61466]]}
}
