{
  "id": 2048490393,
  "type": "Feature",
  "properties": {
    "geom:area": 0,
    "geom:bbox": "-122.180410,36.733820,-121.887500,37.403040",
    "geom:latitude": 37.05465037239143,
    "geom:longitude": -122.06730802150967,
    "src:alt_label": "swim-approach",
    "src:geom": "swim",
    "swim:elevations": [
      5052,
      4909,
      4844,
      4813,
      4606,
      4484,
      4042,
      3845,
      3645,
      3252,
      3028,
      2689,
      2551,
      2367,
      2257,
      2008,
      1946,
      1832,
      1829,
      1825,
      1690,
      1657,
      1484,
      1467
    ],
    "swim:geom": "approach",
    "swim:timestamps": [
      1790955284,
      1790955303,
      1790955322,
      1790955334,
      1790955384,
      1790955399,
      1790955446,
      1790955467,
      1790955490,
      1790955531,
      1790955552,
      1790955591,
      1790955610,
      1790955653,
      1790955670,
      1790955706,
      1790955720,
      1790955754,
      1790955797,
      1790955812,
      1790955838,
      1790955847,
      1790955898,
      1790955903
    ],
    "wof:geomhash": "e30062c9f5538844bb5f7a2f00f4aa4e",
    "wof:id": 2048490393,
    "wof:repo": "sfomuseum-data-flights-2026-10"
  },
  "bbox": [
    -122.18041,
    36.73382,
    -121.8875,
    37.40304
  ],
  "geometry": {"type":"LineString","coordinates":[[-121.8875,36.73382],[-121.89899,36.75983],[-121.9065,36.78757],[-121.91113,36.80376],[-121.92958,36.86871],[-121.93541,36.88706],[-121.98299,36.92979],[-122.00637,36.94746],[-122.03231,36.96722],[-122.07581,37.00115],[-122.09784,37.01867],[-122.13951,37.05269],[-122.15904,37.06886],[-122.18041,37.11364],[-122.1746,37.1333],[-122.16209,37.17508],[-122.1601,37.19178],[-122.15639,37.23107],[-122.15123,37.2823],[-122.14961,37.29881],[-122.14645,37.32914],[-122.14538,37.3401],[-122.1395,37.39858],[-122.13905,37.40304]]}
}
