{
  "id": 2048515897,
  "type": "Feature",
  "properties": {
    "geom:area": 0,
    "geom:bbox": "-122.357830,37.640470,-121.289490,38.107450",
    "geom:latitude": 37.88772149447694,
    "geom:longitude": -121.83023110379352,
    "src:alt_label": "swim-takeoff",
    "src:geom": "swim",
    "swim:elevations": [
      366,
      446,
      513,
      892,
      1015,
      1339,
      1468,
      1905,
      2505,
      2879,
      3159,
      3369,
      3873,
      3962,
      4278,
      4333,
      4805,
      5156,
      5449,
      5782,
      6225,
      6249,
      6507,
      6791,
      6996,
      7110
    ],
    "swim:geom": "takeoff",
    "swim:timestamps": [
      1791124730,
      1791124736,
      1791124742,
      1791124783,
      1791124801,
      1791124851,
      1791124864,
      1791124899,
      1791124941,
      1791124969,
      1791124990,
      1791125016,
      1791125065,
      1791125072,
      1791125103,
      1791125107,
      1791125142,
      1791125178,
      1791125202,
      1791125234,
      1791125277,
      1791125281,
      1791125308,
      1791125336,
      1791125356,
      1791125370
    ],
    "wof:geomhash": "039007473c8ccc4f3f417f93cf23b201",
    "wof:id": 2048515897,
    "wof:repo": "sfomuseum-data-flights-2026-10"
  },
  "bbox": [
    -122.35783,
    37.64047,
    -121.28949,
    38.10745
  ],
  "geometry": {"type":"LineString","coordinates":[[-122.35783,37.64047],[-122.35449,37.64435],[-122.35058,37.64766],[-122.31496,37.66552],[-122.29825,37.67425],[-122.24131,37.7038],[-122.22471,37.71252],[-122.1777,37.73681],[-122.11933,37.76708],[-122.07927,37.7876],[-122.04951,37.80316],[-122.00897,37.82407],[-121.92248,37.85921],[-121.90904,37.86444],[-121.85153,37.88733],[-121.8438,37.89038],[-121.77505,37.91736],[-121.70215,37.94627],[-121.65492,37.96495],[-121.58668,37.99154],[-121.49528,38.02713],[-121.48746,38.0302],[-121.42757,38.05357],[-121.36586,38.07767],[-121.32013,38.09551],[-121.28949,38.10745]]}
}
