{
  "id": 2048515297,
  "type": "Feature",
  "properties": {
    "date:inception_lower": "2026-10-04",
    "date:inception_upper": "2026-10-04",
    "edtf:cessation": "",
    "edtf:inception": "2026-10-04",
    "flysfo:actual_timestamp": -1,
    "flysfo:airline": "TP",
    "flysfo:base_airline": "",
    "flysfo:base_flight_number": "3171",
    "flysfo:date": "2026-10-04",
    "flysfo:estimated_timestamp": 1791133680,
    "flysfo:event": "D",
    "flysfo:flight_number": "TP8497",
    "flysfo:gate": "F15",
    "flysfo:journey": "SFO-EWR",
    "flysfo:scheduled_timestamp": 1791133800,
    "flysfo:timestamp": 1791133800,
    "geom:area": 0,
    "geom:bbox": "-122.370943,37.617990,-74.177526,40.691243",
    "geom:latitude": 39.1546165,
    "geom:longitude": -98.2742345,
    "iata:airline": "TP",
    "iata:base_airline": "",
    "icao:airline": "TAP",
    "icao:base_airline": "SWR",
    "lbl:latitude": 37.620818,
    "lbl:longitude": -122.389182,
    "sfomuseum:airline_id": 1159285271,
    "sfomuseum:arrival_id": 102530049,
    "sfomuseum:base_flight_id": "20261004-D-SWR-3171",
    "sfomuseum:departure_id": 102527513,
    "sfomuseum:flight_id": "20261004-D-TAP-8497",
    "sfomuseum:flight_number": [
      "TAP8497",
      "TP8497"
    ],
    "sfomuseum:placetype": "flight",
    "src:geom": "flysfo",
    "wof:belongsto": [
      1947304067,
      102527513,
      1947304451,
      102191575,
      85633793,
      102087579,
      85922583,
      554784711,
      85688637,
      1947304455,
      1947304447,
      102085387
    ],
    "wof:country": "US",
    "wof:created": 1791216963,
    "wof:geomhash": "5f8ba203e186fe379420b736bcf5de4f",
    "wof:hierarchy": [
      {
        "building_id": 1947304067,
        "campus_id": 102527513,
        "concourse_id": 1947304451,
        "continent_id": 102191575,
        "country_id": 85633793,
        "county_id": 102087579,
        "custom_id": 2048515297,
        "flight_id": 2048515297,
        "locality_id": 85922583,
        "postalcode_id": 554784711,
        "region_id": 85688637,
        "venue_id": 1947304455,
        "wing_id": 1947304447
      },
      {
        "building_id": 1947304067,
        "campus_id": 102527513,
        "concourse_id": 1947304451,
        "continent_id": 102191575,
        "country_id": 85633793,
        "county_id": 102085387,
        "custom_id": 2048515297,
        "flight_id": 2048515297,
        "region_id": 85688637,
        "venue_id": 1947304455,
        "wing_id": 1947304447
      }
    ],
    "wof:id": 2048515297,
    "wof:involves": [
      102530049,
      102527513,
      1159285271,
      1947304455,
      1159286475
    ],
    "wof:lastmodified": 1791216963,
    "wof:name": "TP8497 (SFO-EWR)",
    "wof:parent_id": 1947304455,
    "wof:placetype": "custom",
    "wof:placetype_alt": [
      "flight"
    ],
    "wof:repo": "sfomuseum-data-flights-2026-10",
    "wof:superseded_by": [],
    "wof:supersedes": []
  },
  "bbox": [
    -122.370943,
    37.61799,
    -74.177526,
    40.691243
  ],
  "geometry": {"type":"MultiPoint","coordinates":[[-122.370943,37.61799],[-74.177526,40.691243]]}
}
