{
  "id": 2048484531,
  "type": "Feature",
  "properties": {
    "geom:area": 0,
    "geom:bbox": "-123.452250,37.260790,-122.106020,37.610800",
    "geom:latitude": 37.35463111727194,
    "geom:longitude": -122.66210353385227,
    "src:alt_label": "swim-approach",
    "src:geom": "swim",
    "swim:elevations": [
      6339,
      5872,
      5827,
      5662,
      5284,
      4948,
      4429,
      4055,
      3491,
      3056,
      3048,
      3048,
      3048,
      3019,
      3024,
      2930,
      2864,
      2603,
      2560,
      2438,
      2438,
      2410,
      2114,
      1973,
      1910,
      1858,
      1829,
      1730,
      1455,
      1436,
      1263,
      1118,
      881,
      681,
      545,
      398,
      274,
      248,
      148,
      66,
      31
    ],
    "swim:geom": "approach",
    "swim:timestamps": [
      1790885541,
      1790885576,
      1790885580,
      1790885592,
      1790885620,
      1790885645,
      1790885683,
      1790885710,
      1790885752,
      1790885787,
      1790885810,
      1790885832,
      1790885876,
      1790885901,
      1790885910,
      1790885938,
      1790885952,
      1790885995,
      1790886004,
      1790886050,
      1790886087,
      1790886102,
      1790886146,
      1790886166,
      1790886175,
      1790886184,
      1790886237,
      1790886261,
      1790886298,
      1790886302,
      1790886330,
      1790886369,
      1790886403,
      1790886441,
      1790886471,
      1790886505,
      1790886531,
      1790886540,
      1790886563,
      1790886587,
      1790886602
    ],
    "wof:geomhash": "9f39eabaf8156fe1abe20155d3f21271",
    "wof:id": 2048484531,
    "wof:repo": "sfomuseum-data-flights-2026-10"
  },
  "bbox": [
    -123.45225,
    37.26079,
    -122.10602,
    37.6108
  ],
  "geometry": {"type":"LineString","coordinates":[[-123.45225,37.30076],[-123.36138,37.29419],[-123.35387,37.29365],[-123.32402,37.29157],[-123.255,37.28663],[-123.19303,37.28208],[-123.10445,37.27562],[-123.03947,37.27072],[-122.9437,37.26367],[-122.86389,37.26079],[-122.81632,37.2692],[-122.77256,37.27906],[-122.68344,37.29952],[-122.63445,37.31096],[-122.61804,37.31481],[-122.5698,37.32613],[-122.5479,37.33124],[-122.47881,37.34708],[-122.46513,37.35027],[-122.39817,37.35593],[-122.3468,37.34727],[-122.32617,37.34378],[-122.26666,37.34985],[-122.23828,37.35711],[-122.22624,37.36016],[-122.21466,37.36312],[-122.15106,37.39252],[-122.12787,37.41133],[-122.10718,37.45093],[-122.10602,37.45466],[-122.11592,37.48383],[-122.14508,37.51753],[-122.1786,37.53596],[-122.21772,37.55262],[-122.24775,37.56524],[-122.28063,37.57908],[-122.30386,37.58889],[-122.31096,37.59181],[-122.32833,37.59912],[-122.34584,37.60648],[-122.35611,37.6108]]}
}
