{
  "id": 2048509893,
  "type": "Feature",
  "properties": {
    "geom:area": 0,
    "geom:bbox": "-122.360580,36.749340,-121.896880,37.612840",
    "geom:latitude": 37.22402201123813,
    "geom:longitude": -122.07657489562432,
    "src:alt_label": "swim-approach",
    "src:geom": "swim",
    "swim:elevations": [
      4825,
      4786,
      4494,
      4139,
      3959,
      3689,
      3580,
      3242,
      3168,
      3029,
      2747,
      2723,
      2691,
      2447,
      2368,
      2084,
      2028,
      1828,
      1656,
      1603,
      1521,
      1326,
      1289,
      943,
      864,
      771,
      672,
      366,
      275,
      129,
      0,
      0
    ],
    "swim:geom": "approach",
    "swim:timestamps": [
      1791106285,
      1791106291,
      1791106322,
      1791106361,
      1791106382,
      1791106413,
      1791106423,
      1791106467,
      1791106480,
      1791106519,
      1791106558,
      1791106561,
      1791106566,
      1791106599,
      1791106640,
      1791106678,
      1791106686,
      1791106731,
      1791106765,
      1791106773,
      1791106794,
      1791106825,
      1791106831,
      1791106880,
      1791106890,
      1791106898,
      1791106914,
      1791106977,
      1791106998,
      1791107031,
      1791107067,
      1791107070
    ],
    "wof:geomhash": "41878b7e1fa821478d2ad7768e441459",
    "wof:id": 2048509893,
    "wof:repo": "sfomuseum-data-flights-2026-10"
  },
  "bbox": [
    -122.36058,
    36.74934,
    -121.89688,
    37.61284
  ],
  "geometry": {"type":"LineString","coordinates":[[-121.89688,36.74934],[-121.90065,36.75987],[-121.91435,36.81355],[-121.93344,36.88027],[-121.94365,36.91553],[-121.95904,36.96525],[-121.96508,36.98038],[-121.99186,37.04904],[-121.99924,37.06808],[-122.02103,37.12417],[-122.04174,37.17718],[-122.04354,37.1821],[-122.04561,37.18791],[-122.0628,37.23259],[-122.0834,37.28511],[-122.1027,37.33426],[-122.10656,37.34406],[-122.12726,37.3987],[-122.13997,37.43635],[-122.14292,37.4449],[-122.15224,37.46648],[-122.16729,37.49823],[-122.17142,37.50356],[-122.20752,37.54161],[-122.21475,37.54884],[-122.22157,37.5538],[-122.23905,37.56078],[-122.29175,37.58318],[-122.30711,37.58988],[-122.3326,37.60079],[-122.35792,37.61156],[-122.36058,37.61284]]}
}
