{
  "id": 2048546747,
  "type": "Feature",
  "properties": {
    "geom:area": 0,
    "geom:bbox": "-122.339970,37.491340,-121.242310,37.606780",
    "geom:latitude": 37.54595919165351,
    "geom:longitude": -121.79572847179357,
    "src:alt_label": "swim-approach",
    "src:geom": "swim",
    "swim:elevations": [
      4610,
      4278,
      4056,
      3699,
      3630,
      3270,
      3139,
      3049,
      2985,
      2864,
      2618,
      2443,
      2277,
      2246,
      2100,
      1993,
      1854,
      1799,
      1687,
      1400,
      1273,
      1130,
      937,
      894,
      859,
      805,
      612,
      557,
      409,
      250,
      152,
      119
    ],
    "swim:geom": "approach",
    "swim:timestamps": [
      1791483652,
      1791483686,
      1791483709,
      1791483744,
      1791483751,
      1791483787,
      1791483806,
      1791483836,
      1791483859,
      1791483886,
      1791483909,
      1791483940,
      1791483985,
      1791483992,
      1791484017,
      1791484042,
      1791484076,
      1791484104,
      1791484116,
      1791484153,
      1791484171,
      1791484196,
      1791484229,
      1791484235,
      1791484248,
      1791484261,
      1791484293,
      1791484304,
      1791484338,
      1791484378,
      1791484401,
      1791484411
    ],
    "wof:geomhash": "dc79a627816e2d44146fc32e8d7a3ddd",
    "wof:id": 2048546747,
    "wof:repo": "sfomuseum-data-flights-2026-10"
  },
  "bbox": [
    -122.33997,
    37.49134,
    -121.24231,
    37.60678
  ],
  "geometry": {"type":"LineString","coordinates":[[-121.24231,37.59552],[-121.31424,37.58673],[-121.36304,37.58121],[-121.43602,37.5728],[-121.45165,37.57097],[-121.52504,37.56223],[-121.56397,37.55781],[-121.61866,37.55143],[-121.65648,37.54315],[-121.69867,37.53322],[-121.73515,37.52451],[-121.78209,37.51324],[-121.84495,37.49817],[-121.85476,37.49575],[-121.8908,37.49134],[-121.92929,37.4923],[-121.98164,37.49432],[-122.02026,37.50514],[-122.03557,37.5101],[-122.08197,37.52508],[-122.10405,37.53235],[-122.13598,37.54259],[-122.17399,37.55494],[-122.18095,37.55714],[-122.19587,37.56199],[-122.20833,37.56603],[-122.2402,37.57649],[-122.25155,37.58017],[-122.28241,37.58913],[-122.31476,37.59878],[-122.33291,37.60438],[-122.33997,37.60678]]}
}
