{
  "id": 2048489087,
  "type": "Feature",
  "properties": {
    "geom:area": 0,
    "geom:bbox": "-122.386860,37.625250,-121.266710,38.412680",
    "geom:latitude": 38.078881593050305,
    "geom:longitude": -121.93879349129638,
    "src:alt_label": "swim-takeoff",
    "src:geom": "swim",
    "swim:elevations": [
      122,
      369,
      724,
      997,
      1189,
      1325,
      1476,
      1839,
      2132,
      2494,
      2839,
      2947,
      3266,
      3445,
      3673,
      3947,
      4329,
      4518,
      4896,
      5105,
      5296,
      5605,
      5812,
      5945,
      6460,
      6817,
      6957,
      7091,
      7271,
      7519
    ],
    "swim:geom": "takeoff",
    "swim:timestamps": [
      1790917557,
      1790917579,
      1790917611,
      1790917641,
      1790917675,
      1790917705,
      1790917735,
      1790917765,
      1790917786,
      1790917821,
      1790917851,
      1790917860,
      1790917905,
      1790917935,
      1790917971,
      1790917998,
      1790918034,
      1790918053,
      1790918093,
      1790918120,
      1790918146,
      1790918185,
      1790918215,
      1790918227,
      1790918272,
      1790918308,
      1790918332,
      1790918349,
      1790918373,
      1790918411
    ],
    "wof:geomhash": "ad6694eb2e85c07209f6b1cea287f53f",
    "wof:id": 2048489087,
    "wof:repo": "sfomuseum-data-flights-2026-10"
  },
  "bbox": [
    -122.38686,
    37.62525,
    -121.26671,
    38.41268
  ],
  "geometry": {"type":"LineString","coordinates":[[-122.36847,37.62525],[-122.35738,37.63838],[-122.33744,37.6559],[-122.31812,37.6723],[-122.31051,37.69908],[-122.32579,37.72759],[-122.34453,37.76071],[-122.36319,37.7984],[-122.37583,37.82463],[-122.38686,37.87159],[-122.38427,37.91401],[-122.3803,37.92662],[-122.31901,37.96922],[-122.26387,37.98931],[-122.19443,38.01675],[-122.14057,38.03835],[-122.06827,38.0675],[-122.02928,38.08327],[-121.94719,38.116],[-121.8894,38.13906],[-121.83359,38.16127],[-121.75004,38.19445],[-121.68346,38.22074],[-121.65662,38.23132],[-121.55742,38.27052],[-121.47914,38.30119],[-121.42492,38.32242],[-121.38964,38.33809],[-121.3418,38.36623],[-121.26671,38.41268]]}
}
