{
  "id": 2048507625,
  "type": "Feature",
  "properties": {
    "geom:area": 0,
    "geom:bbox": "-122.356270,36.735330,-121.886270,37.610810",
    "geom:latitude": 37.21548694132748,
    "geom:longitude": -122.07178481374437,
    "src:alt_label": "swim-approach",
    "src:geom": "swim",
    "swim:elevations": [
      4991,
      4661,
      4402,
      4253,
      3927,
      3858,
      3441,
      3140,
      2910,
      2799,
      2501,
      2436,
      2438,
      2438,
      2075,
      1922,
      1631,
      1543,
      1340,
      1053,
      886,
      798,
      554,
      538,
      401,
      317,
      212,
      92,
      26
    ],
    "swim:geom": "approach",
    "swim:timestamps": [
      1791138970,
      1791139017,
      1791139048,
      1791139065,
      1791139102,
      1791139112,
      1791139160,
      1791139197,
      1791139224,
      1791139244,
      1791139288,
      1791139301,
      1791139339,
      1791139355,
      1791139406,
      1791139426,
      1791139465,
      1791139477,
      1791139508,
      1791139555,
      1791139583,
      1791139599,
      1791139649,
      1791139661,
      1791139682,
      1791139699,
      1791139725,
      1791139760,
      1791139778
    ],
    "wof:geomhash": "44e504b7f64d18a4ac498496d6ad7d7c",
    "wof:id": 2048507625,
    "wof:repo": "sfomuseum-data-flights-2026-10"
  },
  "bbox": [
    -122.35627,
    36.73533,
    -121.88627,
    37.61081
  ],
  "geometry": {"type":"LineString","coordinates":[[-121.88627,36.73533],[-121.91217,36.80657],[-121.9257,36.85413],[-121.93241,36.87805],[-121.94815,36.93447],[-121.95219,36.94902],[-121.97732,37.01541],[-121.99756,37.06622],[-122.01225,37.10312],[-122.02269,37.12981],[-122.04464,37.18652],[-122.05143,37.20375],[-122.07057,37.25245],[-122.07868,37.27306],[-122.10446,37.33924],[-122.11403,37.36353],[-122.13174,37.41198],[-122.13689,37.42719],[-122.14921,37.4637],[-122.17399,37.51137],[-122.19485,37.53499],[-122.20757,37.54768],[-122.25461,37.56817],[-122.26494,37.57252],[-122.28374,37.58014],[-122.29738,37.58588],[-122.31826,37.59466],[-122.34418,37.60577],[-122.35627,37.61081]]}
}
