{
  "id": 2048538081,
  "type": "Feature",
  "properties": {
    "geom:area": 0,
    "geom:bbox": "-122.352200,36.726260,-121.881600,37.611510",
    "geom:latitude": 37.21607576809226,
    "geom:longitude": -122.06945489349992,
    "src:alt_label": "swim-approach",
    "src:geom": "swim",
    "swim:elevations": [
      5369,
      5215,
      4860,
      4561,
      4335,
      4142,
      3852,
      3683,
      3587,
      3265,
      3028,
      2832,
      2734,
      2458,
      2343,
      2195,
      1911,
      1772,
      1619,
      1465,
      1280,
      1158,
      1039,
      908,
      815,
      737,
      487,
      424,
      346,
      138,
      54
    ],
    "swim:geom": "approach",
    "swim:timestamps": [
      1791407365,
      1791407382,
      1791407422,
      1791407457,
      1791407482,
      1791407505,
      1791407541,
      1791407578,
      1791407588,
      1791407636,
      1791407664,
      1791407689,
      1791407708,
      1791407756,
      1791407782,
      1791407799,
      1791407845,
      1791407874,
      1791407902,
      1791407929,
      1791407965,
      1791407985,
      1791408009,
      1791408035,
      1791408053,
      1791408066,
      1791408118,
      1791408136,
      1791408157,
      1791408200,
      1791408226
    ],
    "wof:geomhash": "dbb3d1dcb870809d59ccc6e0bddf347b",
    "wof:id": 2048538081,
    "wof:repo": "sfomuseum-data-flights-2026-10"
  },
  "bbox": [
    -122.3522,
    36.72626,
    -121.8816,
    37.61151
  ],
  "geometry": {"type":"LineString","coordinates":[[-121.8816,36.72626],[-121.89496,36.75031],[-121.91387,36.81285],[-121.92883,36.86538],[-121.93938,36.90342],[-121.94847,36.93644],[-121.96751,36.98921],[-121.98761,37.04047],[-121.99279,37.05395],[-122.01741,37.1176],[-122.03081,37.1514],[-122.04342,37.18292],[-122.05225,37.20538],[-122.07539,37.26488],[-122.08748,37.29555],[-122.09564,37.31626],[-122.11687,37.36981],[-122.12774,37.40087],[-122.138,37.43089],[-122.14766,37.45906],[-122.15915,37.49477],[-122.16528,37.51325],[-122.17242,37.53548],[-122.18404,37.55662],[-122.20145,37.5636],[-122.21321,37.56747],[-122.26369,37.58392],[-122.27958,37.58833],[-122.29709,37.59364],[-122.33298,37.60425],[-122.3522,37.61151]]}
}
