{
  "id": 2048531915,
  "type": "Feature",
  "properties": {
    "date:inception_lower": "2026-10-06",
    "date:inception_upper": "2026-10-06",
    "edtf:cessation": "",
    "edtf:inception": "2026-10-06",
    "flysfo:actual_timestamp": -1,
    "flysfo:airline": "DL",
    "flysfo:date": "2026-10-06",
    "flysfo:estimated_timestamp": 1791312900,
    "flysfo:event": "D",
    "flysfo:flight_number": "DL420",
    "flysfo:gate": "",
    "flysfo:journey": "SFO-ACV",
    "flysfo:scheduled_timestamp": 1791312900,
    "flysfo:timestamp": 1791312900,
    "geom:area": 0,
    "geom:bbox": "-124.108020,37.617990,-122.370943,40.971689",
    "geom:latitude": 39.294839499999995,
    "geom:longitude": -123.2394815,
    "iata:airline": "DL",
    "icao:airline": "DAL",
    "lbl:latitude": 37.61799,
    "lbl:longitude": -122.370943,
    "sfomuseum:airline_id": 1159284261,
    "sfomuseum:arrival_id": 102531997,
    "sfomuseum:departure_id": 102527513,
    "sfomuseum:flight_id": "20261006-D-DAL-420",
    "sfomuseum:flight_number": [
      "DAL420",
      "DL420"
    ],
    "sfomuseum:placetype": "flight",
    "src:geom": "flysfo",
    "wof:belongsto": [],
    "wof:country": "US",
    "wof:created": 1791389541,
    "wof:geomhash": "5815a5b1ad78885fe3ae36c1daab138f",
    "wof:hierarchy": [
      {
        "custom_id": 2048531915,
        "flight_id": 2048531915
      }
    ],
    "wof:id": 2048531915,
    "wof:involves": [
      102531997,
      102527513,
      1159284261,
      -1
    ],
    "wof:lastmodified": 1791389541,
    "wof:name": "DL420 (SFO-ACV)",
    "wof:parent_id": -1,
    "wof:placetype": "custom",
    "wof:placetype_alt": [
      "flight"
    ],
    "wof:repo": "sfomuseum-data-flights-2026-10",
    "wof:superseded_by": [],
    "wof:supersedes": []
  },
  "bbox": [
    -124.10802,
    37.61799,
    -122.370943,
    40.971689
  ],
  "geometry": {"type":"MultiPoint","coordinates":[[-122.370943,37.61799],[-124.10802,40.971689]]}
}
