{
  "id": 2048485177,
  "type": "Feature",
  "properties": {
    "geom:area": 0,
    "geom:bbox": "-122.853570,37.558110,-122.069540,38.516940",
    "geom:latitude": 37.884187107067014,
    "geom:longitude": -122.49914413897865,
    "src:alt_label": "swim-approach",
    "src:geom": "swim",
    "swim:elevations": [
      8112,
      7638,
      7357,
      7166,
      6783,
      6324,
      6138,
      5880,
      5480,
      5295,
      4899,
      4655,
      4331,
      4266,
      4047,
      3890,
      3693,
      3402,
      3355,
      3347,
      3266,
      3179,
      3091,
      2932,
      2660,
      2429,
      2284,
      1973,
      1721,
      1589,
      1374,
      1200,
      1004,
      928,
      797,
      520,
      333,
      335,
      138,
      39
    ],
    "swim:geom": "approach",
    "swim:timestamps": [
      1790892216,
      1790892263,
      1790892289,
      1790892307,
      1790892345,
      1790892388,
      1790892407,
      1790892431,
      1790892470,
      1790892488,
      1790892527,
      1790892556,
      1790892596,
      1790892602,
      1790892627,
      1790892644,
      1790892666,
      1790892707,
      1790892740,
      1790892765,
      1790892789,
      1790892801,
      1790892813,
      1790892840,
      1790892880,
      1790892913,
      1790892935,
      1790892977,
      1790893016,
      1790893045,
      1790893074,
      1790893097,
      1790893134,
      1790893153,
      1790893173,
      1790893222,
      1790893258,
      1790893262,
      1790893303,
      1790893327
    ],
    "wof:geomhash": "249876301b528d792f063c0eae8758a6",
    "wof:id": 2048485177,
    "wof:repo": "sfomuseum-data-flights-2026-10"
  },
  "bbox": [
    -122.85357,
    37.55811,
    -122.06954,
    38.51694
  ],
  "geometry": {"type":"LineString","coordinates":[[-122.85357,38.51694],[-122.8282,38.42973],[-122.81378,38.3823],[-122.80398,38.34985],[-122.7841,38.28214],[-122.76258,38.20746],[-122.75273,38.17358],[-122.74089,38.13281],[-122.7218,38.06704],[-122.71326,38.03753],[-122.69463,37.97304],[-122.6809,37.92647],[-122.64255,37.87073],[-122.63418,37.86285],[-122.60239,37.8327],[-122.57995,37.81149],[-122.55198,37.785],[-122.50099,37.73694],[-122.45205,37.7118],[-122.41309,37.70288],[-122.37712,37.69454],[-122.36019,37.69071],[-122.34324,37.68693],[-122.30541,37.67864],[-122.2504,37.66634],[-122.20548,37.65637],[-122.17665,37.64984],[-122.1267,37.62773],[-122.08167,37.60586],[-122.06954,37.58249],[-122.09148,37.56361],[-122.11816,37.56115],[-122.16087,37.55811],[-122.1844,37.55872],[-122.20602,37.56545],[-122.2602,37.58286],[-122.29578,37.59292],[-122.29939,37.59402],[-122.33481,37.60463],[-122.35377,37.61212]]}
}
