{
  "id": 2048500667,
  "type": "Feature",
  "properties": {
    "geom:area": 0,
    "geom:bbox": "-122.871730,37.542270,-122.083790,38.513260",
    "geom:latitude": 37.88131028692487,
    "geom:longitude": -122.50837323663767,
    "src:alt_label": "swim-approach",
    "src:geom": "swim",
    "swim:elevations": [
      6759,
      6655,
      6462,
      6279,
      6177,
      5964,
      5947,
      5848,
      5705,
      5607,
      5302,
      5022,
      4753,
      4584,
      4227,
      3966,
      3741,
      3541,
      3376,
      3353,
      3322,
      3210,
      2996,
      2638,
      2483,
      2319,
      2016,
      1913,
      1761,
      1586,
      1539,
      1286,
      1188,
      902,
      735,
      409,
      248,
      148,
      0
    ],
    "swim:geom": "approach",
    "swim:timestamps": [
      1791040100,
      1791040121,
      1791040157,
      1791040194,
      1791040218,
      1791040256,
      1791040261,
      1791040280,
      1791040307,
      1791040326,
      1791040374,
      1791040405,
      1791040434,
      1791040451,
      1791040487,
      1791040514,
      1791040542,
      1791040561,
      1791040603,
      1791040636,
      1791040667,
      1791040700,
      1791040734,
      1791040794,
      1791040820,
      1791040846,
      1791040885,
      1791040914,
      1791040946,
      1791040974,
      1791040986,
      1791041038,
      1791041049,
      1791041079,
      1791041107,
      1791041153,
      1791041175,
      1791041198,
      1791041229
    ],
    "wof:geomhash": "fb328654fcaa727d96ace1d52ee9442a",
    "wof:id": 2048500667,
    "wof:repo": "sfomuseum-data-flights-2026-10"
  },
  "bbox": [
    -122.87173,
    37.54227,
    -122.08379,
    38.51326
  ],
  "geometry": {"type":"LineString","coordinates":[[-122.87173,38.51326],[-122.85826,38.47608],[-122.83595,38.41467],[-122.81379,38.35313],[-122.79972,38.3139],[-122.7764,38.24927],[-122.77377,38.24198],[-122.76326,38.20988],[-122.75008,38.16418],[-122.74123,38.13381],[-122.71833,38.05518],[-122.70408,38.00585],[-122.69061,37.95958],[-122.68285,37.93235],[-122.65338,37.88116],[-122.61942,37.84862],[-122.58501,37.81589],[-122.56079,37.79301],[-122.51102,37.74643],[-122.47193,37.71402],[-122.42775,37.69836],[-122.38333,37.68338],[-122.33817,37.66835],[-122.26091,37.64283],[-122.2272,37.63156],[-122.19389,37.62036],[-122.14262,37.60345],[-122.10522,37.59094],[-122.08379,37.56556],[-122.10266,37.54411],[-122.11646,37.54227],[-122.17585,37.55579],[-122.18895,37.55965],[-122.22185,37.57037],[-122.25049,37.57966],[-122.29582,37.59306],[-122.31543,37.59891],[-122.33491,37.60481],[-122.35945,37.61404]]}
}
