{
  "id": 2048510955,
  "type": "Feature",
  "properties": {
    "geom:area": 0,
    "geom:bbox": "-122.359580,36.735690,-121.885660,37.611970",
    "geom:latitude": 37.21926795134746,
    "geom:longitude": -122.07301052656221,
    "src:alt_label": "swim-approach",
    "src:geom": "swim",
    "swim:elevations": [
      5188,
      5131,
      4822,
      4485,
      4063,
      3764,
      3602,
      3307,
      3115,
      3054,
      2903,
      2667,
      2409,
      2369,
      2005,
      1860,
      1735,
      1628,
      1493,
      1384,
      1182,
      1039,
      881,
      721,
      555,
      394,
      372,
      272,
      97,
      0
    ],
    "swim:geom": "approach",
    "swim:timestamps": [
      1791157615,
      1791157622,
      1791157653,
      1791157688,
      1791157733,
      1791157765,
      1791157784,
      1791157816,
      1791157846,
      1791157872,
      1791157897,
      1791157930,
      1791157978,
      1791157991,
      1791158036,
      1791158057,
      1791158081,
      1791158097,
      1791158123,
      1791158141,
      1791158181,
      1791158214,
      1791158244,
      1791158273,
      1791158306,
      1791158336,
      1791158342,
      1791158373,
      1791158416,
      1791158438
    ],
    "wof:geomhash": "b63def7262c525044febb74db22f7171",
    "wof:id": 2048510955,
    "wof:repo": "sfomuseum-data-flights-2026-10"
  },
  "bbox": [
    -122.35958,
    36.73569,
    -121.88566,
    37.61197
  ],
  "geometry": {"type":"LineString","coordinates":[[-121.88566,36.73569],[-121.89144,36.74645],[-121.90978,36.79871],[-121.92672,36.85628],[-121.94713,36.92975],[-121.96402,36.97954],[-121.97587,37.01034],[-121.99459,37.05859],[-122.01297,37.10522],[-122.02742,37.1423],[-122.04024,37.17529],[-122.05742,37.2193],[-122.08202,37.28194],[-122.08787,37.29704],[-122.1068,37.34755],[-122.11635,37.36921],[-122.12568,37.39346],[-122.13134,37.41019],[-122.14054,37.43685],[-122.14657,37.45477],[-122.15835,37.49208],[-122.16802,37.5213],[-122.18674,37.54187],[-122.21578,37.55411],[-122.24931,37.56596],[-122.27751,37.57761],[-122.28256,37.57991],[-122.30761,37.59051],[-122.34218,37.6048],[-122.35958,37.61197]]}
}
