{
  "id": 2048551235,
  "type": "Feature",
  "properties": {
    "geom:area": 0,
    "geom:bbox": "-122.357200,37.638950,-121.248480,37.965140",
    "geom:latitude": 37.84065009389604,
    "geom:longitude": -121.81626641748377,
    "src:alt_label": "swim-takeoff",
    "src:geom": "swim",
    "swim:elevations": [
      255,
      361,
      874,
      1067,
      1217,
      1464,
      2016,
      2538,
      2979,
      3267,
      3324,
      3691,
      3839,
      4260,
      4382,
      4617,
      4951,
      5078,
      5272,
      5655,
      6039,
      6267,
      6390,
      6777
    ],
    "swim:geom": "takeoff",
    "swim:timestamps": [
      1791485004,
      1791485011,
      1791485054,
      1791485076,
      1791485101,
      1791485136,
      1791485174,
      1791485212,
      1791485244,
      1791485269,
      1791485280,
      1791485320,
      1791485330,
      1791485362,
      1791485384,
      1791485406,
      1791485435,
      1791485452,
      1791485471,
      1791485500,
      1791485546,
      1791485575,
      1791485587,
      1791485636
    ],
    "wof:geomhash": "7f219acf9f09e71d95f592f689a33efc",
    "wof:id": 2048551235,
    "wof:repo": "sfomuseum-data-flights-2026-10"
  },
  "bbox": [
    -122.3572,
    37.63895,
    -121.24848,
    37.96514
  ],
  "geometry": {"type":"LineString","coordinates":[[-122.3572,37.63895],[-122.35236,37.64284],[-122.31473,37.66337],[-122.2953,37.67434],[-122.27023,37.68864],[-122.2268,37.71161],[-122.17507,37.73799],[-122.12286,37.76487],[-122.07774,37.78849],[-122.04122,37.80715],[-122.02475,37.81543],[-121.95167,37.83615],[-121.93162,37.83984],[-121.86836,37.8515],[-121.82323,37.85999],[-121.77628,37.86885],[-121.71424,37.88022],[-121.67796,37.88719],[-121.63548,37.89511],[-121.56945,37.90722],[-121.46336,37.92653],[-121.39444,37.93899],[-121.36695,37.94391],[-121.24848,37.96514]]}
}
