{
  "id": 2048549671,
  "type": "Feature",
  "properties": {
    "geom:area": 0,
    "geom:bbox": "-122.384610,37.629280,-121.435590,38.514590",
    "geom:latitude": 38.12048738822972,
    "geom:longitude": -122.01476785579274,
    "src:alt_label": "swim-takeoff",
    "src:geom": "swim",
    "swim:elevations": [
      122,
      460,
      633,
      760,
      1062,
      1253,
      1725,
      2145,
      2230,
      2838,
      3065,
      3279,
      3392,
      3618,
      3796,
      4003,
      4376,
      4654,
      5033,
      5205,
      5453,
      5909,
      6097,
      6242,
      6372,
      6464,
      6539,
      6553,
      6670,
      6888,
      7014
    ],
    "swim:geom": "takeoff",
    "swim:timestamps": [
      1791526021,
      1791526052,
      1791526081,
      1791526105,
      1791526136,
      1791526152,
      1791526194,
      1791526228,
      1791526234,
      1791526288,
      1791526309,
      1791526348,
      1791526369,
      1791526402,
      1791526416,
      1791526440,
      1791526477,
      1791526506,
      1791526549,
      1791526570,
      1791526598,
      1791526645,
      1791526667,
      1791526687,
      1791526710,
      1791526725,
      1791526737,
      1791526740,
      1791526755,
      1791526785,
      1791526801
    ],
    "wof:geomhash": "591af541b038f42be1da02a6f2bd00da",
    "wof:id": 2048549671,
    "wof:repo": "sfomuseum-data-flights-2026-10"
  },
  "bbox": [
    -122.38461,
    37.62928,
    -121.43559,
    38.51459
  ],
  "geometry": {"type":"LineString","coordinates":[[-122.36597,37.62928],[-122.34659,37.64953],[-122.32266,37.66929],[-122.31225,37.69244],[-122.32617,37.72675],[-122.3356,37.74454],[-122.36055,37.79301],[-122.38071,37.83323],[-122.38331,37.84085],[-122.38461,37.91263],[-122.37378,37.94016],[-122.32179,37.97891],[-122.28789,37.99914],[-122.23211,38.03279],[-122.20792,38.04756],[-122.16541,38.07372],[-122.09606,38.11609],[-122.04296,38.14822],[-121.96022,38.19831],[-121.91901,38.22314],[-121.8616,38.25765],[-121.76696,38.31466],[-121.72146,38.34198],[-121.68021,38.36675],[-121.63229,38.39548],[-121.60025,38.41467],[-121.5744,38.4301],[-121.56791,38.43397],[-121.53542,38.45342],[-121.4709,38.49285],[-121.43559,38.51459]]}
}
