{
  "id": 2048537705,
  "type": "Feature",
  "properties": {
    "geom:area": 0,
    "geom:bbox": "-122.355750,36.752700,-121.895740,37.607460",
    "geom:latitude": 37.22628642231495,
    "geom:longitude": -122.07507193772307,
    "src:alt_label": "swim-approach",
    "src:geom": "swim",
    "swim:elevations": [
      5149,
      4873,
      4475,
      4199,
      3972,
      3814,
      3304,
      3207,
      3119,
      2963,
      2791,
      2488,
      2377,
      2257,
      2048,
      1815,
      1738,
      1653,
      1623,
      1479,
      1278,
      1239,
      1035,
      944,
      652,
      474,
      325,
      244,
      133,
      0
    ],
    "swim:geom": "approach",
    "swim:timestamps": [
      1791411469,
      1791411496,
      1791411536,
      1791411563,
      1791411587,
      1791411605,
      1791411658,
      1791411668,
      1791411693,
      1791411737,
      1791411761,
      1791411806,
      1791411823,
      1791411844,
      1791411867,
      1791411898,
      1791411910,
      1791411926,
      1791411931,
      1791411955,
      1791411988,
      1791411999,
      1791412036,
      1791412051,
      1791412096,
      1791412133,
      1791412167,
      1791412190,
      1791412217,
      1791412258
    ],
    "wof:geomhash": "f4a4aa2ffa908272997b24f831cd0770",
    "wof:id": 2048537705,
    "wof:repo": "sfomuseum-data-flights-2026-10"
  },
  "bbox": [
    -122.35575,
    36.7527,
    -121.89574,
    37.60746
  ],
  "geometry": {"type":"LineString","coordinates":[[-121.89574,36.7527],[-121.90963,36.79787],[-121.92823,36.86371],[-121.94008,36.90698],[-121.95073,36.94698],[-121.96115,36.97383],[-121.99423,37.05714],[-122.00072,37.07415],[-122.01504,37.11111],[-122.0395,37.17346],[-122.05193,37.20597],[-122.07528,37.26554],[-122.08447,37.28685],[-122.09517,37.31295],[-122.10579,37.34035],[-122.11936,37.37782],[-122.12394,37.39113],[-122.12998,37.40817],[-122.13161,37.41266],[-122.14096,37.43884],[-122.1526,37.47303],[-122.15634,37.48411],[-122.16889,37.52107],[-122.17623,37.53509],[-122.22464,37.55522],[-122.2627,37.5716],[-122.29324,37.58437],[-122.31228,37.59233],[-122.33223,37.60075],[-122.35575,37.60746]]}
}
