{
  "id": 2048514427,
  "type": "Feature",
  "properties": {
    "geom:area": 0,
    "geom:bbox": "-122.031950,36.722510,-121.275720,37.252550",
    "geom:latitude": 36.98752367661867,
    "geom:longitude": -121.65383682831681,
    "src:alt_label": "swim-takeoff",
    "src:geom": "swim",
    "swim:elevations": [
      7558,
      7840,
      8028,
      8282,
      8590,
      8663,
      8732,
      8927,
      8975,
      9191,
      9301,
      9358,
      9448,
      9449,
      9449,
      9449
    ],
    "swim:geom": "takeoff",
    "swim:timestamps": [
      1791138141,
      1791138164,
      1791138185,
      1791138218,
      1791138267,
      1791138291,
      1791138306,
      1791138350,
      1791138360,
      1791138410,
      1791138441,
      1791138459,
      1791138493,
      1791138504,
      1791138512,
      1791138541
    ],
    "wof:geomhash": "74a855f1d6a369b5cedc1bae77d32fdf",
    "wof:id": 2048514427,
    "wof:repo": "sfomuseum-data-flights-2026-10"
  },
  "bbox": [
    -122.03195,
    36.72251,
    -121.27572,
    37.25255
  ],
  "geometry": {"type":"LineString","coordinates":[[-122.03195,37.25255],[-121.9954,37.2269],[-121.96121,37.20305],[-121.90628,37.16481],[-121.82143,37.10557],[-121.77925,37.07573],[-121.75163,37.05676],[-121.66968,36.99882],[-121.6491,36.98466],[-121.5505,36.91521],[-121.48777,36.87072],[-121.45083,36.84454],[-121.37953,36.79443],[-121.35647,36.77809],[-121.33883,36.7657],[-121.27572,36.72251]]}
}
