{
  "id": 2048547085,
  "type": "Feature",
  "properties": {
    "geom:area": 0,
    "geom:bbox": "-123.132790,37.404030,-122.097060,38.514260",
    "geom:latitude": 37.86692270308362,
    "geom:longitude": -122.55291480562798,
    "src:alt_label": "swim-approach",
    "src:geom": "swim",
    "swim:elevations": [
      7311,
      7075,
      6856,
      6645,
      6442,
      6229,
      6038,
      5836,
      5610,
      5334,
      5252,
      5114,
      4832,
      4603,
      4342,
      4054,
      3735,
      3471,
      3412,
      3354,
      3353,
      3353,
      3353,
      3353,
      3273,
      3185,
      3083,
      2906,
      2680,
      2297,
      2195,
      1980,
      1824,
      1628,
      1464,
      1308,
      1129,
      963,
      790,
      752,
      502,
      414,
      241,
      124,
      72
    ],
    "swim:geom": "approach",
    "swim:timestamps": [
      1791521212,
      1791521247,
      1791521277,
      1791521307,
      1791521337,
      1791521367,
      1791521397,
      1791521427,
      1791521457,
      1791521487,
      1791521496,
      1791521520,
      1791521555,
      1791521588,
      1791521621,
      1791521654,
      1791521685,
      1791521721,
      1791521751,
      1791521781,
      1791521817,
      1791521829,
      1791521850,
      1791521880,
      1791521910,
      1791521940,
      1791521970,
      1791522000,
      1791522030,
      1791522082,
      1791522096,
      1791522130,
      1791522178,
      1791522205,
      1791522235,
      1791522268,
      1791522295,
      1791522325,
      1791522355,
      1791522364,
      1791522413,
      1791522436,
      1791522475,
      1791522502,
      1791522514
    ],
    "wof:geomhash": "14d1c695a3d09992c3a17a452d7b5d05",
    "wof:id": 2048547085,
    "wof:repo": "sfomuseum-data-flights-2026-10"
  },
  "bbox": [
    -123.13279,
    37.40403,
    -122.09706,
    38.51426
  ],
  "geometry": {"type":"LineString","coordinates":[[-123.13279,38.51426],[-123.07361,38.46832],[-123.02321,38.42858],[-122.97328,38.38883],[-122.92356,38.34927],[-122.87439,38.31016],[-122.82596,38.2714],[-122.78118,38.23171],[-122.7555,38.18383],[-122.74122,38.13368],[-122.73682,38.11883],[-122.72529,38.07933],[-122.70879,38.02233],[-122.69368,37.96965],[-122.67791,37.91833],[-122.64566,37.8733],[-122.60589,37.83587],[-122.56139,37.79415],[-122.5264,37.76103],[-122.49331,37.7296],[-122.45306,37.69174],[-122.4409,37.6803],[-122.41788,37.65863],[-122.38493,37.62759],[-122.35493,37.59478],[-122.33373,37.55865],[-122.31419,37.52476],[-122.29552,37.49257],[-122.27694,37.46075],[-122.21888,37.42602],[-122.20108,37.41977],[-122.15699,37.40403],[-122.10928,37.4253],[-122.09706,37.45056],[-122.09841,37.47891],[-122.12397,37.5031],[-122.14802,37.52095],[-122.17706,37.5374],[-122.20856,37.55115],[-122.21756,37.5549],[-122.26314,37.57407],[-122.28216,37.58207],[-122.3145,37.59561],[-122.3363,37.60479],[-122.34568,37.60873]]}
}
