{
  "id": 2048525153,
  "type": "Feature",
  "properties": {
    "date:cessation_lower": "1970-01-01",
    "date:cessation_upper": "1970-01-01",
    "date:inception_lower": "2026-10-05",
    "date:inception_upper": "2026-10-05",
    "edtf:cessation": "1970-01-01T00:00:00Z",
    "edtf:inception": "2026-10-05T12:02:49-07:00",
    "flysfo:actual_timestamp": -1,
    "flysfo:airline": "UA",
    "flysfo:base_airline": "",
    "flysfo:base_flight_number": "4548",
    "flysfo:date": "2026-10-05",
    "flysfo:estimated_timestamp": 1791251280,
    "flysfo:event": "D",
    "flysfo:flight_number": "UA2478",
    "flysfo:gate": "D8",
    "flysfo:journey": "SFO-ONT",
    "flysfo:scheduled_timestamp": 1791252000,
    "flysfo:timestamp": 1791252000,
    "geom:area": 0,
    "geom:bbox": "-122.370943,34.059934,-117.587749,37.617990",
    "geom:latitude": 35.838961999999995,
    "geom:longitude": -119.97934599999999,
    "iata:airline": "UA",
    "iata:base_airline": "",
    "icao:aircraft": "A319",
    "icao:airline": "UAL",
    "icao:base_airline": "ACA",
    "lbl:latitude": 37.617421,
    "lbl:longitude": -122.380916,
    "sfomuseum:aircraft_id": 1159289407,
    "sfomuseum:airline_id": 1159285413,
    "sfomuseum:arrival_id": 102533575,
    "sfomuseum:base_flight_id": "20261005-D-ACA-4548",
    "sfomuseum:departure_id": 102527513,
    "sfomuseum:flight_id": "20261005-D-UAL-2478",
    "sfomuseum:flight_number": [
      "UAL2478",
      "UA2478"
    ],
    "sfomuseum:placetype": "flight",
    "src:geom": "flysfo",
    "src:geom_alt": [
      "swim-takeoff"
    ],
    "swim:tail_number": "N806UA",
    "wof:belongsto": [
      1947304067,
      102527513,
      1947304595,
      102191575,
      85633793,
      102087579,
      85922583,
      554784711,
      85688637,
      1947304617,
      1947304591,
      102085387
    ],
    "wof:country": "US",
    "wof:created": 1791303421,
    "wof:geomhash": "ec8e91229a6790516c63cb7081c35777",
    "wof:hierarchy": [
      {
        "building_id": 1947304067,
        "campus_id": 102527513,
        "concourse_id": 1947304595,
        "continent_id": 102191575,
        "country_id": 85633793,
        "county_id": 102087579,
        "custom_id": 2048525153,
        "flight_id": 2048525153,
        "locality_id": 85922583,
        "postalcode_id": 554784711,
        "region_id": 85688637,
        "venue_id": 1947304617,
        "wing_id": 1947304591
      },
      {
        "building_id": 1947304067,
        "campus_id": 102527513,
        "concourse_id": 1947304595,
        "continent_id": 102191575,
        "country_id": 85633793,
        "county_id": 102085387,
        "custom_id": 2048525153,
        "flight_id": 2048525153,
        "region_id": 85688637,
        "venue_id": 1947304617,
        "wing_id": 1947304591
      }
    ],
    "wof:id": 2048525153,
    "wof:involves": [
      102533575,
      102527513,
      1159285413,
      1947304617,
      1159283597,
      1159289407
    ],
    "wof:lastmodified": 1791303582,
    "wof:name": "UA2478 (SFO-ONT)",
    "wof:parent_id": 1947304617,
    "wof:placetype": "custom",
    "wof:placetype_alt": [
      "flight"
    ],
    "wof:repo": "sfomuseum-data-flights-2026-10",
    "wof:superseded_by": [],
    "wof:supersedes": []
  },
  "bbox": [
    -122.370943,
    34.059934,
    -117.587749,
    37.61799
  ],
  "geometry": {"type":"MultiPoint","coordinates":[[-122.370943,37.61799],[-117.587749,34.059934]]}
}
