{
  "id": 2048547659,
  "type": "Feature",
  "properties": {
    "geom:area": 0,
    "geom:bbox": "-122.365160,37.629910,-121.830140,38.125440",
    "geom:latitude": 37.85288735610765,
    "geom:longitude": -122.07990042210712,
    "src:alt_label": "swim-takeoff",
    "src:geom": "swim",
    "swim:elevations": [
      167,
      388,
      620,
      690,
      907,
      1364,
      1523,
      1994,
      2501,
      2700,
      2944,
      3502,
      3574,
      3691,
      4149,
      4416,
      4646,
      4846
    ],
    "swim:geom": "takeoff",
    "swim:timestamps": [
      1791473655,
      1791473672,
      1791473719,
      1791473733,
      1791473751,
      1791473788,
      1791473800,
      1791473839,
      1791473878,
      1791473897,
      1791473916,
      1791473968,
      1791473986,
      1791474012,
      1791474058,
      1791474082,
      1791474104,
      1791474129
    ],
    "wof:geomhash": "294c0e85a555cdc5b91251293f118fe7",
    "wof:id": 2048547659,
    "wof:repo": "sfomuseum-data-flights-2026-10"
  },
  "bbox": [
    -122.36516,
    37.62991,
    -121.83014,
    38.12544
  ],
  "geometry": {"type":"LineString","coordinates":[[-122.36516,37.62991],[-122.35345,37.64001],[-122.30376,37.66023],[-122.28461,37.66711],[-122.25905,37.67614],[-122.20577,37.69637],[-122.19278,37.70701],[-122.15661,37.74791],[-122.11965,37.79089],[-122.10175,37.81163],[-122.08246,37.83404],[-122.0296,37.89536],[-122.01004,37.91789],[-121.97919,37.95357],[-121.92111,38.0207],[-121.89149,38.05481],[-121.86221,38.08856],[-121.83014,38.12544]]}
}
