{
  "id": 2048535539,
  "type": "Feature",
  "properties": {
    "geom:area": 0,
    "geom:bbox": "-122.842780,37.487820,-121.888450,38.480610",
    "geom:latitude": 37.80105151021016,
    "geom:longitude": -122.38684885077122,
    "src:alt_label": "swim-approach",
    "src:geom": "swim",
    "swim:elevations": [
      7498,
      7457,
      6998,
      6658,
      6499,
      6146,
      5950,
      5648,
      5297,
      4947,
      4686,
      4609,
      4245,
      3941,
      3703,
      3462,
      3444,
      3379,
      3353,
      3353,
      3353,
      3333,
      3353,
      3353,
      3285,
      2970,
      2786,
      2636,
      2437,
      2448,
      2436,
      2449,
      2438,
      2459,
      2380,
      2319,
      2020,
      1818,
      1690,
      1518,
      1242,
      1097,
      767,
      766,
      505,
      390,
      360,
      219,
      90,
      17
    ],
    "swim:geom": "approach",
    "swim:timestamps": [
      1791403707,
      1791403714,
      1791403762,
      1791403798,
      1791403816,
      1791403853,
      1791403873,
      1791403906,
      1791403942,
      1791403978,
      1791404006,
      1791404014,
      1791404056,
      1791404090,
      1791404118,
      1791404145,
      1791404155,
      1791404167,
      1791404210,
      1791404216,
      1791404241,
      1791404269,
      1791404301,
      1791404313,
      1791404358,
      1791404394,
      1791404418,
      1791404441,
      1791404485,
      1791404498,
      1791404546,
      1791404551,
      1791404598,
      1791404613,
      1791404658,
      1791404672,
      1791404718,
      1791404754,
      1791404773,
      1791404797,
      1791404835,
      1791404852,
      1791404906,
      1791404910,
      1791404963,
      1791404994,
      1791405001,
      1791405039,
      1791405077,
      1791405092
    ],
    "wof:geomhash": "cd1ec5e35105b49183c71bf66a0d4109",
    "wof:id": 2048535539,
    "wof:repo": "sfomuseum-data-flights-2026-10"
  },
  "bbox": [
    -122.84278,
    37.48782,
    -121.88845,
    38.48061
  ],
  "geometry": {"type":"LineString","coordinates":[[-122.84278,38.48061],[-122.83904,38.46789],[-122.81324,38.3804],[-122.79472,38.31724],[-122.78527,38.28507],[-122.76716,38.22265],[-122.75685,38.18786],[-122.7408,38.13279],[-122.72338,38.07254],[-122.70642,38.01342],[-122.69292,37.96765],[-122.68915,37.95479],[-122.66246,37.89147],[-122.62073,37.84987],[-122.58419,37.81524],[-122.55143,37.78456],[-122.5393,37.77313],[-122.52515,37.75978],[-122.47394,37.7138],[-122.4645,37.70944],[-122.42355,37.69867],[-122.37844,37.68766],[-122.32846,37.67508],[-122.31039,37.6707],[-122.24337,37.65472],[-122.18879,37.64146],[-122.1514,37.63307],[-122.11614,37.62519],[-122.05103,37.61017],[-122.03174,37.60566],[-121.95939,37.58844],[-121.95212,37.58664],[-121.89533,37.5549],[-121.88845,37.53752],[-121.909,37.49288],[-121.92857,37.48782],[-121.98966,37.49518],[-122.0344,37.51046],[-122.0571,37.51735],[-122.08508,37.52589],[-122.12751,37.53942],[-122.14715,37.54597],[-122.20413,37.5642],[-122.20755,37.56531],[-122.25746,37.58065],[-122.28236,37.58766],[-122.28865,37.58946],[-122.31926,37.5981],[-122.34816,37.60978],[-122.35815,37.61404]]}
}
