{
  "id": 2048541055,
  "type": "Feature",
  "properties": {
    "geom:area": 0,
    "geom:bbox": "-122.365720,37.629140,-121.450020,38.505260",
    "geom:latitude": 38.06253542425331,
    "geom:longitude": -121.90450133931436,
    "src:alt_label": "swim-takeoff",
    "src:geom": "swim",
    "swim:elevations": [
      122,
      213,
      680,
      795,
      1199,
      1267,
      1497,
      1611,
      1797,
      1885,
      2215,
      2636,
      2960,
      3123,
      3256,
      3502,
      3731,
      3920,
      4365,
      4601,
      4799,
      4922,
      5051,
      5339,
      5440,
      5632,
      5853,
      5948,
      6097
    ],
    "swim:geom": "takeoff",
    "swim:timestamps": [
      1791385917,
      1791385922,
      1791385971,
      1791385992,
      1791386033,
      1791386040,
      1791386097,
      1791386111,
      1791386127,
      1791386135,
      1791386165,
      1791386211,
      1791386241,
      1791386260,
      1791386283,
      1791386333,
      1791386356,
      1791386378,
      1791386426,
      1791386457,
      1791386486,
      1791386503,
      1791386525,
      1791386562,
      1791386573,
      1791386599,
      1791386631,
      1791386649,
      1791386671
    ],
    "wof:geomhash": "b42f4d5fb024fba12761098710ba496e",
    "wof:id": 2048541055,
    "wof:repo": "sfomuseum-data-flights-2026-10"
  },
  "bbox": [
    -122.36572,
    37.62914,
    -121.45002,
    38.50526
  ],
  "geometry": {"type":"LineString","coordinates":[[-122.36572,37.62914],[-122.36311,37.63264],[-122.32381,37.65965],[-122.3023,37.67166],[-122.25809,37.69565],[-122.25011,37.70007],[-122.18907,37.7439],[-122.17544,37.75946],[-122.16096,37.7765],[-122.15392,37.78479],[-122.12386,37.81899],[-122.07693,37.87119],[-122.04552,37.90567],[-122.0252,37.92794],[-121.99938,37.95606],[-121.93914,38.02235],[-121.90915,38.05521],[-121.88128,38.08577],[-121.81808,38.15477],[-121.77788,38.19855],[-121.73916,38.24057],[-121.71573,38.26615],[-121.68459,38.29999],[-121.63333,38.3556],[-121.61691,38.37338],[-121.58021,38.41313],[-121.52829,38.45828],[-121.49324,38.47905],[-121.45002,38.50526]]}
}
