{
  "id": 2048560249,
  "type": "Feature",
  "properties": {
    "geom:area": 0,
    "geom:bbox": "-122.380790,37.649610,-121.283490,37.991520",
    "geom:latitude": 37.93171924527726,
    "geom:longitude": -121.92540594926697,
    "src:alt_label": "swim-takeoff",
    "src:geom": "swim",
    "swim:elevations": [
      639,
      738,
      771,
      792,
      812,
      830,
      855,
      890,
      922,
      947,
      963,
      986,
      1018,
      1034,
      1058,
      2389,
      4446,
      5931,
      6225,
      6329,
      6718,
      6764,
      6884,
      7104,
      7298
    ],
    "swim:geom": "takeoff",
    "swim:timestamps": [
      1791591264,
      1791591276,
      1791591279,
      1791591282,
      1791591285,
      1791591288,
      1791591291,
      1791591294,
      1791591297,
      1791591300,
      1791591303,
      1791591306,
      1791591310,
      1791591313,
      1791591320,
      1791591470,
      1791591671,
      1791591824,
      1791591865,
      1791591876,
      1791591924,
      1791591930,
      1791591951,
      1791591977,
      1791592005
    ],
    "wof:geomhash": "5ba2453d85469b54f18c4a44025092d3",
    "wof:id": 2048560249,
    "wof:repo": "sfomuseum-data-flights-2026-10"
  },
  "bbox": [
    -122.38079,
    37.64961,
    -121.28349,
    37.99152
  ],
  "geometry": {"type":"LineString","coordinates":[[-122.34352,37.64961],[-122.33602,37.65623],[-122.33419,37.65785],[-122.33231,37.65948],[-122.33041,37.66114],[-122.3285,37.6628],[-122.32663,37.66446],[-122.32478,37.66611],[-122.32293,37.66777],[-122.32107,37.66942],[-122.31923,37.67105],[-122.31739,37.67265],[-122.31492,37.67485],[-122.31313,37.67663],[-122.30975,37.68151],[-122.38079,37.83506],[-122.10544,37.98827],[-121.74726,37.98998],[-121.64405,37.99072],[-121.6169,37.99087],[-121.49474,37.99129],[-121.47926,37.99135],[-121.42476,37.99147],[-121.35654,37.99148],[-121.28349,37.99152]]}
}
