{
  "id": 2048522955,
  "type": "Feature",
  "properties": {
    "geom:area": 0,
    "geom:bbox": "-122.364220,37.631110,-122.114210,38.515820",
    "geom:latitude": 38.0395634805414,
    "geom:longitude": -122.17805417158677,
    "src:alt_label": "swim-takeoff",
    "src:geom": "swim",
    "swim:elevations": [
      122,
      355,
      584,
      1048,
      1278,
      1642,
      2138,
      2554,
      2915,
      3116,
      3374,
      3811,
      4170,
      4644,
      4846,
      5119,
      5575,
      5797,
      6260,
      6292,
      6399,
      6530,
      6736,
      6969
    ],
    "swim:geom": "takeoff",
    "swim:timestamps": [
      1791209233,
      1791209253,
      1791209294,
      1791209330,
      1791209349,
      1791209381,
      1791209415,
      1791209450,
      1791209476,
      1791209490,
      1791209527,
      1791209564,
      1791209597,
      1791209631,
      1791209648,
      1791209675,
      1791209721,
      1791209742,
      1791209788,
      1791209793,
      1791209807,
      1791209822,
      1791209851,
      1791209880
    ],
    "wof:geomhash": "25132fd2c6ad662194072d1d342eda64",
    "wof:id": 2048522955,
    "wof:repo": "sfomuseum-data-flights-2026-10"
  },
  "bbox": [
    -122.36422,
    37.63111,
    -122.11421,
    38.51582
  ],
  "geometry": {"type":"LineString","coordinates":[[-122.36422,37.63111],[-122.35027,37.64405],[-122.30798,37.66629],[-122.26505,37.69062],[-122.24162,37.70298],[-122.21165,37.73407],[-122.20447,37.77659],[-122.19713,37.82152],[-122.19176,37.85613],[-122.18874,37.8752],[-122.18008,37.92825],[-122.17069,37.98511],[-122.16183,38.03749],[-122.15297,38.09252],[-122.14853,38.11966],[-122.14146,38.16281],[-122.12864,38.24008],[-122.12273,38.27572],[-122.11421,38.35408],[-122.11469,38.3624],[-122.11643,38.38639],[-122.11816,38.41271],[-122.12157,38.46388],[-122.12514,38.51582]]}
}
