{
  "id": 2048521049,
  "type": "Feature",
  "properties": {
    "geom:area": 0,
    "geom:bbox": "-122.669290,37.408700,-122.134750,38.515860",
    "geom:latitude": 37.825462227817994,
    "geom:longitude": -122.45889402961743,
    "src:alt_label": "swim-approach",
    "src:geom": "swim",
    "swim:elevations": [
      7360,
      7139,
      6873,
      6764,
      6526,
      6371,
      6177,
      5768,
      5592,
      5403,
      5228,
      4958,
      4892,
      4661,
      4505,
      4265,
      3861,
      3712,
      3443,
      3375,
      3350,
      3353,
      3353,
      3353,
      3268,
      2732,
      2186,
      1917,
      1827,
      1830,
      1829,
      1829,
      1674,
      1536,
      1481,
      1456,
      1287,
      1201,
      1055,
      889,
      852,
      633,
      575,
      417,
      273,
      175,
      85,
      92
    ],
    "swim:geom": "approach",
    "swim:timestamps": [
      1791228087,
      1791228111,
      1791228140,
      1791228152,
      1791228178,
      1791228195,
      1791228216,
      1791228261,
      1791228282,
      1791228302,
      1791228323,
      1791228352,
      1791228360,
      1791228385,
      1791228404,
      1791228431,
      1791228471,
      1791228485,
      1791228528,
      1791228564,
      1791228582,
      1791228627,
      1791228636,
      1791228685,
      1791228703,
      1791228739,
      1791228776,
      1791228800,
      1791228817,
      1791228824,
      1791228846,
      1791228881,
      1791228925,
      1791228948,
      1791228957,
      1791228964,
      1791228992,
      1791229024,
      1791229044,
      1791229077,
      1791229090,
      1791229132,
      1791229145,
      1791229179,
      1791229226,
      1791229258,
      1791229282,
      1791229309
    ],
    "wof:geomhash": "8c74be7fe20a3bb9311024f377428b21",
    "wof:id": 2048521049,
    "wof:repo": "sfomuseum-data-flights-2026-10"
  },
  "bbox": [
    -122.66929,
    37.4087,
    -122.13475,
    38.51586
  ],
  "geometry": {"type":"LineString","coordinates":[[-122.61923,38.51586],[-122.6234,38.46899],[-122.62827,38.41548],[-122.63029,38.39195],[-122.6345,38.34491],[-122.63736,38.31207],[-122.64048,38.27511],[-122.64745,38.19454],[-122.65075,38.15746],[-122.65384,38.12171],[-122.65702,38.08489],[-122.6616,38.03402],[-122.66284,38.02069],[-122.66646,37.97752],[-122.66929,37.94467],[-122.66376,37.90013],[-122.61552,37.84468],[-122.59723,37.82758],[-122.54153,37.77558],[-122.49954,37.73551],[-122.47991,37.71683],[-122.43411,37.67395],[-122.42535,37.66566],[-122.37791,37.6211],[-122.36157,37.60423],[-122.33787,37.56659],[-122.3153,37.52746],[-122.30021,37.50156],[-122.28884,37.48223],[-122.28456,37.47489],[-122.27084,37.45152],[-122.23927,37.42013],[-122.17787,37.4087],[-122.15113,37.42096],[-122.14553,37.42969],[-122.14319,37.43603],[-122.13475,37.46637],[-122.13691,37.49959],[-122.15124,37.51417],[-122.17662,37.5352],[-122.18873,37.54061],[-122.22704,37.55647],[-122.23899,37.56151],[-122.2681,37.57357],[-122.30311,37.5886],[-122.32515,37.59779],[-122.34243,37.60503],[-122.36171,37.61211]]}
}
