{
  "id": 2048524829,
  "type": "Feature",
  "properties": {
    "geom:area": 0,
    "geom:bbox": "-123.504030,37.629400,-122.400360,37.697570",
    "geom:latitude": 37.6838136793046,
    "geom:longitude": -122.94807314637725,
    "src:alt_label": "swim-takeoff",
    "src:geom": "swim",
    "swim:elevations": [
      221,
      273,
      804,
      914,
      914,
      1220,
      1235,
      1592,
      2072,
      2444,
      2752,
      3027,
      3265,
      3505,
      4037,
      4148,
      4493,
      4859,
      4997,
      5459,
      5845,
      5889,
      6232,
      6446,
      6773
    ],
    "swim:geom": "takeoff",
    "swim:timestamps": [
      1791190555,
      1791190562,
      1791190606,
      1791190636,
      1791190656,
      1791190701,
      1791190711,
      1791190752,
      1791190786,
      1791190813,
      1791190832,
      1791190851,
      1791190888,
      1791190905,
      1791190940,
      1791190950,
      1791190978,
      1791191006,
      1791191018,
      1791191062,
      1791191097,
      1791191100,
      1791191132,
      1791191150,
      1791191181
    ],
    "wof:geomhash": "315dd22e496f62e97cbff84ac064f879",
    "wof:id": 2048524829,
    "wof:repo": "sfomuseum-data-flights-2026-10"
  },
  "bbox": [
    -123.50403,
    37.6294,
    -122.40036,
    37.69757
  ],
  "geometry": {"type":"LineString","coordinates":[[-122.40036,37.6294],[-122.40665,37.63205],[-122.4483,37.65027],[-122.4798,37.66441],[-122.50648,37.6734],[-122.57642,37.67913],[-122.59287,37.68015],[-122.65844,37.6846],[-122.71402,37.68791],[-122.7587,37.69059],[-122.7911,37.69242],[-122.82445,37.69415],[-122.89107,37.69757],[-122.9253,37.69711],[-122.99492,37.69483],[-123.01465,37.69417],[-123.07131,37.69225],[-123.12899,37.69022],[-123.15454,37.68944],[-123.24577,37.68681],[-123.32253,37.68357],[-123.32902,37.68327],[-123.39711,37.68122],[-123.43793,37.68005],[-123.50403,37.67802]]}
}
