{
  "id": 2048492319,
  "type": "Feature",
  "properties": {
    "date:inception_lower": "2026-10-02",
    "date:inception_upper": "2026-10-02",
    "edtf:cessation": "",
    "edtf:inception": "2026-10-02",
    "flysfo:actual_timestamp": -1,
    "flysfo:airline": "DL",
    "flysfo:base_airline": "",
    "flysfo:base_flight_number": "8804",
    "flysfo:date": "2026-10-02",
    "flysfo:estimated_timestamp": 1790976360,
    "flysfo:event": "A",
    "flysfo:flight_number": "DL469",
    "flysfo:gate": "C6",
    "flysfo:journey": "DTW-SFO",
    "flysfo:scheduled_timestamp": 1790975160,
    "flysfo:timestamp": 1790976360,
    "geom:area": 0,
    "geom:bbox": "-122.370943,37.617990,-83.351709,42.218860",
    "geom:latitude": 39.918425,
    "geom:longitude": -102.86132599999999,
    "iata:airline": "DL",
    "iata:base_airline": "",
    "icao:airline": "DAL",
    "icao:base_airline": "WJA",
    "lbl:latitude": 37.614759,
    "lbl:longitude": -122.382707,
    "sfomuseum:airline_id": 1159284261,
    "sfomuseum:arrival_id": 102527513,
    "sfomuseum:base_flight_id": "20261002-A-WJA-8804",
    "sfomuseum:departure_id": 102525635,
    "sfomuseum:flight_id": "20261002-A-DAL-469",
    "sfomuseum:flight_number": [
      "DAL469",
      "DL469"
    ],
    "sfomuseum:placetype": "flight",
    "src:geom": "flysfo",
    "wof:belongsto": [
      1947304067,
      102527513,
      1947304663,
      102191575,
      85633793,
      102087579,
      85922583,
      554784711,
      85688637,
      1947304679,
      1947304591,
      102085387
    ],
    "wof:country": "US",
    "wof:created": 1791043491,
    "wof:geomhash": "a23858bb4e93419105e139a22bd92749",
    "wof:hierarchy": [
      {
        "building_id": 1947304067,
        "campus_id": 102527513,
        "concourse_id": 1947304663,
        "continent_id": 102191575,
        "country_id": 85633793,
        "county_id": 102087579,
        "custom_id": 2048492319,
        "flight_id": 2048492319,
        "locality_id": 85922583,
        "postalcode_id": 554784711,
        "region_id": 85688637,
        "venue_id": 1947304679,
        "wing_id": 1947304591
      },
      {
        "building_id": 1947304067,
        "campus_id": 102527513,
        "concourse_id": 1947304663,
        "continent_id": 102191575,
        "country_id": 85633793,
        "county_id": 102085387,
        "custom_id": 2048492319,
        "flight_id": 2048492319,
        "region_id": 85688637,
        "venue_id": 1947304679,
        "wing_id": 1947304591
      }
    ],
    "wof:id": 2048492319,
    "wof:involves": [
      102527513,
      102525635,
      1159284261,
      1947304679,
      1159285523
    ],
    "wof:lastmodified": 1791043491,
    "wof:name": "DL469 (DTW-SFO)",
    "wof:parent_id": 1947304679,
    "wof:placetype": "custom",
    "wof:placetype_alt": [
      "flight"
    ],
    "wof:repo": "sfomuseum-data-flights-2026-10",
    "wof:superseded_by": [],
    "wof:supersedes": []
  },
  "bbox": [
    -122.370943,
    37.61799,
    -83.351709,
    42.21886
  ],
  "geometry": {"type":"MultiPoint","coordinates":[[-83.351709,42.21886],[-122.370943,37.61799]]}
}
