{
  "id": 2048509567,
  "type": "Feature",
  "properties": {
    "geom:area": 0,
    "geom:bbox": "-122.612460,36.733920,-121.887660,37.613430",
    "geom:latitude": 37.23105123843545,
    "geom:longitude": -122.26684482599799,
    "src:alt_label": "swim-approach",
    "src:geom": "swim",
    "swim:elevations": [
      5051,
      4944,
      4599,
      4554,
      4466,
      4326,
      4087,
      3796,
      3665,
      3388,
      3354,
      3353,
      3353,
      3381,
      3356,
      3353,
      3353,
      3112,
      3079,
      3047,
      3048,
      3048,
      2931,
      2821,
      2643,
      2579,
      2436,
      2438,
      2418,
      2269,
      2252,
      2134,
      2134,
      2134,
      2134,
      2134,
      2135,
      2136,
      2134,
      1937,
      1828,
      1829,
      1829,
      1829,
      1829,
      1830,
      1829,
      1776,
      1614,
      1599,
      1555,
      1410,
      1281,
      924,
      696,
      636,
      520,
      424,
      339,
      280,
      212,
      206,
      36,
      0
    ],
    "swim:geom": "approach",
    "swim:timestamps": [
      1791144532,
      1791144543,
      1791144585,
      1791144594,
      1791144607,
      1791144624,
      1791144648,
      1791144688,
      1791144707,
      1791144745,
      1791144766,
      1791144796,
      1791144802,
      1791144835,
      1791144849,
      1791144876,
      1791144903,
      1791144958,
      1791144973,
      1791144986,
      1791145005,
      1791145008,
      1791145041,
      1791145056,
      1791145089,
      1791145098,
      1791145126,
      1791145141,
      1791145153,
      1791145183,
      1791145186,
      1791145220,
      1791145245,
      1791145284,
      1791145286,
      1791145301,
      1791145342,
      1791145351,
      1791145357,
      1791145388,
      1791145425,
      1791145460,
      1791145470,
      1791145527,
      1791145548,
      1791145588,
      1791145598,
      1791145643,
      1791145674,
      1791145680,
      1791145686,
      1791145711,
      1791145728,
      1791145768,
      1791145792,
      1791145804,
      1791145830,
      1791145854,
      1791145873,
      1791145894,
      1791145917,
      1791145921,
      1791145972,
      1791145981
    ],
    "wof:geomhash": "ef5cecd974bfc4b1cab3c57bae124d15",
    "wof:id": 2048509567,
    "wof:repo": "sfomuseum-data-flights-2026-10"
  },
  "bbox": [
    -122.61246,
    36.73392,
    -121.88766,
    37.61343
  ],
  "geometry": {"type":"LineString","coordinates":[[-121.88766,36.73392],[-121.89588,36.74996],[-121.91416,36.81436],[-121.91801,36.82788],[-121.92355,36.84731],[-121.93086,36.87319],[-121.94141,36.90909],[-121.95996,36.96848],[-121.97125,36.99404],[-122.02703,37.025],[-122.06419,37.03216],[-122.11823,37.04274],[-122.12817,37.04468],[-122.17813,37.05479],[-122.20029,37.05929],[-122.23992,37.06754],[-122.2815,37.07629],[-122.36257,37.09397],[-122.38494,37.09887],[-122.40411,37.10307],[-122.43008,37.11356],[-122.43337,37.11617],[-122.46408,37.14816],[-122.4768,37.16201],[-122.5063,37.19403],[-122.51432,37.20283],[-122.53719,37.22846],[-122.54991,37.24275],[-122.56018,37.25431],[-122.58425,37.28169],[-122.58667,37.28447],[-122.61246,37.31743],[-122.61049,37.34496],[-122.58742,37.38498],[-122.58508,37.38627],[-122.56571,37.39148],[-122.5081,37.38995],[-122.49536,37.38947],[-122.48693,37.38919],[-122.44286,37.38753],[-122.39067,37.38547],[-122.34132,37.3855],[-122.32811,37.38962],[-122.25528,37.41824],[-122.22841,37.42882],[-122.18222,37.44693],[-122.17209,37.45092],[-122.12584,37.47266],[-122.1232,37.49885],[-122.12724,37.50269],[-122.13149,37.50619],[-122.14976,37.52039],[-122.16288,37.52849],[-122.19778,37.54418],[-122.2201,37.55361],[-122.23123,37.55834],[-122.25355,37.56772],[-122.27414,37.57633],[-122.28821,37.58223],[-122.30279,37.58838],[-122.31851,37.59491],[-122.32046,37.59575],[-122.35495,37.61025],[-122.36064,37.61343]]}
}
