{
  "id": 2048490407,
  "type": "Feature",
  "properties": {
    "geom:area": 0,
    "geom:bbox": "-122.357430,37.491740,-121.257720,37.613570",
    "geom:latitude": 37.54641003185783,
    "geom:longitude": -121.81242378412226,
    "src:alt_label": "swim-approach",
    "src:geom": "swim",
    "swim:elevations": [
      4767,
      4454,
      3985,
      3818,
      3435,
      3360,
      3215,
      3128,
      2787,
      2616,
      2558,
      2422,
      2399,
      2163,
      2135,
      2039,
      1861,
      1698,
      1402,
      1260,
      919,
      911,
      817,
      549,
      510,
      456,
      297,
      197,
      93,
      0
    ],
    "swim:geom": "approach",
    "swim:timestamps": [
      1790969192,
      1790969239,
      1790969276,
      1790969293,
      1790969335,
      1790969350,
      1790969388,
      1790969403,
      1790969441,
      1790969464,
      1790969481,
      1790969514,
      1790969523,
      1790969565,
      1790969582,
      1790969607,
      1790969633,
      1790969660,
      1790969692,
      1790969707,
      1790969757,
      1790969763,
      1790969797,
      1790969843,
      1790969863,
      1790969871,
      1790969906,
      1790969929,
      1790969958,
      1790969979
    ],
    "wof:geomhash": "9140e769c0726aeffb12e1e6a4423c1d",
    "wof:id": 2048490407,
    "wof:repo": "sfomuseum-data-flights-2026-10"
  },
  "bbox": [
    -122.35743,
    37.49174,
    -121.25772,
    37.61357
  ],
  "geometry": {"type":"LineString","coordinates":[[-121.25772,37.59345],[-121.34959,37.5825],[-121.41659,37.57505],[-121.44731,37.57142],[-121.52278,37.5626],[-121.54987,37.55944],[-121.61642,37.55159],[-121.64171,37.54672],[-121.70744,37.53083],[-121.7444,37.52202],[-121.77223,37.51533],[-121.82499,37.50268],[-121.83871,37.49943],[-121.9028,37.49174],[-121.92682,37.49243],[-121.96299,37.49322],[-121.99769,37.49798],[-122.03226,37.50914],[-122.07234,37.52208],[-122.09065,37.52801],[-122.15177,37.54785],[-122.15876,37.55008],[-122.19518,37.56177],[-122.24295,37.5772],[-122.2623,37.58335],[-122.27055,37.58587],[-122.30221,37.59505],[-122.32101,37.60061],[-122.34227,37.60728],[-122.35743,37.61357]]}
}
