{
  "id": 2048495609,
  "type": "Feature",
  "properties": {
    "geom:area": 0,
    "geom:bbox": "-122.500510,36.720130,-121.365500,37.727080",
    "geom:latitude": 37.22545116103358,
    "geom:longitude": -122.03842726350469,
    "src:alt_label": "swim-takeoff",
    "src:geom": "swim",
    "swim:elevations": [
      334,
      382,
      553,
      624,
      901,
      1199,
      1255,
      1556,
      1898,
      2001,
      2352,
      2744,
      3141,
      3296,
      3546,
      3899,
      4133,
      4305,
      4620,
      4745,
      4975,
      5169,
      5475,
      5594,
      6078,
      6313,
      6670,
      6722,
      7048,
      7308,
      7543,
      7750,
      7991,
      8270,
      8459,
      8629,
      8911
    ],
    "swim:geom": "takeoff",
    "swim:timestamps": [
      1790986707,
      1790986714,
      1790986747,
      1790986762,
      1790986786,
      1790986827,
      1790986839,
      1790986881,
      1790986914,
      1790986924,
      1790986959,
      1790986993,
      1790987029,
      1790987062,
      1790987092,
      1790987128,
      1790987150,
      1790987165,
      1790987191,
      1790987203,
      1790987224,
      1790987245,
      1790987278,
      1790987290,
      1790987335,
      1790987359,
      1790987397,
      1790987404,
      1790987445,
      1790987477,
      1790987514,
      1790987544,
      1790987574,
      1790987608,
      1790987635,
      1790987659,
      1790987694
    ],
    "wof:geomhash": "2dcd15bb9e5f9db075fe7aabe95b9763",
    "wof:id": 2048495609,
    "wof:repo": "sfomuseum-data-flights-2026-10"
  },
  "bbox": [
    -122.50051,
    36.72013,
    -121.3655,
    37.72708
  ],
  "geometry": {"type":"LineString","coordinates":[[-122.36064,37.64794],[-122.36081,37.6539],[-122.36201,37.68434],[-122.37039,37.69785],[-122.39822,37.71002],[-122.44954,37.72708],[-122.46685,37.72589],[-122.50051,37.68719],[-122.48714,37.64714],[-122.48267,37.63506],[-122.46718,37.59158],[-122.45257,37.5494],[-122.43533,37.50445],[-122.41854,37.46014],[-122.396,37.41867],[-122.34416,37.38081],[-122.31041,37.35941],[-122.28609,37.34414],[-122.24522,37.31859],[-122.2262,37.30668],[-122.19299,37.28533],[-122.16026,37.26277],[-122.1074,37.22657],[-122.08771,37.21332],[-122.01225,37.16245],[-121.97202,37.13544],[-121.90895,37.0927],[-121.89693,37.08457],[-121.82604,37.03638],[-121.76947,36.99795],[-121.70271,36.95231],[-121.6478,36.91414],[-121.5919,36.87596],[-121.529,36.83268],[-121.478,36.79764],[-121.43205,36.76613],[-121.3655,36.72013]]}
}
