{
  "id": 2048505713,
  "type": "Feature",
  "properties": {
    "geom:area": 0,
    "geom:bbox": "-122.363830,37.632030,-121.250880,38.358620",
    "geom:latitude": 38.02438346061724,
    "geom:longitude": -121.82584625122557,
    "src:alt_label": "swim-takeoff",
    "src:geom": "swim",
    "swim:elevations": [
      183,
      213,
      614,
      838,
      1035,
      1199,
      1488,
      1701,
      2034,
      2217,
      2800,
      2855,
      3237,
      3291,
      3474,
      3789,
      3940,
      4125,
      4350,
      4607,
      5022,
      5176,
      5394,
      5645,
      5751,
      6008,
      6058
    ],
    "swim:geom": "takeoff",
    "swim:timestamps": [
      1791028225,
      1791028230,
      1791028275,
      1791028308,
      1791028334,
      1791028366,
      1791028403,
      1791028421,
      1791028451,
      1791028470,
      1791028527,
      1791028531,
      1791028587,
      1791028596,
      1791028636,
      1791028676,
      1791028697,
      1791028722,
      1791028748,
      1791028775,
      1791028825,
      1791028855,
      1791028885,
      1791028918,
      1791028934,
      1791028973,
      1791028981
    ],
    "wof:geomhash": "113ec852ea2ce8da48d32f808b2a5bf4",
    "wof:id": 2048505713,
    "wof:repo": "sfomuseum-data-flights-2026-10"
  },
  "bbox": [
    -122.36383,
    37.63203,
    -121.25088,
    38.35862
  ],
  "geometry": {"type":"LineString","coordinates":[[-122.36383,37.63203],[-122.36156,37.63553],[-122.32436,37.65931],[-122.29125,37.67705],[-122.26382,37.69214],[-122.2254,37.71211],[-122.18705,37.7471],[-122.17037,37.7662],[-122.1412,37.79867],[-122.1225,37.81926],[-122.06399,37.88194],[-122.05924,37.88579],[-121.98161,37.9376],[-121.96895,37.94611],[-121.90683,37.9881],[-121.84065,38.03289],[-121.80379,38.05778],[-121.76026,38.08705],[-121.7148,38.1176],[-121.66674,38.14995],[-121.57847,38.20963],[-121.52444,38.24584],[-121.4659,38.28193],[-121.3933,38.30781],[-121.3565,38.32051],[-121.26879,38.35211],[-121.25088,38.35862]]}
}
