{
  "id": 2048511067,
  "type": "Feature",
  "properties": {
    "geom:area": 0,
    "geom:bbox": "-122.358850,37.491930,-121.258460,37.614030",
    "geom:latitude": 37.54657376843607,
    "geom:longitude": -121.81353095380932,
    "src:alt_label": "swim-approach",
    "src:geom": "swim",
    "swim:elevations": [
      4488,
      4191,
      4122,
      3892,
      3717,
      3559,
      3220,
      3047,
      2936,
      2742,
      2593,
      2554,
      2422,
      2285,
      2134,
      1890,
      1711,
      1652,
      1362,
      1209,
      1137,
      1034,
      984,
      839,
      656,
      505,
      415,
      308,
      182,
      92,
      0
    ],
    "swim:geom": "approach",
    "swim:timestamps": [
      1791126004,
      1791126056,
      1791126062,
      1791126104,
      1791126134,
      1791126152,
      1791126184,
      1791126217,
      1791126237,
      1791126265,
      1791126294,
      1791126310,
      1791126339,
      1791126362,
      1791126408,
      1791126447,
      1791126475,
      1791126484,
      1791126533,
      1791126563,
      1791126577,
      1791126598,
      1791126609,
      1791126640,
      1791126675,
      1791126700,
      1791126726,
      1791126746,
      1791126778,
      1791126797,
      1791126821
    ],
    "wof:geomhash": "940262198153ec9965c75c540a6ebe34",
    "wof:id": 2048511067,
    "wof:repo": "sfomuseum-data-flights-2026-10"
  },
  "bbox": [
    -122.35885,
    37.49193,
    -121.25846,
    37.61403
  ],
  "geometry": {"type":"LineString","coordinates":[[-121.25846,37.59325],[-121.36107,37.58166],[-121.37342,37.58022],[-121.44772,37.57143],[-121.49716,37.56558],[-121.52576,37.56234],[-121.57424,37.55667],[-121.62699,37.55001],[-121.65734,37.54316],[-121.70199,37.53247],[-121.74343,37.52249],[-121.76691,37.51701],[-121.80878,37.50681],[-121.84235,37.49867],[-121.91068,37.49193],[-121.96837,37.49329],[-122.009,37.50161],[-122.02138,37.50566],[-122.08383,37.52577],[-122.11699,37.53657],[-122.13227,37.54138],[-122.15335,37.54841],[-122.16408,37.5518],[-122.19691,37.56236],[-122.23302,37.57404],[-122.25838,37.58221],[-122.28166,37.58901],[-122.29973,37.59426],[-122.32643,37.60167],[-122.3417,37.60703],[-122.35885,37.61403]]}
}
