{
  "id": 2048510227,
  "type": "Feature",
  "properties": {
    "geom:area": 0,
    "geom:bbox": "-122.356330,37.471800,-121.307240,37.613100",
    "geom:latitude": 37.55151173930195,
    "geom:longitude": -121.8307537369802,
    "src:alt_label": "swim-approach",
    "src:geom": "swim",
    "swim:elevations": [
      4769,
      4521,
      4414,
      4191,
      4013,
      3974,
      3736,
      3585,
      3404,
      3325,
      3221,
      3041,
      2851,
      2798,
      2530,
      2507,
      2434,
      2440,
      2373,
      2219,
      2172,
      1856,
      1767,
      1624,
      1430,
      1163,
      1021,
      945,
      914,
      885,
      847,
      725,
      595,
      456,
      317,
      210,
      120,
      60,
      0
    ],
    "swim:geom": "approach",
    "swim:timestamps": [
      1791143848,
      1791143878,
      1791143894,
      1791143926,
      1791143956,
      1791143962,
      1791143996,
      1791144017,
      1791144042,
      1791144057,
      1791144075,
      1791144105,
      1791144148,
      1791144156,
      1791144208,
      1791144214,
      1791144237,
      1791144256,
      1791144288,
      1791144329,
      1791144335,
      1791144375,
      1791144405,
      1791144429,
      1791144457,
      1791144508,
      1791144538,
      1791144559,
      1791144589,
      1791144598,
      1791144603,
      1791144624,
      1791144648,
      1791144679,
      1791144712,
      1791144745,
      1791144770,
      1791144792,
      1791144799
    ],
    "wof:geomhash": "f3a430474aeee6867c9dfedc73fb8c8f",
    "wof:id": 2048510227,
    "wof:repo": "sfomuseum-data-flights-2026-10"
  },
  "bbox": [
    -122.35633,
    37.4718,
    -121.30724,
    37.6131
  ],
  "geometry": {"type":"LineString","coordinates":[[-121.30724,37.58739],[-121.36189,37.58139],[-121.39026,37.57818],[-121.4471,37.57152],[-121.49632,37.56582],[-121.5059,37.5647],[-121.55875,37.55856],[-121.59158,37.5547],[-121.62902,37.56011],[-121.64771,37.57272],[-121.66702,37.58785],[-121.70175,37.61236],[-121.76019,37.60742],[-121.76676,37.60021],[-121.78498,37.54398],[-121.78692,37.53726],[-121.79399,37.51255],[-121.80176,37.49212],[-121.83698,37.4718],[-121.8916,37.47933],[-121.89976,37.48065],[-121.9534,37.4891],[-121.98956,37.4954],[-122.01488,37.50356],[-122.04436,37.51306],[-122.09765,37.53043],[-122.12814,37.54023],[-122.14973,37.54721],[-122.18057,37.55726],[-122.18915,37.56013],[-122.19439,37.56186],[-122.21635,37.56886],[-122.24075,37.57677],[-122.26982,37.58584],[-122.29716,37.59366],[-122.32017,37.60044],[-122.33683,37.60559],[-122.35135,37.61109],[-122.35633,37.6131]]}
}
