{
  "id": 2048515307,
  "type": "Feature",
  "properties": {
    "date:inception_lower": "2026-10-04",
    "date:inception_upper": "2026-10-04",
    "edtf:cessation": "",
    "edtf:inception": "2026-10-04",
    "flysfo:actual_timestamp": -1,
    "flysfo:airline": "TG",
    "flysfo:base_airline": "",
    "flysfo:base_flight_number": "4508",
    "flysfo:date": "2026-10-04",
    "flysfo:estimated_timestamp": 1791142200,
    "flysfo:event": "D",
    "flysfo:flight_number": "TG6257",
    "flysfo:gate": "A9",
    "flysfo:journey": "SFO-TPE",
    "flysfo:scheduled_timestamp": 1791142200,
    "flysfo:timestamp": 1791142200,
    "geom:area": 0,
    "geom:bbox": "-122.370943,25.078566,121.233152,37.617990",
    "geom:latitude": 31.348278,
    "geom:longitude": -0.5688954999999964,
    "iata:airline": "TG",
    "iata:base_airline": "",
    "icao:airline": "THA",
    "icao:base_airline": "AVA",
    "lbl:latitude": 37.612893,
    "lbl:longitude": -122.389652,
    "sfomuseum:airline_id": 1159285639,
    "sfomuseum:arrival_id": 102551487,
    "sfomuseum:base_flight_id": "20261004-D-AVA-4508",
    "sfomuseum:departure_id": 102527513,
    "sfomuseum:flight_id": "20261004-D-THA-6257",
    "sfomuseum:flight_number": [
      "THA6257",
      "TG6257"
    ],
    "sfomuseum:placetype": "flight",
    "src:geom": "flysfo",
    "wof:belongsto": [
      1947304067,
      102527513,
      1947304073,
      102191575,
      85633793,
      102087579,
      85922583,
      554784711,
      85688637,
      1947304077,
      1947304069,
      102085387
    ],
    "wof:country": "US",
    "wof:created": 1791216964,
    "wof:geomhash": "ec4a8fe4d0e09d37ae50bf109072b003",
    "wof:hierarchy": [
      {
        "building_id": 1947304067,
        "campus_id": 102527513,
        "concourse_id": 1947304073,
        "continent_id": 102191575,
        "country_id": 85633793,
        "county_id": 102087579,
        "custom_id": 2048515307,
        "flight_id": 2048515307,
        "locality_id": 85922583,
        "postalcode_id": 554784711,
        "region_id": 85688637,
        "venue_id": 1947304077,
        "wing_id": 1947304069
      },
      {
        "building_id": 1947304067,
        "campus_id": 102527513,
        "concourse_id": 1947304073,
        "continent_id": 102191575,
        "country_id": 85633793,
        "county_id": 102085387,
        "custom_id": 2048515307,
        "flight_id": 2048515307,
        "region_id": 85688637,
        "venue_id": 1947304077,
        "wing_id": 1947304069
      }
    ],
    "wof:id": 2048515307,
    "wof:involves": [
      102551487,
      102527513,
      1159285639,
      1947304077,
      1159285749
    ],
    "wof:lastmodified": 1791216964,
    "wof:name": "TG6257 (SFO-TPE)",
    "wof:parent_id": 1947304077,
    "wof:placetype": "custom",
    "wof:placetype_alt": [
      "flight"
    ],
    "wof:repo": "sfomuseum-data-flights-2026-10",
    "wof:superseded_by": [],
    "wof:supersedes": []
  },
  "bbox": [
    -122.370943,
    25.078566,
    121.233152,
    37.61799
  ],
  "geometry": {"type":"MultiPoint","coordinates":[[-122.370943,37.61799],[121.233152,25.078566]]}
}
