{
  "id": 2048534317,
  "type": "Feature",
  "properties": {
    "geom:area": 0,
    "geom:bbox": "-122.352260,37.491540,-121.243010,37.611410",
    "geom:latitude": 37.5468030996487,
    "geom:longitude": -121.80241275023785,
    "src:alt_label": "swim-approach",
    "src:geom": "swim",
    "swim:elevations": [
      4493,
      3997,
      3789,
      3496,
      3211,
      3175,
      3041,
      2934,
      2900,
      2858,
      2569,
      2521,
      2209,
      2134,
      2024,
      1906,
      1831,
      1829,
      1565,
      1297,
      1093,
      973,
      922,
      883,
      730,
      546,
      452,
      347,
      208,
      88,
      53
    ],
    "swim:geom": "approach",
    "swim:timestamps": [
      1791410945,
      1791410998,
      1791411023,
      1791411054,
      1791411085,
      1791411098,
      1791411136,
      1791411166,
      1791411176,
      1791411190,
      1791411236,
      1791411241,
      1791411286,
      1791411318,
      1791411331,
      1791411343,
      1791411361,
      1791411395,
      1791411433,
      1791411465,
      1791411496,
      1791411517,
      1791411566,
      1791411587,
      1791411615,
      1791411658,
      1791411688,
      1791411712,
      1791411746,
      1791411778,
      1791411787
    ],
    "wof:geomhash": "4dfffd3b6434a58c4bc6185a8052067e",
    "wof:id": 2048534317,
    "wof:repo": "sfomuseum-data-flights-2026-10"
  },
  "bbox": [
    -122.35226,
    37.49154,
    -121.24301,
    37.61141
  ],
  "geometry": {"type":"LineString","coordinates":[[-121.24301,37.59571],[-121.3529,37.58257],[-121.40252,37.57688],[-121.46602,37.5695],[-121.53013,37.5621],[-121.55455,37.55914],[-121.62635,37.55018],[-121.67395,37.53914],[-121.68905,37.53553],[-121.71006,37.53057],[-121.77428,37.51519],[-121.78171,37.51342],[-121.84003,37.49938],[-121.88386,37.49154],[-121.90341,37.49165],[-121.92094,37.49214],[-121.94693,37.49293],[-121.98964,37.49595],[-122.03543,37.51022],[-122.07163,37.52203],[-122.10525,37.53249],[-122.12551,37.53889],[-122.16766,37.55301],[-122.18699,37.55907],[-122.21184,37.56722],[-122.24716,37.57873],[-122.27258,37.58665],[-122.29268,37.59232],[-122.32047,37.60063],[-122.34569,37.60885],[-122.35226,37.61141]]}
}
