{
  "id": 2048515557,
  "type": "Feature",
  "properties": {
    "geom:area": 0,
    "geom:bbox": "-122.360830,37.636670,-121.247810,37.986220",
    "geom:latitude": 37.870541192597905,
    "geom:longitude": -121.82169924107103,
    "src:alt_label": "swim-takeoff",
    "src:geom": "swim",
    "swim:elevations": [
      183,
      232,
      607,
      800,
      912,
      1135,
      1365,
      1632,
      2014,
      2294,
      2497,
      3039,
      3269,
      3355,
      3753,
      4068,
      4346,
      4677,
      4911,
      5049,
      5130,
      5409,
      5513,
      5883,
      5953
    ],
    "swim:geom": "takeoff",
    "swim:timestamps": [
      1791118488,
      1791118491,
      1791118521,
      1791118546,
      1791118561,
      1791118609,
      1791118647,
      1791118670,
      1791118704,
      1791118727,
      1791118743,
      1791118788,
      1791118828,
      1791118837,
      1791118880,
      1791118911,
      1791118938,
      1791118969,
      1791119003,
      1791119036,
      1791119054,
      1791119090,
      1791119104,
      1791119154,
      1791119168
    ],
    "wof:geomhash": "5cf975c78cbe865e57937c07a06ef61e",
    "wof:id": 2048515557,
    "wof:repo": "sfomuseum-data-flights-2026-10"
  },
  "bbox": [
    -122.36083,
    37.63667,
    -121.24781,
    37.98622
  ],
  "geometry": {"type":"LineString","coordinates":[[-122.36083,37.63667],[-122.35918,37.63873],[-122.33244,37.6542],[-122.31217,37.66548],[-122.29855,37.67296],[-122.25066,37.69958],[-122.20217,37.7239],[-122.17094,37.74012],[-122.12479,37.76422],[-122.09225,37.78048],[-122.0704,37.79191],[-122.00804,37.82547],[-121.94971,37.85662],[-121.93415,37.86498],[-121.86382,37.90241],[-121.81046,37.93052],[-121.7631,37.94961],[-121.69952,37.9552],[-121.63018,37.9594],[-121.55746,37.96391],[-121.51626,37.9665],[-121.43352,37.97166],[-121.40096,37.97362],[-121.28139,37.98323],[-121.24781,37.98622]]}
}
