{
  "id": 2048537237,
  "type": "Feature",
  "properties": {
    "date:inception_lower": "2026-10-07",
    "date:inception_upper": "2026-10-07",
    "edtf:cessation": "",
    "edtf:inception": "2026-10-07",
    "flysfo:actual_timestamp": -1,
    "flysfo:airline": "WN",
    "flysfo:date": "2026-10-07",
    "flysfo:estimated_timestamp": 1791393300,
    "flysfo:event": "A",
    "flysfo:flight_number": "WN1752",
    "flysfo:gate": "D1",
    "flysfo:journey": "PHX-SFO",
    "flysfo:scheduled_timestamp": 1791394200,
    "flysfo:timestamp": 1791394200,
    "geom:area": 0,
    "geom:bbox": "-122.370943,33.432684,-112.017392,37.617990",
    "geom:latitude": 35.525337,
    "geom:longitude": -117.19416749999999,
    "iata:airline": "WN",
    "icao:airline": "SWA",
    "lbl:latitude": 37.616987,
    "lbl:longitude": -122.382479,
    "sfomuseum:airline_id": 1159285591,
    "sfomuseum:arrival_id": 102527513,
    "sfomuseum:departure_id": 102526751,
    "sfomuseum:flight_id": "20261007-A-SWA-1752",
    "sfomuseum:flight_number": [
      "SWA1752",
      "WN1752"
    ],
    "sfomuseum:placetype": "flight",
    "src:geom": "flysfo",
    "wof:belongsto": [
      1947304067,
      102527513,
      1947304595,
      102191575,
      85633793,
      102087579,
      85922583,
      554784711,
      85688637,
      1947304625,
      1947304591,
      102085387
    ],
    "wof:country": "US",
    "wof:created": 1791475619,
    "wof:geomhash": "c9fdc5df38b6a105de4fe30ae6ada830",
    "wof:hierarchy": [
      {
        "building_id": 1947304067,
        "campus_id": 102527513,
        "concourse_id": 1947304595,
        "continent_id": 102191575,
        "country_id": 85633793,
        "county_id": 102087579,
        "custom_id": 2048537237,
        "flight_id": 2048537237,
        "locality_id": 85922583,
        "postalcode_id": 554784711,
        "region_id": 85688637,
        "venue_id": 1947304625,
        "wing_id": 1947304591
      },
      {
        "building_id": 1947304067,
        "campus_id": 102527513,
        "concourse_id": 1947304595,
        "continent_id": 102191575,
        "country_id": 85633793,
        "county_id": 102085387,
        "custom_id": 2048537237,
        "flight_id": 2048537237,
        "region_id": 85688637,
        "venue_id": 1947304625,
        "wing_id": 1947304591
      }
    ],
    "wof:id": 2048537237,
    "wof:involves": [
      102527513,
      102526751,
      1159285591,
      1947304625
    ],
    "wof:lastmodified": 1791475619,
    "wof:name": "WN1752 (PHX-SFO)",
    "wof:parent_id": 1947304625,
    "wof:placetype": "custom",
    "wof:placetype_alt": [
      "flight"
    ],
    "wof:repo": "sfomuseum-data-flights-2026-10",
    "wof:superseded_by": [],
    "wof:supersedes": []
  },
  "bbox": [
    -122.370943,
    33.432684,
    -112.017392,
    37.61799
  ],
  "geometry": {"type":"MultiPoint","coordinates":[[-112.017392,33.432684],[-122.370943,37.61799]]}
}
