{
  "id": 2048546189,
  "type": "Feature",
  "properties": {
    "geom:area": 0,
    "geom:bbox": "-122.358540,37.491330,-121.250400,37.614600",
    "geom:latitude": 37.546799617990786,
    "geom:longitude": -121.80949131141405,
    "src:alt_label": "swim-approach",
    "src:geom": "swim",
    "swim:elevations": [
      4703,
      4179,
      4049,
      3798,
      3494,
      3219,
      3137,
      3017,
      2858,
      2800,
      2685,
      2528,
      2440,
      2376,
      2149,
      2001,
      1925,
      1764,
      1561,
      1535,
      1486,
      1194,
      1132,
      945,
      789,
      702,
      643,
      603,
      517,
      449,
      275,
      197,
      0,
      0
    ],
    "swim:geom": "approach",
    "swim:timestamps": [
      1791497257,
      1791497305,
      1791497317,
      1791497341,
      1791497368,
      1791497392,
      1791497424,
      1791497453,
      1791497481,
      1791497491,
      1791497509,
      1791497530,
      1791497547,
      1791497561,
      1791497607,
      1791497636,
      1791497654,
      1791497689,
      1791497723,
      1791497727,
      1791497736,
      1791497783,
      1791497797,
      1791497833,
      1791497867,
      1791497889,
      1791497904,
      1791497913,
      1791497933,
      1791497952,
      1791497990,
      1791498014,
      1791498057,
      1791498061
    ],
    "wof:geomhash": "925289fcad4b2529d85b80a95902e310",
    "wof:id": 2048546189,
    "wof:repo": "sfomuseum-data-flights-2026-10"
  },
  "bbox": [
    -122.35854,
    37.49133,
    -121.2504,
    37.6146
  ],
  "geometry": {"type":"LineString","coordinates":[[-121.2504,37.59452],[-121.35268,37.58215],[-121.37842,37.5794],[-121.42985,37.57369],[-121.48773,37.56685],[-121.53784,37.56091],[-121.60018,37.55368],[-121.65139,37.54428],[-121.69885,37.53301],[-121.71527,37.52916],[-121.74309,37.52259],[-121.77598,37.51462],[-121.80206,37.50836],[-121.82233,37.5036],[-121.88706,37.49133],[-121.92718,37.4922],[-121.95351,37.4928],[-122.00153,37.49888],[-122.04602,37.51351],[-122.05107,37.51514],[-122.06236,37.5188],[-122.11943,37.53693],[-122.13481,37.54202],[-122.1713,37.5542],[-122.20213,37.56419],[-122.22053,37.57039],[-122.23387,37.57468],[-122.24211,37.57722],[-122.25872,37.58232],[-122.27415,37.58636],[-122.30508,37.59586],[-122.32372,37.60137],[-122.35607,37.61316],[-122.35854,37.6146]]}
}
