{
  "id": 2048533359,
  "type": "Feature",
  "properties": {
    "date:inception_lower": "2026-10-06",
    "date:inception_upper": "2026-10-06",
    "edtf:cessation": "",
    "edtf:inception": "2026-10-06",
    "flysfo:actual_timestamp": -1,
    "flysfo:airline": "UA",
    "flysfo:base_airline": "",
    "flysfo:base_flight_number": "4200",
    "flysfo:date": "2026-10-06",
    "flysfo:estimated_timestamp": 1791315000,
    "flysfo:event": "D",
    "flysfo:flight_number": "UA2365",
    "flysfo:gate": "E13",
    "flysfo:journey": "SFO-SAT",
    "flysfo:scheduled_timestamp": 1791314100,
    "flysfo:timestamp": 1791315000,
    "geom:area": 0,
    "geom:bbox": "-122.370943,29.534838,-98.472784,37.617990",
    "geom:latitude": 33.576414,
    "geom:longitude": -110.4218635,
    "iata:airline": "UA",
    "iata:base_airline": "",
    "icao:airline": "UAL",
    "icao:base_airline": "ACA",
    "lbl:latitude": 37.619425,
    "lbl:longitude": -122.384028,
    "sfomuseum:airline_id": 1159285413,
    "sfomuseum:arrival_id": 102527373,
    "sfomuseum:base_flight_id": "20261006-D-ACA-4200",
    "sfomuseum:departure_id": 102527513,
    "sfomuseum:flight_id": "20261006-D-UAL-2365",
    "sfomuseum:flight_number": [
      "UAL2365",
      "UA2365"
    ],
    "sfomuseum:placetype": "flight",
    "src:geom": "flysfo",
    "wof:belongsto": [
      1947304067,
      102527513,
      1947304511,
      102191575,
      85633793,
      102087579,
      85922583,
      554784711,
      85688637,
      1947304517,
      1947304447,
      102085387
    ],
    "wof:country": "US",
    "wof:created": 1791389705,
    "wof:geomhash": "3d1812cb234aac8b643ea0201167e576",
    "wof:hierarchy": [
      {
        "building_id": 1947304067,
        "campus_id": 102527513,
        "concourse_id": 1947304511,
        "continent_id": 102191575,
        "country_id": 85633793,
        "county_id": 102087579,
        "custom_id": 2048533359,
        "flight_id": 2048533359,
        "locality_id": 85922583,
        "postalcode_id": 554784711,
        "region_id": 85688637,
        "venue_id": 1947304517,
        "wing_id": 1947304447
      },
      {
        "building_id": 1947304067,
        "campus_id": 102527513,
        "concourse_id": 1947304511,
        "continent_id": 102191575,
        "country_id": 85633793,
        "county_id": 102085387,
        "custom_id": 2048533359,
        "flight_id": 2048533359,
        "region_id": 85688637,
        "venue_id": 1947304517,
        "wing_id": 1947304447
      }
    ],
    "wof:id": 2048533359,
    "wof:involves": [
      102527373,
      102527513,
      1159285413,
      1947304517,
      1159283597
    ],
    "wof:lastmodified": 1791389705,
    "wof:name": "UA2365 (SFO-SAT)",
    "wof:parent_id": 1947304517,
    "wof:placetype": "custom",
    "wof:placetype_alt": [
      "flight"
    ],
    "wof:repo": "sfomuseum-data-flights-2026-10",
    "wof:superseded_by": [],
    "wof:supersedes": []
  },
  "bbox": [
    -122.370943,
    29.534838,
    -98.472784,
    37.61799
  ],
  "geometry": {"type":"MultiPoint","coordinates":[[-122.370943,37.61799],[-98.472784,29.534838]]}
}
