{
  "id": 2048492291,
  "type": "Feature",
  "properties": {
    "geom:area": 0,
    "geom:bbox": "-122.357090,37.491970,-121.305520,37.613380",
    "geom:latitude": 37.54036263957624,
    "geom:longitude": -121.83803941767573,
    "src:alt_label": "swim-approach",
    "src:geom": "swim",
    "swim:elevations": [
      4488,
      4169,
      3943,
      3587,
      3364,
      3153,
      3106,
      2892,
      2695,
      2463,
      2262,
      2084,
      2045,
      1904,
      1827,
      1760,
      1608,
      1315,
      1157,
      988,
      863,
      722,
      665,
      570,
      479,
      303,
      221,
      96,
      28
    ],
    "swim:geom": "approach",
    "swim:timestamps": [
      1790985268,
      1790985298,
      1790985320,
      1790985353,
      1790985372,
      1790985416,
      1790985426,
      1790985453,
      1790985480,
      1790985511,
      1790985568,
      1790985595,
      1790985601,
      1790985628,
      1790985652,
      1790985682,
      1790985709,
      1790985748,
      1790985774,
      1790985804,
      1790985831,
      1790985860,
      1790985868,
      1790985891,
      1790985912,
      1790985954,
      1790985976,
      1790986012,
      1790986032
    ],
    "wof:geomhash": "f16ca44af1d0eed20a0d1983b81fc3f2",
    "wof:id": 2048492291,
    "wof:repo": "sfomuseum-data-flights-2026-10"
  },
  "bbox": [
    -122.35709,
    37.49197,
    -121.30552,
    37.61338
  ],
  "geometry": {"type":"LineString","coordinates":[[-121.30552,37.58737],[-121.36752,37.58053],[-121.41282,37.57534],[-121.47886,37.56771],[-121.51748,37.56325],[-121.60259,37.55333],[-121.62088,37.55094],[-121.66611,37.54056],[-121.7099,37.53019],[-121.76088,37.51804],[-121.84831,37.4972],[-121.88876,37.49197],[-121.89792,37.49246],[-121.93888,37.49473],[-121.97425,37.49662],[-122.01775,37.4991],[-122.0539,37.50115],[-122.10319,37.50733],[-122.13337,37.51925],[-122.16515,37.53273],[-122.1925,37.54425],[-122.22129,37.55637],[-122.22952,37.55984],[-122.25265,37.56961],[-122.27233,37.57793],[-122.30418,37.59133],[-122.31921,37.59757],[-122.34402,37.60803],[-122.35709,37.61338]]}
}
