{
  "id": 2048492625,
  "type": "Feature",
  "properties": {
    "geom:area": 0,
    "geom:bbox": "-122.350500,37.492300,-121.243070,37.610660",
    "geom:latitude": 37.54635544528451,
    "geom:longitude": -121.80146395768082,
    "src:alt_label": "swim-approach",
    "src:geom": "swim",
    "swim:elevations": [
      4793,
      4492,
      4397,
      3779,
      3691,
      3290,
      3204,
      2969,
      2743,
      2585,
      2534,
      2310,
      2193,
      2167,
      1935,
      1860,
      1621,
      1518,
      1335,
      1104,
      913,
      883,
      738,
      564,
      435,
      270,
      121,
      58
    ],
    "swim:geom": "approach",
    "swim:timestamps": [
      1790954783,
      1790954813,
      1790954822,
      1790954878,
      1790954887,
      1790954934,
      1790954955,
      1790954998,
      1790955025,
      1790955055,
      1790955067,
      1790955111,
      1790955128,
      1790955131,
      1790955172,
      1790955186,
      1790955230,
      1790955243,
      1790955284,
      1790955319,
      1790955358,
      1790955376,
      1790955404,
      1790955439,
      1790955467,
      1790955496,
      1790955535,
      1790955552
    ],
    "wof:geomhash": "0b727874bdad203a528c132b607cb5fd",
    "wof:id": 2048492625,
    "wof:repo": "sfomuseum-data-flights-2026-10"
  },
  "bbox": [
    -122.3505,
    37.4923,
    -121.24307,
    37.61066
  ],
  "geometry": {"type":"LineString","coordinates":[[-121.24307,37.59508],[-121.30566,37.58687],[-121.32337,37.58478],[-121.43856,37.57213],[-121.45704,37.57007],[-121.55012,37.55892],[-121.58964,37.55421],[-121.66475,37.54148],[-121.70937,37.53044],[-121.75707,37.51865],[-121.7755,37.51427],[-121.83928,37.49928],[-121.86336,37.49357],[-121.86868,37.49232],[-121.92904,37.4923],[-121.94999,37.49282],[-122.01165,37.50214],[-122.03018,37.50852],[-122.08633,37.52661],[-122.12966,37.54069],[-122.17233,37.55461],[-122.19051,37.5605],[-122.21938,37.5698],[-122.25556,37.58121],[-122.28388,37.58962],[-122.30925,37.59717],[-122.33824,37.60606],[-122.3505,37.61066]]}
}
