{
  "id": 2048552295,
  "type": "Feature",
  "properties": {
    "geom:area": 0,
    "geom:bbox": "-122.360970,36.729940,-121.884270,37.616410",
    "geom:latitude": 37.22184610692764,
    "geom:longitude": -122.14095179425425,
    "src:alt_label": "swim-approach",
    "src:geom": "swim",
    "swim:elevations": [
      5338,
      5202,
      4786,
      4677,
      4380,
      4139,
      3851,
      3658,
      3536,
      3302,
      3178,
      3077,
      3071,
      2902,
      2805,
      2469,
      2351,
      2303,
      2205,
      2001,
      1850,
      1829,
      1829,
      1829,
      1658,
      1374,
      1230,
      1219,
      1219,
      911,
      882,
      917,
      915,
      849,
      598,
      404,
      203,
      104,
      0
    ],
    "swim:geom": "approach",
    "swim:timestamps": [
      1791553483,
      1791553503,
      1791553556,
      1791553568,
      1791553605,
      1791553636,
      1791553672,
      1791553698,
      1791553711,
      1791553749,
      1791553772,
      1791553808,
      1791553834,
      1791553880,
      1791553894,
      1791553946,
      1791553976,
      1791553983,
      1791554000,
      1791554026,
      1791554048,
      1791554096,
      1791554106,
      1791554149,
      1791554174,
      1791554216,
      1791554239,
      1791554269,
      1791554281,
      1791554336,
      1791554356,
      1791554395,
      1791554411,
      1791554432,
      1791554479,
      1791554521,
      1791554571,
      1791554592,
      1791554624
    ],
    "wof:geomhash": "8cbce24f0858e08d02f2ed75107a7519",
    "wof:id": 2048552295,
    "wof:repo": "sfomuseum-data-flights-2026-10"
  },
  "bbox": [
    -122.36097,
    36.72994,
    -121.88427,
    37.61641
  ],
  "geometry": {"type":"LineString","coordinates":[[-121.88427,36.72994],[-121.89856,36.75914],[-121.92174,36.84023],[-121.92691,36.8587],[-121.94221,36.91297],[-121.95618,36.95998],[-121.97607,37.01104],[-121.99292,37.04658],[-122.00892,37.06011],[-122.06613,37.09141],[-122.09902,37.10921],[-122.15045,37.13686],[-122.18486,37.15482],[-122.24705,37.17695],[-122.26528,37.18304],[-122.31938,37.21987],[-122.33092,37.24921],[-122.33333,37.25533],[-122.33976,37.27156],[-122.33309,37.29364],[-122.31026,37.30205],[-122.26062,37.31831],[-122.25175,37.3236],[-122.2132,37.34846],[-122.20197,37.36877],[-122.18291,37.40353],[-122.17266,37.42229],[-122.15951,37.44614],[-122.15415,37.45564],[-122.12926,37.50065],[-122.134,37.51603],[-122.16313,37.54155],[-122.17476,37.55228],[-122.1936,37.5614],[-122.24173,37.57703],[-122.28043,37.58858],[-122.32156,37.60084],[-122.33825,37.60584],[-122.36097,37.61641]]}
}
