{
  "id": 2048503433,
  "type": "Feature",
  "properties": {
    "geom:area": 0,
    "geom:bbox": "-122.761180,37.386120,-122.125240,38.512880",
    "geom:latitude": 37.80748311516254,
    "geom:longitude": -122.48047967953016,
    "src:alt_label": "swim-approach",
    "src:geom": "swim",
    "swim:elevations": [
      7315,
      7315,
      7315,
      7277,
      7007,
      6551,
      6176,
      6036,
      5494,
      5258,
      4965,
      4739,
      4328,
      3943,
      3608,
      3502,
      3378,
      3353,
      3353,
      3353,
      3353,
      3282,
      3238,
      3126,
      3046,
      2885,
      2666,
      2496,
      2287,
      2193,
      2060,
      1841,
      1829,
      1619,
      1608,
      1404,
      971,
      741,
      663,
      491,
      332,
      228,
      60,
      29
    ],
    "swim:geom": "approach",
    "swim:timestamps": [
      1791028775,
      1791028818,
      1791028855,
      1791028869,
      1791028895,
      1791028934,
      1791028968,
      1791028981,
      1791029029,
      1791029053,
      1791029079,
      1791029103,
      1791029142,
      1791029180,
      1791029215,
      1791029227,
      1791029260,
      1791029307,
      1791029316,
      1791029357,
      1791029371,
      1791029423,
      1791029430,
      1791029451,
      1791029464,
      1791029497,
      1791029537,
      1791029561,
      1791029601,
      1791029616,
      1791029640,
      1791029681,
      1791029708,
      1791029758,
      1791029761,
      1791029800,
      1791029865,
      1791029897,
      1791029916,
      1791029947,
      1791029996,
      1791030020,
      1791030058,
      1791030068
    ],
    "wof:geomhash": "5ec03dd0999271970a60b13fb028f5b2",
    "wof:id": 2048503433,
    "wof:repo": "sfomuseum-data-flights-2026-10"
  },
  "bbox": [
    -122.76118,
    37.38612,
    -122.12524,
    38.51288
  ],
  "geometry": {"type":"LineString","coordinates":[[-122.66906,38.51288],[-122.6941,38.43996],[-122.71626,38.37532],[-122.72456,38.35097],[-122.73972,38.30628],[-122.76118,38.23669],[-122.75335,38.17745],[-122.74689,38.15472],[-122.72336,38.07246],[-122.71185,38.03227],[-122.69925,37.98902],[-122.68763,37.94979],[-122.66074,37.88931],[-122.61109,37.84119],[-122.56744,37.79961],[-122.5517,37.78465],[-122.5121,37.74744],[-122.45976,37.69796],[-122.4504,37.68924],[-122.41117,37.65229],[-122.3982,37.64015],[-122.35747,37.59029],[-122.3531,37.58317],[-122.33999,37.5616],[-122.33201,37.54834],[-122.31181,37.51531],[-122.29402,37.47439],[-122.3059,37.44994],[-122.32152,37.40874],[-122.31156,37.39431],[-122.28279,37.38612],[-122.22771,37.39246],[-122.19034,37.39666],[-122.14644,37.43261],[-122.14472,37.43583],[-122.12524,37.47596],[-122.16845,37.52976],[-122.20344,37.54633],[-122.22375,37.55512],[-122.25491,37.56824],[-122.29872,37.58739],[-122.3176,37.59642],[-122.34733,37.60936],[-122.35516,37.61269]]}
}
