{
  "id": 2048528017,
  "type": "Feature",
  "properties": {
    "geom:area": 0,
    "geom:bbox": "-122.755470,37.447090,-122.169610,38.506060",
    "geom:latitude": 37.91227597239486,
    "geom:longitude": -122.48938246878372,
    "src:alt_label": "swim-approach",
    "src:geom": "swim",
    "swim:elevations": [
      7833,
      7701,
      7437,
      7365,
      7107,
      6840,
      6753,
      6461,
      6192,
      6036,
      5711,
      5506,
      5137,
      4699,
      4414,
      4183,
      4006,
      3658,
      3442,
      3381,
      3353,
      3305,
      2986,
      2747,
      2639,
      2282,
      1981,
      1717,
      1553,
      1523,
      1524,
      1248,
      1187,
      992,
      905,
      876,
      605,
      514,
      429,
      301,
      199,
      74
    ],
    "swim:geom": "approach",
    "swim:timestamps": [
      1791287201,
      1791287224,
      1791287275,
      1791287288,
      1791287323,
      1791287344,
      1791287351,
      1791287373,
      1791287416,
      1791287435,
      1791287468,
      1791287490,
      1791287526,
      1791287572,
      1791287597,
      1791287622,
      1791287642,
      1791287681,
      1791287709,
      1791287730,
      1791287786,
      1791287812,
      1791287848,
      1791287872,
      1791287884,
      1791287916,
      1791287947,
      1791287976,
      1791288011,
      1791288035,
      1791288068,
      1791288114,
      1791288127,
      1791288161,
      1791288177,
      1791288187,
      1791288232,
      1791288251,
      1791288276,
      1791288307,
      1791288334,
      1791288365
    ],
    "wof:geomhash": "8d4b8e18fc10f68647d46b7fb7a9e32a",
    "wof:id": 2048528017,
    "wof:repo": "sfomuseum-data-flights-2026-10"
  },
  "bbox": [
    -122.75547,
    37.44709,
    -122.16961,
    38.50606
  ],
  "geometry": {"type":"LineString","coordinates":[[-122.35447,38.50606],[-122.40052,38.47465],[-122.49671,38.40844],[-122.52129,38.39184],[-122.58834,38.34666],[-122.62759,38.31996],[-122.64051,38.31112],[-122.68104,38.28334],[-122.74826,38.22451],[-122.75547,38.19227],[-122.7412,38.13528],[-122.73101,38.0992],[-122.71325,38.03799],[-122.69144,37.96277],[-122.67982,37.92319],[-122.65734,37.88554],[-122.63168,37.86036],[-122.58221,37.81341],[-122.54582,37.77909],[-122.52024,37.75518],[-122.45599,37.69447],[-122.4269,37.66711],[-122.38648,37.62912],[-122.36182,37.6033],[-122.35306,37.58966],[-122.33339,37.5497],[-122.31037,37.51229],[-122.288,37.47948],[-122.24096,37.45852],[-122.21116,37.44709],[-122.1764,37.45385],[-122.16961,37.49303],[-122.17388,37.50383],[-122.18409,37.52964],[-122.19099,37.53999],[-122.19795,37.54383],[-122.23535,37.55999],[-122.25139,37.56679],[-122.27282,37.57583],[-122.29873,37.5867],[-122.3221,37.59649],[-122.34653,37.60671]]}
}
