{
  "id": 2048481227,
  "type": "Feature",
  "properties": {
    "geom:area": 0,
    "geom:bbox": "-122.359470,37.491640,-121.298710,37.614390",
    "geom:latitude": 37.54463919215462,
    "geom:longitude": -121.83387875965761,
    "src:alt_label": "swim-approach",
    "src:geom": "swim",
    "swim:elevations": [
      4299,
      3937,
      3842,
      3184,
      3137,
      2849,
      2809,
      2560,
      2494,
      2319,
      2191,
      2041,
      1936,
      1808,
      1630,
      1305,
      1013,
      970,
      823,
      668,
      488,
      425,
      272,
      196,
      36,
      114
    ],
    "swim:geom": "approach",
    "swim:timestamps": [
      1790853253,
      1790853290,
      1790853301,
      1790853384,
      1790853399,
      1790853441,
      1790853455,
      1790853507,
      1790853519,
      1790853555,
      1790853578,
      1790853609,
      1790853639,
      1790853677,
      1790853698,
      1790853738,
      1790853774,
      1790853784,
      1790853834,
      1790853856,
      1790853897,
      1790853914,
      1790853950,
      1790853974,
      1790854014,
      1790854022
    ],
    "wof:geomhash": "772264e37c2375a22cbeb5fe0387f63b",
    "wof:id": 2048481227,
    "wof:repo": "sfomuseum-data-flights-2026-10"
  },
  "bbox": [
    -122.35947,
    37.49164,
    -121.29871,
    37.61439
  ],
  "geometry": {"type":"LineString","coordinates":[[-121.29871,37.58793],[-121.37571,37.57943],[-121.39597,37.57716],[-121.55916,37.55817],[-121.58623,37.55503],[-121.65811,37.54251],[-121.68002,37.53734],[-121.76031,37.5184],[-121.77789,37.51419],[-121.82851,37.502],[-121.86282,37.49385],[-121.90961,37.49164],[-121.95187,37.49299],[-122.00205,37.49966],[-122.02849,37.50795],[-122.07953,37.52445],[-122.12442,37.53901],[-122.1369,37.54306],[-122.19409,37.56161],[-122.21878,37.56957],[-122.2619,37.58335],[-122.27832,37.58728],[-122.30839,37.59472],[-122.32521,37.60049],[-122.35297,37.61177],[-122.35947,37.61439]]}
}
