{
  "id": 2048485841,
  "type": "Feature",
  "properties": {
    "date:cessation_lower": "1970-01-01",
    "date:cessation_upper": "1970-01-01",
    "date:inception_lower": "2026-10-01",
    "date:inception_upper": "2026-10-01",
    "edtf:cessation": "1970-01-01T00:00:00Z",
    "edtf:inception": "2026-10-01T00:00:20-07:00",
    "flysfo:actual_timestamp": -1,
    "flysfo:airline": "AA",
    "flysfo:date": "2026-10-01",
    "flysfo:estimated_timestamp": 1790860320,
    "flysfo:event": "D",
    "flysfo:flight_number": "AA3082",
    "flysfo:gate": "B16",
    "flysfo:journey": "SFO-CLT",
    "flysfo:scheduled_timestamp": 1790860320,
    "flysfo:timestamp": 1790860320,
    "geom:area": 0,
    "geom:bbox": "-122.370943,35.220744,-80.942777,37.617990",
    "geom:latitude": 36.419367,
    "geom:longitude": -101.65686,
    "iata:airline": "AA",
    "icao:aircraft": "A321",
    "icao:airline": "AAL",
    "lbl:latitude": 37.61799,
    "lbl:longitude": -122.370943,
    "sfomuseum:aircraft_id": 1159289411,
    "sfomuseum:airline_id": 1159283849,
    "sfomuseum:arrival_id": 102528659,
    "sfomuseum:departure_id": 102527513,
    "sfomuseum:flight_id": "20261001-D-AAL-3082",
    "sfomuseum:flight_number": [
      "AAL3082",
      "AA3082"
    ],
    "sfomuseum:placetype": "flight",
    "src:geom": "flysfo",
    "src:geom_alt": [
      "swim-takeoff"
    ],
    "swim:tail_number": "N121AN",
    "wof:belongsto": [
      1947304067,
      102527513,
      1947304261,
      102191575,
      85633793,
      102087579,
      85922583,
      554784711,
      85688637,
      1947304265,
      1947304259,
      102085387
    ],
    "wof:country": "US",
    "wof:created": 1790957403,
    "wof:geomhash": "6d7202e034534315a50103622977ef57",
    "wof:hierarchy": [
      {
        "building_id": 1947304067,
        "campus_id": 102527513,
        "concourse_id": 1947304261,
        "continent_id": 102191575,
        "country_id": 85633793,
        "county_id": 102087579,
        "custom_id": 2048485841,
        "flight_id": 2048485841,
        "locality_id": 85922583,
        "postalcode_id": 554784711,
        "region_id": 85688637,
        "venue_id": 1947304265,
        "wing_id": 1947304259
      },
      {
        "building_id": 1947304067,
        "campus_id": 102527513,
        "concourse_id": 1947304261,
        "continent_id": 102191575,
        "country_id": 85633793,
        "county_id": 102085387,
        "custom_id": 2048485841,
        "flight_id": 2048485841,
        "region_id": 85688637,
        "venue_id": 1947304265,
        "wing_id": 1947304259
      }
    ],
    "wof:id": 2048485841,
    "wof:involves": [
      1947304265,
      1159289411,
      102528659,
      102527513,
      1159283849
    ],
    "wof:lastmodified": 1790957932,
    "wof:name": "AA3082 (SFO-CLT)",
    "wof:parent_id": 1947304265,
    "wof:placetype": "custom",
    "wof:placetype_alt": [
      "flight"
    ],
    "wof:repo": "sfomuseum-data-flights-2026-10",
    "wof:superseded_by": [],
    "wof:supersedes": []
  },
  "bbox": [
    -122.370943,
    35.220744,
    -80.942777,
    37.61799
  ],
  "geometry": {"type":"MultiPoint","coordinates":[[-122.370943,37.61799],[-80.942777,35.220744]]}
}
