{
  "id": 2048481287,
  "type": "Feature",
  "properties": {
    "geom:area": 0,
    "geom:bbox": "-122.361580,37.477270,-121.253150,37.615360",
    "geom:latitude": 37.54362047746349,
    "geom:longitude": -121.81194750676558,
    "src:alt_label": "swim-approach",
    "src:geom": "swim",
    "swim:elevations": [
      4582,
      4200,
      3922,
      3617,
      3354,
      3326,
      3111,
      2979,
      2813,
      2663,
      2465,
      2367,
      2167,
      2133,
      2052,
      1826,
      1753,
      1630,
      1304,
      1150,
      1003,
      914,
      914,
      713,
      548,
      516,
      292,
      259,
      189,
      127,
      0
    ],
    "swim:geom": "approach",
    "swim:timestamps": [
      1790879434,
      1790879474,
      1790879505,
      1790879541,
      1790879575,
      1790879580,
      1790879633,
      1790879665,
      1790879686,
      1790879701,
      1790879727,
      1790879756,
      1790879784,
      1790879818,
      1790879842,
      1790879873,
      1790879908,
      1790879925,
      1790879964,
      1790879993,
      1790880022,
      1790880045,
      1790880072,
      1790880102,
      1790880144,
      1790880154,
      1790880202,
      1790880216,
      1790880233,
      1790880250,
      1790880286
    ],
    "wof:geomhash": "cb7474190b91eaf247118e1262882272",
    "wof:id": 2048481287,
    "wof:repo": "sfomuseum-data-flights-2026-10"
  },
  "bbox": [
    -122.36158,
    37.47727,
    -121.25315,
    37.61536
  ],
  "geometry": {"type":"LineString","coordinates":[[-121.25315,37.5941],[-121.33515,37.58425],[-121.39595,37.57739],[-121.4653,37.56942],[-121.5325,37.56156],[-121.54149,37.56052],[-121.63509,37.54834],[-121.685,37.53623],[-121.71702,37.52882],[-121.73999,37.52207],[-121.76848,37.50138],[-121.80014,37.47914],[-121.83852,37.47727],[-121.88551,37.48253],[-121.91875,37.48632],[-121.9603,37.49105],[-122.00245,37.49937],[-122.02181,37.50578],[-122.06685,37.52037],[-122.09805,37.53051],[-122.12901,37.54053],[-122.15182,37.54795],[-122.17922,37.55674],[-122.20958,37.56671],[-122.25176,37.58023],[-122.26093,37.58324],[-122.30039,37.59462],[-122.31149,37.59774],[-122.32399,37.60107],[-122.33686,37.60515],[-122.36158,37.61536]]}
}
