{
  "id": 2048501505,
  "type": "Feature",
  "properties": {
    "geom:area": 0,
    "geom:bbox": "-122.359010,37.492050,-121.273530,37.615040",
    "geom:latitude": 37.54572909992546,
    "geom:longitude": -121.82120090427124,
    "src:alt_label": "swim-approach",
    "src:geom": "swim",
    "swim:elevations": [
      4455,
      4214,
      3772,
      3667,
      3437,
      3277,
      3218,
      2954,
      2865,
      2626,
      2497,
      2386,
      2170,
      2016,
      1881,
      1827,
      1631,
      1421,
      1195,
      1116,
      1051,
      968,
      927,
      862,
      724,
      635,
      470,
      396,
      278,
      122,
      0
    ],
    "swim:geom": "approach",
    "swim:timestamps": [
      1791070698,
      1791070722,
      1791070767,
      1791070779,
      1791070803,
      1791070821,
      1791070837,
      1791070888,
      1791070900,
      1791070933,
      1791070969,
      1791070990,
      1791071020,
      1791071051,
      1791071077,
      1791071089,
      1791071125,
      1791071150,
      1791071177,
      1791071193,
      1791071207,
      1791071224,
      1791071250,
      1791071268,
      1791071299,
      1791071319,
      1791071355,
      1791071375,
      1791071405,
      1791071446,
      1791071475
    ],
    "wof:geomhash": "9da8eb49a37579376b294ae66b45119b",
    "wof:id": 2048501505,
    "wof:repo": "sfomuseum-data-flights-2026-10"
  },
  "bbox": [
    -122.35901,
    37.49205,
    -121.27353,
    37.61504
  ],
  "geometry": {"type":"LineString","coordinates":[[-121.27353,37.59127],[-121.32339,37.58493],[-121.41997,37.57411],[-121.44454,37.57146],[-121.49513,37.56579],[-121.53236,37.56158],[-121.56508,37.55768],[-121.65548,37.54354],[-121.67527,37.53865],[-121.72922,37.52572],[-121.78709,37.51199],[-121.81865,37.50428],[-121.86359,37.49358],[-121.91012,37.49205],[-121.95033,37.49285],[-121.96826,37.49333],[-122.01744,37.50453],[-122.05027,37.51511],[-122.08502,37.52634],[-122.10361,37.53236],[-122.1203,37.53779],[-122.1408,37.54439],[-122.17109,37.55414],[-122.1914,37.56074],[-122.2223,37.57072],[-122.24099,37.57676],[-122.27044,37.58588],[-122.28625,37.59044],[-122.30866,37.59711],[-122.33888,37.60616],[-122.35901,37.61504]]}
}
