{
  "id": 2048546409,
  "type": "Feature",
  "properties": {
    "geom:area": 0,
    "geom:bbox": "-122.356060,37.492270,-121.276100,37.613050",
    "geom:latitude": 37.54565245889188,
    "geom:longitude": -121.82081510829074,
    "src:alt_label": "swim-approach",
    "src:geom": "swim",
    "swim:elevations": [
      4397,
      4162,
      3791,
      3568,
      3354,
      3110,
      3094,
      2819,
      2650,
      2652,
      2591,
      2344,
      2231,
      1980,
      1969,
      1785,
      1537,
      1403,
      1222,
      1124,
      956,
      833,
      698,
      500,
      411,
      273,
      213,
      0
    ],
    "swim:geom": "approach",
    "swim:timestamps": [
      1791470804,
      1791470829,
      1791470869,
      1791470894,
      1791470918,
      1791470968,
      1791470972,
      1791471015,
      1791471043,
      1791471046,
      1791471074,
      1791471108,
      1791471124,
      1791471176,
      1791471180,
      1791471217,
      1791471252,
      1791471286,
      1791471317,
      1791471334,
      1791471371,
      1791471400,
      1791471429,
      1791471477,
      1791471495,
      1791471529,
      1791471542,
      1791471589
    ],
    "wof:geomhash": "fdd7cc4bac718500b24762a80d685165",
    "wof:id": 2048546409,
    "wof:repo": "sfomuseum-data-flights-2026-10"
  },
  "bbox": [
    -122.35606,
    37.49227,
    -121.2761,
    37.61305
  ],
  "geometry": {"type":"LineString","coordinates":[[-121.2761,37.59104],[-121.32667,37.58539],[-121.40892,37.57598],[-121.45874,37.57018],[-121.50725,37.56457],[-121.60243,37.55339],[-121.60953,37.5526],[-121.68323,37.5368],[-121.72881,37.526],[-121.73371,37.52482],[-121.77778,37.51416],[-121.82791,37.50219],[-121.85108,37.49666],[-121.93114,37.49227],[-121.93612,37.4924],[-121.99281,37.49668],[-122.04124,37.51187],[-122.08254,37.52529],[-122.11613,37.53638],[-122.13432,37.54222],[-122.16909,37.55337],[-122.19471,37.56167],[-122.22045,37.57018],[-122.26362,37.58393],[-122.27947,37.58842],[-122.31003,37.59726],[-122.32094,37.60055],[-122.35606,37.61305]]}
}
