{
  "id": 2048551345,
  "type": "Feature",
  "properties": {
    "geom:area": 0,
    "geom:bbox": "-122.360500,37.635890,-121.255570,37.963810",
    "geom:latitude": 37.83891287483634,
    "geom:longitude": -121.82189326946676,
    "src:alt_label": "swim-takeoff",
    "src:geom": "swim",
    "swim:elevations": [
      183,
      282,
      902,
      1024,
      1329,
      1443,
      1986,
      2324,
      2750,
      3171,
      3177,
      3273,
      3593,
      3824,
      4237,
      4844,
      5103,
      5234,
      5316,
      5722,
      5866,
      6082,
      6194,
      6389,
      6477,
      6752
    ],
    "swim:geom": "takeoff",
    "swim:timestamps": [
      1791481287,
      1791481295,
      1791481345,
      1791481358,
      1791481406,
      1791481419,
      1791481466,
      1791481490,
      1791481521,
      1791481558,
      1791481561,
      1791481572,
      1791481611,
      1791481630,
      1791481660,
      1791481706,
      1791481735,
      1791481759,
      1791481771,
      1791481809,
      1791481825,
      1791481852,
      1791481863,
      1791481887,
      1791481896,
      1791481928
    ],
    "wof:geomhash": "50ba67c359577d09c30e303a01c6ffd7",
    "wof:id": 2048551345,
    "wof:repo": "sfomuseum-data-flights-2026-10"
  },
  "bbox": [
    -122.3605,
    37.63589,
    -121.25557,
    37.96381
  ],
  "geometry": {"type":"LineString","coordinates":[[-122.3605,37.63589],[-122.35548,37.64124],[-122.31059,37.66576],[-122.299,37.67235],[-122.24871,37.70006],[-122.23322,37.70799],[-122.16962,37.74081],[-122.13716,37.75763],[-122.09318,37.78046],[-122.03973,37.80793],[-122.0348,37.81045],[-122.01721,37.81866],[-121.94563,37.83695],[-121.90704,37.84406],[-121.84754,37.85555],[-121.75564,37.87261],[-121.69688,37.88323],[-121.64617,37.89254],[-121.61973,37.89738],[-121.53446,37.91303],[-121.49848,37.91962],[-121.43558,37.93119],[-121.40932,37.93597],[-121.35296,37.94624],[-121.33193,37.95],[-121.25557,37.96381]]}
}
