{
  "id": 2048520317,
  "type": "Feature",
  "properties": {
    "geom:area": 0,
    "geom:bbox": "-122.358850,37.491560,-121.287180,37.614290",
    "geom:latitude": 37.545396650859,
    "geom:longitude": -121.82779212405987,
    "src:alt_label": "swim-approach",
    "src:geom": "swim",
    "swim:elevations": [
      4514,
      4233,
      3969,
      3792,
      3386,
      3168,
      3074,
      3020,
      2818,
      2595,
      2498,
      2340,
      2277,
      2030,
      1949,
      1753,
      1638,
      1306,
      1159,
      1154,
      986,
      861,
      744,
      543,
      460,
      243,
      152,
      0
    ],
    "swim:geom": "approach",
    "swim:timestamps": [
      1791194814,
      1791194842,
      1791194870,
      1791194887,
      1791194930,
      1791194967,
      1791194992,
      1791195016,
      1791195040,
      1791195062,
      1791195082,
      1791195117,
      1791195130,
      1791195173,
      1791195192,
      1791195238,
      1791195249,
      1791195294,
      1791195327,
      1791195330,
      1791195375,
      1791195405,
      1791195428,
      1791195467,
      1791195488,
      1791195537,
      1791195555,
      1791195595
    ],
    "wof:geomhash": "c432796625ed5818fac0bd3bb0ec7666",
    "wof:id": 2048520317,
    "wof:repo": "sfomuseum-data-flights-2026-10"
  },
  "bbox": [
    -122.35885,
    37.49156,
    -121.28718,
    37.61429
  ],
  "geometry": {"type":"LineString","coordinates":[[-121.28718,37.5895],[-121.34384,37.58322],[-121.39922,37.57715],[-121.43375,37.57321],[-121.51769,37.5634],[-121.58768,37.55516],[-121.6334,37.5483],[-121.67264,37.53951],[-121.71034,37.53053],[-121.74538,37.52199],[-121.77731,37.51431],[-121.82745,37.50229],[-121.84563,37.49802],[-121.90927,37.49156],[-121.93712,37.49231],[-121.9987,37.49828],[-122.01365,37.50297],[-122.0694,37.52106],[-122.10604,37.5332],[-122.10928,37.53425],[-122.1567,37.54961],[-122.18875,37.55995],[-122.21267,37.56757],[-122.25322,37.58061],[-122.2745,37.58719],[-122.31689,37.59941],[-122.33081,37.60349],[-122.35885,37.61429]]}
}
