{
  "id": 2048514735,
  "type": "Feature",
  "properties": {
    "geom:area": 0,
    "geom:bbox": "-122.386110,37.644620,-121.294620,37.986130",
    "geom:latitude": 37.92598318306112,
    "geom:longitude": -121.95598547397593,
    "src:alt_label": "swim-takeoff",
    "src:geom": "swim",
    "swim:elevations": [
      441,
      611,
      681,
      761,
      904,
      1350,
      1723,
      2021,
      2128,
      2382,
      2511,
      2725,
      3203,
      3328,
      3634,
      3731,
      4016,
      4136,
      4330,
      4539,
      4636,
      5026,
      5219,
      5395,
      5732,
      5961,
      6047,
      6293,
      6431
    ],
    "swim:geom": "takeoff",
    "swim:timestamps": [
      1791156537,
      1791156566,
      1791156584,
      1791156609,
      1791156639,
      1791156680,
      1791156716,
      1791156743,
      1791156752,
      1791156776,
      1791156788,
      1791156815,
      1791156860,
      1791156875,
      1791156926,
      1791156941,
      1791156981,
      1791156996,
      1791157017,
      1791157042,
      1791157055,
      1791157102,
      1791157129,
      1791157150,
      1791157196,
      1791157225,
      1791157235,
      1791157277,
      1791157296
    ],
    "wof:geomhash": "59531bb280f6221b66c97424c9073a4e",
    "wof:id": 2048514735,
    "wof:repo": "sfomuseum-data-flights-2026-10"
  },
  "bbox": [
    -122.38611,
    37.64462,
    -121.29462,
    37.98613
  ],
  "geometry": {"type":"LineString","coordinates":[[-122.35256,37.64462],[-122.3311,37.66231],[-122.31644,37.67453],[-122.30945,37.69816],[-122.32565,37.73087],[-122.35179,37.77732],[-122.37348,37.81961],[-122.38611,37.85279],[-122.38542,37.86449],[-122.38377,37.89592],[-122.38301,37.91179],[-122.36251,37.94401],[-122.28791,37.95659],[-122.26142,37.95735],[-122.16478,37.95948],[-122.13527,37.96037],[-122.04895,37.9633],[-122.01594,37.9645],[-121.96936,37.96603],[-121.9129,37.96772],[-121.88534,37.96859],[-121.77486,37.97219],[-121.71074,37.97426],[-121.66008,37.97589],[-121.54821,37.9792],[-121.47531,37.98125],[-121.45125,37.98188],[-121.34503,37.98481],[-121.29462,37.98613]]}
}
