{
  "id": 2048509661,
  "type": "Feature",
  "properties": {
    "geom:area": 0,
    "geom:bbox": "-122.754750,37.429510,-122.121430,38.511930",
    "geom:latitude": 37.86888123440751,
    "geom:longitude": -122.48187014645004,
    "src:alt_label": "swim-approach",
    "src:geom": "swim",
    "swim:elevations": [
      7315,
      7315,
      7315,
      7315,
      7247,
      7077,
      7005,
      6863,
      6629,
      6169,
      6125,
      5871,
      5671,
      5429,
      5017,
      4727,
      4377,
      4038,
      3669,
      3441,
      3350,
      3353,
      3353,
      3261,
      3140,
      2845,
      2671,
      2144,
      1540,
      1249,
      1220,
      1059,
      955,
      859,
      671,
      577,
      394,
      241,
      151,
      115,
      43
    ],
    "swim:geom": "approach",
    "swim:timestamps": [
      1791114405,
      1791114425,
      1791114457,
      1791114501,
      1791114531,
      1791114565,
      1791114581,
      1791114610,
      1791114637,
      1791114686,
      1791114691,
      1791114717,
      1791114737,
      1791114758,
      1791114797,
      1791114824,
      1791114853,
      1791114883,
      1791114911,
      1791114951,
      1791114970,
      1791114999,
      1791115073,
      1791115105,
      1791115120,
      1791115160,
      1791115182,
      1791115234,
      1791115285,
      1791115314,
      1791115330,
      1791115365,
      1791115387,
      1791115421,
      1791115462,
      1791115481,
      1791115522,
      1791115557,
      1791115586,
      1791115598,
      1791115621
    ],
    "wof:geomhash": "ba76feb9186cb955871f481084f9027e",
    "wof:id": 2048509661,
    "wof:repo": "sfomuseum-data-flights-2026-10"
  },
  "bbox": [
    -122.75475,
    37.42951,
    -122.12143,
    38.51193
  ],
  "geometry": {"type":"LineString","coordinates":[[-122.47128,38.51193],[-122.50093,38.4832],[-122.54865,38.4371],[-122.61302,38.37475],[-122.6567,38.33234],[-122.70345,38.28675],[-122.72546,38.26535],[-122.75475,38.224],[-122.75425,38.18152],[-122.73331,38.10878],[-122.73159,38.1026],[-122.72041,38.06386],[-122.71206,38.03481],[-122.70308,38.0037],[-122.6869,37.94747],[-122.67444,37.90761],[-122.64399,37.87243],[-122.60753,37.83788],[-122.5725,37.80486],[-122.52434,37.75934],[-122.50307,37.73934],[-122.47123,37.70932],[-122.38915,37.63188],[-122.36011,37.59431],[-122.3494,37.57712],[-122.31996,37.52943],[-122.30429,37.50373],[-122.24214,37.46015],[-122.17331,37.42951],[-122.1319,37.44256],[-122.12143,37.45993],[-122.13664,37.49447],[-122.15213,37.51127],[-122.17954,37.53523],[-122.21968,37.55335],[-122.23986,37.56194],[-122.27967,37.57869],[-122.30931,37.59113],[-122.33154,37.60048],[-122.3403,37.60417],[-122.357,37.61115]]}
}
