{
  "id": 2048496773,
  "type": "Feature",
  "properties": {
    "geom:area": 0,
    "geom:bbox": "-122.362940,37.633110,-121.990120,37.964960",
    "geom:latitude": 37.78565428001875,
    "geom:longitude": -122.16561800895842,
    "src:alt_label": "swim-takeoff",
    "src:geom": "swim",
    "swim:elevations": [
      183,
      649,
      759,
      1037,
      1208,
      1566,
      1903,
      2145,
      2712,
      2906,
      3205,
      3325,
      3466,
      3597
    ],
    "swim:geom": "takeoff",
    "swim:timestamps": [
      1790955548,
      1790955591,
      1790955603,
      1790955653,
      1790955676,
      1790955706,
      1790955733,
      1790955754,
      1790955797,
      1790955812,
      1790955838,
      1790955865,
      1790955884,
      1790955903
    ],
    "wof:geomhash": "c29c5c8efabc52743051af0ef5fb5446",
    "wof:id": 2048496773,
    "wof:repo": "sfomuseum-data-flights-2026-10"
  },
  "bbox": [
    -122.36294,
    37.63311,
    -121.99012,
    37.96496
  ],
  "geometry": {"type":"LineString","coordinates":[[-122.36294,37.63311],[-122.32878,37.65546],[-122.31787,37.6611],[-122.2672,37.6896],[-122.23831,37.705],[-122.20188,37.73078],[-122.1752,37.76007],[-122.1545,37.7831],[-122.1094,37.83322],[-122.0946,37.84947],[-122.06717,37.88008],[-122.03702,37.91378],[-122.01352,37.93931],[-121.99012,37.96496]]}
}
