{
  "id": 2048506499,
  "type": "Feature",
  "properties": {
    "geom:area": 0,
    "geom:bbox": "-122.469180,37.190060,-121.249690,37.711000",
    "geom:latitude": 37.38665118896394,
    "geom:longitude": -121.98578882413733,
    "src:alt_label": "swim-takeoff",
    "src:geom": "swim",
    "swim:elevations": [
      122,
      387,
      733,
      997,
      1240,
      1716,
      1798,
      2212,
      2651,
      2918,
      3245,
      3335,
      4069,
      4153,
      4778,
      5006,
      5111,
      5630,
      5876,
      6030,
      6446,
      6721,
      6948,
      7335,
      7433,
      7806,
      8035,
      8266,
      8384,
      8567,
      8673
    ],
    "swim:geom": "takeoff",
    "swim:timestamps": [
      1791017174,
      1791017199,
      1791017227,
      1791017257,
      1791017297,
      1791017336,
      1791017341,
      1791017373,
      1791017424,
      1791017443,
      1791017474,
      1791017491,
      1791017545,
      1791017551,
      1791017608,
      1791017632,
      1791017640,
      1791017689,
      1791017715,
      1791017734,
      1791017780,
      1791017807,
      1791017832,
      1791017875,
      1791017889,
      1791017932,
      1791017958,
      1791017995,
      1791018020,
      1791018053,
      1791018073
    ],
    "wof:geomhash": "68f13cd2dc47170dcbb8a83522d4a638",
    "wof:id": 2048506499,
    "wof:repo": "sfomuseum-data-flights-2026-10"
  },
  "bbox": [
    -122.46918,
    37.19006,
    -121.24969,
    37.711
  ],
  "geometry": {"type":"LineString","coordinates":[[-122.36897,37.6285],[-122.36296,37.64679],[-122.36257,37.66892],[-122.36452,37.69264],[-122.40222,37.711],[-122.43747,37.68419],[-122.43838,37.679],[-122.44514,37.6448],[-122.45735,37.58374],[-122.46169,37.56005],[-122.46918,37.51778],[-122.46372,37.49497],[-122.38901,37.44002],[-122.37957,37.43455],[-122.2784,37.3995],[-122.23133,37.39008],[-122.21478,37.38676],[-122.11602,37.36733],[-122.06307,37.35679],[-122.02312,37.34878],[-121.92661,37.32941],[-121.8669,37.31744],[-121.81178,37.30629],[-121.71518,37.28676],[-121.68392,37.28035],[-121.58455,37.26016],[-121.52539,37.2474],[-121.43867,37.22942],[-121.37901,37.21738],[-121.29829,37.20029],[-121.24969,37.19006]]}
}
