{
  "id": 2048494327,
  "type": "Feature",
  "properties": {
    "geom:area": 0,
    "geom:bbox": "-122.343420,37.492000,-121.247260,37.607760",
    "geom:latitude": 37.54594153583852,
    "geom:longitude": -121.79993308230463,
    "src:alt_label": "swim-approach",
    "src:geom": "swim",
    "swim:elevations": [
      4828,
      4703,
      4204,
      3979,
      3859,
      3613,
      3449,
      3296,
      3097,
      2913,
      2720,
      2632,
      2538,
      2382,
      2288,
      2141,
      2040,
      1920,
      1766,
      1633,
      1432,
      1319,
      1126,
      1085,
      979,
      779,
      639,
      485,
      455,
      306,
      218,
      115
    ],
    "swim:geom": "approach",
    "swim:timestamps": [
      1790969300,
      1790969313,
      1790969364,
      1790969394,
      1790969412,
      1790969441,
      1790969464,
      1790969481,
      1790969511,
      1790969543,
      1790969569,
      1790969582,
      1790969595,
      1790969633,
      1790969648,
      1790969668,
      1790969695,
      1790969723,
      1790969757,
      1790969779,
      1790969812,
      1790969833,
      1790969863,
      1790969875,
      1790969893,
      1790969929,
      1790969964,
      1790969998,
      1790970012,
      1790970044,
      1790970066,
      1790970092
    ],
    "wof:geomhash": "9dfd4110cdd56ea489ebac33f6688d3f",
    "wof:id": 2048494327,
    "wof:repo": "sfomuseum-data-flights-2026-10"
  },
  "bbox": [
    -122.34342,
    37.492,
    -121.24726,
    37.60776
  ],
  "geometry": {"type":"LineString","coordinates":[[-121.24726,37.5948],[-121.271,37.59159],[-121.36395,37.5811],[-121.41768,37.5753],[-121.44929,37.57159],[-121.50282,37.56508],[-121.54234,37.5604],[-121.57297,37.55676],[-121.62645,37.55015],[-121.68021,37.53752],[-121.72406,37.52726],[-121.74367,37.52257],[-121.76613,37.51711],[-121.82424,37.50296],[-121.84699,37.4975],[-121.8773,37.492],[-121.91684,37.49209],[-121.95589,37.49291],[-122.00128,37.49865],[-122.02921,37.50791],[-122.07061,37.52142],[-122.09674,37.52993],[-122.13276,37.54155],[-122.14693,37.54609],[-122.16633,37.55244],[-122.20362,37.56465],[-122.23571,37.57498],[-122.2651,37.58413],[-122.27761,37.587],[-122.30446,37.59529],[-122.3219,37.60076],[-122.34342,37.60776]]}
}
