{
  "id": 2048518865,
  "type": "Feature",
  "properties": {
    "geom:area": 0,
    "geom:bbox": "-123.103330,37.452470,-122.161780,38.491690",
    "geom:latitude": 37.893748783814026,
    "geom:longitude": -122.5816765638817,
    "src:alt_label": "swim-approach",
    "src:geom": "swim",
    "swim:elevations": [
      7620,
      7379,
      7312,
      7315,
      7140,
      6853,
      6587,
      6411,
      6235,
      5796,
      5582,
      5151,
      5088,
      4617,
      4508,
      4040,
      3706,
      3596,
      3432,
      3353,
      3353,
      3353,
      3353,
      3310,
      2787,
      2546,
      2356,
      1896,
      1736,
      1400,
      1219,
      1146,
      1003,
      838,
      680,
      543,
      400,
      343,
      167,
      94
    ],
    "swim:geom": "approach",
    "swim:timestamps": [
      1791193703,
      1791193730,
      1791193749,
      1791193784,
      1791193817,
      1791193850,
      1791193886,
      1791193903,
      1791193924,
      1791193974,
      1791193995,
      1791194034,
      1791194040,
      1791194091,
      1791194107,
      1791194157,
      1791194180,
      1791194190,
      1791194206,
      1791194225,
      1791194263,
      1791194284,
      1791194334,
      1791194349,
      1791194396,
      1791194419,
      1791194437,
      1791194484,
      1791194499,
      1791194534,
      1791194577,
      1791194600,
      1791194626,
      1791194655,
      1791194686,
      1791194721,
      1791194754,
      1791194766,
      1791194814,
      1791194834
    ],
    "wof:geomhash": "89b8bdb5205042cffb40f12902ca79d8",
    "wof:id": 2048518865,
    "wof:repo": "sfomuseum-data-flights-2026-10"
  },
  "bbox": [
    -123.10333,
    37.45247,
    -122.16178,
    38.49169
  ],
  "geometry": {"type":"LineString","coordinates":[[-123.10333,38.49169],[-123.05411,38.45316],[-123.0194,38.42542],[-122.95672,38.37574],[-122.89682,38.32808],[-122.83772,38.28093],[-122.7787,38.22704],[-122.76163,38.19899],[-122.74829,38.15949],[-122.72257,38.07103],[-122.71226,38.03445],[-122.69299,37.96765],[-122.69039,37.95858],[-122.65026,37.87812],[-122.62837,37.85747],[-122.57079,37.80273],[-122.54385,37.7773],[-122.53248,37.76683],[-122.51424,37.74976],[-122.49283,37.72944],[-122.45281,37.6917],[-122.43294,37.67289],[-122.38541,37.62812],[-122.37123,37.61474],[-122.34281,37.56604],[-122.32935,37.54173],[-122.31864,37.52391],[-122.28751,37.47798],[-122.27096,37.46941],[-122.22746,37.45383],[-122.17431,37.45247],[-122.16178,37.47422],[-122.16411,37.49966],[-122.18628,37.52419],[-122.21158,37.54797],[-122.24651,37.56459],[-122.27863,37.57815],[-122.28854,37.58238],[-122.32677,37.59844],[-122.3423,37.60495]]}
}
