{
  "id": 2048554177,
  "type": "Feature",
  "properties": {
    "geom:area": 0,
    "geom:bbox": "-123.158970,37.415720,-122.067900,38.468220",
    "geom:latitude": 37.831033114773845,
    "geom:longitude": -122.55360852489198,
    "src:alt_label": "swim-approach",
    "src:geom": "swim",
    "swim:elevations": [
      7559,
      7529,
      7311,
      7127,
      6868,
      6579,
      6405,
      6163,
      5997,
      5904,
      5796,
      5516,
      5372,
      5004,
      4794,
      4420,
      4193,
      4069,
      3922,
      3720,
      3597,
      3380,
      3353,
      3353,
      3353,
      3353,
      3211,
      3153,
      2893,
      2640,
      2557,
      2524,
      2302,
      2190,
      1887,
      1678,
      1521,
      1463,
      1464,
      1414,
      1256,
      1131,
      1112,
      946,
      845,
      669,
      588,
      407,
      307,
      192,
      144,
      0
    ],
    "swim:geom": "approach",
    "swim:timestamps": [
      1791582085,
      1791582090,
      1791582115,
      1791582146,
      1791582175,
      1791582206,
      1791582224,
      1791582248,
      1791582268,
      1791582277,
      1791582289,
      1791582316,
      1791582332,
      1791582379,
      1791582404,
      1791582445,
      1791582472,
      1791582485,
      1791582498,
      1791582523,
      1791582541,
      1791582588,
      1791582615,
      1791582657,
      1791582677,
      1791582705,
      1791582746,
      1791582758,
      1791582795,
      1791582835,
      1791582850,
      1791582856,
      1791582895,
      1791582906,
      1791582941,
      1791582976,
      1791583019,
      1791583048,
      1791583051,
      1791583063,
      1791583105,
      1791583135,
      1791583141,
      1791583198,
      1791583221,
      1791583257,
      1791583275,
      1791583314,
      1791583333,
      1791583367,
      1791583383,
      1791583418
    ],
    "wof:geomhash": "8d8985e910bcd151a9f38e7d3986bc6f",
    "wof:id": 2048554177,
    "wof:repo": "sfomuseum-data-flights-2026-10"
  },
  "bbox": [
    -123.15897,
    37.41572,
    -122.0679,
    38.46822
  ],
  "geometry": {"type":"LineString","coordinates":[[-123.15897,38.46822],[-123.14969,38.46219],[-123.10207,38.43245],[-123.05226,38.38684],[-123.01509,38.34061],[-122.97734,38.29194],[-122.95554,38.26368],[-122.9255,38.22482],[-122.90125,38.19375],[-122.89007,38.17937],[-122.87553,38.16073],[-122.84307,38.11905],[-122.82475,38.09541],[-122.76976,38.02437],[-122.74137,37.98781],[-122.69471,37.92741],[-122.66263,37.89009],[-122.64531,37.87314],[-122.62768,37.85678],[-122.59553,37.82625],[-122.57307,37.80501],[-122.51769,37.75268],[-122.48871,37.72523],[-122.44794,37.68693],[-122.4297,37.66981],[-122.40371,37.64537],[-122.36612,37.60974],[-122.35825,37.59765],[-122.33893,37.55868],[-122.31464,37.51721],[-122.30493,37.5017],[-122.30094,37.49549],[-122.2647,37.4615],[-122.25029,37.45612],[-122.20404,37.43982],[-122.15644,37.42284],[-122.09834,37.41572],[-122.07489,37.43855],[-122.0731,37.44123],[-122.0679,37.45249],[-122.08256,37.49027],[-122.11079,37.50734],[-122.11701,37.50997],[-122.17136,37.53302],[-122.19274,37.54209],[-122.22729,37.55669],[-122.24456,37.56394],[-122.28121,37.5793],[-122.29785,37.58632],[-122.3236,37.59712],[-122.3353,37.60208],[-122.36121,37.61277]]}
}
