{
  "id": 2048551377,
  "type": "Feature",
  "properties": {
    "geom:area": 0,
    "geom:bbox": "-122.388220,37.634670,-121.428330,38.518790",
    "geom:latitude": 38.121212867967586,
    "geom:longitude": -122.01326849854372,
    "src:alt_label": "swim-takeoff",
    "src:geom": "swim",
    "swim:elevations": [
      244,
      539,
      884,
      1189,
      1399,
      1629,
      2049,
      2257,
      2811,
      3130,
      3238,
      3442,
      3826,
      4024,
      4616,
      4912,
      5212,
      5232,
      5823,
      6100,
      6295,
      6426,
      6615,
      7010,
      7182,
      7394,
      7681,
      7917,
      8069,
      8286
    ],
    "swim:geom": "takeoff",
    "swim:timestamps": [
      1791527028,
      1791527048,
      1791527079,
      1791527120,
      1791527153,
      1791527179,
      1791527208,
      1791527223,
      1791527266,
      1791527290,
      1791527299,
      1791527329,
      1791527365,
      1791527386,
      1791527428,
      1791527457,
      1791527487,
      1791527490,
      1791527540,
      1791527567,
      1791527590,
      1791527605,
      1791527625,
      1791527668,
      1791527688,
      1791527716,
      1791527752,
      1791527781,
      1791527799,
      1791527825
    ],
    "wof:geomhash": "bdcb81276e828e3e1f226a81d84003a7",
    "wof:id": 2048551377,
    "wof:repo": "sfomuseum-data-flights-2026-10"
  },
  "bbox": [
    -122.38822,
    37.63467,
    -121.42833,
    38.51879
  ],
  "geometry": {"type":"LineString","coordinates":[[-122.36203,37.63467],[-122.34953,37.64725],[-122.32755,37.66492],[-122.30201,37.69288],[-122.30915,37.72608],[-122.33406,37.75055],[-122.35564,37.78308],[-122.3647,37.80168],[-122.38822,37.85493],[-122.38665,37.88813],[-122.38523,37.90047],[-122.37656,37.94358],[-122.32586,37.98278],[-122.28856,38.0008],[-122.21579,38.04398],[-122.16692,38.07434],[-122.11227,38.1066],[-122.10668,38.10989],[-122.01391,38.16534],[-121.96096,38.19734],[-121.91706,38.22396],[-121.88761,38.24183],[-121.84871,38.26534],[-121.76268,38.31719],[-121.72193,38.34166],[-121.66331,38.37676],[-121.58591,38.42304],[-121.52498,38.4595],[-121.48428,38.48432],[-121.42833,38.51879]]}
}
