{
  "id": 2048491777,
  "type": "Feature",
  "properties": {
    "geom:area": 0,
    "geom:bbox": "-122.360080,37.491640,-121.249070,37.614790",
    "geom:latitude": 37.547049887509736,
    "geom:longitude": -121.80947985894834,
    "src:alt_label": "swim-approach",
    "src:geom": "swim",
    "swim:elevations": [
      4722,
      4483,
      4054,
      3836,
      3752,
      3472,
      3279,
      3196,
      2938,
      2782,
      2608,
      2436,
      2320,
      2248,
      2126,
      1984,
      1713,
      1554,
      1378,
      1279,
      1007,
      896,
      693,
      562,
      425,
      360,
      191,
      88,
      0
    ],
    "swim:geom": "approach",
    "swim:timestamps": [
      1790978926,
      1790978946,
      1790978994,
      1790979025,
      1790979043,
      1790979082,
      1790979111,
      1790979123,
      1790979167,
      1790979188,
      1790979218,
      1790979248,
      1790979267,
      1790979278,
      1790979303,
      1790979340,
      1790979388,
      1790979418,
      1790979445,
      1790979462,
      1790979506,
      1790979525,
      1790979564,
      1790979591,
      1790979625,
      1790979647,
      1790979684,
      1790979715,
      1790979728
    ],
    "wof:geomhash": "4fb6a5cca46f24e247fd35632208741e",
    "wof:id": 2048491777,
    "wof:repo": "sfomuseum-data-flights-2026-10"
  },
  "bbox": [
    -122.36008,
    37.49164,
    -121.24907,
    37.61479
  ],
  "geometry": {"type":"LineString","coordinates":[[-121.24907,37.59482],[-121.28952,37.58976],[-121.38728,37.57867],[-121.44562,37.5719],[-121.47685,37.56819],[-121.54363,37.56026],[-121.59133,37.55479],[-121.61082,37.55249],[-121.679,37.53783],[-121.71139,37.53006],[-121.75568,37.51945],[-121.80046,37.50876],[-121.82975,37.50182],[-121.84511,37.49811],[-121.88274,37.49164],[-121.93995,37.4926],[-122.00903,37.50152],[-122.04883,37.51437],[-122.08283,37.52541],[-122.10359,37.5321],[-122.15827,37.54993],[-122.1816,37.5575],[-122.22362,37.57104],[-122.24884,37.57926],[-122.27717,37.58755],[-122.29514,37.59297],[-122.32621,37.6021],[-122.35026,37.61059],[-122.36008,37.61479]]}
}
