{
  "id": 2048494413,
  "type": "Feature",
  "properties": {
    "date:inception_lower": "2026-10-02",
    "date:inception_upper": "2026-10-02",
    "edtf:cessation": "",
    "edtf:inception": "2026-10-02",
    "flysfo:actual_timestamp": -1,
    "flysfo:airline": "UA",
    "flysfo:base_airline": "",
    "flysfo:base_flight_number": "3724",
    "flysfo:date": "2026-10-02",
    "flysfo:estimated_timestamp": 1790984820,
    "flysfo:event": "A",
    "flysfo:flight_number": "UA969",
    "flysfo:gate": "G5",
    "flysfo:journey": "AMS-SFO",
    "flysfo:scheduled_timestamp": 1790985300,
    "flysfo:timestamp": 1790985300,
    "geom:area": 0,
    "geom:bbox": "-122.370943,37.617990,4.782907,52.314791",
    "geom:latitude": 44.9663905,
    "geom:longitude": -58.794018,
    "iata:airline": "UA",
    "iata:base_airline": "",
    "icao:airline": "UAL",
    "icao:base_airline": "ACA",
    "lbl:latitude": 37.617906,
    "lbl:longitude": -122.390944,
    "sfomuseum:airline_id": 1159285413,
    "sfomuseum:arrival_id": 102527513,
    "sfomuseum:base_flight_id": "20261002-A-ACA-3724",
    "sfomuseum:departure_id": 102542801,
    "sfomuseum:flight_id": "20261002-A-UAL-969",
    "sfomuseum:flight_number": [
      "UAL969",
      "UA969"
    ],
    "sfomuseum:placetype": "flight",
    "src:geom": "flysfo",
    "wof:belongsto": [
      1947304067,
      102527513,
      1947304129,
      102191575,
      85633793,
      102087579,
      85922583,
      554784711,
      85688637,
      1947304145,
      1947304069,
      102085387
    ],
    "wof:country": "US",
    "wof:created": 1791043726,
    "wof:geomhash": "bfe9b4dfbd612ca8de6bd9460273f90d",
    "wof:hierarchy": [
      {
        "building_id": 1947304067,
        "campus_id": 102527513,
        "concourse_id": 1947304129,
        "continent_id": 102191575,
        "country_id": 85633793,
        "county_id": 102087579,
        "custom_id": 2048494413,
        "flight_id": 2048494413,
        "locality_id": 85922583,
        "postalcode_id": 554784711,
        "region_id": 85688637,
        "venue_id": 1947304145,
        "wing_id": 1947304069
      },
      {
        "building_id": 1947304067,
        "campus_id": 102527513,
        "concourse_id": 1947304129,
        "continent_id": 102191575,
        "country_id": 85633793,
        "county_id": 102085387,
        "custom_id": 2048494413,
        "flight_id": 2048494413,
        "region_id": 85688637,
        "venue_id": 1947304145,
        "wing_id": 1947304069
      }
    ],
    "wof:id": 2048494413,
    "wof:involves": [
      102527513,
      102542801,
      1159285413,
      1947304145,
      1159283597
    ],
    "wof:lastmodified": 1791043726,
    "wof:name": "UA969 (AMS-SFO)",
    "wof:parent_id": 1947304145,
    "wof:placetype": "custom",
    "wof:placetype_alt": [
      "flight"
    ],
    "wof:repo": "sfomuseum-data-flights-2026-10",
    "wof:superseded_by": [],
    "wof:supersedes": []
  },
  "bbox": [
    -122.370943,
    37.61799,
    4.782907,
    52.314791
  ],
  "geometry": {"type":"MultiPoint","coordinates":[[4.782907,52.314791],[-122.370943,37.61799]]}
}
