{
  "id": 2048485787,
  "type": "Feature",
  "properties": {
    "geom:area": 0,
    "geom:bbox": "-122.365250,37.630190,-121.245130,37.964860",
    "geom:latitude": 37.83631158227634,
    "geom:longitude": -121.81925664484868,
    "src:alt_label": "swim-takeoff",
    "src:geom": "swim",
    "swim:elevations": [
      183,
      645,
      876,
      922,
      1015,
      1352,
      1728,
      2097,
      2270,
      2815,
      3080,
      3144,
      3352,
      3446,
      3539,
      3899,
      4282,
      4381,
      4590,
      4891,
      5042,
      5472,
      5581
    ],
    "swim:geom": "takeoff",
    "swim:timestamps": [
      1790861793,
      1790861848,
      1790861878,
      1790861892,
      1790861922,
      1790861952,
      1790861984,
      1790862016,
      1790862032,
      1790862086,
      1790862118,
      1790862132,
      1790862177,
      1790862199,
      1790862210,
      1790862251,
      1790862294,
      1790862309,
      1790862330,
      1790862375,
      1790862394,
      1790862446,
      1790862457
    ],
    "wof:geomhash": "830f7c5f9f328dd30f3d3d95d2a7e708",
    "wof:id": 2048485787,
    "wof:repo": "sfomuseum-data-flights-2026-10"
  },
  "bbox": [
    -122.36525,
    37.63019,
    -121.24513,
    37.96486
  ],
  "geometry": {"type":"LineString","coordinates":[[-122.36525,37.63019],[-122.32235,37.65921],[-122.29389,37.67508],[-122.27927,37.68341],[-122.24342,37.70308],[-122.2032,37.72371],[-122.15907,37.74673],[-122.11586,37.76936],[-122.09264,37.78148],[-122.01201,37.81675],[-121.95962,37.82712],[-121.93388,37.83238],[-121.84999,37.84921],[-121.8069,37.85766],[-121.78363,37.86215],[-121.69867,37.87854],[-121.60575,37.89639],[-121.57304,37.90268],[-121.52719,37.91146],[-121.43064,37.92986],[-121.38723,37.93805],[-121.27052,37.96008],[-121.24513,37.96486]]}
}
