{
  "id": 2048538703,
  "type": "Feature",
  "properties": {
    "geom:area": 0,
    "geom:bbox": "-122.364530,37.630780,-121.264130,37.960760",
    "geom:latitude": 37.83367349094078,
    "geom:longitude": -121.82828028479803,
    "src:alt_label": "swim-takeoff",
    "src:geom": "swim",
    "swim:elevations": [
      152,
      183,
      564,
      867,
      1194,
      1640,
      1833,
      2283,
      2707,
      2993,
      3594,
      4192,
      4453,
      4726,
      5035,
      5247,
      5439,
      5648,
      5919,
      6335,
      6497,
      6769,
      7002
    ],
    "swim:geom": "takeoff",
    "swim:timestamps": [
      1791378418,
      1791378420,
      1791378457,
      1791378502,
      1791378534,
      1791378564,
      1791378577,
      1791378608,
      1791378639,
      1791378660,
      1791378699,
      1791378746,
      1791378770,
      1791378791,
      1791378819,
      1791378860,
      1791378882,
      1791378902,
      1791378934,
      1791378972,
      1791378994,
      1791379027,
      1791379061
    ],
    "wof:geomhash": "329be79126a5e4eb479b930a0cf9daf7",
    "wof:id": 2048538703,
    "wof:repo": "sfomuseum-data-flights-2026-10"
  },
  "bbox": [
    -122.36453,
    37.63078,
    -121.26413,
    37.96076
  ],
  "geometry": {"type":"LineString","coordinates":[[-122.36453,37.63078],[-122.3635,37.63225],[-122.3355,37.65278],[-122.28671,37.67957],[-122.24529,37.70263],[-122.20411,37.72388],[-122.18547,37.73351],[-122.14229,37.75574],[-122.0971,37.77893],[-122.06487,37.79555],[-122.00224,37.81719],[-121.92154,37.83349],[-121.87731,37.84217],[-121.83899,37.84972],[-121.78737,37.85984],[-121.70864,37.87525],[-121.6609,37.8845],[-121.61881,37.89269],[-121.55135,37.90575],[-121.46658,37.92204],[-121.41755,37.93149],[-121.34261,37.94581],[-121.26413,37.96076]]}
}
