{
  "id": 2048545105,
  "type": "Feature",
  "properties": {
    "date:cessation_lower": "2026-10-09",
    "date:cessation_upper": "2026-10-09",
    "date:inception_lower": "1970-01-01",
    "date:inception_upper": "1970-01-01",
    "edtf:cessation": "2026-10-08T17:22:33-07:00",
    "edtf:inception": "1970-01-01T00:00:00Z",
    "flysfo:actual_timestamp": -1,
    "flysfo:airline": "DL",
    "flysfo:date": "2026-10-08",
    "flysfo:estimated_timestamp": -1,
    "flysfo:event": "A",
    "flysfo:flight_number": "DL1732",
    "flysfo:gate": "",
    "flysfo:journey": "JFK-SFO",
    "flysfo:scheduled_timestamp": 1791444840,
    "flysfo:timestamp": 1791444840,
    "geom:area": 0,
    "geom:bbox": "-122.370943,37.617990,-73.787845,40.643286",
    "geom:latitude": 39.130638000000005,
    "geom:longitude": -98.07939400000001,
    "iata:airline": "DL",
    "icao:aircraft": "B752",
    "icao:airline": "DAL",
    "lbl:latitude": 37.61799,
    "lbl:longitude": -122.370943,
    "sfomuseum:aircraft_id": 1159289939,
    "sfomuseum:airline_id": 1159284261,
    "sfomuseum:arrival_id": 102527513,
    "sfomuseum:departure_id": 102534365,
    "sfomuseum:flight_id": "20261008-A-DAL-1732",
    "sfomuseum:flight_number": [
      "DAL1732",
      "DL1732"
    ],
    "sfomuseum:placetype": "flight",
    "src:geom": "flysfo",
    "src:geom_alt": [
      "swim-approach"
    ],
    "swim:tail_number": "N710TW",
    "wof:belongsto": [],
    "wof:country": "US",
    "wof:created": 1791561953,
    "wof:geomhash": "ba4d31d1826c6198b5ffa8fdb1249c5d",
    "wof:hierarchy": [
      {
        "custom_id": 2048545105,
        "flight_id": 2048545105
      }
    ],
    "wof:id": 2048545105,
    "wof:involves": [
      1159289939,
      102527513,
      102534365,
      1159284261
    ],
    "wof:lastmodified": 1791562782,
    "wof:name": "DL1732 (JFK-SFO)",
    "wof:parent_id": -1,
    "wof:placetype": "custom",
    "wof:placetype_alt": [
      "flight"
    ],
    "wof:repo": "sfomuseum-data-flights-2026-10",
    "wof:superseded_by": [],
    "wof:supersedes": []
  },
  "bbox": [
    -122.370943,
    37.61799,
    -73.787845,
    40.643286
  ],
  "geometry": {"type":"MultiPoint","coordinates":[[-73.787845,40.643286],[-122.370943,37.61799]]}
}
