{
  "id": 2048558557,
  "type": "Feature",
  "properties": {
    "date:inception_lower": "2026-10-09",
    "date:inception_upper": "2026-10-09",
    "edtf:cessation": "",
    "edtf:inception": "2026-10-09",
    "flysfo:actual_timestamp": -1,
    "flysfo:airline": "CI",
    "flysfo:base_airline": "",
    "flysfo:base_flight_number": "9118",
    "flysfo:date": "2026-10-09",
    "flysfo:estimated_timestamp": 1791591000,
    "flysfo:event": "D",
    "flysfo:flight_number": "CI9118",
    "flysfo:gate": "C3",
    "flysfo:journey": "SFO-LAX",
    "flysfo:scheduled_timestamp": 1791589740,
    "flysfo:timestamp": 1791591000,
    "geom:area": 0,
    "geom:bbox": "-122.370943,33.942593,-118.389510,37.617990",
    "geom:latitude": 35.780291500000004,
    "geom:longitude": -120.38022649999999,
    "iata:airline": "CI",
    "iata:base_airline": "",
    "icao:airline": "CAL",
    "icao:base_airline": "CAL",
    "lbl:latitude": 37.615398,
    "lbl:longitude": -122.383426,
    "sfomuseum:airline_id": 1159284153,
    "sfomuseum:arrival_id": 102533795,
    "sfomuseum:base_flight_id": "20261009-D-CAL-9118",
    "sfomuseum:departure_id": 102527513,
    "sfomuseum:flight_id": "20261009-D-CAL-9118",
    "sfomuseum:flight_number": [
      "CAL9118",
      "CI9118"
    ],
    "sfomuseum:placetype": "flight",
    "src:geom": "flysfo",
    "wof:belongsto": [
      1947304067,
      102527513,
      1947304663,
      102191575,
      85633793,
      102087579,
      85922583,
      554784711,
      85688637,
      1947304671,
      1947304591,
      102085387
    ],
    "wof:country": "US",
    "wof:created": 1791648787,
    "wof:geomhash": "602be2a828e3460cadf44be5b1c2e36b",
    "wof:hierarchy": [
      {
        "building_id": 1947304067,
        "campus_id": 102527513,
        "concourse_id": 1947304663,
        "continent_id": 102191575,
        "country_id": 85633793,
        "county_id": 102087579,
        "custom_id": 2048558557,
        "flight_id": 2048558557,
        "locality_id": 85922583,
        "postalcode_id": 554784711,
        "region_id": 85688637,
        "venue_id": 1947304671,
        "wing_id": 1947304591
      },
      {
        "building_id": 1947304067,
        "campus_id": 102527513,
        "concourse_id": 1947304663,
        "continent_id": 102191575,
        "country_id": 85633793,
        "county_id": 102085387,
        "custom_id": 2048558557,
        "flight_id": 2048558557,
        "region_id": 85688637,
        "venue_id": 1947304671,
        "wing_id": 1947304591
      }
    ],
    "wof:id": 2048558557,
    "wof:involves": [
      102533795,
      102527513,
      1159284153,
      1947304671,
      1159284153
    ],
    "wof:lastmodified": 1791648787,
    "wof:name": "CI9118 (SFO-LAX)",
    "wof:parent_id": 1947304671,
    "wof:placetype": "custom",
    "wof:placetype_alt": [
      "flight"
    ],
    "wof:repo": "sfomuseum-data-flights-2026-10",
    "wof:superseded_by": [],
    "wof:supersedes": []
  },
  "bbox": [
    -122.370943,
    33.942593,
    -118.38951,
    37.61799
  ],
  "geometry": {"type":"MultiPoint","coordinates":[[-122.370943,37.61799],[-118.38951,33.942593]]}
}
