{
  "id": 2048539403,
  "type": "Feature",
  "properties": {
    "date:inception_lower": "2026-10-07",
    "date:inception_upper": "2026-10-07",
    "edtf:cessation": "",
    "edtf:inception": "2026-10-07",
    "flysfo:actual_timestamp": -1,
    "flysfo:airline": "NH",
    "flysfo:base_airline": "",
    "flysfo:base_flight_number": "3115",
    "flysfo:date": "2026-10-07",
    "flysfo:estimated_timestamp": 1791442500,
    "flysfo:event": "D",
    "flysfo:flight_number": "NH7828",
    "flysfo:gate": "A12",
    "flysfo:journey": "SFO-SAL",
    "flysfo:scheduled_timestamp": 1791442500,
    "flysfo:timestamp": 1791442500,
    "geom:area": 0,
    "geom:bbox": "-122.370943,13.444749,-89.058566,37.617990",
    "geom:latitude": 25.5313695,
    "geom:longitude": -105.7147545,
    "iata:airline": "NH",
    "iata:base_airline": "",
    "icao:airline": "ANA",
    "icao:base_airline": "EVA",
    "lbl:latitude": 37.611747,
    "lbl:longitude": -122.39043,
    "sfomuseum:airline_id": 1159283875,
    "sfomuseum:arrival_id": 102556081,
    "sfomuseum:base_flight_id": "20261007-D-EVA-3115",
    "sfomuseum:departure_id": 102527513,
    "sfomuseum:flight_id": "20261007-D-ANA-7828",
    "sfomuseum:flight_number": [
      "ANA7828",
      "NH7828"
    ],
    "sfomuseum:placetype": "flight",
    "src:geom": "flysfo",
    "wof:belongsto": [
      1947304067,
      102527513,
      1947304073,
      102191575,
      85633793,
      102087579,
      85922583,
      554784711,
      85688637,
      1947304083,
      1947304069,
      102085387
    ],
    "wof:country": "US",
    "wof:created": 1791475867,
    "wof:geomhash": "5e2e6299deb3a59dda4e65fa5b8c6ddb",
    "wof:hierarchy": [
      {
        "building_id": 1947304067,
        "campus_id": 102527513,
        "concourse_id": 1947304073,
        "continent_id": 102191575,
        "country_id": 85633793,
        "county_id": 102087579,
        "custom_id": 2048539403,
        "flight_id": 2048539403,
        "locality_id": 85922583,
        "postalcode_id": 554784711,
        "region_id": 85688637,
        "venue_id": 1947304083,
        "wing_id": 1947304069
      },
      {
        "building_id": 1947304067,
        "campus_id": 102527513,
        "concourse_id": 1947304073,
        "continent_id": 102191575,
        "country_id": 85633793,
        "county_id": 102085387,
        "custom_id": 2048539403,
        "flight_id": 2048539403,
        "region_id": 85688637,
        "venue_id": 1947304083,
        "wing_id": 1947304069
      }
    ],
    "wof:id": 2048539403,
    "wof:involves": [
      102556081,
      102527513,
      1159283875,
      1947304083,
      1159284349
    ],
    "wof:lastmodified": 1791475867,
    "wof:name": "NH7828 (SFO-SAL)",
    "wof:parent_id": 1947304083,
    "wof:placetype": "custom",
    "wof:placetype_alt": [
      "flight"
    ],
    "wof:repo": "sfomuseum-data-flights-2026-10",
    "wof:superseded_by": [],
    "wof:supersedes": []
  },
  "bbox": [
    -122.370943,
    13.444749,
    -89.058566,
    37.61799
  ],
  "geometry": {"type":"MultiPoint","coordinates":[[-122.370943,37.61799],[-89.058566,13.444749]]}
}
