{
  "id": 2048489583,
  "type": "Feature",
  "properties": {
    "date:inception_lower": "2026-10-01",
    "date:inception_upper": "2026-10-01",
    "edtf:cessation": "",
    "edtf:inception": "2026-10-01",
    "flysfo:actual_timestamp": -1,
    "flysfo:airline": "UA",
    "flysfo:date": "2026-10-01",
    "flysfo:estimated_timestamp": 1790882040,
    "flysfo:event": "D",
    "flysfo:flight_number": "UA5803",
    "flysfo:gate": "F8",
    "flysfo:journey": "SFO-FCA",
    "flysfo:scheduled_timestamp": 1790881200,
    "flysfo:timestamp": 1790882040,
    "geom:area": 0,
    "geom:bbox": "-122.370943,37.617990,-114.254457,48.309054",
    "geom:latitude": 42.963522,
    "geom:longitude": -118.3127,
    "iata:airline": "UA",
    "icao:airline": "UAL",
    "lbl:latitude": 37.61799,
    "lbl:longitude": -122.370943,
    "sfomuseum:airline_id": 1159285413,
    "sfomuseum:arrival_id": 102528363,
    "sfomuseum:departure_id": 102527513,
    "sfomuseum:flight_id": "20261001-D-UAL-5803",
    "sfomuseum:flight_number": [
      "UAL5803",
      "UA5803"
    ],
    "sfomuseum:placetype": "flight",
    "src:geom": "flysfo",
    "wof:belongsto": [
      1947304067,
      102527513,
      1947304451,
      102191575,
      85633793,
      102087579,
      85922583,
      554784711,
      85688637,
      1947304469,
      1947304447,
      102085387
    ],
    "wof:country": "US",
    "wof:created": 1790957829,
    "wof:geomhash": "a5add9b66add88268a967cc7812997cb",
    "wof:hierarchy": [
      {
        "building_id": 1947304067,
        "campus_id": 102527513,
        "concourse_id": 1947304451,
        "continent_id": 102191575,
        "country_id": 85633793,
        "county_id": 102087579,
        "custom_id": 2048489583,
        "flight_id": 2048489583,
        "locality_id": 85922583,
        "postalcode_id": 554784711,
        "region_id": 85688637,
        "venue_id": 1947304469,
        "wing_id": 1947304447
      },
      {
        "building_id": 1947304067,
        "campus_id": 102527513,
        "concourse_id": 1947304451,
        "continent_id": 102191575,
        "country_id": 85633793,
        "county_id": 102085387,
        "custom_id": 2048489583,
        "flight_id": 2048489583,
        "region_id": 85688637,
        "venue_id": 1947304469,
        "wing_id": 1947304447
      }
    ],
    "wof:id": 2048489583,
    "wof:involves": [
      102528363,
      102527513,
      1159285413,
      1947304469
    ],
    "wof:lastmodified": 1790957829,
    "wof:name": "UA5803 (SFO-FCA)",
    "wof:parent_id": 1947304469,
    "wof:placetype": "custom",
    "wof:placetype_alt": [
      "flight"
    ],
    "wof:repo": "sfomuseum-data-flights-2026-10",
    "wof:superseded_by": [],
    "wof:supersedes": []
  },
  "bbox": [
    -122.370943,
    37.61799,
    -114.254457,
    48.309054
  ],
  "geometry": {"type":"MultiPoint","coordinates":[[-122.370943,37.61799],[-114.254457,48.309054]]}
}
