{
  "id": 2048520539,
  "type": "Feature",
  "properties": {
    "geom:area": 0,
    "geom:bbox": "-123.466050,37.263240,-122.140330,37.612230",
    "geom:latitude": 37.37229587975693,
    "geom:longitude": -122.69299574780109,
    "src:alt_label": "swim-approach",
    "src:geom": "swim",
    "swim:elevations": [
      5419,
      5065,
      4758,
      4459,
      4384,
      4203,
      3869,
      3773,
      3435,
      3201,
      3086,
      3048,
      3048,
      3048,
      2846,
      2664,
      2617,
      2457,
      2177,
      2134,
      2134,
      2134,
      2134,
      2014,
      1901,
      1778,
      1552,
      1494,
      1297,
      1182,
      1130,
      972,
      914,
      871,
      770,
      636,
      515,
      323,
      242,
      181,
      46
    ],
    "swim:geom": "approach",
    "swim:timestamps": [
      1791186296,
      1791186328,
      1791186358,
      1791186386,
      1791186393,
      1791186410,
      1791186442,
      1791186451,
      1791186483,
      1791186530,
      1791186564,
      1791186593,
      1791186607,
      1791186646,
      1791186685,
      1791186715,
      1791186726,
      1791186758,
      1791186807,
      1791186834,
      1791186852,
      1791186896,
      1791186923,
      1791186946,
      1791186970,
      1791187005,
      1791187042,
      1791187055,
      1791187084,
      1791187131,
      1791187146,
      1791187179,
      1791187216,
      1791187245,
      1791187264,
      1791187293,
      1791187326,
      1791187376,
      1791187395,
      1791187412,
      1791187448
    ],
    "wof:geomhash": "21dc03e9c4c9f032d7e0de8f3decb1b8",
    "wof:id": 2048520539,
    "wof:repo": "sfomuseum-data-flights-2026-10"
  },
  "bbox": [
    -123.46605,
    37.26324,
    -122.14033,
    37.61223
  ],
  "geometry": {"type":"LineString","coordinates":[[-123.46605,37.44542],[-123.39066,37.42221],[-123.32275,37.40111],[-123.26091,37.38194],[-123.24532,37.37721],[-123.20854,37.3658],[-123.13987,37.34426],[-123.12106,37.33849],[-123.05475,37.31763],[-122.96121,37.28816],[-122.8974,37.26835],[-122.84034,37.26324],[-122.81234,37.26949],[-122.74302,37.28575],[-122.681,37.30035],[-122.63726,37.31056],[-122.62064,37.31425],[-122.57263,37.31511],[-122.49771,37.31203],[-122.45671,37.3102],[-122.43067,37.30905],[-122.3708,37.31184],[-122.33526,37.32014],[-122.3045,37.32778],[-122.27346,37.33544],[-122.22998,37.34996],[-122.20125,37.3822],[-122.19197,37.39383],[-122.1714,37.41901],[-122.14701,37.46107],[-122.14033,37.47368],[-122.14076,37.50099],[-122.16552,37.52628],[-122.1881,37.54239],[-122.20515,37.54975],[-122.23046,37.56027],[-122.25793,37.57173],[-122.29772,37.58856],[-122.31275,37.59487],[-122.32641,37.60057],[-122.3539,37.61223]]}
}
