{
  "id": 2048489097,
  "type": "Feature",
  "properties": {
    "date:cessation_lower": "1970-01-01",
    "date:cessation_upper": "1970-01-01",
    "date:inception_lower": "2026-10-02",
    "date:inception_upper": "2026-10-02",
    "edtf:cessation": "1970-01-01T00:00:00Z",
    "edtf:inception": "2026-10-01T17:25:17-07:00",
    "flysfo:actual_timestamp": -1,
    "flysfo:airline": "UA",
    "flysfo:base_airline": "",
    "flysfo:base_flight_number": "3106",
    "flysfo:date": "2026-10-01",
    "flysfo:estimated_timestamp": 1790923800,
    "flysfo:event": "D",
    "flysfo:flight_number": "UA1508",
    "flysfo:gate": "E7",
    "flysfo:journey": "SFO-YUL",
    "flysfo:scheduled_timestamp": 1790923140,
    "flysfo:timestamp": 1790923800,
    "geom:area": 0,
    "geom:bbox": "-122.370943,37.617990,-73.744749,45.462004",
    "geom:latitude": 41.539997,
    "geom:longitude": -98.057846,
    "iata:airline": "UA",
    "iata:base_airline": "",
    "icao:aircraft": "B38M",
    "icao:airline": "UAL",
    "icao:base_airline": "ACA",
    "lbl:latitude": 37.618874,
    "lbl:longitude": -122.38419,
    "sfomuseum:aircraft_id": 1528104575,
    "sfomuseum:airline_id": 1159285413,
    "sfomuseum:arrival_id": 102554351,
    "sfomuseum:base_flight_id": "20261001-D-ACA-3106",
    "sfomuseum:departure_id": 102527513,
    "sfomuseum:flight_id": "20261001-D-UAL-1508",
    "sfomuseum:flight_number": [
      "UAL1508",
      "UA1508"
    ],
    "sfomuseum:placetype": "flight",
    "src:geom": "flysfo",
    "src:geom_alt": [
      "swim-takeoff"
    ],
    "swim:tail_number": "N17301",
    "wof:belongsto": [
      1947304067,
      102527513,
      1947304511,
      102191575,
      85633793,
      102087579,
      85922583,
      554784711,
      85688637,
      1947304529,
      1947304447,
      102085387
    ],
    "wof:country": "US",
    "wof:created": 1790957773,
    "wof:geomhash": "60b8ec845b4af47518c8aaafc3d98633",
    "wof:hierarchy": [
      {
        "building_id": 1947304067,
        "campus_id": 102527513,
        "concourse_id": 1947304511,
        "continent_id": 102191575,
        "country_id": 85633793,
        "county_id": 102087579,
        "custom_id": 2048489097,
        "flight_id": 2048489097,
        "locality_id": 85922583,
        "postalcode_id": 554784711,
        "region_id": 85688637,
        "venue_id": 1947304529,
        "wing_id": 1947304447
      },
      {
        "building_id": 1947304067,
        "campus_id": 102527513,
        "concourse_id": 1947304511,
        "continent_id": 102191575,
        "country_id": 85633793,
        "county_id": 102085387,
        "custom_id": 2048489097,
        "flight_id": 2048489097,
        "region_id": 85688637,
        "venue_id": 1947304529,
        "wing_id": 1947304447
      }
    ],
    "wof:id": 2048489097,
    "wof:involves": [
      1528104575,
      102554351,
      102527513,
      1159285413,
      1947304529,
      1159283597
    ],
    "wof:lastmodified": 1790957951,
    "wof:name": "UA1508 (SFO-YUL)",
    "wof:parent_id": 1947304529,
    "wof:placetype": "custom",
    "wof:placetype_alt": [
      "flight"
    ],
    "wof:repo": "sfomuseum-data-flights-2026-10",
    "wof:superseded_by": [],
    "wof:supersedes": []
  },
  "bbox": [
    -122.370943,
    37.61799,
    -73.744749,
    45.462004
  ],
  "geometry": {"type":"MultiPoint","coordinates":[[-122.370943,37.61799],[-73.744749,45.462004]]}
}
