{
  "id": 2048546555,
  "type": "Feature",
  "properties": {
    "geom:area": 0,
    "geom:bbox": "-122.355130,37.459200,-121.249370,37.612720",
    "geom:latitude": 37.53200108448189,
    "geom:longitude": -121.80974277499627,
    "src:alt_label": "swim-approach",
    "src:geom": "swim",
    "swim:elevations": [
      4646,
      4335,
      4176,
      4013,
      3738,
      3535,
      3298,
      3219,
      2863,
      2565,
      2447,
      2438,
      2438,
      2408,
      2165,
      2141,
      1852,
      1688,
      1527,
      1360,
      1279,
      1127,
      981,
      743,
      654,
      568,
      445,
      250,
      193,
      28
    ],
    "swim:geom": "approach",
    "swim:timestamps": [
      1791446302,
      1791446337,
      1791446355,
      1791446387,
      1791446413,
      1791446437,
      1791446486,
      1791446501,
      1791446542,
      1791446576,
      1791446593,
      1791446626,
      1791446662,
      1791446694,
      1791446727,
      1791446733,
      1791446783,
      1791446816,
      1791446839,
      1791446874,
      1791446888,
      1791446917,
      1791446947,
      1791446998,
      1791447013,
      1791447035,
      1791447061,
      1791447107,
      1791447124,
      1791447168
    ],
    "wof:geomhash": "1d2f4a4aa4a033d042446934838cff43",
    "wof:id": 2048546555,
    "wof:repo": "sfomuseum-data-flights-2026-10"
  },
  "bbox": [
    -122.35513,
    37.4592,
    -121.24937,
    37.61272
  ],
  "geometry": {"type":"LineString","coordinates":[[-121.24937,37.595],[-121.32257,37.58599],[-121.35972,37.582],[-121.42084,37.57497],[-121.46892,37.56934],[-121.51195,37.5643],[-121.59134,37.5551],[-121.61284,37.55262],[-121.67129,37.54002],[-121.71089,37.51727],[-121.72827,37.50314],[-121.76116,37.47763],[-121.81219,37.46882],[-121.85825,37.46572],[-121.90518,37.46227],[-121.91391,37.46163],[-121.98484,37.4592],[-122.02695,37.47427],[-122.05636,37.4866],[-122.09613,37.50345],[-122.11046,37.50954],[-122.13891,37.5216],[-122.16709,37.53347],[-122.21538,37.55387],[-122.23044,37.56019],[-122.25157,37.56916],[-122.27521,37.57908],[-122.31135,37.59427],[-122.32392,37.59954],[-122.35513,37.61272]]}
}
