{
  "id": 2048526231,
  "type": "Feature",
  "properties": {
    "geom:area": 0,
    "geom:bbox": "-122.362470,36.738270,-121.888260,37.614210",
    "geom:latitude": 37.222662325843515,
    "geom:longitude": -122.0745132935719,
    "src:alt_label": "swim-approach",
    "src:geom": "swim",
    "swim:elevations": [
      5181,
      4894,
      4589,
      4371,
      4068,
      3814,
      3586,
      3208,
      3139,
      3047,
      2776,
      2648,
      2424,
      2157,
      2042,
      1796,
      1488,
      1332,
      1196,
      1067,
      981,
      878,
      728,
      570,
      480,
      361,
      261,
      126,
      0,
      0
    ],
    "swim:geom": "approach",
    "swim:timestamps": [
      1791332895,
      1791332927,
      1791332960,
      1791332987,
      1791333020,
      1791333050,
      1791333074,
      1791333116,
      1791333133,
      1791333157,
      1791333196,
      1791333218,
      1791333260,
      1791333293,
      1791333309,
      1791333344,
      1791333387,
      1791333418,
      1791333442,
      1791333466,
      1791333481,
      1791333505,
      1791333533,
      1791333565,
      1791333592,
      1791333628,
      1791333655,
      1791333688,
      1791333718,
      1791333721
    ],
    "wof:geomhash": "722ba2ee878774ef39e5f685a9129de6",
    "wof:id": 2048526231,
    "wof:repo": "sfomuseum-data-flights-2026-10"
  },
  "bbox": [
    -122.36247,
    36.73827,
    -121.88826,
    37.61421
  ],
  "geometry": {"type":"LineString","coordinates":[[-121.88826,36.73827],[-121.90751,36.79018],[-121.9225,36.84377],[-121.93439,36.8859],[-121.94906,36.93767],[-121.96571,36.98449],[-121.97999,37.02127],[-122.00478,37.08426],[-122.0147,37.11021],[-122.02816,37.14501],[-122.04918,37.19779],[-122.06008,37.22534],[-122.08111,37.2789],[-122.09721,37.31994],[-122.10497,37.33993],[-122.12144,37.38202],[-122.13893,37.43442],[-122.15032,37.46735],[-122.15795,37.49138],[-122.16535,37.51394],[-122.17017,37.52736],[-122.18891,37.54287],[-122.21731,37.55469],[-122.24598,37.56676],[-122.2664,37.57536],[-122.29218,37.58623],[-122.31201,37.59458],[-122.33766,37.60533],[-122.35932,37.61421],[-122.36247,37.61416]]}
}
