{
  "id": 2048511209,
  "type": "Feature",
  "properties": {
    "geom:area": 0,
    "geom:bbox": "-122.375370,37.500380,-121.261400,37.616490",
    "geom:latitude": 37.54491828162892,
    "geom:longitude": -121.82484183603927,
    "src:alt_label": "swim-approach",
    "src:geom": "swim",
    "swim:elevations": [
      4283,
      4050,
      3786,
      3760,
      3296,
      3101,
      3048,
      3048,
      2725,
      2579,
      2457,
      2313,
      2184,
      2134,
      1864,
      1758,
      1571,
      1297,
      1219,
      1219,
      858,
      689,
      673,
      457,
      242,
      135,
      113,
      48,
      1374
    ],
    "swim:geom": "approach",
    "swim:timestamps": [
      1791110246,
      1791110274,
      1791110307,
      1791110311,
      1791110367,
      1791110394,
      1791110427,
      1791110431,
      1791110482,
      1791110502,
      1791110548,
      1791110578,
      1791110597,
      1791110624,
      1791110665,
      1791110680,
      1791110706,
      1791110742,
      1791110787,
      1791110791,
      1791110847,
      1791110876,
      1791110880,
      1791110911,
      1791110960,
      1791110985,
      1791110993,
      1791111007,
      1791111034
    ],
    "wof:geomhash": "386e40919dd6fed6b48f9cce7d996775",
    "wof:id": 2048511209,
    "wof:repo": "sfomuseum-data-flights-2026-10"
  },
  "bbox": [
    -122.37537,
    37.50038,
    -121.2614,
    37.61649
  ],
  "geometry": {"type":"LineString","coordinates":[[-121.2614,37.59303],[-121.31804,37.5864],[-121.38338,37.57901],[-121.39146,37.57811],[-121.5016,37.56523],[-121.55466,37.55912],[-121.61224,37.55237],[-121.61871,37.55154],[-121.69269,37.53447],[-121.72143,37.52764],[-121.7854,37.51237],[-121.82628,37.50272],[-121.85433,37.50038],[-121.89225,37.50177],[-121.95069,37.50407],[-121.97238,37.50488],[-122.00922,37.50633],[-122.05951,37.50834],[-122.12075,37.51246],[-122.12598,37.51398],[-122.19491,37.54298],[-122.22819,37.55705],[-122.23286,37.55901],[-122.26644,37.57311],[-122.31273,37.59255],[-122.33298,37.60112],[-122.33928,37.60376],[-122.35093,37.60862],[-122.37537,37.61649]]}
}
