{
  "id": 2048505997,
  "type": "Feature",
  "properties": {
    "date:inception_lower": "2026-10-03",
    "date:inception_upper": "2026-10-03",
    "edtf:cessation": "",
    "edtf:inception": "2026-10-03",
    "flysfo:actual_timestamp": -1,
    "flysfo:airline": "QR",
    "flysfo:base_airline": "",
    "flysfo:base_flight_number": "5166",
    "flysfo:date": "2026-10-03",
    "flysfo:estimated_timestamp": 1791077700,
    "flysfo:event": "D",
    "flysfo:flight_number": "QR3335",
    "flysfo:gate": "B9",
    "flysfo:journey": "SFO-BOI",
    "flysfo:scheduled_timestamp": 1791077700,
    "flysfo:timestamp": 1791077700,
    "geom:area": 0,
    "geom:bbox": "-122.370943,37.617990,-116.224634,43.564048",
    "geom:latitude": 40.591019,
    "geom:longitude": -119.2977885,
    "iata:airline": "QR",
    "iata:base_airline": "",
    "icao:airline": "QTR",
    "icao:base_airline": "CFG",
    "lbl:latitude": 37.61799,
    "lbl:longitude": -122.370943,
    "sfomuseum:airline_id": 1159286153,
    "sfomuseum:arrival_id": 102527733,
    "sfomuseum:base_flight_id": "20261003-D-CFG-5166",
    "sfomuseum:departure_id": 102527513,
    "sfomuseum:flight_id": "20261003-D-QTR-3335",
    "sfomuseum:flight_number": [
      "QTR3335",
      "QR3335"
    ],
    "sfomuseum:placetype": "flight",
    "src:geom": "flysfo",
    "wof:belongsto": [
      1947304067,
      102527513,
      1947304261,
      102191575,
      85633793,
      102087579,
      85922583,
      554784711,
      85688637,
      1947304303,
      1947304259,
      102085387
    ],
    "wof:country": "US",
    "wof:created": 1791130420,
    "wof:geomhash": "5c4ab4afb4473393075e7e0145a9edb2",
    "wof:hierarchy": [
      {
        "building_id": 1947304067,
        "campus_id": 102527513,
        "concourse_id": 1947304261,
        "continent_id": 102191575,
        "country_id": 85633793,
        "county_id": 102087579,
        "custom_id": 2048505997,
        "flight_id": 2048505997,
        "locality_id": 85922583,
        "postalcode_id": 554784711,
        "region_id": 85688637,
        "venue_id": 1947304303,
        "wing_id": 1947304259
      },
      {
        "building_id": 1947304067,
        "campus_id": 102527513,
        "concourse_id": 1947304261,
        "continent_id": 102191575,
        "country_id": 85633793,
        "county_id": 102085387,
        "custom_id": 2048505997,
        "flight_id": 2048505997,
        "region_id": 85688637,
        "venue_id": 1947304303,
        "wing_id": 1947304259
      }
    ],
    "wof:id": 2048505997,
    "wof:involves": [
      102527733,
      102527513,
      1159286153,
      1947304303,
      1159284193
    ],
    "wof:lastmodified": 1791130420,
    "wof:name": "QR3335 (SFO-BOI)",
    "wof:parent_id": 1947304303,
    "wof:placetype": "custom",
    "wof:placetype_alt": [
      "flight"
    ],
    "wof:repo": "sfomuseum-data-flights-2026-10",
    "wof:superseded_by": [],
    "wof:supersedes": []
  },
  "bbox": [
    -122.370943,
    37.61799,
    -116.224634,
    43.564048
  ],
  "geometry": {"type":"MultiPoint","coordinates":[[-122.370943,37.61799],[-116.224634,43.564048]]}
}
