{
  "id": 2048506441,
  "type": "Feature",
  "properties": {
    "geom:area": 0,
    "geom:bbox": "-122.363530,37.632890,-121.242350,37.984680",
    "geom:latitude": 37.87578336109704,
    "geom:longitude": -121.8232889715355,
    "src:alt_label": "swim-takeoff",
    "src:geom": "swim",
    "swim:elevations": [
      122,
      416,
      729,
      873,
      1154,
      1241,
      1496,
      1760,
      2186,
      2449,
      2911,
      3213,
      3383,
      3929,
      4055,
      4382,
      4559,
      4856,
      4952,
      5107,
      5184,
      5411,
      5760,
      5887,
      6174
    ],
    "swim:geom": "takeoff",
    "swim:timestamps": [
      1791028913,
      1791028934,
      1791028968,
      1791028985,
      1791029029,
      1791029047,
      1791029084,
      1791029107,
      1791029142,
      1791029165,
      1791029205,
      1791029239,
      1791029260,
      1791029307,
      1791029320,
      1791029357,
      1791029371,
      1791029417,
      1791029436,
      1791029457,
      1791029469,
      1791029497,
      1791029537,
      1791029561,
      1791029601
    ],
    "wof:geomhash": "2a66210d8ecf8c49a44f7b101eca4145",
    "wof:id": 2048506441,
    "wof:repo": "sfomuseum-data-flights-2026-10"
  },
  "bbox": [
    -122.36353,
    37.63289,
    -121.24235,
    37.98468
  ],
  "geometry": {"type":"LineString","coordinates":[[-122.36353,37.63289],[-122.34844,37.64686],[-122.31856,37.66191],[-122.30273,37.67014],[-122.26008,37.69399],[-122.24033,37.70435],[-122.19349,37.72844],[-122.16212,37.74489],[-122.11588,37.77316],[-122.08507,37.79196],[-122.03141,37.82463],[-121.98306,37.8538],[-121.95157,37.87248],[-121.88039,37.91581],[-121.86022,37.92833],[-121.79453,37.95368],[-121.76695,37.95623],[-121.67359,37.96161],[-121.6312,37.96389],[-121.58378,37.96636],[-121.55729,37.96775],[-121.49214,37.97118],[-121.39813,37.97613],[-121.34082,37.97924],[-121.24235,37.98468]]}
}
