{
  "id": 2048560401,
  "type": "Feature",
  "properties": {
    "geom:area": 0,
    "geom:bbox": "-122.385930,37.641590,-121.258640,38.036120",
    "geom:latitude": 37.94674705395065,
    "geom:longitude": -121.93733571203107,
    "src:alt_label": "swim-takeoff",
    "src:geom": "swim",
    "swim:elevations": [
      278,
      659,
      802,
      853,
      1103,
      1271,
      1608,
      1797,
      2323,
      2580,
      2692,
      2819,
      3107,
      3343,
      3580,
      3860,
      3965,
      4106,
      4379,
      4665,
      4745,
      5021,
      5188,
      5260,
      5366,
      5700,
      5819,
      5929,
      6059,
      6113,
      6394,
      6525,
      6702
    ],
    "swim:geom": "takeoff",
    "swim:timestamps": [
      1791583587,
      1791583617,
      1791583629,
      1791583635,
      1791583673,
      1791583700,
      1791583737,
      1791583754,
      1791583798,
      1791583823,
      1791583831,
      1791583840,
      1791583870,
      1791583905,
      1791583926,
      1791583952,
      1791583967,
      1791583990,
      1791584026,
      1791584059,
      1791584076,
      1791584111,
      1791584131,
      1791584148,
      1791584163,
      1791584197,
      1791584213,
      1791584227,
      1791584244,
      1791584251,
      1791584295,
      1791584313,
      1791584342
    ],
    "wof:geomhash": "0f687cc1a62c50ae0cedc223f7e7e3b6",
    "wof:id": 2048560401,
    "wof:repo": "sfomuseum-data-flights-2026-10"
  },
  "bbox": [
    -122.38593,
    37.64159,
    -121.25864,
    38.03612
  ],
  "geometry": {"type":"LineString","coordinates":[[-122.35628,37.64159],[-122.33285,37.66065],[-122.32381,37.66813],[-122.32001,37.67242],[-122.31456,37.70506],[-122.32749,37.73009],[-122.34845,37.76929],[-122.35807,37.78843],[-122.38292,37.83948],[-122.38593,37.87229],[-122.38516,37.88343],[-122.38451,37.89562],[-122.36278,37.93359],[-122.30469,37.95646],[-122.26406,37.96429],[-122.21492,37.97412],[-122.18419,37.98024],[-122.13632,37.98689],[-122.0558,37.98835],[-121.98029,37.98914],[-121.93896,37.98923],[-121.85425,37.98962],[-121.80577,37.98961],[-121.76464,37.99247],[-121.72709,37.99578],[-121.63893,38.00395],[-121.59723,38.00771],[-121.56117,38.01085],[-121.51732,38.01459],[-121.49878,38.01613],[-121.38468,38.02565],[-121.33658,38.02958],[-121.25864,38.03612]]}
}
