{
  "id": 2048481293,
  "type": "Feature",
  "properties": {
    "date:inception_lower": "2026-10-01",
    "date:inception_upper": "2026-10-01",
    "edtf:cessation": "",
    "edtf:inception": "2026-10-01",
    "flysfo:actual_timestamp": -1,
    "flysfo:airline": "AA",
    "flysfo:date": "2026-10-01",
    "flysfo:estimated_timestamp": -1,
    "flysfo:event": "A",
    "flysfo:flight_number": "AA446",
    "flysfo:gate": "",
    "flysfo:journey": "DFW-SFO",
    "flysfo:scheduled_timestamp": 1790839800,
    "flysfo:timestamp": 1790839800,
    "geom:area": 0,
    "geom:bbox": "-122.370943,32.903660,-97.050966,37.617990",
    "geom:latitude": 35.260825,
    "geom:longitude": -109.7109545,
    "iata:airline": "AA",
    "icao:airline": "AAL",
    "lbl:latitude": 37.61799,
    "lbl:longitude": -122.370943,
    "sfomuseum:airline_id": 1159283849,
    "sfomuseum:arrival_id": 102527513,
    "sfomuseum:departure_id": 102528541,
    "sfomuseum:flight_id": "20261001-A-AAL-446",
    "sfomuseum:flight_number": [
      "AAL446",
      "AA446"
    ],
    "sfomuseum:placetype": "flight",
    "src:geom": "flysfo",
    "wof:belongsto": [],
    "wof:country": "US",
    "wof:created": 1790956859,
    "wof:geomhash": "865973335526f09b753756c305bf4946",
    "wof:hierarchy": [
      {
        "custom_id": 2048481293,
        "flight_id": 2048481293
      }
    ],
    "wof:id": 2048481293,
    "wof:involves": [
      102527513,
      102528541,
      1159283849,
      -1
    ],
    "wof:lastmodified": 1790956859,
    "wof:name": "AA446 (DFW-SFO)",
    "wof:parent_id": -1,
    "wof:placetype": "custom",
    "wof:placetype_alt": [
      "flight"
    ],
    "wof:repo": "sfomuseum-data-flights-2026-10",
    "wof:superseded_by": [],
    "wof:supersedes": []
  },
  "bbox": [
    -122.370943,
    32.90366,
    -97.050966,
    37.61799
  ],
  "geometry": {"type":"MultiPoint","coordinates":[[-97.050966,32.90366],[-122.370943,37.61799]]}
}
