{
  "id": 2048514871,
  "type": "Feature",
  "properties": {
    "geom:area": 0,
    "geom:bbox": "-122.321540,37.713770,-121.962760,38.513760",
    "geom:latitude": 38.11445961658458,
    "geom:longitude": -122.18162823470674,
    "src:alt_label": "swim-takeoff",
    "src:geom": "swim",
    "swim:elevations": [
      941,
      1407,
      1516,
      1781,
      1964,
      2069,
      2226,
      2406,
      2650,
      2851,
      3002,
      3296,
      3530,
      3979,
      4201,
      4327,
      4483,
      4546,
      4752,
      4859,
      4916,
      4970,
      5292
    ],
    "swim:geom": "takeoff",
    "swim:timestamps": [
      1791134104,
      1791134149,
      1791134164,
      1791134197,
      1791134223,
      1791134233,
      1791134252,
      1791134270,
      1791134297,
      1791134330,
      1791134346,
      1791134382,
      1791134408,
      1791134450,
      1791134477,
      1791134517,
      1791134548,
      1791134562,
      1791134608,
      1791134636,
      1791134644,
      1791134657,
      1791134698
    ],
    "wof:geomhash": "3a54ee8841cfae6677bd709a3c09c269",
    "wof:id": 2048514871,
    "wof:repo": "sfomuseum-data-flights-2026-10"
  },
  "bbox": [
    -122.32154,
    37.71377,
    -121.96276,
    38.51376
  ],
  "geometry": {"type":"LineString","coordinates":[[-122.22392,37.71377],[-122.22226,37.76646],[-122.23875,37.7803],[-122.27825,37.80971],[-122.30825,37.83295],[-122.31683,37.84466],[-122.32154,37.86902],[-122.31363,37.89185],[-122.29766,37.92737],[-122.27845,37.96963],[-122.26878,37.99105],[-122.24782,38.03795],[-122.23205,38.07246],[-122.20625,38.12955],[-122.18885,38.16789],[-122.1629,38.22496],[-122.13884,38.27119],[-122.12511,38.29108],[-122.07452,38.36186],[-122.04134,38.4079],[-122.03143,38.42153],[-122.01549,38.44316],[-121.96276,38.51376]]}
}
