{
  "id": 2048545695,
  "type": "Feature",
  "properties": {
    "geom:area": 0,
    "geom:bbox": "-122.352950,37.492010,-121.243540,37.611770",
    "geom:latitude": 37.5466832913104,
    "geom:longitude": -121.80296711892446,
    "src:alt_label": "swim-approach",
    "src:geom": "swim",
    "swim:elevations": [
      4545,
      4210,
      3874,
      3670,
      3252,
      3132,
      3110,
      2868,
      2604,
      2560,
      2560,
      2286,
      2105,
      1980,
      1697,
      1550,
      1454,
      1401,
      1129,
      919,
      892,
      638,
      473,
      364,
      133,
      41
    ],
    "swim:geom": "approach",
    "swim:timestamps": [
      1791453342,
      1791453378,
      1791453412,
      1791453436,
      1791453478,
      1791453508,
      1791453513,
      1791453554,
      1791453578,
      1791453623,
      1791453633,
      1791453674,
      1791453717,
      1791453746,
      1791453794,
      1791453823,
      1791453860,
      1791453871,
      1791453912,
      1791453956,
      1791453960,
      1791453993,
      1791454031,
      1791454057,
      1791454108,
      1791454132
    ],
    "wof:geomhash": "00782e66cec264dfed1ad6d457e36108",
    "wof:id": 2048545695,
    "wof:repo": "sfomuseum-data-flights-2026-10"
  },
  "bbox": [
    -122.35295,
    37.49201,
    -121.24354,
    37.61177
  ],
  "geometry": {"type":"LineString","coordinates":[[-121.24354,37.59521],[-121.31837,37.58551],[-121.3877,37.57787],[-121.43504,37.57246],[-121.5197,37.5626],[-121.57699,37.55609],[-121.58523,37.55516],[-121.658,37.54277],[-121.69876,37.53283],[-121.77173,37.51552],[-121.78723,37.51184],[-121.84701,37.49751],[-121.91185,37.49201],[-121.95318,37.49293],[-122.01776,37.50454],[-122.0544,37.51637],[-122.09908,37.53086],[-122.11089,37.53466],[-122.15473,37.54871],[-122.19662,37.56234],[-122.19967,37.56332],[-122.23132,37.5736],[-122.26579,37.58456],[-122.28918,37.59116],[-122.33356,37.60416],[-122.35295,37.61177]]}
}
