{
  "id": 2048528023,
  "type": "Feature",
  "properties": {
    "geom:area": 0,
    "geom:bbox": "-122.756900,37.419710,-122.090300,38.517290",
    "geom:latitude": 37.85661076528292,
    "geom:longitude": -122.46737622594135,
    "src:alt_label": "swim-approach",
    "src:geom": "swim",
    "swim:elevations": [
      7275,
      7198,
      7095,
      6906,
      6704,
      6581,
      6463,
      6218,
      6085,
      5848,
      5364,
      5301,
      4985,
      4957,
      4677,
      4566,
      4051,
      3914,
      3683,
      3606,
      3400,
      3350,
      3353,
      3353,
      3353,
      3036,
      2939,
      2745,
      2566,
      2480,
      2349,
      2139,
      2133,
      2134,
      2107,
      1877,
      1830,
      1789,
      1485,
      1433,
      1393,
      1083,
      983,
      680,
      528,
      367,
      269,
      218,
      65
    ],
    "swim:geom": "approach",
    "swim:timestamps": [
      1791277610,
      1791277627,
      1791277651,
      1791277687,
      1791277728,
      1791277753,
      1791277775,
      1791277824,
      1791277845,
      1791277868,
      1791277910,
      1791277917,
      1791277947,
      1791277951,
      1791277976,
      1791277988,
      1791278037,
      1791278050,
      1791278088,
      1791278105,
      1791278151,
      1791278164,
      1791278204,
      1791278224,
      1791278256,
      1791278303,
      1791278315,
      1791278348,
      1791278395,
      1791278404,
      1791278423,
      1791278457,
      1791278460,
      1791278476,
      1791278500,
      1791278541,
      1791278567,
      1791278580,
      1791278632,
      1791278646,
      1791278658,
      1791278698,
      1791278708,
      1791278747,
      1791278781,
      1791278812,
      1791278839,
      1791278852,
      1791278892
    ],
    "wof:geomhash": "55a0d57aad03bfd5eef77a9c21aa6a44",
    "wof:id": 2048528023,
    "wof:repo": "sfomuseum-data-flights-2026-10"
  },
  "bbox": [
    -122.7569,
    37.41971,
    -122.0903,
    38.51729
  ],
  "geometry": {"type":"LineString","coordinates":[[-122.46529,38.51729],[-122.49075,38.49278],[-122.5261,38.45857],[-122.57741,38.40891],[-122.63772,38.35041],[-122.67233,38.31672],[-122.70502,38.28497],[-122.7569,38.20934],[-122.75104,38.1713],[-122.73895,38.12911],[-122.71773,38.05532],[-122.7143,38.04327],[-122.69943,37.99195],[-122.69778,37.98618],[-122.68549,37.9433],[-122.67967,37.92303],[-122.62507,37.85478],[-122.60809,37.83871],[-122.55819,37.79156],[-122.53861,37.773],[-122.48834,37.7253],[-122.47535,37.71311],[-122.43735,37.67734],[-122.4186,37.65974],[-122.38757,37.63035],[-122.35352,37.58398],[-122.34606,37.57164],[-122.32578,37.53877],[-122.29634,37.49082],[-122.29074,37.48211],[-122.27014,37.46753],[-122.22789,37.45215],[-122.22325,37.4505],[-122.20347,37.44333],[-122.17232,37.43201],[-122.12006,37.41971],[-122.09302,37.43801],[-122.0903,37.45164],[-122.12577,37.49842],[-122.13645,37.5095],[-122.14509,37.51836],[-122.18046,37.53916],[-122.18976,37.54326],[-122.22775,37.559],[-122.26137,37.5731],[-122.2895,37.58496],[-122.30995,37.59365],[-122.31977,37.59784],[-122.35005,37.61054]]}
}
