{
  "id": 2048509907,
  "type": "Feature",
  "properties": {
    "geom:area": 0,
    "geom:bbox": "-122.358890,37.491100,-121.263720,37.614330",
    "geom:latitude": 37.54608951164837,
    "geom:longitude": -121.81621543697825,
    "src:alt_label": "swim-approach",
    "src:geom": "swim",
    "swim:elevations": [
      4781,
      4496,
      4345,
      4176,
      3864,
      3612,
      3498,
      3122,
      3020,
      2949,
      2875,
      2788,
      2661,
      2527,
      2379,
      2131,
      2057,
      1939,
      1828,
      1829,
      1829,
      1576,
      1286,
      1084,
      945,
      789,
      748,
      642,
      556,
      427,
      251,
      171,
      0
    ],
    "swim:geom": "approach",
    "swim:timestamps": [
      1791149484,
      1791149515,
      1791149533,
      1791149552,
      1791149591,
      1791149626,
      1791149642,
      1791149696,
      1791149711,
      1791149721,
      1791149731,
      1791149747,
      1791149765,
      1791149807,
      1791149835,
      1791149873,
      1791149889,
      1791149911,
      1791149952,
      1791149968,
      1791149971,
      1791150015,
      1791150051,
      1791150078,
      1791150108,
      1791150147,
      1791150153,
      1791150174,
      1791150189,
      1791150218,
      1791150260,
      1791150283,
      1791150326
    ],
    "wof:geomhash": "6a4f64857469c765fade256e61abae6f",
    "wof:id": 2048509907,
    "wof:repo": "sfomuseum-data-flights-2026-10"
  },
  "bbox": [
    -122.35889,
    37.4911,
    -121.26372,
    37.61433
  ],
  "geometry": {"type":"LineString","coordinates":[[-121.26372,37.59254],[-121.32435,37.58493],[-121.3577,37.58148],[-121.39209,37.57769],[-121.46028,37.56989],[-121.52089,37.56288],[-121.54647,37.5599],[-121.63099,37.54936],[-121.65224,37.54432],[-121.66688,37.54074],[-121.68126,37.53715],[-121.70413,37.53164],[-121.72899,37.52569],[-121.78655,37.51197],[-121.82643,37.50249],[-121.87769,37.4911],[-121.89936,37.49126],[-121.92923,37.49253],[-121.98397,37.49447],[-122.00462,37.49978],[-122.0084,37.50104],[-122.06289,37.51912],[-122.105,37.5326],[-122.13644,37.54273],[-122.17121,37.55396],[-122.21148,37.56717],[-122.21775,37.56924],[-122.23914,37.57626],[-122.25499,37.58142],[-122.28155,37.58914],[-122.31386,37.59858],[-122.32957,37.6033],[-122.35889,37.61433]]}
}
