{
  "id": 2048545621,
  "type": "Feature",
  "properties": {
    "date:inception_lower": "2026-10-08",
    "date:inception_upper": "2026-10-08",
    "edtf:cessation": "",
    "edtf:inception": "2026-10-08",
    "flysfo:actual_timestamp": -1,
    "flysfo:airline": "JL",
    "flysfo:base_airline": "",
    "flysfo:base_flight_number": "8401",
    "flysfo:date": "2026-10-08",
    "flysfo:estimated_timestamp": 1791475620,
    "flysfo:event": "A",
    "flysfo:flight_number": "JL2",
    "flysfo:gate": "A1",
    "flysfo:journey": "HND-SFO",
    "flysfo:scheduled_timestamp": 1791477900,
    "flysfo:timestamp": 1791477900,
    "geom:area": 0,
    "geom:bbox": "-122.370943,35.554085,139.775638,37.617990",
    "geom:latitude": 36.5860375,
    "geom:longitude": 8.702347499999995,
    "iata:airline": "JL",
    "iata:base_airline": "",
    "icao:airline": "JAL",
    "icao:base_airline": "AAL",
    "lbl:latitude": 37.61799,
    "lbl:longitude": -122.370943,
    "sfomuseum:airline_id": 1159284563,
    "sfomuseum:arrival_id": 102527513,
    "sfomuseum:base_flight_id": "20261008-A-AAL-8401",
    "sfomuseum:departure_id": 102541591,
    "sfomuseum:flight_id": "20261008-A-JAL-2",
    "sfomuseum:flight_number": [
      "JAL2",
      "JL2"
    ],
    "sfomuseum:placetype": "flight",
    "src:geom": "flysfo",
    "wof:belongsto": [
      1947304067,
      102527513,
      1947304073,
      102191575,
      85633793,
      102087579,
      85922583,
      554784711,
      85688637,
      1947304079,
      1947304069,
      102085387
    ],
    "wof:country": "US",
    "wof:created": 1791562018,
    "wof:geomhash": "99c2bdbe61e95eb26a51b43b0c172358",
    "wof:hierarchy": [
      {
        "building_id": 1947304067,
        "campus_id": 102527513,
        "concourse_id": 1947304073,
        "continent_id": 102191575,
        "country_id": 85633793,
        "county_id": 102087579,
        "custom_id": 2048545621,
        "flight_id": 2048545621,
        "locality_id": 85922583,
        "postalcode_id": 554784711,
        "region_id": 85688637,
        "venue_id": 1947304079,
        "wing_id": 1947304069
      },
      {
        "building_id": 1947304067,
        "campus_id": 102527513,
        "concourse_id": 1947304073,
        "continent_id": 102191575,
        "country_id": 85633793,
        "county_id": 102085387,
        "custom_id": 2048545621,
        "flight_id": 2048545621,
        "region_id": 85688637,
        "venue_id": 1947304079,
        "wing_id": 1947304069
      }
    ],
    "wof:id": 2048545621,
    "wof:involves": [
      102527513,
      102541591,
      1159284563,
      1947304079,
      1159283849
    ],
    "wof:lastmodified": 1791562018,
    "wof:name": "JL2 (HND-SFO)",
    "wof:parent_id": 1947304079,
    "wof:placetype": "custom",
    "wof:placetype_alt": [
      "flight"
    ],
    "wof:repo": "sfomuseum-data-flights-2026-10",
    "wof:superseded_by": [],
    "wof:supersedes": []
  },
  "bbox": [
    -122.370943,
    35.554085,
    139.775638,
    37.61799
  ],
  "geometry": {"type":"MultiPoint","coordinates":[[139.775638,35.554085],[-122.370943,37.61799]]}
}
