{
  "id": 2048494097,
  "type": "Feature",
  "properties": {
    "geom:area": 0,
    "geom:bbox": "-122.351980,37.495470,-121.271430,37.611330",
    "geom:latitude": 37.543626224015256,
    "geom:longitude": -121.81538200202407,
    "src:alt_label": "swim-approach",
    "src:geom": "swim",
    "swim:elevations": [
      4489,
      4385,
      4230,
      4084,
      3964,
      3789,
      3453,
      3383,
      3382,
      3372,
      3340,
      3116,
      2871,
      2644,
      2357,
      2114,
      1864,
      1663,
      1498,
      1285,
      1204,
      914,
      823,
      550,
      406,
      393,
      243,
      51
    ],
    "swim:geom": "approach",
    "swim:timestamps": [
      1790961448,
      1790961459,
      1790961475,
      1790961490,
      1790961502,
      1790961520,
      1790961554,
      1790961583,
      1790961626,
      1790961639,
      1790961665,
      1790961701,
      1790961748,
      1790961775,
      1790961804,
      1790961831,
      1790961860,
      1790961890,
      1790961917,
      1790961951,
      1790961970,
      1790962015,
      1790962031,
      1790962078,
      1790962108,
      1790962112,
      1790962144,
      1790962194
    ],
    "wof:geomhash": "3d483f0cfb022f2afd95be0e986c166a",
    "wof:id": 2048494097,
    "wof:repo": "sfomuseum-data-flights-2026-10"
  },
  "bbox": [
    -122.35198,
    37.49547,
    -121.27143,
    37.61133
  ],
  "geometry": {"type":"LineString","coordinates":[[-121.27143,37.59148],[-121.29415,37.58866],[-121.32709,37.58525],[-121.35729,37.58193],[-121.38216,37.57913],[-121.41829,37.57497],[-121.48766,37.56684],[-121.54627,37.55996],[-121.62062,37.52813],[-121.64537,37.52211],[-121.6929,37.51814],[-121.75492,37.5131],[-121.82937,37.50678],[-121.86823,37.50348],[-121.90866,37.50028],[-121.94609,37.49714],[-121.98497,37.49547],[-122.02257,37.50606],[-122.05729,37.51724],[-122.10039,37.531],[-122.12369,37.53873],[-122.17881,37.55665],[-122.19813,37.56287],[-122.25101,37.57988],[-122.2803,37.58849],[-122.28404,37.58955],[-122.31175,37.5979],[-122.35198,37.61133]]}
}
