{
  "id": 2048525029,
  "type": "Feature",
  "properties": {
    "geom:area": 0,
    "geom:bbox": "-123.505420,37.084560,-122.405210,37.665920",
    "geom:latitude": 37.3997330916656,
    "geom:longitude": -122.9593197226086,
    "src:alt_label": "swim-takeoff",
    "src:geom": "swim",
    "swim:elevations": [
      371,
      766,
      1050,
      1255,
      1393,
      1807,
      2161,
      2331,
      2722,
      3118,
      3279,
      3447,
      3613,
      3812,
      4241,
      4508,
      4769,
      5056,
      5357,
      5729,
      5843,
      6323,
      6578,
      6790,
      6943,
      7163
    ],
    "swim:geom": "takeoff",
    "swim:timestamps": [
      1791188843,
      1791188872,
      1791188904,
      1791188936,
      1791188957,
      1791188996,
      1791189026,
      1791189038,
      1791189067,
      1791189098,
      1791189127,
      1791189151,
      1791189167,
      1791189182,
      1791189220,
      1791189245,
      1791189271,
      1791189309,
      1791189339,
      1791189381,
      1791189394,
      1791189443,
      1791189470,
      1791189495,
      1791189516,
      1791189547
    ],
    "wof:geomhash": "25b1f543c0acc96c63493ac3c0a929c2",
    "wof:id": 2048525029,
    "wof:repo": "sfomuseum-data-flights-2026-10"
  },
  "bbox": [
    -123.50542,
    37.08456,
    -122.40521,
    37.66592
  ],
  "geometry": {"type":"LineString","coordinates":[[-122.40521,37.63132],[-122.43406,37.64392],[-122.46633,37.65856],[-122.50733,37.66592],[-122.53465,37.65444],[-122.5831,37.62375],[-122.62255,37.59872],[-122.63852,37.58846],[-122.67809,37.56598],[-122.72184,37.54155],[-122.7639,37.51718],[-122.80181,37.49507],[-122.82761,37.48021],[-122.85297,37.46548],[-122.9163,37.4288],[-122.95874,37.40427],[-123.00374,37.37793],[-123.0705,37.33937],[-123.12408,37.30822],[-123.20076,37.2634],[-123.22496,37.24917],[-123.31513,37.19642],[-123.3644,37.16758],[-123.41105,37.14017],[-123.44851,37.11808],[-123.50542,37.08456]]}
}
