{
  "id": 2048554265,
  "type": "Feature",
  "properties": {
    "geom:area": 0,
    "geom:bbox": "-122.351190,37.491710,-121.249970,37.611060",
    "geom:latitude": 37.54652059118211,
    "geom:longitude": -121.8052549964958,
    "src:alt_label": "swim-approach",
    "src:geom": "swim",
    "swim:elevations": [
      4865,
      4611,
      4305,
      3951,
      3866,
      3652,
      3615,
      3230,
      3198,
      3130,
      2967,
      2942,
      2725,
      2589,
      2558,
      2468,
      2263,
      2072,
      2071,
      1857,
      1604,
      1368,
      1272,
      1035,
      1006,
      914,
      711,
      619,
      555,
      549,
      397,
      246,
      94,
      51
    ],
    "swim:geom": "approach",
    "swim:timestamps": [
      1791582178,
      1791582202,
      1791582232,
      1791582265,
      1791582277,
      1791582298,
      1791582301,
      1791582357,
      1791582367,
      1791582390,
      1791582422,
      1791582425,
      1791582454,
      1791582472,
      1791582481,
      1791582504,
      1791582534,
      1791582567,
      1791582570,
      1791582619,
      1791582657,
      1791582688,
      1791582702,
      1791582746,
      1791582755,
      1791582804,
      1791582835,
      1791582850,
      1791582859,
      1791582875,
      1791582909,
      1791582941,
      1791582984,
      1791582997
    ],
    "wof:geomhash": "1f7e90f5bb61d4bf944766f7314f36be",
    "wof:id": 2048554265,
    "wof:repo": "sfomuseum-data-flights-2026-10"
  },
  "bbox": [
    -122.35119,
    37.49171,
    -121.24997,
    37.61106
  ],
  "geometry": {"type":"LineString","coordinates":[[-121.24997,37.5946],[-121.29231,37.58924],[-121.34689,37.58306],[-121.40672,37.57655],[-121.42892,37.57401],[-121.46666,37.56958],[-121.47205,37.56891],[-121.56989,37.55728],[-121.58719,37.55522],[-121.62522,37.5505],[-121.6766,37.53817],[-121.68119,37.53707],[-121.7255,37.52674],[-121.75157,37.52055],[-121.76488,37.51738],[-121.79946,37.50911],[-121.8448,37.49827],[-121.89251,37.49171],[-121.89684,37.49187],[-121.96761,37.49361],[-122.01909,37.50502],[-122.05711,37.51732],[-122.07321,37.52246],[-122.12182,37.53825],[-122.13156,37.54136],[-122.18018,37.55711],[-122.21043,37.56692],[-122.22564,37.5718],[-122.23496,37.57482],[-122.25126,37.58008],[-122.28552,37.59021],[-122.31033,37.59765],[-122.34175,37.60751],[-122.35119,37.61106]]}
}
