{
  "id": 2048512215,
  "type": "Feature",
  "properties": {
    "geom:area": 0,
    "geom:bbox": "-122.358280,37.638220,-121.254340,37.964210",
    "geom:latitude": 37.83979395983595,
    "geom:longitude": -121.81980824189168,
    "src:alt_label": "swim-takeoff",
    "src:geom": "swim",
    "swim:elevations": [
      396,
      622,
      753,
      853,
      1057,
      1329,
      1611,
      1931,
      2337,
      2705,
      3013,
      3072,
      3258,
      3497,
      3885,
      4201,
      4384,
      4568,
      4618,
      4756,
      4840,
      5112,
      5287,
      5432,
      5631,
      5843
    ],
    "swim:geom": "takeoff",
    "swim:timestamps": [
      1791105597,
      1791105618,
      1791105645,
      1791105675,
      1791105711,
      1791105738,
      1791105765,
      1791105798,
      1791105835,
      1791105866,
      1791105896,
      1791105901,
      1791105918,
      1791105941,
      1791105975,
      1791106006,
      1791106028,
      1791106053,
      1791106065,
      1791106100,
      1791106118,
      1791106162,
      1791106190,
      1791106206,
      1791106230,
      1791106264
    ],
    "wof:geomhash": "a8e23c139af2fceae3d43c8f12610ff8",
    "wof:id": 2048512215,
    "wof:repo": "sfomuseum-data-flights-2026-10"
  },
  "bbox": [
    -122.35828,
    37.63822,
    -121.25434,
    37.96421
  ],
  "geometry": {"type":"LineString","coordinates":[[-122.35828,37.63822],[-122.34216,37.64944],[-122.31831,37.66264],[-122.28759,37.67876],[-122.24415,37.70211],[-122.20822,37.72045],[-122.17171,37.73957],[-122.1277,37.76264],[-122.07591,37.78954],[-122.03148,37.8126],[-121.98482,37.82981],[-121.97681,37.83128],[-121.94755,37.83673],[-121.90955,37.84392],[-121.85105,37.85499],[-121.79727,37.86496],[-121.75863,37.87206],[-121.71303,37.88042],[-121.69014,37.88461],[-121.62154,37.89719],[-121.58507,37.90384],[-121.48873,37.9215],[-121.42494,37.93327],[-121.38784,37.94],[-121.33448,37.94965],[-121.25434,37.96421]]}
}
