{
  "id": 2048545123,
  "type": "Feature",
  "properties": {
    "geom:area": 0,
    "geom:bbox": "-122.786940,37.434340,-122.160790,38.476980",
    "geom:latitude": 37.83307852782936,
    "geom:longitude": -122.51043381146769,
    "src:alt_label": "swim-approach",
    "src:geom": "swim",
    "swim:elevations": [
      7922,
      7698,
      7401,
      7179,
      7050,
      6840,
      6596,
      6272,
      6138,
      5721,
      5375,
      5176,
      4895,
      4691,
      4422,
      4184,
      4012,
      3831,
      3532,
      3360,
      3353,
      3353,
      3353,
      3353,
      3353,
      3290,
      3172,
      2836,
      2676,
      2471,
      2350,
      2173,
      1993,
      1825,
      1829,
      1829,
      1829,
      1640,
      1522,
      1411,
      1308,
      1108,
      880,
      716,
      608,
      455,
      364,
      303,
      242,
      230,
      74,
      0
    ],
    "swim:geom": "approach",
    "swim:timestamps": [
      1791500871,
      1791500893,
      1791500918,
      1791500938,
      1791500950,
      1791500971,
      1791500995,
      1791501026,
      1791501039,
      1791501080,
      1791501111,
      1791501133,
      1791501163,
      1791501183,
      1791501215,
      1791501238,
      1791501260,
      1791501286,
      1791501328,
      1791501352,
      1791501387,
      1791501394,
      1791501411,
      1791501426,
      1791501447,
      1791501477,
      1791501493,
      1791501528,
      1791501544,
      1791501565,
      1791501577,
      1791501601,
      1791501623,
      1791501649,
      1791501666,
      1791501684,
      1791501711,
      1791501746,
      1791501764,
      1791501790,
      1791501810,
      1791501834,
      1791501867,
      1791501894,
      1791501909,
      1791501953,
      1791501982,
      1791502003,
      1791502018,
      1791502024,
      1791502067,
      1791502084
    ],
    "wof:geomhash": "6b217dadcd3a6d63c20be52a8f1916ac",
    "wof:id": 2048545123,
    "wof:repo": "sfomuseum-data-flights-2026-10"
  },
  "bbox": [
    -122.78694,
    37.43434,
    -122.16079,
    38.47698
  ],
  "geometry": {"type":"LineString","coordinates":[[-122.78694,38.47698],[-122.78354,38.43255],[-122.77955,38.38398],[-122.77654,38.34443],[-122.77497,38.32329],[-122.77206,38.28516],[-122.76881,38.24233],[-122.75659,38.18755],[-122.75013,38.16514],[-122.73015,38.09603],[-122.71523,38.04439],[-122.70487,38.00857],[-122.69078,37.96],[-122.68136,37.92728],[-122.65443,37.88219],[-122.62562,37.85432],[-122.59958,37.8297],[-122.57018,37.80199],[-122.52559,37.7599],[-122.49952,37.73521],[-122.46243,37.70036],[-122.45535,37.69371],[-122.43787,37.67727],[-122.42377,37.66402],[-122.40486,37.64625],[-122.37818,37.62106],[-122.36499,37.60723],[-122.34476,37.5726],[-122.33616,37.55753],[-122.32369,37.53644],[-122.31659,37.52464],[-122.30235,37.50103],[-122.28905,37.47907],[-122.26704,37.45905],[-122.24593,37.45079],[-122.22511,37.44297],[-122.1928,37.43434],[-122.1712,37.45864],[-122.16715,37.47369],[-122.16079,37.4962],[-122.16453,37.51178],[-122.17868,37.52683],[-122.20001,37.54411],[-122.22159,37.55369],[-122.23356,37.55904],[-122.26706,37.5733],[-122.28682,37.58163],[-122.30095,37.58757],[-122.31103,37.59183],[-122.3152,37.59358],[-122.34672,37.60676],[-122.35851,37.61184]]}
}
