{
  "id": 2048503445,
  "type": "Feature",
  "properties": {
    "date:inception_lower": "2026-10-03",
    "date:inception_upper": "2026-10-03",
    "edtf:cessation": "",
    "edtf:inception": "2026-10-03",
    "flysfo:actual_timestamp": -1,
    "flysfo:airline": "WS",
    "flysfo:base_airline": "",
    "flysfo:base_flight_number": "3926",
    "flysfo:date": "2026-10-03",
    "flysfo:estimated_timestamp": 1791059340,
    "flysfo:event": "A",
    "flysfo:flight_number": "WS7452",
    "flysfo:gate": "C3",
    "flysfo:journey": "SEA-SFO",
    "flysfo:scheduled_timestamp": 1791057240,
    "flysfo:timestamp": 1791059340,
    "geom:area": 0,
    "geom:bbox": "-122.370943,37.617990,-122.304268,47.441823",
    "geom:latitude": 42.529906499999996,
    "geom:longitude": -122.3376055,
    "iata:airline": "WS",
    "iata:base_airline": "",
    "icao:airline": "WJA",
    "icao:base_airline": "SAS",
    "lbl:latitude": 37.615398,
    "lbl:longitude": -122.383426,
    "sfomuseum:airline_id": 1159285523,
    "sfomuseum:arrival_id": 102527513,
    "sfomuseum:base_flight_id": "20261003-A-SAS-3926",
    "sfomuseum:departure_id": 102533269,
    "sfomuseum:flight_id": "20261003-A-WJA-7452",
    "sfomuseum:flight_number": [
      "WJA7452",
      "WS7452"
    ],
    "sfomuseum:placetype": "flight",
    "src:geom": "flysfo",
    "wof:belongsto": [
      1947304067,
      102527513,
      1947304663,
      102191575,
      85633793,
      102087579,
      85922583,
      554784711,
      85688637,
      1947304671,
      1947304591,
      102085387
    ],
    "wof:country": "US",
    "wof:created": 1791130139,
    "wof:geomhash": "3123a4aff4021144fa8973299956ba97",
    "wof:hierarchy": [
      {
        "building_id": 1947304067,
        "campus_id": 102527513,
        "concourse_id": 1947304663,
        "continent_id": 102191575,
        "country_id": 85633793,
        "county_id": 102087579,
        "custom_id": 2048503445,
        "flight_id": 2048503445,
        "locality_id": 85922583,
        "postalcode_id": 554784711,
        "region_id": 85688637,
        "venue_id": 1947304671,
        "wing_id": 1947304591
      },
      {
        "building_id": 1947304067,
        "campus_id": 102527513,
        "concourse_id": 1947304663,
        "continent_id": 102191575,
        "country_id": 85633793,
        "county_id": 102085387,
        "custom_id": 2048503445,
        "flight_id": 2048503445,
        "region_id": 85688637,
        "venue_id": 1947304671,
        "wing_id": 1947304591
      }
    ],
    "wof:id": 2048503445,
    "wof:involves": [
      102527513,
      102533269,
      1159285523,
      1947304671,
      1159285129
    ],
    "wof:lastmodified": 1791130139,
    "wof:name": "WS7452 (SEA-SFO)",
    "wof:parent_id": 1947304671,
    "wof:placetype": "custom",
    "wof:placetype_alt": [
      "flight"
    ],
    "wof:repo": "sfomuseum-data-flights-2026-10",
    "wof:superseded_by": [],
    "wof:supersedes": []
  },
  "bbox": [
    -122.370943,
    37.61799,
    -122.304268,
    47.441823
  ],
  "geometry": {"type":"MultiPoint","coordinates":[[-122.304268,47.441823],[-122.370943,37.61799]]}
}
