{
  "id": 2048481827,
  "type": "Feature",
  "properties": {
    "geom:area": 0,
    "geom:bbox": "-122.759700,37.329340,-122.103690,38.491500",
    "geom:latitude": 37.772290526548865,
    "geom:longitude": -122.45741035374373,
    "src:alt_label": "swim-approach",
    "src:geom": "swim",
    "swim:elevations": [
      7620,
      7393,
      7228,
      6834,
      6716,
      6400,
      6036,
      5710,
      5602,
      5403,
      4995,
      4659,
      4434,
      4326,
      4002,
      3763,
      3497,
      3417,
      3378,
      3353,
      3353,
      3329,
      3280,
      3088,
      2901,
      2590,
      2512,
      2455,
      2316,
      2132,
      2020,
      1945,
      1829,
      1829,
      1829,
      1829,
      1801,
      1599,
      1500,
      1262,
      1216,
      1154,
      977,
      947,
      852,
      706,
      671,
      610,
      486,
      425,
      306,
      149,
      68,
      0
    ],
    "swim:geom": "approach",
    "swim:timestamps": [
      1790849605,
      1790849627,
      1790849648,
      1790849690,
      1790849702,
      1790849740,
      1790849781,
      1790849817,
      1790849827,
      1790849851,
      1790849896,
      1790849937,
      1790849965,
      1790849979,
      1790850017,
      1790850050,
      1790850088,
      1790850114,
      1790850135,
      1790850174,
      1790850204,
      1790850238,
      1790850250,
      1790850278,
      1790850305,
      1790850347,
      1790850357,
      1790850370,
      1790850396,
      1790850446,
      1790850468,
      1790850487,
      1790850521,
      1790850548,
      1790850566,
      1790850592,
      1790850612,
      1790850649,
      1790850663,
      1790850712,
      1790850729,
      1790850763,
      1790850802,
      1790850822,
      1790850863,
      1790850885,
      1790850895,
      1790850909,
      1790850944,
      1790850963,
      1790850995,
      1790851041,
      1790851068,
      1790851086
    ],
    "wof:geomhash": "0a0305f7cda0470fcc8881faacffdcef",
    "wof:id": 2048481827,
    "wof:repo": "sfomuseum-data-flights-2026-10"
  },
  "bbox": [
    -122.7597,
    37.32934,
    -122.10369,
    38.4915
  ],
  "geometry": {"type":"LineString","coordinates":[[-122.59153,38.4915],[-122.61616,38.45343],[-122.63902,38.41904],[-122.68463,38.35004],[-122.69688,38.33146],[-122.736,38.27216],[-122.7597,38.20388],[-122.74335,38.14099],[-122.73819,38.12315],[-122.72634,38.08238],[-122.70447,38.00696],[-122.68564,37.94206],[-122.66804,37.89851],[-122.65167,37.87949],[-122.60265,37.8327],[-122.56307,37.79532],[-122.51924,37.75391],[-122.48987,37.72612],[-122.46623,37.70392],[-122.42543,37.66556],[-122.39594,37.63774],[-122.36447,37.60677],[-122.35704,37.59509],[-122.34011,37.56511],[-122.32403,37.53746],[-122.2996,37.49451],[-122.30031,37.48323],[-122.30872,37.4719],[-122.334,37.45043],[-122.37187,37.40785],[-122.35757,37.38696],[-122.33814,37.37203],[-122.30511,37.34762],[-122.27683,37.32934],[-122.2534,37.33002],[-122.22073,37.34296],[-122.19804,37.35468],[-122.16883,37.38893],[-122.1589,37.40175],[-122.1247,37.44578],[-122.11339,37.46041],[-122.10369,37.49087],[-122.13642,37.51842],[-122.15611,37.52825],[-122.19586,37.54353],[-122.21599,37.55152],[-122.22353,37.55472],[-122.23494,37.55967],[-122.26192,37.57114],[-122.27557,37.57689],[-122.29942,37.58693],[-122.33075,37.6001],[-122.34926,37.60786],[-122.36109,37.61313]]}
}
