{
  "id": 2048519275,
  "type": "Feature",
  "properties": {
    "geom:area": 0,
    "geom:bbox": "-122.361650,36.730320,-121.884340,37.615530",
    "geom:latitude": 37.22938482239144,
    "geom:longitude": -122.06764041889805,
    "src:alt_label": "swim-approach",
    "src:geom": "swim",
    "swim:elevations": [
      5387,
      5147,
      4727,
      4428,
      4188,
      3854,
      3833,
      3443,
      3232,
      3164,
      3018,
      2742,
      2656,
      2436,
      2438,
      2309,
      2152,
      1980,
      1684,
      1494,
      1283,
      1216,
      1127,
      1051,
      1035,
      813,
      738,
      601,
      490,
      363,
      265,
      157,
      62,
      0
    ],
    "swim:geom": "approach",
    "swim:timestamps": [
      1791246079,
      1791246101,
      1791246143,
      1791246175,
      1791246201,
      1791246237,
      1791246240,
      1791246284,
      1791246314,
      1791246335,
      1791246374,
      1791246416,
      1791246428,
      1791246469,
      1791246498,
      1791246524,
      1791246551,
      1791246576,
      1791246627,
      1791246654,
      1791246684,
      1791246702,
      1791246743,
      1791246776,
      1791246782,
      1791246835,
      1791246851,
      1791246886,
      1791246916,
      1791246952,
      1791246979,
      1791247010,
      1791247034,
      1791247052
    ],
    "wof:geomhash": "a1738cf92aa75aef56884ee58416e952",
    "wof:id": 2048519275,
    "wof:repo": "sfomuseum-data-flights-2026-10"
  },
  "bbox": [
    -122.36165,
    36.73032,
    -121.88434,
    37.61553
  ],
  "geometry": {"type":"LineString","coordinates":[[-121.88434,36.73032],[-121.90014,36.76436],[-121.91767,36.82898],[-121.92994,36.87418],[-121.94061,36.9128],[-121.95631,36.96393],[-121.95798,36.96802],[-121.98079,37.02551],[-121.99526,37.06276],[-122.00497,37.08828],[-122.0226,37.13307],[-122.04083,37.18],[-122.04618,37.19334],[-122.06426,37.2388],[-122.07605,37.26832],[-122.08708,37.29624],[-122.09851,37.32491],[-122.10601,37.35166],[-122.09174,37.40462],[-122.08364,37.43229],[-122.08201,37.46329],[-122.09472,37.47899],[-122.12465,37.50826],[-122.14935,37.52545],[-122.15449,37.52774],[-122.19991,37.54743],[-122.21309,37.55297],[-122.24251,37.56534],[-122.26655,37.57542],[-122.29206,37.58615],[-122.31156,37.5944],[-122.3339,37.60365],[-122.35025,37.6106],[-122.36165,37.61553]]}
}
