{
  "id": 2048512277,
  "type": "Feature",
  "properties": {
    "geom:area": 0,
    "geom:bbox": "-122.365330,37.629720,-121.298880,37.972700",
    "geom:latitude": 37.86045945853466,
    "geom:longitude": -121.85169314953498,
    "src:alt_label": "swim-takeoff",
    "src:geom": "swim",
    "swim:elevations": [
      152,
      853,
      905,
      1035,
      1166,
      1309,
      1405,
      1780,
      1888,
      2198,
      2305,
      2604,
      3199,
      3382,
      3440,
      3520,
      3567,
      3796,
      3932,
      4263,
      4359,
      4452,
      4742,
      4973,
      5153,
      5253,
      5404
    ],
    "swim:geom": "takeoff",
    "swim:timestamps": [
      1791112175,
      1791112228,
      1791112235,
      1791112266,
      1791112302,
      1791112336,
      1791112352,
      1791112393,
      1791112402,
      1791112434,
      1791112445,
      1791112475,
      1791112536,
      1791112557,
      1791112567,
      1791112587,
      1791112595,
      1791112645,
      1791112665,
      1791112703,
      1791112716,
      1791112729,
      1791112765,
      1791112794,
      1791112820,
      1791112833,
      1791112853
    ],
    "wof:geomhash": "f1132e4dab405c68c697830af1f7831f",
    "wof:id": 2048512277,
    "wof:repo": "sfomuseum-data-flights-2026-10"
  },
  "bbox": [
    -122.36533,
    37.62972,
    -121.29888,
    37.9727
  ],
  "geometry": {"type":"LineString","coordinates":[[-122.36533,37.62972],[-122.32585,37.658],[-122.31975,37.66122],[-122.29167,37.67628],[-122.25463,37.6968],[-122.21387,37.71803],[-122.19252,37.72911],[-122.13934,37.75998],[-122.12731,37.76745],[-122.08513,37.79366],[-122.07136,37.80232],[-122.03046,37.82808],[-121.94888,37.87962],[-121.91962,37.89808],[-121.90656,37.9061],[-121.87183,37.91653],[-121.8567,37.91815],[-121.75621,37.92782],[-121.71434,37.93207],[-121.63515,37.94001],[-121.60611,37.94286],[-121.57698,37.94581],[-121.49785,37.95344],[-121.43427,37.95964],[-121.37395,37.96551],[-121.34474,37.96837],[-121.29888,37.9727]]}
}
