{
  "id": 2048497805,
  "type": "Feature",
  "properties": {
    "geom:area": 0,
    "geom:bbox": "-122.443560,36.724920,-121.443130,37.718710",
    "geom:latitude": 37.222057122790275,
    "geom:longitude": -122.04461194050289,
    "src:alt_label": "swim-takeoff",
    "src:geom": "swim",
    "swim:elevations": [
      183,
      577,
      695,
      1166,
      1396,
      1687,
      2231,
      2493,
      2597,
      3068,
      3342,
      3423,
      3740,
      4150,
      4400,
      4690,
      5088,
      5213,
      5769,
      6116,
      6281,
      6560,
      6715,
      7194,
      7282,
      8109,
      8324,
      8334,
      8382,
      8488,
      8598
    ],
    "swim:geom": "takeoff",
    "swim:timestamps": [
      1790966767,
      1790966812,
      1790966831,
      1790966868,
      1790966887,
      1790966914,
      1790966968,
      1790966992,
      1790967001,
      1790967038,
      1790967084,
      1790967104,
      1790967136,
      1790967172,
      1790967197,
      1790967222,
      1790967257,
      1790967270,
      1790967325,
      1790967355,
      1790967370,
      1790967408,
      1790967437,
      1790967478,
      1790967483,
      1790967532,
      1790967565,
      1790967578,
      1790967616,
      1790967648,
      1790967664
    ],
    "wof:geomhash": "cdc799594a4ba8eec61faf783c5a5085",
    "wof:id": 2048497805,
    "wof:repo": "sfomuseum-data-flights-2026-10"
  },
  "bbox": [
    -122.44356,
    36.72492,
    -121.44313,
    37.71871
  ],
  "geometry": {"type":"LineString","coordinates":[[-122.36614,37.63306],[-122.36248,37.66992],[-122.36328,37.68837],[-122.39652,37.71603],[-122.42063,37.71871],[-122.44356,37.69863],[-122.43302,37.63475],[-122.4277,37.60439],[-122.42586,37.5927],[-122.41857,37.54451],[-122.40868,37.47873],[-122.3982,37.44856],[-122.35153,37.41069],[-122.29647,37.36984],[-122.25671,37.3403],[-122.21633,37.31023],[-122.15902,37.2674],[-122.13814,37.25174],[-122.04666,37.18316],[-121.99412,37.14369],[-121.96922,37.12499],[-121.90354,37.07549],[-121.84974,37.03464],[-121.77459,36.97767],[-121.76546,36.97078],[-121.67957,36.90693],[-121.62299,36.86488],[-121.60077,36.84779],[-121.53391,36.79638],[-121.47316,36.74984],[-121.44313,36.72492]]}
}
