{
  "id": 2048560277,
  "type": "Feature",
  "properties": {
    "geom:area": 0,
    "geom:bbox": "-123.493190,37.074190,-122.389860,37.667180",
    "geom:latitude": 37.39478361474748,
    "geom:longitude": -122.94355288445952,
    "src:alt_label": "swim-takeoff",
    "src:geom": "swim",
    "swim:elevations": [
      122,
      200,
      261,
      693,
      1024,
      1045,
      1163,
      1226,
      1632,
      2056,
      2733,
      3171,
      3265,
      3472,
      3797,
      4329,
      4484,
      4823,
      4868,
      4993,
      5456,
      5790,
      5991,
      6119,
      6555,
      6590,
      6620,
      6662,
      6912,
      7254
    ],
    "swim:geom": "takeoff",
    "swim:timestamps": [
      1791536986,
      1791536997,
      1791537003,
      1791537035,
      1791537087,
      1791537090,
      1791537108,
      1791537121,
      1791537153,
      1791537183,
      1791537236,
      1791537269,
      1791537287,
      1791537314,
      1791537340,
      1791537385,
      1791537400,
      1791537433,
      1791537437,
      1791537452,
      1791537504,
      1791537536,
      1791537559,
      1791537573,
      1791537627,
      1791537632,
      1791537636,
      1791537641,
      1791537669,
      1791537713
    ],
    "wof:geomhash": "c0e709c4f4136ff70087702835ce99e7",
    "wof:id": 2048560277,
    "wof:repo": "sfomuseum-data-flights-2026-10"
  },
  "bbox": [
    -123.49319,
    37.07419,
    -122.38986,
    37.66718
  ],
  "geometry": {"type":"LineString","coordinates":[[-122.38986,37.62494],[-122.39933,37.62886],[-122.40498,37.63119],[-122.43598,37.64464],[-122.48966,37.66657],[-122.49367,37.66718],[-122.51928,37.66434],[-122.53551,37.6557],[-122.57703,37.62743],[-122.61537,37.60296],[-122.68542,37.55787],[-122.72963,37.52941],[-122.75533,37.51282],[-122.79629,37.48605],[-122.8363,37.46004],[-122.90677,37.41458],[-122.93012,37.39949],[-122.98671,37.36693],[-122.99379,37.36296],[-123.0204,37.34783],[-123.11122,37.29546],[-123.1677,37.26298],[-123.20985,37.23865],[-123.23568,37.22368],[-123.33379,37.16696],[-123.34256,37.16187],[-123.35113,37.15693],[-123.36066,37.15144],[-123.41205,37.12153],[-123.49319,37.07419]]}
}
