{
  "id": 2048519521,
  "type": "Feature",
  "properties": {
    "geom:area": 0,
    "geom:bbox": "-122.358670,37.491040,-121.283810,37.614460",
    "geom:latitude": 37.545240163285506,
    "geom:longitude": -121.82613949725817,
    "src:alt_label": "swim-approach",
    "src:geom": "swim",
    "swim:elevations": [
      4352,
      4094,
      3894,
      3791,
      3689,
      3334,
      3177,
      3043,
      3017,
      2465,
      2438,
      2407,
      2357,
      2216,
      2058,
      1859,
      1828,
      1829,
      1722,
      1444,
      1195,
      932,
      917,
      858,
      779,
      503,
      373,
      244,
      90,
      115
    ],
    "swim:geom": "approach",
    "swim:timestamps": [
      1791194139,
      1791194167,
      1791194190,
      1791194206,
      1791194220,
      1791194263,
      1791194293,
      1791194337,
      1791194344,
      1791194396,
      1791194419,
      1791194458,
      1791194470,
      1791194499,
      1791194534,
      1791194577,
      1791194597,
      1791194620,
      1791194655,
      1791194692,
      1791194721,
      1791194754,
      1791194762,
      1791194776,
      1791194790,
      1791194847,
      1791194870,
      1791194897,
      1791194935,
      1791194957
    ],
    "wof:geomhash": "a0a3988ecb3823bcee14b219d1e5cf47",
    "wof:id": 2048519521,
    "wof:repo": "sfomuseum-data-flights-2026-10"
  },
  "bbox": [
    -122.35867,
    37.49104,
    -121.28381,
    37.61446
  ],
  "geometry": {"type":"LineString","coordinates":[[-121.28381,37.58938],[-121.33408,37.58372],[-121.37578,37.5795],[-121.40403,37.57663],[-121.42915,37.5738],[-121.50481,37.56477],[-121.55538,37.55851],[-121.62513,37.5505],[-121.63612,37.54823],[-121.71717,37.52844],[-121.75164,37.52008],[-121.80463,37.50763],[-121.82072,37.50392],[-121.85838,37.49498],[-121.90586,37.49104],[-121.96394,37.49302],[-121.9919,37.49575],[-122.02043,37.50474],[-122.06265,37.51886],[-122.10279,37.53181],[-122.13216,37.54146],[-122.16783,37.55319],[-122.17629,37.5559],[-122.19047,37.56052],[-122.20595,37.5655],[-122.26459,37.5842],[-122.28679,37.59066],[-122.31033,37.59784],[-122.34164,37.60721],[-122.35867,37.61446]]}
}
