{
  "id": 2048496131,
  "type": "Feature",
  "properties": {
    "date:inception_lower": "2026-10-02",
    "date:inception_upper": "2026-10-02",
    "edtf:cessation": "",
    "edtf:inception": "2026-10-02",
    "flysfo:actual_timestamp": -1,
    "flysfo:airline": "NZ",
    "flysfo:base_airline": "",
    "flysfo:base_flight_number": "9567",
    "flysfo:date": "2026-10-02",
    "flysfo:estimated_timestamp": 1791010260,
    "flysfo:event": "D",
    "flysfo:flight_number": "NZ9567",
    "flysfo:gate": "F5",
    "flysfo:journey": "SFO-RDU",
    "flysfo:scheduled_timestamp": 1791010740,
    "flysfo:timestamp": 1791010740,
    "geom:area": 0,
    "geom:bbox": "-122.370943,35.876323,-78.790399,37.617990",
    "geom:latitude": 36.7471565,
    "geom:longitude": -100.580671,
    "iata:airline": "NZ",
    "iata:base_airline": "",
    "icao:airline": "ANZ",
    "icao:base_airline": "ANZ",
    "lbl:latitude": 37.620164,
    "lbl:longitude": -122.387194,
    "sfomuseum:airline_id": 1159283697,
    "sfomuseum:arrival_id": 102528779,
    "sfomuseum:base_flight_id": "20261002-D-ANZ-9567",
    "sfomuseum:departure_id": 102527513,
    "sfomuseum:flight_id": "20261002-D-ANZ-9567",
    "sfomuseum:flight_number": [
      "ANZ9567",
      "NZ9567"
    ],
    "sfomuseum:placetype": "flight",
    "src:geom": "flysfo",
    "wof:belongsto": [
      1914600839,
      102527513,
      1914600845,
      102191575,
      85633793,
      102087579,
      85922583,
      554784711,
      85688637,
      1930457221,
      1914600841,
      102085387
    ],
    "wof:country": "US",
    "wof:created": 1791043913,
    "wof:geomhash": "739cf7062aa24bbf1662c0bae366af8d",
    "wof:hierarchy": [
      {
        "building_id": 1914600839,
        "campus_id": 102527513,
        "concourse_id": 1914600845,
        "continent_id": 102191575,
        "country_id": 85633793,
        "county_id": 102087579,
        "custom_id": 2048496131,
        "flight_id": 2048496131,
        "locality_id": 85922583,
        "postalcode_id": 554784711,
        "region_id": 85688637,
        "venue_id": 1930457221,
        "wing_id": 1914600841
      },
      {
        "building_id": 1914600839,
        "campus_id": 102527513,
        "concourse_id": 1914600845,
        "continent_id": 102191575,
        "country_id": 85633793,
        "county_id": 102085387,
        "custom_id": 2048496131,
        "flight_id": 2048496131,
        "region_id": 85688637,
        "venue_id": 1930457221,
        "wing_id": 1914600841
      }
    ],
    "wof:id": 2048496131,
    "wof:involves": [
      102528779,
      102527513,
      1159283697,
      1930457221,
      1159283697
    ],
    "wof:lastmodified": 1791043913,
    "wof:name": "NZ9567 (SFO-RDU)",
    "wof:parent_id": 1930457221,
    "wof:placetype": "custom",
    "wof:placetype_alt": [
      "flight"
    ],
    "wof:repo": "sfomuseum-data-flights-2026-10",
    "wof:superseded_by": [],
    "wof:supersedes": []
  },
  "bbox": [
    -122.370943,
    35.876323,
    -78.790399,
    37.61799
  ],
  "geometry": {"type":"MultiPoint","coordinates":[[-122.370943,37.61799],[-78.790399,35.876323]]}
}
