{
  "id": 2048546825,
  "type": "Feature",
  "properties": {
    "geom:area": 0,
    "geom:bbox": "-122.806640,37.450400,-122.184530,38.514150",
    "geom:latitude": 37.858661335904856,
    "geom:longitude": -122.52702981344808,
    "src:alt_label": "swim-approach",
    "src:geom": "swim",
    "swim:elevations": [
      8015,
      7813,
      7524,
      7045,
      6922,
      6577,
      6161,
      5870,
      5701,
      5200,
      4918,
      4801,
      4272,
      4008,
      3790,
      3454,
      3353,
      3353,
      3353,
      3353,
      3353,
      3343,
      3229,
      3118,
      2959,
      2695,
      2448,
      2154,
      1977,
      1892,
      1865,
      1822,
      1766,
      1497,
      792,
      690,
      547,
      486,
      294,
      172,
      28,
      324
    ],
    "swim:geom": "approach",
    "swim:timestamps": [
      1791442977,
      1791442994,
      1791443022,
      1791443067,
      1791443081,
      1791443114,
      1791443153,
      1791443182,
      1791443198,
      1791443246,
      1791443275,
      1791443287,
      1791443334,
      1791443360,
      1791443382,
      1791443421,
      1791443454,
      1791443477,
      1791443511,
      1791443546,
      1791443562,
      1791443594,
      1791443622,
      1791443636,
      1791443659,
      1791443687,
      1791443716,
      1791443743,
      1791443762,
      1791443768,
      1791443772,
      1791443776,
      1791443781,
      1791443806,
      1791443932,
      1791443959,
      1791443990,
      1791444008,
      1791444053,
      1791444083,
      1791444116,
      1791444130
    ],
    "wof:geomhash": "16ef173fc69e19a499d846fc36a9fe63",
    "wof:id": 2048546825,
    "wof:repo": "sfomuseum-data-flights-2026-10"
  },
  "bbox": [
    -122.80664,
    37.4504,
    -122.18453,
    38.51415
  ],
  "geometry": {"type":"LineString","coordinates":[[-122.80664,38.51415],[-122.80227,38.48036],[-122.79461,38.42751],[-122.78336,38.34248],[-122.77997,38.31722],[-122.77205,38.25768],[-122.75664,38.18663],[-122.74235,38.13751],[-122.73426,38.10987],[-122.71043,38.02775],[-122.69627,37.97944],[-122.69071,37.95999],[-122.65824,37.88604],[-122.62453,37.85372],[-122.5949,37.82542],[-122.54643,37.77989],[-122.5089,37.74424],[-122.48357,37.72012],[-122.44739,37.68637],[-122.41075,37.65188],[-122.39473,37.63681],[-122.36334,37.6062],[-122.34435,37.578],[-122.33827,37.56445],[-122.3275,37.54116],[-122.31132,37.51473],[-122.29339,37.48609],[-122.26357,37.4705],[-122.2398,37.46287],[-122.23227,37.46038],[-122.2282,37.45902],[-122.22245,37.45704],[-122.21663,37.45504],[-122.18453,37.4504],[-122.19993,37.5471],[-122.22493,37.55792],[-122.25344,37.56987],[-122.26817,37.57611],[-122.30406,37.59107],[-122.3273,37.60097],[-122.35311,37.61181],[-122.36135,37.6162]]}
}
