{
  "id": 2048537249,
  "type": "Feature",
  "properties": {
    "geom:area": 0,
    "geom:bbox": "-122.357500,37.491600,-121.245810,37.613790",
    "geom:latitude": 37.547138480763046,
    "geom:longitude": -121.80649025165657,
    "src:alt_label": "swim-approach",
    "src:geom": "swim",
    "swim:elevations": [
      4707,
      4332,
      3979,
      3698,
      3386,
      3198,
      3081,
      3046,
      2843,
      2785,
      2492,
      2352,
      2229,
      2056,
      1919,
      1858,
      1391,
      1306,
      1058,
      971,
      885,
      706,
      603,
      538,
      346,
      230,
      151,
      0
    ],
    "swim:geom": "approach",
    "swim:timestamps": [
      1791364270,
      1791364305,
      1791364339,
      1791364367,
      1791364397,
      1791364418,
      1791364453,
      1791364465,
      1791364498,
      1791364506,
      1791364549,
      1791364576,
      1791364593,
      1791364635,
      1791364669,
      1791364681,
      1791364763,
      1791364779,
      1791364827,
      1791364846,
      1791364867,
      1791364910,
      1791364937,
      1791364951,
      1791365001,
      1791365030,
      1791365045,
      1791365079
    ],
    "wof:geomhash": "f552f20dd72d60248a778076eaa6600d",
    "wof:id": 2048537249,
    "wof:repo": "sfomuseum-data-flights-2026-10"
  },
  "bbox": [
    -122.3575,
    37.4916,
    -121.24581,
    37.61379
  ],
  "geometry": {"type":"LineString","coordinates":[[-121.24581,37.59519],[-121.3181,37.58598],[-121.38827,37.57843],[-121.44695,37.57206],[-121.507,37.56478],[-121.54851,37.55973],[-121.61404,37.55192],[-121.63529,37.54814],[-121.68911,37.53517],[-121.70233,37.53198],[-121.77075,37.51578],[-121.81317,37.50577],[-121.83903,37.49966],[-121.90211,37.4916],[-121.95382,37.49296],[-121.97121,37.49347],[-122.07974,37.5244],[-122.09825,37.53037],[-122.14906,37.5468],[-122.16612,37.55225],[-122.18512,37.55858],[-122.2217,37.57049],[-122.24322,37.5774],[-122.25497,37.58121],[-122.29553,37.59354],[-122.31856,37.60021],[-122.33108,37.60394],[-122.3575,37.61379]]}
}
