{
  "id": 2048522449,
  "type": "Feature",
  "properties": {
    "date:inception_lower": "2026-10-05",
    "date:inception_upper": "2026-10-05",
    "edtf:cessation": "",
    "edtf:inception": "2026-10-05",
    "flysfo:actual_timestamp": -1,
    "flysfo:airline": "NZ",
    "flysfo:base_airline": "",
    "flysfo:base_flight_number": "4206",
    "flysfo:date": "2026-10-05",
    "flysfo:estimated_timestamp": 1791215340,
    "flysfo:event": "D",
    "flysfo:flight_number": "NZ9082",
    "flysfo:gate": "D7",
    "flysfo:journey": "SFO-DFW",
    "flysfo:scheduled_timestamp": 1791215160,
    "flysfo:timestamp": 1791215340,
    "geom:area": 0,
    "geom:bbox": "-122.370943,32.903660,-97.050966,37.617990",
    "geom:latitude": 35.260825,
    "geom:longitude": -109.7109545,
    "iata:airline": "NZ",
    "iata:base_airline": "",
    "icao:airline": "ANZ",
    "icao:base_airline": "ACA",
    "lbl:latitude": 37.61705,
    "lbl:longitude": -122.380838,
    "sfomuseum:airline_id": 1159283697,
    "sfomuseum:arrival_id": 102528541,
    "sfomuseum:base_flight_id": "20261005-D-ACA-4206",
    "sfomuseum:departure_id": 102527513,
    "sfomuseum:flight_id": "20261005-D-ANZ-9082",
    "sfomuseum:flight_number": [
      "ANZ9082",
      "NZ9082"
    ],
    "sfomuseum:placetype": "flight",
    "src:geom": "flysfo",
    "wof:belongsto": [
      1947304067,
      102527513,
      1947304595,
      102191575,
      85633793,
      102087579,
      85922583,
      554784711,
      85688637,
      1947304601,
      1947304591,
      102085387
    ],
    "wof:country": "US",
    "wof:created": 1791303111,
    "wof:geomhash": "5e0f3a871c366f60ae43a6e5fe25b717",
    "wof:hierarchy": [
      {
        "building_id": 1947304067,
        "campus_id": 102527513,
        "concourse_id": 1947304595,
        "continent_id": 102191575,
        "country_id": 85633793,
        "county_id": 102087579,
        "custom_id": 2048522449,
        "flight_id": 2048522449,
        "locality_id": 85922583,
        "postalcode_id": 554784711,
        "region_id": 85688637,
        "venue_id": 1947304601,
        "wing_id": 1947304591
      },
      {
        "building_id": 1947304067,
        "campus_id": 102527513,
        "concourse_id": 1947304595,
        "continent_id": 102191575,
        "country_id": 85633793,
        "county_id": 102085387,
        "custom_id": 2048522449,
        "flight_id": 2048522449,
        "region_id": 85688637,
        "venue_id": 1947304601,
        "wing_id": 1947304591
      }
    ],
    "wof:id": 2048522449,
    "wof:involves": [
      102528541,
      102527513,
      1159283697,
      1947304601,
      1159283597
    ],
    "wof:lastmodified": 1791303111,
    "wof:name": "NZ9082 (SFO-DFW)",
    "wof:parent_id": 1947304601,
    "wof:placetype": "custom",
    "wof:placetype_alt": [
      "flight"
    ],
    "wof:repo": "sfomuseum-data-flights-2026-10",
    "wof:superseded_by": [],
    "wof:supersedes": []
  },
  "bbox": [
    -122.370943,
    32.90366,
    -97.050966,
    37.61799
  ],
  "geometry": {"type":"MultiPoint","coordinates":[[-122.370943,37.61799],[-97.050966,32.90366]]}
}
