{
  "id": 2048546191,
  "type": "Feature",
  "properties": {
    "date:cessation_lower": "2026-10-09",
    "date:cessation_upper": "2026-10-09",
    "date:inception_lower": "1970-01-01",
    "date:inception_upper": "1970-01-01",
    "edtf:cessation": "2026-10-08T17:13:37-07:00",
    "edtf:inception": "1970-01-01T00:00:00Z",
    "flysfo:actual_timestamp": -1,
    "flysfo:airline": "WN",
    "flysfo:date": "2026-10-08",
    "flysfo:estimated_timestamp": -1,
    "flysfo:event": "A",
    "flysfo:flight_number": "WN582",
    "flysfo:gate": "",
    "flysfo:journey": "LAS-SFO",
    "flysfo:scheduled_timestamp": 1791445500,
    "flysfo:timestamp": 1791445500,
    "geom:area": 0,
    "geom:bbox": "-122.370943,36.081003,-115.156440,37.617990",
    "geom:latitude": 36.8494965,
    "geom:longitude": -118.7636915,
    "iata:airline": "WN",
    "icao:aircraft": "B38M",
    "icao:airline": "SWA",
    "lbl:latitude": 37.61799,
    "lbl:longitude": -122.370943,
    "sfomuseum:aircraft_id": 1528104575,
    "sfomuseum:airline_id": 1159285591,
    "sfomuseum:arrival_id": 102527513,
    "sfomuseum:departure_id": 102527209,
    "sfomuseum:flight_id": "20261008-A-SWA-582",
    "sfomuseum:flight_number": [
      "SWA582",
      "WN582"
    ],
    "sfomuseum:placetype": "flight",
    "src:geom": "flysfo",
    "src:geom_alt": [
      "swim-approach"
    ],
    "swim:tail_number": "N8885Q",
    "wof:belongsto": [],
    "wof:country": "US",
    "wof:created": 1791562083,
    "wof:geomhash": "fcf5095e8d1a14d003993bc5070a7f0f",
    "wof:hierarchy": [
      {
        "custom_id": 2048546191,
        "flight_id": 2048546191
      }
    ],
    "wof:id": 2048546191,
    "wof:involves": [
      1528104575,
      102527513,
      102527209,
      1159285591
    ],
    "wof:lastmodified": 1791562791,
    "wof:name": "WN582 (LAS-SFO)",
    "wof:parent_id": -1,
    "wof:placetype": "custom",
    "wof:placetype_alt": [
      "flight"
    ],
    "wof:repo": "sfomuseum-data-flights-2026-10",
    "wof:superseded_by": [],
    "wof:supersedes": []
  },
  "bbox": [
    -122.370943,
    36.081003,
    -115.15644,
    37.61799
  ],
  "geometry": {"type":"MultiPoint","coordinates":[[-115.15644,36.081003],[-122.370943,37.61799]]}
}
