{
  "id": 2048525089,
  "type": "Feature",
  "properties": {
    "geom:area": 0,
    "geom:bbox": "-122.361410,36.734350,-121.887150,37.612720",
    "geom:latitude": 37.228146914179945,
    "geom:longitude": -122.07147891625101,
    "src:alt_label": "swim-takeoff",
    "src:geom": "swim",
    "swim:elevations": [
      5288,
      5223,
      4890,
      4710,
      4636,
      4507,
      4124,
      3915,
      3818,
      3440,
      3240,
      3045,
      2985,
      2824,
      2523,
      2331,
      2261,
      2101,
      1935,
      1785,
      1449,
      1285,
      1095,
      958,
      944,
      887,
      670,
      563,
      510,
      421,
      215,
      117,
      0
    ],
    "swim:geom": "takeoff",
    "swim:timestamps": [
      1791213052,
      1791213061,
      1791213104,
      1791213129,
      1791213137,
      1791213155,
      1791213208,
      1791213236,
      1791213249,
      1791213295,
      1791213324,
      1791213358,
      1791213368,
      1791213392,
      1791213439,
      1791213477,
      1791213491,
      1791213520,
      1791213550,
      1791213576,
      1791213620,
      1791213644,
      1791213673,
      1791213717,
      1791213722,
      1791213753,
      1791213808,
      1791213834,
      1791213850,
      1791213873,
      1791213927,
      1791213956,
      1791213986
    ],
    "wof:geomhash": "4940ba1d428dfac6cf1bfd0a2f671e60",
    "wof:id": 2048525089,
    "wof:repo": "sfomuseum-data-flights-2026-10"
  },
  "bbox": [
    -122.36141,
    36.73435,
    -121.88715,
    37.61272
  ],
  "geometry": {"type":"LineString","coordinates":[[-121.88715,36.73435],[-121.89363,36.74655],[-121.91298,36.8095],[-121.92292,36.8447],[-121.92611,36.85585],[-121.93329,36.88143],[-121.95416,36.95458],[-121.96886,36.9925],[-121.97565,37.00986],[-122.00024,37.07231],[-122.01523,37.11169],[-122.03279,37.15662],[-122.03809,37.17005],[-122.05018,37.20059],[-122.07302,37.2585],[-122.09072,37.3039],[-122.0969,37.32002],[-122.10927,37.35148],[-122.12153,37.38249],[-122.12128,37.40751],[-122.10818,37.44833],[-122.10184,37.47046],[-122.11432,37.49294],[-122.14234,37.51938],[-122.14676,37.52184],[-122.17324,37.53411],[-122.21942,37.55327],[-122.24076,37.56225],[-122.25406,37.56788],[-122.27236,37.5756],[-122.31605,37.59406],[-122.33874,37.60343],[-122.36141,37.61272]]}
}
