{
  "id": 2048550631,
  "type": "Feature",
  "properties": {
    "geom:area": 0,
    "geom:bbox": "-122.523990,36.724060,-122.105790,37.706460",
    "geom:latitude": 37.236378684579876,
    "geom:longitude": -122.38901542690822,
    "src:alt_label": "swim-takeoff",
    "src:geom": "swim",
    "swim:elevations": [
      122,
      372,
      519,
      702,
      798,
      1200,
      1409,
      1722,
      1956,
      2446,
      2684,
      3038,
      3174,
      3260,
      3594,
      3801,
      3937,
      4105,
      4306,
      4775,
      5297,
      5325,
      5554,
      5699,
      5883,
      5979,
      6308,
      6481,
      6815,
      7128,
      7189,
      7290,
      7390,
      7622
    ],
    "swim:geom": "takeoff",
    "swim:timestamps": [
      1791493138,
      1791493161,
      1791493183,
      1791493219,
      1791493235,
      1791493275,
      1791493297,
      1791493346,
      1791493367,
      1791493407,
      1791493426,
      1791493452,
      1791493467,
      1791493483,
      1791493515,
      1791493532,
      1791493548,
      1791493569,
      1791493590,
      1791493630,
      1791493677,
      1791493680,
      1791493699,
      1791493712,
      1791493731,
      1791493744,
      1791493783,
      1791493802,
      1791493846,
      1791493885,
      1791493894,
      1791493909,
      1791493921,
      1791493952
    ],
    "wof:geomhash": "d6a354c97e8b41819180fd7c18df3fb9",
    "wof:id": 2048550631,
    "wof:repo": "sfomuseum-data-flights-2026-10"
  },
  "bbox": [
    -122.52399,
    36.72406,
    -122.10579,
    37.70646
  ],
  "geometry": {"type":"LineString","coordinates":[[-122.36906,37.62869],[-122.36124,37.64526],[-122.36223,37.66187],[-122.36614,37.69438],[-122.37825,37.70646],[-122.42853,37.70592],[-122.44284,37.68557],[-122.45334,37.62717],[-122.45824,37.59937],[-122.46772,37.54671],[-122.47206,37.52207],[-122.47812,37.48768],[-122.48163,37.468],[-122.48564,37.44556],[-122.49412,37.39844],[-122.49874,37.37301],[-122.50309,37.34924],[-122.50906,37.31572],[-122.51525,37.28121],[-122.52399,37.21396],[-122.47583,37.14456],[-122.47182,37.14006],[-122.44758,37.11246],[-122.43103,37.09372],[-122.40668,37.06602],[-122.39041,37.04747],[-122.33913,36.98947],[-122.31415,36.96128],[-122.25454,36.89363],[-122.20086,36.8325],[-122.18828,36.81815],[-122.16717,36.79413],[-122.1501,36.77466],[-122.10579,36.72406]]}
}
