{
  "id": 2048511013,
  "type": "Feature",
  "properties": {
    "geom:area": 0,
    "geom:bbox": "-122.753890,37.445240,-122.121380,38.177650",
    "geom:latitude": 37.7085933399876,
    "geom:longitude": -122.4330538805005,
    "src:alt_label": "swim-approach",
    "src:geom": "swim",
    "swim:elevations": [
      6369,
      6253,
      6194,
      5774,
      5197,
      5105,
      4744,
      4355,
      4311,
      4124,
      4037,
      3789,
      3491,
      3353,
      3353,
      3353,
      3353,
      3353,
      3353,
      3225,
      2950,
      2893,
      2761,
      2457,
      2241,
      2047,
      1773,
      1610,
      1524,
      1524,
      1429,
      1224,
      1062,
      723,
      519,
      372,
      245,
      213,
      106
    ],
    "swim:geom": "approach",
    "swim:timestamps": [
      1791135376,
      1791135387,
      1791135393,
      1791135430,
      1791135502,
      1791135511,
      1791135550,
      1791135596,
      1791135607,
      1791135646,
      1791135664,
      1791135700,
      1791135728,
      1791135772,
      1791135791,
      1791135798,
      1791135819,
      1791135847,
      1791135892,
      1791135916,
      1791135949,
      1791135956,
      1791135973,
      1791136012,
      1791136043,
      1791136070,
      1791136106,
      1791136129,
      1791136154,
      1791136193,
      1791136227,
      1791136258,
      1791136279,
      1791136317,
      1791136344,
      1791136370,
      1791136399,
      1791136412,
      1791136468
    ],
    "wof:geomhash": "84858041e7298a86e31e0d0096e07e17",
    "wof:id": 2048511013,
    "wof:repo": "sfomuseum-data-flights-2026-10"
  },
  "bbox": [
    -122.75389,
    37.44524,
    -122.12138,
    38.17765
  ],
  "geometry": {"type":"LineString","coordinates":[[-122.75389,38.17765],[-122.74894,38.16068],[-122.74594,38.1504],[-122.72855,38.09082],[-122.69759,37.98348],[-122.69396,37.97095],[-122.67882,37.91888],[-122.63739,37.86591],[-122.62563,37.85456],[-122.58772,37.81847],[-122.57113,37.80285],[-122.53755,37.77163],[-122.51244,37.74834],[-122.47447,37.71155],[-122.45825,37.6964],[-122.45169,37.69035],[-122.43319,37.6731],[-122.40834,37.64972],[-122.36868,37.61215],[-122.35146,37.59025],[-122.33533,37.55654],[-122.33245,37.55015],[-122.32201,37.53223],[-122.29827,37.49337],[-122.26784,37.47065],[-122.23329,37.46001],[-122.18659,37.44558],[-122.15551,37.44524],[-122.13285,37.46462],[-122.12138,37.50198],[-122.14773,37.52519],[-122.1798,37.53615],[-122.20013,37.5448],[-122.23611,37.56036],[-122.26133,37.57103],[-122.28458,37.58067],[-122.30789,37.59042],[-122.31794,37.59478],[-122.36,37.61284]]}
}
