{
  "id": 2048489137,
  "type": "Feature",
  "properties": {
    "geom:area": 0,
    "geom:bbox": "-122.457720,36.732660,-121.334360,37.707350",
    "geom:latitude": 37.20028448445206,
    "geom:longitude": -122.00297090312165,
    "src:alt_label": "swim-takeoff",
    "src:geom": "swim",
    "swim:elevations": [
      152,
      452,
      594,
      1028,
      1110,
      1314,
      1492,
      1631,
      2028,
      2467,
      2528,
      2974,
      3193,
      3354,
      3447,
      3559,
      3690,
      3749,
      3843,
      4160,
      4386,
      4577,
      4748,
      4904,
      5108,
      5254,
      5396,
      5715,
      5825,
      6012,
      6188,
      6339,
      6447,
      6638
    ],
    "swim:geom": "takeoff",
    "swim:timestamps": [
      1790846604,
      1790846633,
      1790846643,
      1790846696,
      1790846716,
      1790846752,
      1790846784,
      1790846795,
      1790846836,
      1790846879,
      1790846886,
      1790846926,
      1790846958,
      1790846988,
      1790847006,
      1790847030,
      1790847057,
      1790847072,
      1790847092,
      1790847137,
      1790847168,
      1790847193,
      1790847221,
      1790847252,
      1790847286,
      1790847310,
      1790847332,
      1790847381,
      1790847398,
      1790847430,
      1790847466,
      1790847491,
      1790847516,
      1790847553
    ],
    "wof:geomhash": "06327e34c6fd6a1e60641e96d64b9388",
    "wof:id": 2048489137,
    "wof:repo": "sfomuseum-data-flights-2026-10"
  },
  "bbox": [
    -122.45772,
    36.73266,
    -121.33436,
    37.70735
  ],
  "geometry": {"type":"LineString","coordinates":[[-122.36289,37.63342],[-122.35917,37.65845],[-122.36081,37.66739],[-122.387,37.70735],[-122.41067,37.70679],[-122.43986,37.67863],[-122.45246,37.64248],[-122.4569,37.62942],[-122.45772,37.58038],[-122.4262,37.52966],[-122.42097,37.52135],[-122.38962,37.47269],[-122.36443,37.43408],[-122.33957,37.39569],[-122.32421,37.37187],[-122.30158,37.33879],[-122.26019,37.30792],[-122.23461,37.2928],[-122.20013,37.27179],[-122.12061,37.22267],[-122.06583,37.18885],[-122.02051,37.16083],[-121.96891,37.12879],[-121.91297,37.09416],[-121.8488,37.05441],[-121.80384,37.02652],[-121.76238,37.0008],[-121.66998,36.94307],[-121.63712,36.92257],[-121.57683,36.88481],[-121.50715,36.84121],[-121.45635,36.80949],[-121.40864,36.77947],[-121.33436,36.73266]]}
}
