{
  "id": 2048551021,
  "type": "Feature",
  "properties": {
    "geom:area": 0,
    "geom:bbox": "-122.462430,37.199780,-121.294600,37.708950",
    "geom:latitude": 37.38977373167507,
    "geom:longitude": -122.00086658777902,
    "src:alt_label": "swim-takeoff",
    "src:geom": "swim",
    "swim:elevations": [
      183,
      304,
      615,
      1054,
      1259,
      1585,
      1733,
      2250,
      2922,
      3014,
      3236,
      4027,
      4155,
      4496,
      4851,
      5188,
      5498,
      5782,
      5996,
      6231,
      6511,
      6880,
      7112,
      7241,
      7577,
      7825,
      7883,
      7916,
      8201,
      8381,
      8548
    ],
    "swim:geom": "takeoff",
    "swim:timestamps": [
      1791449877,
      1791449888,
      1791449911,
      1791449955,
      1791449992,
      1791450028,
      1791450038,
      1791450073,
      1791450114,
      1791450120,
      1791450135,
      1791450204,
      1791450222,
      1791450251,
      1791450284,
      1791450314,
      1791450350,
      1791450380,
      1791450402,
      1791450429,
      1791450462,
      1791450509,
      1791450534,
      1791450552,
      1791450596,
      1791450627,
      1791450636,
      1791450640,
      1791450676,
      1791450702,
      1791450728
    ],
    "wof:geomhash": "06b8d55229c565516fc9eccf7f4f8233",
    "wof:id": 2048551021,
    "wof:repo": "sfomuseum-data-flights-2026-10"
  },
  "bbox": [
    -122.46243,
    37.19978,
    -121.2946,
    37.70895
  ],
  "geometry": {"type":"LineString","coordinates":[[-122.36711,37.63178],[-122.36321,37.6394],[-122.36303,37.65756],[-122.36489,37.69092],[-122.39919,37.70895],[-122.43477,37.68229],[-122.43762,37.66987],[-122.4461,37.62631],[-122.45701,37.57437],[-122.45859,37.56669],[-122.46243,37.5474],[-122.42834,37.46271],[-122.40118,37.44702],[-122.35556,37.42183],[-122.29393,37.40306],[-122.23519,37.3916],[-122.16219,37.3768],[-122.09936,37.36412],[-122.05362,37.35496],[-121.99531,37.34326],[-121.92296,37.32877],[-121.81967,37.30789],[-121.76041,37.29592],[-121.71903,37.28755],[-121.61719,37.26677],[-121.54099,37.25064],[-121.52129,37.24674],[-121.51014,37.24455],[-121.42338,37.22635],[-121.35894,37.21314],[-121.2946,37.19978]]}
}
