{
  "id": 2048485153,
  "type": "Feature",
  "properties": {
    "geom:area": 0,
    "geom:bbox": "-122.359200,37.492190,-121.287610,37.615410",
    "geom:latitude": 37.54534547665895,
    "geom:longitude": -121.82829716941107,
    "src:alt_label": "swim-approach",
    "src:geom": "swim",
    "swim:elevations": [
      4485,
      4324,
      4204,
      4036,
      3637,
      3393,
      3199,
      3024,
      2981,
      2785,
      2743,
      2579,
      2529,
      2366,
      2141,
      2041,
      1925,
      1706,
      1436,
      1167,
      1042,
      850,
      601,
      548,
      512,
      496,
      245,
      152,
      0
    ],
    "swim:geom": "approach",
    "swim:timestamps": [
      1790888207,
      1790888224,
      1790888236,
      1790888252,
      1790888295,
      1790888321,
      1790888365,
      1790888395,
      1790888400,
      1790888427,
      1790888433,
      1790888461,
      1790888481,
      1790888508,
      1790888535,
      1790888565,
      1790888589,
      1790888630,
      1790888664,
      1790888697,
      1790888716,
      1790888757,
      1790888787,
      1790888806,
      1790888817,
      1790888820,
      1790888872,
      1790888896,
      1790888933
    ],
    "wof:geomhash": "0ab9ea893e2cac5b8c8e9976d0bd0671",
    "wof:id": 2048485153,
    "wof:repo": "sfomuseum-data-flights-2026-10"
  },
  "bbox": [
    -122.3592,
    37.49219,
    -121.28761,
    37.61541
  ],
  "geometry": {"type":"LineString","coordinates":[[-121.28761,37.58947],[-121.32278,37.58546],[-121.34703,37.58283],[-121.38053,37.57902],[-121.46602,37.5692],[-121.51813,37.56314],[-121.60236,37.55322],[-121.65239,37.54421],[-121.66015,37.54229],[-121.70537,37.53137],[-121.71519,37.52901],[-121.76087,37.51819],[-121.79013,37.51124],[-121.83071,37.50145],[-121.87065,37.49219],[-121.91577,37.49231],[-121.9516,37.49312],[-122.01249,37.50312],[-122.06028,37.51834],[-122.10518,37.53275],[-122.13132,37.54125],[-122.18622,37.55906],[-122.22424,37.57118],[-122.248,37.57888],[-122.26038,37.58291],[-122.2646,37.58426],[-122.31414,37.59856],[-122.33338,37.60439],[-122.3592,37.61541]]}
}
