{
  "id": 2048507009,
  "type": "Feature",
  "properties": {
    "geom:area": 0,
    "geom:bbox": "-123.476320,37.636980,-122.418490,37.730930",
    "geom:latitude": 37.6992684149253,
    "geom:longitude": -122.94396534744101,
    "src:alt_label": "swim-takeoff",
    "src:geom": "swim",
    "swim:elevations": [
      430,
      643,
      787,
      1009,
      1046,
      1278,
      1337,
      1599,
      1989,
      2356,
      2601,
      2854,
      3150,
      3196,
      3384,
      3467,
      3803,
      3889,
      4236,
      4261,
      4592,
      4750
    ],
    "swim:geom": "takeoff",
    "swim:timestamps": [
      1791038756,
      1791038783,
      1791038804,
      1791038840,
      1791038854,
      1791038906,
      1791038915,
      1791038945,
      1791038983,
      1791039023,
      1791039048,
      1791039072,
      1791039112,
      1791039126,
      1791039175,
      1791039186,
      1791039224,
      1791039235,
      1791039268,
      1791039272,
      1791039313,
      1791039334
    ],
    "wof:geomhash": "4d1bb479d8eb6dde3bea80f24e815b0d",
    "wof:id": 2048507009,
    "wof:repo": "sfomuseum-data-flights-2026-10"
  },
  "bbox": [
    -123.47632,
    37.63698,
    -122.41849,
    37.73093
  ],
  "geometry": {"type":"LineString","coordinates":[[-122.41849,37.63698],[-122.4468,37.64964],[-122.46954,37.65963],[-122.51101,37.6752],[-122.52908,37.67665],[-122.60722,37.68106],[-122.62183,37.68198],[-122.67293,37.68502],[-122.73901,37.68915],[-122.80922,37.69313],[-122.85297,37.69558],[-122.89623,37.6984],[-122.97216,37.70274],[-122.99805,37.70425],[-123.1023,37.71017],[-123.12695,37.71152],[-123.21539,37.71661],[-123.23977,37.71798],[-123.31814,37.72225],[-123.32568,37.72264],[-123.42538,37.7281],[-123.47632,37.73093]]}
}
