{
  "id": 2048559951,
  "type": "Feature",
  "properties": {
    "date:cessation_lower": "1970-01-01",
    "date:cessation_upper": "1970-01-01",
    "date:inception_lower": "2026-10-09",
    "date:inception_upper": "2026-10-09",
    "edtf:cessation": "1970-01-01T00:00:00Z",
    "edtf:inception": "2026-10-09T10:15:52-07:00",
    "flysfo:actual_timestamp": -1,
    "flysfo:airline": "ZG",
    "flysfo:date": "2026-10-09",
    "flysfo:estimated_timestamp": 1791589500,
    "flysfo:event": "D",
    "flysfo:flight_number": "ZG25",
    "flysfo:gate": "A10",
    "flysfo:journey": "SFO-NRT",
    "flysfo:scheduled_timestamp": 1791589500,
    "flysfo:timestamp": 1791589500,
    "geom:area": 0,
    "geom:bbox": "-122.370943,35.755744,140.395257,37.617990",
    "geom:latitude": 36.686867,
    "geom:longitude": 9.012156999999995,
    "iata:airline": "ZG",
    "icao:aircraft": "B788",
    "icao:airline": "TZP",
    "lbl:latitude": 37.61227,
    "lbl:longitude": -122.390079,
    "sfomuseum:aircraft_id": 1159289995,
    "sfomuseum:airline_id": 1813375131,
    "sfomuseum:arrival_id": 102541685,
    "sfomuseum:departure_id": 102527513,
    "sfomuseum:flight_id": "20261009-D-TZP-25",
    "sfomuseum:flight_number": [
      "TZP25",
      "ZG25"
    ],
    "sfomuseum:placetype": "flight",
    "src:geom": "flysfo",
    "src:geom_alt": [
      "swim-takeoff"
    ],
    "swim:tail_number": "JA828J",
    "wof:belongsto": [
      1947304067,
      102527513,
      1947304073,
      102191575,
      85633793,
      102087579,
      85922583,
      554784711,
      85688637,
      1947304101,
      1947304069,
      102085387
    ],
    "wof:country": "US",
    "wof:created": 1791648946,
    "wof:geomhash": "b0708fbc9882ec26729f19c3bf135279",
    "wof:hierarchy": [
      {
        "building_id": 1947304067,
        "campus_id": 102527513,
        "concourse_id": 1947304073,
        "continent_id": 102191575,
        "country_id": 85633793,
        "county_id": 102087579,
        "custom_id": 2048559951,
        "flight_id": 2048559951,
        "locality_id": 85922583,
        "postalcode_id": 554784711,
        "region_id": 85688637,
        "venue_id": 1947304101,
        "wing_id": 1947304069
      },
      {
        "building_id": 1947304067,
        "campus_id": 102527513,
        "concourse_id": 1947304073,
        "continent_id": 102191575,
        "country_id": 85633793,
        "county_id": 102085387,
        "custom_id": 2048559951,
        "flight_id": 2048559951,
        "region_id": 85688637,
        "venue_id": 1947304101,
        "wing_id": 1947304069
      }
    ],
    "wof:id": 2048559951,
    "wof:involves": [
      102527513,
      1813375131,
      1947304101,
      1159289995,
      102541685
    ],
    "wof:lastmodified": 1791649163,
    "wof:name": "ZG25 (SFO-NRT)",
    "wof:parent_id": 1947304101,
    "wof:placetype": "custom",
    "wof:placetype_alt": [
      "flight"
    ],
    "wof:repo": "sfomuseum-data-flights-2026-10",
    "wof:superseded_by": [],
    "wof:supersedes": []
  },
  "bbox": [
    -122.370943,
    35.755744,
    140.395257,
    37.61799
  ],
  "geometry": {"type":"MultiPoint","coordinates":[[-122.370943,37.61799],[140.395257,35.755744]]}
}
