{
  "id": 2048519017,
  "type": "Feature",
  "properties": {
    "geom:area": 0,
    "geom:bbox": "-122.761590,37.426560,-122.106470,38.509400",
    "geom:latitude": 37.829589674551876,
    "geom:longitude": -122.4865692886942,
    "src:alt_label": "swim-approach",
    "src:geom": "swim",
    "swim:elevations": [
      7060,
      6865,
      6786,
      6407,
      6198,
      5888,
      5762,
      5582,
      5357,
      5314,
      4863,
      4740,
      4566,
      4202,
      4094,
      3827,
      3744,
      3463,
      3353,
      3353,
      3353,
      3345,
      3089,
      2727,
      2668,
      2252,
      2176,
      1988,
      1705,
      1552,
      1491,
      1365,
      1218,
      1219,
      1023,
      706,
      645,
      457,
      367,
      211,
      115
    ],
    "swim:geom": "approach",
    "swim:timestamps": [
      1791202974,
      1791203000,
      1791203010,
      1791203056,
      1791203080,
      1791203120,
      1791203136,
      1791203157,
      1791203184,
      1791203191,
      1791203246,
      1791203263,
      1791203285,
      1791203334,
      1791203349,
      1791203387,
      1791203401,
      1791203443,
      1791203487,
      1791203498,
      1791203537,
      1791203567,
      1791203597,
      1791203638,
      1791203646,
      1791203698,
      1791203709,
      1791203732,
      1791203774,
      1791203804,
      1791203848,
      1791203867,
      1791203900,
      1791203911,
      1791203946,
      1791203988,
      1791204003,
      1791204044,
      1791204067,
      1791204107,
      1791204130
    ],
    "wof:geomhash": "a62b7cb2bff76d73ae82b641c7e94bbb",
    "wof:id": 2048519017,
    "wof:repo": "sfomuseum-data-flights-2026-10"
  },
  "bbox": [
    -122.76159,
    37.42656,
    -122.10647,
    38.5094
  ],
  "geometry": {"type":"LineString","coordinates":[[-122.6878,38.5094],[-122.70123,38.46155],[-122.70642,38.44326],[-122.72966,38.36021],[-122.74176,38.31679],[-122.76061,38.24521],[-122.76159,38.21693],[-122.75434,38.17967],[-122.74078,38.13253],[-122.73728,38.12036],[-122.70988,38.02648],[-122.7015,37.99788],[-122.69103,37.96128],[-122.65645,37.88493],[-122.63734,37.8657],[-122.58904,37.81969],[-122.57001,37.80199],[-122.51751,37.75272],[-122.46669,37.70472],[-122.45398,37.69276],[-122.41173,37.65296],[-122.38218,37.6251],[-122.35589,37.59706],[-122.33037,37.55173],[-122.32595,37.5431],[-122.29476,37.48733],[-122.28685,37.47594],[-122.2607,37.46095],[-122.2045,37.44126],[-122.16552,37.42656],[-122.11176,37.43712],[-122.10647,37.4574],[-122.1293,37.48816],[-122.13904,37.49805],[-122.16779,37.52768],[-122.20964,37.5488],[-122.22614,37.55593],[-122.26651,37.57317],[-122.28685,37.58177],[-122.3204,37.59581],[-122.33946,37.60371]]}
}
