{
  "id": 2048555861,
  "type": "Feature",
  "properties": {
    "geom:area": 0,
    "geom:bbox": "-122.353170,36.742390,-121.890710,37.609530",
    "geom:latitude": 37.21962548155454,
    "geom:longitude": -122.07252055314513,
    "src:alt_label": "swim-approach",
    "src:geom": "swim",
    "swim:elevations": [
      5104,
      4832,
      4598,
      4274,
      4006,
      3745,
      3507,
      3385,
      3134,
      3035,
      2884,
      2622,
      2436,
      2251,
      2122,
      1858,
      1694,
      1603,
      1433,
      1180,
      1064,
      1003,
      817,
      610,
      582,
      386,
      185,
      43
    ],
    "swim:geom": "approach",
    "swim:timestamps": [
      1791547886,
      1791547916,
      1791547941,
      1791547976,
      1791548007,
      1791548036,
      1791548061,
      1791548074,
      1791548121,
      1791548145,
      1791548170,
      1791548217,
      1791548247,
      1791548277,
      1791548296,
      1791548336,
      1791548365,
      1791548377,
      1791548410,
      1791548456,
      1791548483,
      1791548490,
      1791548531,
      1791548578,
      1791548584,
      1791548634,
      1791548679,
      1791548713
    ],
    "wof:geomhash": "b6f27a3b2a4c5bdbb7fc1d48d7bbc56c",
    "wof:id": 2048555861,
    "wof:repo": "sfomuseum-data-flights-2026-10"
  },
  "bbox": [
    -122.35317,
    36.74239,
    -121.89071,
    37.60953
  ],
  "geometry": {"type":"LineString","coordinates":[[-121.89071,36.74239],[-121.9085,36.79216],[-121.9198,36.83314],[-121.93614,36.89084],[-121.95012,36.94162],[-121.96682,36.98746],[-121.98208,37.02662],[-121.98982,37.0466],[-122.01778,37.1181],[-122.03104,37.15196],[-122.04438,37.18555],[-122.06696,37.2424],[-122.08001,37.2765],[-122.09227,37.3087],[-122.10067,37.3297],[-122.11768,37.37145],[-122.12812,37.40158],[-122.13226,37.41402],[-122.14362,37.44778],[-122.15919,37.49211],[-122.16704,37.5155],[-122.16899,37.52146],[-122.19845,37.54414],[-122.24039,37.56191],[-122.24624,37.56441],[-122.2887,37.58239],[-122.32542,37.5978],[-122.35317,37.60953]]}
}
