{
  "id": 2048484689,
  "type": "Feature",
  "properties": {
    "geom:area": 0,
    "geom:bbox": "-122.151670,36.763660,-121.899700,37.470370",
    "geom:latitude": 37.11867577821651,
    "geom:longitude": -122.0206163254753,
    "src:alt_label": "swim-approach",
    "src:geom": "swim",
    "swim:elevations": [
      5278,
      5208,
      4812,
      4347,
      4192,
      3762,
      3540,
      3237,
      3086,
      3080,
      2730,
      2521,
      2300,
      2250,
      1836,
      1651,
      1585,
      1296
    ],
    "swim:geom": "approach",
    "swim:timestamps": [
      1790869014,
      1790869020,
      1790869059,
      1790869105,
      1790869120,
      1790869161,
      1790869182,
      1790869213,
      1790869250,
      1790869261,
      1790869316,
      1790869347,
      1790869376,
      1790869383,
      1790869437,
      1790869464,
      1790869477,
      1790869518
    ],
    "wof:geomhash": "d0bd445b3430e4fb5746b98a0f2b7d58",
    "wof:id": 2048484689,
    "wof:repo": "sfomuseum-data-flights-2026-10"
  },
  "bbox": [
    -122.15167,
    36.76366,
    -121.8997,
    37.47037
  ],
  "geometry": {"type":"LineString","coordinates":[[-121.8997,36.76366],[-121.90285,36.77377],[-121.92128,36.83929],[-121.94262,36.91533],[-121.94957,36.94013],[-121.97326,37.00359],[-121.98605,37.03651],[-122.00417,37.08319],[-122.02493,37.13648],[-122.03067,37.15162],[-122.05888,37.22222],[-122.07424,37.26154],[-122.08856,37.29816],[-122.09201,37.307],[-122.11761,37.37338],[-122.12929,37.40619],[-122.13453,37.42192],[-122.15167,37.47037]]}
}
