{
  "id": 2048494917,
  "type": "Feature",
  "properties": {
    "date:inception_lower": "2026-10-02",
    "date:inception_upper": "2026-10-02",
    "edtf:cessation": "",
    "edtf:inception": "2026-10-02",
    "flysfo:actual_timestamp": -1,
    "flysfo:airline": "WS",
    "flysfo:base_airline": "",
    "flysfo:base_flight_number": "3544",
    "flysfo:date": "2026-10-02",
    "flysfo:estimated_timestamp": 1790997180,
    "flysfo:event": "A",
    "flysfo:flight_number": "WS8599",
    "flysfo:gate": "C3",
    "flysfo:journey": "LAX-SFO",
    "flysfo:scheduled_timestamp": 1790994960,
    "flysfo:timestamp": 1790997180,
    "geom:area": 0,
    "geom:bbox": "-122.370943,33.942593,-118.389510,37.617990",
    "geom:latitude": 35.780291500000004,
    "geom:longitude": -120.38022649999999,
    "iata:airline": "WS",
    "iata:base_airline": "",
    "icao:airline": "WJA",
    "icao:base_airline": "AMX",
    "lbl:latitude": 37.615398,
    "lbl:longitude": -122.383426,
    "sfomuseum:airline_id": 1159285523,
    "sfomuseum:arrival_id": 102527513,
    "sfomuseum:base_flight_id": "20261002-A-AMX-3544",
    "sfomuseum:departure_id": 102533795,
    "sfomuseum:flight_id": "20261002-A-WJA-8599",
    "sfomuseum:flight_number": [
      "WJA8599",
      "WS8599"
    ],
    "sfomuseum:placetype": "flight",
    "src:geom": "flysfo",
    "wof:belongsto": [
      1947304067,
      102527513,
      1947304663,
      102191575,
      85633793,
      102087579,
      85922583,
      554784711,
      85688637,
      1947304671,
      1947304591,
      102085387
    ],
    "wof:country": "US",
    "wof:created": 1791043780,
    "wof:geomhash": "f16008bc2ad68c6d1bc593247c6c74a9",
    "wof:hierarchy": [
      {
        "building_id": 1947304067,
        "campus_id": 102527513,
        "concourse_id": 1947304663,
        "continent_id": 102191575,
        "country_id": 85633793,
        "county_id": 102087579,
        "custom_id": 2048494917,
        "flight_id": 2048494917,
        "locality_id": 85922583,
        "postalcode_id": 554784711,
        "region_id": 85688637,
        "venue_id": 1947304671,
        "wing_id": 1947304591
      },
      {
        "building_id": 1947304067,
        "campus_id": 102527513,
        "concourse_id": 1947304663,
        "continent_id": 102191575,
        "country_id": 85633793,
        "county_id": 102085387,
        "custom_id": 2048494917,
        "flight_id": 2048494917,
        "region_id": 85688637,
        "venue_id": 1947304671,
        "wing_id": 1947304591
      }
    ],
    "wof:id": 2048494917,
    "wof:involves": [
      102527513,
      102533795,
      1159285523,
      1947304671,
      1159283539
    ],
    "wof:lastmodified": 1791043780,
    "wof:name": "WS8599 (LAX-SFO)",
    "wof:parent_id": 1947304671,
    "wof:placetype": "custom",
    "wof:placetype_alt": [
      "flight"
    ],
    "wof:repo": "sfomuseum-data-flights-2026-10",
    "wof:superseded_by": [],
    "wof:supersedes": []
  },
  "bbox": [
    -122.370943,
    33.942593,
    -118.38951,
    37.61799
  ],
  "geometry": {"type":"MultiPoint","coordinates":[[-118.38951,33.942593],[-122.370943,37.61799]]}
}
