{
  "id": 2048496763,
  "type": "Feature",
  "properties": {
    "geom:area": 0,
    "geom:bbox": "-122.515850,36.735630,-121.433920,37.740080",
    "geom:latitude": 37.27377347391864,
    "geom:longitude": -122.06485088467015,
    "src:alt_label": "swim-takeoff",
    "src:geom": "swim",
    "swim:elevations": [
      183,
      490,
      564,
      638,
      1050,
      1213,
      1603,
      2216,
      2347,
      2845,
      3275,
      3479,
      3829,
      4309,
      4527,
      4902,
      5213,
      5497,
      5692,
      6184,
      6429,
      6617,
      6794,
      6913,
      7004,
      7327,
      7675,
      7796,
      7988,
      8127,
      8581,
      8850,
      8936,
      9091
    ],
    "swim:geom": "takeoff",
    "swim:timestamps": [
      1790967829,
      1790967859,
      1790967877,
      1790967888,
      1790967928,
      1790967938,
      1790967960,
      1790968013,
      1790968022,
      1790968056,
      1790968099,
      1790968132,
      1790968167,
      1790968198,
      1790968218,
      1790968249,
      1790968279,
      1790968303,
      1790968322,
      1790968365,
      1790968398,
      1790968419,
      1790968445,
      1790968466,
      1790968478,
      1790968509,
      1790968552,
      1790968569,
      1790968599,
      1790968620,
      1790968678,
      1790968708,
      1790968720,
      1790968741
    ],
    "wof:geomhash": "be87559a07951fee31e634e9772c2a49",
    "wof:id": 2048496763,
    "wof:repo": "sfomuseum-data-flights-2026-10"
  },
  "bbox": [
    -122.51585,
    36.73563,
    -121.43392,
    37.74008
  ],
  "geometry": {"type":"LineString","coordinates":[[-122.36578,37.63397],[-122.3606,37.65731],[-122.36167,37.67489],[-122.36243,37.68615],[-122.39548,37.72435],[-122.40894,37.72931],[-122.43875,37.74008],[-122.51126,37.7214],[-122.51585,37.7103],[-122.51275,37.66714],[-122.50316,37.60908],[-122.47412,37.56532],[-122.41991,37.52815],[-122.37329,37.49387],[-122.34273,37.46948],[-122.29634,37.43221],[-122.25128,37.3962],[-122.21236,37.36546],[-122.18342,37.34227],[-122.11423,37.28724],[-122.05944,37.24312],[-122.02367,37.2142],[-121.97881,37.17826],[-121.94143,37.14809],[-121.92002,37.13064],[-121.86411,37.0858],[-121.78684,37.02431],[-121.75516,36.99805],[-121.69956,36.95333],[-121.66073,36.92168],[-121.55058,36.8324],[-121.49333,36.78531],[-121.47163,36.76711],[-121.43392,36.73563]]}
}
