{
  "id": 2048546609,
  "type": "Feature",
  "properties": {
    "geom:area": 0,
    "geom:bbox": "-122.331850,36.748530,-121.893830,37.600550",
    "geom:latitude": 37.217845383105,
    "geom:longitude": -122.09756605107167,
    "src:alt_label": "swim-approach",
    "src:geom": "swim",
    "swim:elevations": [
      5359,
      4976,
      4890,
      4445,
      4180,
      4081,
      3710,
      3340,
      3257,
      3130,
      2979,
      2827,
      2534,
      2367,
      2199,
      1917,
      1859,
      1829,
      1698,
      1620,
      1466,
      1221,
      993,
      914,
      883,
      709,
      538,
      488,
      372,
      339,
      262,
      162
    ],
    "swim:geom": "approach",
    "swim:timestamps": [
      1791456020,
      1791456057,
      1791456067,
      1791456115,
      1791456139,
      1791456151,
      1791456182,
      1791456236,
      1791456246,
      1791456279,
      1791456323,
      1791456344,
      1791456385,
      1791456408,
      1791456432,
      1791456476,
      1791456486,
      1791456517,
      1791456568,
      1791456580,
      1791456606,
      1791456649,
      1791456712,
      1791456732,
      1791456762,
      1791456799,
      1791456836,
      1791456852,
      1791456880,
      1791456891,
      1791456909,
      1791456938
    ],
    "wof:geomhash": "1e0be6ab2032b8c423106cb05b40b7a4",
    "wof:id": 2048546609,
    "wof:repo": "sfomuseum-data-flights-2026-10"
  },
  "bbox": [
    -122.33185,
    36.74853,
    -121.89383,
    37.60055
  ],
  "geometry": {"type":"LineString","coordinates":[[-121.89383,36.74853],[-121.91185,36.80438],[-121.9161,36.81947],[-121.93575,36.88994],[-121.94538,36.92469],[-121.95008,36.94155],[-121.96657,36.98628],[-121.9969,37.0643],[-122.00233,37.07806],[-122.01934,37.12152],[-122.05001,37.16803],[-122.07201,37.18507],[-122.11524,37.21856],[-122.13897,37.23706],[-122.16345,37.25611],[-122.20886,37.29051],[-122.21902,37.29814],[-122.24443,37.32475],[-122.20953,37.36746],[-122.1963,37.37556],[-122.18139,37.40004],[-122.16699,37.44371],[-122.15991,37.49926],[-122.16618,37.51441],[-122.18025,37.5352],[-122.21243,37.55038],[-122.24644,37.56472],[-122.26091,37.57073],[-122.28503,37.58098],[-122.29353,37.58451],[-122.30842,37.59077],[-122.33185,37.60055]]}
}
