{
  "id": 2048554581,
  "type": "Feature",
  "properties": {
    "date:inception_lower": "2026-10-09",
    "date:inception_upper": "2026-10-09",
    "edtf:cessation": "",
    "edtf:inception": "2026-10-09",
    "flysfo:actual_timestamp": -1,
    "flysfo:airline": "FJ",
    "flysfo:base_airline": "",
    "flysfo:base_flight_number": "5508",
    "flysfo:date": "2026-10-09",
    "flysfo:estimated_timestamp": -1,
    "flysfo:event": "A",
    "flysfo:flight_number": "FJ5118",
    "flysfo:gate": "",
    "flysfo:journey": "ORD-SFO",
    "flysfo:scheduled_timestamp": 1791608160,
    "flysfo:timestamp": 1791608160,
    "geom:area": 0,
    "geom:bbox": "-122.370943,37.617990,-87.894364,41.983038",
    "geom:latitude": 39.800514,
    "geom:longitude": -105.1326535,
    "iata:airline": "FJ",
    "iata:base_airline": "",
    "icao:airline": "FJI",
    "icao:base_airline": "BAW",
    "lbl:latitude": 37.61799,
    "lbl:longitude": -122.370943,
    "sfomuseum:airline_id": 1159283717,
    "sfomuseum:arrival_id": 102527513,
    "sfomuseum:base_flight_id": "20261009-A-BAW-5508",
    "sfomuseum:departure_id": 102533631,
    "sfomuseum:flight_id": "20261009-A-FJI-5118",
    "sfomuseum:flight_number": [
      "FJI5118",
      "FJ5118"
    ],
    "sfomuseum:placetype": "flight",
    "src:geom": "flysfo",
    "wof:belongsto": [],
    "wof:country": "US",
    "wof:created": 1791648336,
    "wof:geomhash": "81d390dcf2582f737869c573200abb8f",
    "wof:hierarchy": [
      {
        "custom_id": 2048554581,
        "flight_id": 2048554581
      }
    ],
    "wof:id": 2048554581,
    "wof:involves": [
      102527513,
      102533631,
      1159283717,
      -1,
      1159284021
    ],
    "wof:lastmodified": 1791648336,
    "wof:name": "FJ5118 (ORD-SFO)",
    "wof:parent_id": -1,
    "wof:placetype": "custom",
    "wof:placetype_alt": [
      "flight"
    ],
    "wof:repo": "sfomuseum-data-flights-2026-10",
    "wof:superseded_by": [],
    "wof:supersedes": []
  },
  "bbox": [
    -122.370943,
    37.61799,
    -87.894364,
    41.983038
  ],
  "geometry": {"type":"MultiPoint","coordinates":[[-87.894364,41.983038],[-122.370943,37.61799]]}
}
