{
  "id": 2048511397,
  "type": "Feature",
  "properties": {
    "geom:area": 0,
    "geom:bbox": "-122.353300,37.491950,-121.249980,37.611970",
    "geom:latitude": 37.54667205985938,
    "geom:longitude": -121.80640448813018,
    "src:alt_label": "swim-approach",
    "src:geom": "swim",
    "swim:elevations": [
      4596,
      4361,
      3979,
      3658,
      3412,
      3375,
      3293,
      3070,
      2874,
      2638,
      2495,
      2450,
      2329,
      2041,
      2021,
      1900,
      1683,
      1455,
      1374,
      1328,
      1195,
      974,
      868,
      622,
      476,
      393,
      283,
      89,
      51
    ],
    "swim:geom": "approach",
    "swim:timestamps": [
      1791138382,
      1791138404,
      1791138441,
      1791138474,
      1791138500,
      1791138504,
      1791138512,
      1791138562,
      1791138589,
      1791138622,
      1791138653,
      1791138667,
      1791138692,
      1791138748,
      1791138752,
      1791138784,
      1791138824,
      1791138863,
      1791138876,
      1791138883,
      1791138906,
      1791138949,
      1791138970,
      1791139017,
      1791139048,
      1791139065,
      1791139090,
      1791139136,
      1791139148
    ],
    "wof:geomhash": "71686901a50b67b0675575a4d5ae5172",
    "wof:id": 2048511397,
    "wof:repo": "sfomuseum-data-flights-2026-10"
  },
  "bbox": [
    -122.3533,
    37.49195,
    -121.24998,
    37.61197
  ],
  "geometry": {"type":"LineString","coordinates":[[-121.24998,37.5944],[-121.29743,37.58849],[-121.37622,37.57981],[-121.44495,37.57175],[-121.49726,37.56574],[-121.5055,37.56478],[-121.52235,37.56286],[-121.61996,37.55121],[-121.6676,37.54032],[-121.72259,37.5275],[-121.77268,37.51556],[-121.79312,37.51061],[-121.83074,37.50151],[-121.91437,37.49195],[-121.92041,37.49207],[-121.96497,37.49317],[-122.0188,37.50469],[-122.06841,37.52078],[-122.08474,37.52608],[-122.09353,37.52885],[-122.12181,37.53805],[-122.17042,37.55388],[-122.1928,37.56103],[-122.242,37.57712],[-122.27161,37.58616],[-122.28571,37.59012],[-122.30768,37.5966],[-122.34466,37.60838],[-122.3533,37.61197]]}
}
