{
  "id": 2048551037,
  "type": "Feature",
  "properties": {
    "geom:area": 0,
    "geom:bbox": "-122.562300,36.739680,-122.369600,37.664710",
    "geom:latitude": 37.24192134691043,
    "geom:longitude": -122.51529209389095,
    "src:alt_label": "swim-takeoff",
    "src:geom": "swim",
    "swim:elevations": [
      152,
      454,
      804,
      1152,
      1537,
      1697,
      2245,
      2839,
      3031,
      3435,
      3636,
      3705,
      4185,
      4564,
      4921,
      5308,
      5853,
      6056,
      6341,
      6638,
      7027,
      7214,
      7520,
      7715,
      8029,
      8193
    ],
    "swim:geom": "takeoff",
    "swim:timestamps": [
      1791470698,
      1791470724,
      1791470751,
      1791470782,
      1791470818,
      1791470833,
      1791470865,
      1791470900,
      1791470913,
      1791470938,
      1791470968,
      1791470972,
      1791471011,
      1791471043,
      1791471070,
      1791471100,
      1791471148,
      1791471168,
      1791471193,
      1791471221,
      1791471264,
      1791471286,
      1791471317,
      1791471337,
      1791471371,
      1791471391
    ],
    "wof:geomhash": "81f21e689337b168a830d4374ecc0b99",
    "wof:id": 2048551037,
    "wof:repo": "sfomuseum-data-flights-2026-10"
  },
  "bbox": [
    -122.5623,
    36.73968,
    -122.3696,
    37.66471
  ],
  "geometry": {"type":"LineString","coordinates":[[-122.3935,37.62664],[-122.41838,37.6379],[-122.44734,37.65017],[-122.48065,37.66471],[-122.52922,37.66024],[-122.54152,37.64448],[-122.54507,37.6036],[-122.54591,37.55773],[-122.54629,37.54134],[-122.54641,37.50788],[-122.54824,37.46457],[-122.5485,37.45861],[-122.55077,37.39744],[-122.55266,37.34562],[-122.55419,37.30008],[-122.556,37.24811],[-122.55882,37.16411],[-122.56,37.12847],[-122.56149,37.08318],[-122.5623,37.03144],[-122.52734,36.95652],[-122.50015,36.9191],[-122.46224,36.86745],[-122.43692,36.83288],[-122.39496,36.77438],[-122.3696,36.73968]]}
}
