{
  "id": 2048504729,
  "type": "Feature",
  "properties": {
    "geom:area": 0,
    "geom:bbox": "-122.469270,37.200460,-121.297220,37.713360",
    "geom:latitude": 37.39743175581075,
    "geom:longitude": -122.01542906898287,
    "src:alt_label": "swim-takeoff",
    "src:geom": "swim",
    "swim:elevations": [
      152,
      303,
      724,
      929,
      1396,
      1816,
      1925,
      2741,
      2795,
      3270,
      3586,
      4045,
      4358,
      4805,
      5147,
      5324,
      5761,
      5905,
      6252,
      6570,
      6870,
      6951,
      7113,
      7459,
      7684,
      7940,
      8180,
      8322,
      8448,
      8576,
      8723
    ],
    "swim:geom": "takeoff",
    "swim:timestamps": [
      1791011690,
      1791011703,
      1791011756,
      1791011777,
      1791011812,
      1791011843,
      1791011851,
      1791011906,
      1791011910,
      1791011954,
      1791011986,
      1791012023,
      1791012050,
      1791012086,
      1791012116,
      1791012136,
      1791012177,
      1791012190,
      1791012225,
      1791012259,
      1791012291,
      1791012302,
      1791012317,
      1791012356,
      1791012380,
      1791012411,
      1791012442,
      1791012473,
      1791012497,
      1791012521,
      1791012544
    ],
    "wof:geomhash": "a798419e2fd3402f720ff76839e1923d",
    "wof:id": 2048504729,
    "wof:repo": "sfomuseum-data-flights-2026-10"
  },
  "bbox": [
    -122.46927,
    37.20046,
    -121.29722,
    37.71336
  ],
  "geometry": {"type":"LineString","coordinates":[[-122.36892,37.62914],[-122.36435,37.63848],[-122.3626,37.68855],[-122.37852,37.70904],[-122.42923,37.71336],[-122.45486,37.68273],[-122.45567,37.67281],[-122.46257,37.60193],[-122.46313,37.59698],[-122.46927,37.54016],[-122.46449,37.49376],[-122.41387,37.45546],[-122.37248,37.43101],[-122.3088,37.4058],[-122.2488,37.39377],[-122.21048,37.38606],[-122.12672,37.36966],[-122.09897,37.36412],[-122.02606,37.34934],[-121.95391,37.33501],[-121.88393,37.32097],[-121.86067,37.31624],[-121.82761,37.30948],[-121.73961,37.29169],[-121.68644,37.28099],[-121.61506,37.26659],[-121.54278,37.2511],[-121.47169,37.23692],[-121.41223,37.22477],[-121.35163,37.21237],[-121.29722,37.20046]]}
}
