{
  "id": 2048528923,
  "type": "Feature",
  "properties": {
    "geom:area": 0,
    "geom:bbox": "-122.362900,36.734220,-121.886110,37.613770",
    "geom:latitude": 37.21908526733987,
    "geom:longitude": -122.07373367475886,
    "src:alt_label": "swim-approach",
    "src:geom": "swim",
    "swim:elevations": [
      5624,
      5448,
      5127,
      4967,
      4892,
      4495,
      4020,
      3724,
      3426,
      3178,
      3085,
      2985,
      2742,
      2656,
      2357,
      2166,
      2060,
      1829,
      1829,
      1603,
      1435,
      1125,
      885,
      767,
      626,
      565,
      472,
      426,
      269,
      153,
      32,
      292
    ],
    "swim:geom": "approach",
    "swim:timestamps": [
      1791325512,
      1791325525,
      1791325552,
      1791325564,
      1791325570,
      1791325603,
      1791325648,
      1791325678,
      1791325708,
      1791325738,
      1791325768,
      1791325795,
      1791325828,
      1791325840,
      1791325887,
      1791325910,
      1791325924,
      1791325963,
      1791325988,
      1791326025,
      1791326044,
      1791326080,
      1791326128,
      1791326149,
      1791326185,
      1791326194,
      1791326218,
      1791326231,
      1791326272,
      1791326300,
      1791326332,
      1791326347
    ],
    "wof:geomhash": "edfdf48e915cb9d7586fba2d69a92a79",
    "wof:id": 2048528923,
    "wof:repo": "sfomuseum-data-flights-2026-10"
  },
  "bbox": [
    -122.3629,
    36.73422,
    -121.88611,
    37.61377
  ],
  "geometry": {"type":"LineString","coordinates":[[-121.88611,36.73422],[-121.89638,36.75502],[-121.90963,36.79826],[-121.91529,36.81796],[-121.91805,36.82772],[-121.93305,36.88087],[-121.95332,36.95209],[-121.97108,36.99815],[-121.98902,37.04383],[-122.0068,37.0901],[-122.02434,37.13458],[-122.03901,37.17176],[-122.05651,37.21708],[-122.06232,37.23206],[-122.08577,37.29112],[-122.09706,37.31966],[-122.10395,37.33729],[-122.1222,37.38398],[-122.13108,37.41046],[-122.14429,37.44911],[-122.15074,37.46774],[-122.1626,37.50216],[-122.18739,37.53943],[-122.20753,37.54824],[-122.24041,37.56223],[-122.24866,37.56571],[-122.26961,37.57441],[-122.2808,37.57915],[-122.30976,37.59131],[-122.33001,37.59978],[-122.35348,37.60964],[-122.3629,37.61377]]}
}
