{
  "id": 2048483919,
  "type": "Feature",
  "properties": {
    "date:cessation_lower": "2026-10-01",
    "date:cessation_upper": "2026-10-01",
    "date:inception_lower": "1970-01-01",
    "date:inception_upper": "1970-01-01",
    "edtf:cessation": "2026-10-01T06:47:34-07:00",
    "edtf:inception": "1970-01-01T00:00:00Z",
    "flysfo:actual_timestamp": -1,
    "flysfo:airline": "LO",
    "flysfo:date": "2026-10-01",
    "flysfo:estimated_timestamp": 1790887380,
    "flysfo:event": "A",
    "flysfo:flight_number": "LO35",
    "flysfo:gate": "A5",
    "flysfo:journey": "WAW-SFO",
    "flysfo:scheduled_timestamp": 1790889300,
    "flysfo:timestamp": 1790889300,
    "geom:area": 0,
    "geom:bbox": "-122.370943,37.617990,20.974379,52.171214",
    "geom:latitude": 44.894602,
    "geom:longitude": -50.698282,
    "iata:airline": "LO",
    "icao:aircraft": "B788",
    "icao:airline": "LOT",
    "lbl:latitude": 37.613288,
    "lbl:longitude": -122.389396,
    "sfomuseum:aircraft_id": 1159289995,
    "sfomuseum:airline_id": 1159284705,
    "sfomuseum:arrival_id": 102527513,
    "sfomuseum:departure_id": 102542051,
    "sfomuseum:flight_id": "20261001-A-LOT-35",
    "sfomuseum:flight_number": [
      "LOT35",
      "LO35"
    ],
    "sfomuseum:placetype": "flight",
    "src:geom": "flysfo",
    "src:geom_alt": [
      "swim-approach"
    ],
    "swim:tail_number": "SPLRG",
    "wof:belongsto": [
      1947304067,
      102527513,
      1947304073,
      102191575,
      85633793,
      102087579,
      85922583,
      554784711,
      85688637,
      1947304087,
      1947304069,
      102085387
    ],
    "wof:country": "US",
    "wof:created": 1790957183,
    "wof:geomhash": "1954d77428ab4c71ee39d262b7abdced",
    "wof:hierarchy": [
      {
        "building_id": 1947304067,
        "campus_id": 102527513,
        "concourse_id": 1947304073,
        "continent_id": 102191575,
        "country_id": 85633793,
        "county_id": 102087579,
        "custom_id": 2048483919,
        "flight_id": 2048483919,
        "locality_id": 85922583,
        "postalcode_id": 554784711,
        "region_id": 85688637,
        "venue_id": 1947304087,
        "wing_id": 1947304069
      },
      {
        "building_id": 1947304067,
        "campus_id": 102527513,
        "concourse_id": 1947304073,
        "continent_id": 102191575,
        "country_id": 85633793,
        "county_id": 102085387,
        "custom_id": 2048483919,
        "flight_id": 2048483919,
        "region_id": 85688637,
        "venue_id": 1947304087,
        "wing_id": 1947304069
      }
    ],
    "wof:id": 2048483919,
    "wof:involves": [
      1159289995,
      102527513,
      102542051,
      1159284705,
      1947304087
    ],
    "wof:lastmodified": 1790957922,
    "wof:name": "LO35 (WAW-SFO)",
    "wof:parent_id": 1947304087,
    "wof:placetype": "custom",
    "wof:placetype_alt": [
      "flight"
    ],
    "wof:repo": "sfomuseum-data-flights-2026-10",
    "wof:superseded_by": [],
    "wof:supersedes": []
  },
  "bbox": [
    -122.370943,
    37.61799,
    20.974379,
    52.171214
  ],
  "geometry": {"type":"MultiPoint","coordinates":[[20.974379,52.171214],[-122.370943,37.61799]]}
}
