{
  "id": 2048555649,
  "type": "Feature",
  "properties": {
    "geom:area": 0,
    "geom:bbox": "-122.361970,36.752240,-121.895980,37.613590",
    "geom:latitude": 37.21860753801035,
    "geom:longitude": -122.14675069075332,
    "src:alt_label": "swim-approach",
    "src:geom": "swim",
    "swim:elevations": [
      5196,
      4995,
      4570,
      4542,
      4359,
      4298,
      3855,
      3639,
      3442,
      3190,
      3089,
      3038,
      2958,
      2894,
      2765,
      2672,
      2643,
      2432,
      2254,
      2160,
      2036,
      1888,
      1828,
      1829,
      1656,
      1606,
      1524,
      1265,
      1160,
      1097,
      1124,
      920,
      795,
      528,
      421,
      343,
      185,
      20,
      0
    ],
    "swim:geom": "approach",
    "swim:timestamps": [
      1791553605,
      1791553626,
      1791553672,
      1791553677,
      1791553702,
      1791553710,
      1791553767,
      1791553793,
      1791553818,
      1791553851,
      1791553865,
      1791553911,
      1791553946,
      1791553964,
      1791553983,
      1791553997,
      1791554022,
      1791554061,
      1791554093,
      1791554106,
      1791554126,
      1791554149,
      1791554163,
      1791554200,
      1791554244,
      1791554252,
      1791554281,
      1791554336,
      1791554356,
      1791554381,
      1791554404,
      1791554456,
      1791554483,
      1791554542,
      1791554565,
      1791554581,
      1791554624,
      1791554666,
      1791554672
    ],
    "wof:geomhash": "f4130819f2ce025e6394864ca65c4295",
    "wof:id": 2048555649,
    "wof:repo": "sfomuseum-data-flights-2026-10"
  },
  "bbox": [
    -122.36197,
    36.75224,
    -121.89598,
    37.61359
  ],
  "geometry": {"type":"LineString","coordinates":[[-121.89598,36.75224],[-121.90614,36.78485],[-121.92581,36.85454],[-121.92764,36.86117],[-121.93842,36.89936],[-121.94175,36.91139],[-121.97555,36.99017],[-122.01417,37.01304],[-122.05232,37.03362],[-122.10107,37.05989],[-122.12192,37.07096],[-122.18883,37.10608],[-122.23561,37.13086],[-122.25143,37.14768],[-122.26407,37.16669],[-122.27427,37.18197],[-122.29015,37.20577],[-122.31283,37.24085],[-122.3132,37.27163],[-122.30915,37.28328],[-122.29116,37.29662],[-122.26918,37.3095],[-122.25621,37.31719],[-122.22187,37.33732],[-122.19328,37.3706],[-122.18945,37.37758],[-122.17613,37.40165],[-122.15127,37.44662],[-122.14229,37.46239],[-122.13061,37.48304],[-122.13092,37.50286],[-122.17234,37.53364],[-122.19925,37.54475],[-122.25592,37.56867],[-122.27647,37.57733],[-122.28982,37.58292],[-122.32414,37.59741],[-122.35739,37.61133],[-122.36197,37.61359]]}
}
