{
  "id": 2048498597,
  "type": "Feature",
  "properties": {
    "date:inception_lower": "2026-10-02",
    "date:inception_upper": "2026-10-02",
    "edtf:cessation": "",
    "edtf:inception": "2026-10-02",
    "flysfo:actual_timestamp": -1,
    "flysfo:airline": "UA",
    "flysfo:date": "2026-10-02",
    "flysfo:estimated_timestamp": 1790967360,
    "flysfo:event": "D",
    "flysfo:flight_number": "UA5286",
    "flysfo:gate": "F8",
    "flysfo:journey": "SFO-RDD",
    "flysfo:scheduled_timestamp": 1790964420,
    "flysfo:timestamp": 1790967360,
    "geom:area": 0,
    "geom:bbox": "-122.370943,37.617990,-122.298220,40.507596",
    "geom:latitude": 39.062793,
    "geom:longitude": -122.3345815,
    "iata:airline": "UA",
    "icao:airline": "UAL",
    "lbl:latitude": 37.61799,
    "lbl:longitude": -122.370943,
    "sfomuseum:airline_id": 1159285413,
    "sfomuseum:arrival_id": 102527969,
    "sfomuseum:departure_id": 102527513,
    "sfomuseum:flight_id": "20261002-D-UAL-5286",
    "sfomuseum:flight_number": [
      "UAL5286",
      "UA5286"
    ],
    "sfomuseum:placetype": "flight",
    "src:geom": "flysfo",
    "wof:belongsto": [
      1947304067,
      102527513,
      1947304451,
      102191575,
      85633793,
      102087579,
      85922583,
      554784711,
      85688637,
      1947304469,
      1947304447,
      102085387
    ],
    "wof:country": "US",
    "wof:created": 1791044183,
    "wof:geomhash": "d81f35c9bd76192177056b7c45b4498c",
    "wof:hierarchy": [
      {
        "building_id": 1947304067,
        "campus_id": 102527513,
        "concourse_id": 1947304451,
        "continent_id": 102191575,
        "country_id": 85633793,
        "county_id": 102087579,
        "custom_id": 2048498597,
        "flight_id": 2048498597,
        "locality_id": 85922583,
        "postalcode_id": 554784711,
        "region_id": 85688637,
        "venue_id": 1947304469,
        "wing_id": 1947304447
      },
      {
        "building_id": 1947304067,
        "campus_id": 102527513,
        "concourse_id": 1947304451,
        "continent_id": 102191575,
        "country_id": 85633793,
        "county_id": 102085387,
        "custom_id": 2048498597,
        "flight_id": 2048498597,
        "region_id": 85688637,
        "venue_id": 1947304469,
        "wing_id": 1947304447
      }
    ],
    "wof:id": 2048498597,
    "wof:involves": [
      102527969,
      102527513,
      1159285413,
      1947304469
    ],
    "wof:lastmodified": 1791044183,
    "wof:name": "UA5286 (SFO-RDD)",
    "wof:parent_id": 1947304469,
    "wof:placetype": "custom",
    "wof:placetype_alt": [
      "flight"
    ],
    "wof:repo": "sfomuseum-data-flights-2026-10",
    "wof:superseded_by": [],
    "wof:supersedes": []
  },
  "bbox": [
    -122.370943,
    37.61799,
    -122.29822,
    40.507596
  ],
  "geometry": {"type":"MultiPoint","coordinates":[[-122.370943,37.61799],[-122.29822,40.507596]]}
}
