{
  "id": 2048496793,
  "type": "Feature",
  "properties": {
    "geom:area": 0,
    "geom:bbox": "-122.365640,37.629810,-121.330730,38.091390",
    "geom:latitude": 37.87654880106156,
    "geom:longitude": -121.85615524082371,
    "src:alt_label": "swim-takeoff",
    "src:geom": "swim",
    "swim:elevations": [
      183,
      491,
      649,
      898,
      1222,
      1516,
      1906,
      2092,
      2277,
      2440,
      2918,
      2998,
      3354,
      3676,
      3747,
      4042,
      4430,
      4896,
      5150,
      5207,
      5692,
      5993,
      6171,
      6471
    ],
    "swim:geom": "takeoff",
    "swim:timestamps": [
      1790961287,
      1790961314,
      1790961343,
      1790961377,
      1790961409,
      1790961430,
      1790961459,
      1790961475,
      1790961490,
      1790961502,
      1790961536,
      1790961543,
      1790961577,
      1790961626,
      1790961639,
      1790961665,
      1790961701,
      1790961748,
      1790961775,
      1790961781,
      1790961831,
      1790961860,
      1790961880,
      1790961910
    ],
    "wof:geomhash": "ff3226bba67070b398df3c17ca78715a",
    "wof:id": 2048496793,
    "wof:repo": "sfomuseum-data-flights-2026-10"
  },
  "bbox": [
    -122.36564,
    37.62981,
    -121.33073,
    38.09139
  ],
  "geometry": {"type":"LineString","coordinates":[[-122.36564,37.62981],[-122.34844,37.64613],[-122.32163,37.66077],[-122.283,37.6821],[-122.24201,37.7044],[-122.21387,37.71868],[-122.1718,37.73979],[-122.14895,37.75144],[-122.12773,37.76253],[-122.11013,37.772],[-122.05948,37.79778],[-122.05012,37.80253],[-121.99744,37.82878],[-121.91098,37.86325],[-121.88581,37.87307],[-121.8369,37.89257],[-121.76694,37.92053],[-121.67186,37.95799],[-121.61702,37.97949],[-121.60507,37.98417],[-121.5,38.0253],[-121.43901,38.04916],[-121.3955,38.06619],[-121.33073,38.09139]]}
}
