{
  "id": 2048529671,
  "type": "Feature",
  "properties": {
    "geom:area": 0,
    "geom:bbox": "-122.666060,37.301760,-122.131250,38.515340",
    "geom:latitude": 37.764634340302976,
    "geom:longitude": -122.43359070935934,
    "src:alt_label": "swim-approach",
    "src:geom": "swim",
    "swim:elevations": [
      7860,
      7541,
      7175,
      6865,
      6766,
      6476,
      6349,
      5876,
      5499,
      5179,
      5119,
      4664,
      4531,
      4063,
      3871,
      3476,
      3413,
      3389,
      3353,
      3353,
      3353,
      3353,
      3353,
      3270,
      3191,
      2742,
      2588,
      2473,
      2340,
      2169,
      1982,
      1919,
      1831,
      1829,
      1724,
      1583,
      1432,
      1299,
      1222,
      1219,
      1219,
      1157,
      1076,
      841,
      695,
      639,
      525,
      452,
      366,
      163,
      128,
      0
    ],
    "swim:geom": "approach",
    "swim:timestamps": [
      1791270146,
      1791270174,
      1791270204,
      1791270233,
      1791270241,
      1791270265,
      1791270277,
      1791270316,
      1791270357,
      1791270388,
      1791270394,
      1791270441,
      1791270455,
      1791270504,
      1791270522,
      1791270568,
      1791270591,
      1791270600,
      1791270652,
      1791270687,
      1791270706,
      1791270743,
      1791270760,
      1791270807,
      1791270815,
      1791270868,
      1791270891,
      1791270913,
      1791270941,
      1791270974,
      1791271013,
      1791271030,
      1791271075,
      1791271101,
      1791271127,
      1791271145,
      1791271182,
      1791271219,
      1791271244,
      1791271278,
      1791271316,
      1791271338,
      1791271365,
      1791271406,
      1791271436,
      1791271445,
      1791271466,
      1791271485,
      1791271508,
      1791271557,
      1791271566,
      1791271599
    ],
    "wof:geomhash": "2c7bbcc28a4a059bdae7b692be5bba0c",
    "wof:id": 2048529671,
    "wof:repo": "sfomuseum-data-flights-2026-10"
  },
  "bbox": [
    -122.66606,
    37.30176,
    -122.13125,
    38.51534
  ],
  "geometry": {"type":"LineString","coordinates":[[-122.58797,38.51534],[-122.59529,38.46044],[-122.6033,38.40224],[-122.61083,38.34804],[-122.61313,38.33106],[-122.61924,38.28684],[-122.62244,38.26466],[-122.63254,38.1931],[-122.64257,38.12109],[-122.65006,38.06595],[-122.65148,38.05546],[-122.66297,37.97396],[-122.66606,37.95137],[-122.64536,37.87316],[-122.62093,37.85018],[-122.56054,37.7932],[-122.53149,37.76541],[-122.52076,37.75528],[-122.46446,37.70233],[-122.43068,37.67064],[-122.41279,37.6539],[-122.37777,37.62088],[-122.36292,37.60563],[-122.33494,37.55506],[-122.3308,37.54659],[-122.30155,37.4914],[-122.30818,37.46561],[-122.31574,37.44134],[-122.32492,37.41187],[-122.33611,37.37592],[-122.33398,37.33448],[-122.31764,37.32116],[-122.26481,37.30176],[-122.23126,37.30958],[-122.20232,37.32468],[-122.19207,37.34219],[-122.17374,37.37619],[-122.15679,37.40727],[-122.14581,37.42708],[-122.13125,37.45352],[-122.13409,37.48667],[-122.14446,37.50451],[-122.16277,37.52266],[-122.19566,37.54526],[-122.22451,37.55796],[-122.23357,37.56175],[-122.25416,37.57029],[-122.27113,37.57734],[-122.29008,37.58531],[-122.32801,37.6013],[-122.33497,37.60419],[-122.35877,37.61435]]}
}
