{
  "id": 2048533181,
  "type": "Feature",
  "properties": {
    "geom:area": 0,
    "geom:bbox": "-122.368330,37.625440,-121.446150,38.508290",
    "geom:latitude": 38.07932318337312,
    "geom:longitude": -121.92440265826353,
    "src:alt_label": "swim-takeoff",
    "src:geom": "swim",
    "swim:elevations": [
      91,
      499,
      854,
      1166,
      1294,
      1653,
      2033,
      2418,
      2540,
      3295,
      3398,
      3600,
      4137,
      4315,
      5021,
      5419,
      5622,
      5972,
      6344,
      6612,
      6639,
      7034,
      7215,
      7397,
      7750,
      7893
    ],
    "swim:geom": "takeoff",
    "swim:timestamps": [
      1791284765,
      1791284803,
      1791284835,
      1791284877,
      1791284898,
      1791284935,
      1791284966,
      1791284995,
      1791285004,
      1791285058,
      1791285072,
      1791285092,
      1791285132,
      1791285151,
      1791285206,
      1791285254,
      1791285274,
      1791285313,
      1791285355,
      1791285388,
      1791285392,
      1791285441,
      1791285462,
      1791285482,
      1791285525,
      1791285548
    ],
    "wof:geomhash": "d9d82a81d183c5236fa075199c3b0396",
    "wof:id": 2048533181,
    "wof:repo": "sfomuseum-data-flights-2026-10"
  },
  "bbox": [
    -122.36833,
    37.62544,
    -121.44615,
    38.50829
  ],
  "geometry": {"type":"LineString","coordinates":[[-122.36833,37.62544],[-122.34351,37.64811],[-122.3166,37.6623],[-122.28016,37.68311],[-122.26221,37.69908],[-122.24734,37.74011],[-122.23516,37.77803],[-122.21345,37.81216],[-122.20515,37.82051],[-122.14635,37.87811],[-122.13,37.8939],[-122.10575,37.91718],[-122.05704,37.96386],[-122.03425,37.98562],[-121.96292,38.05375],[-121.89952,38.11429],[-121.87109,38.14129],[-121.81743,38.19229],[-121.75909,38.24765],[-121.71137,38.2929],[-121.70516,38.29878],[-121.6323,38.36771],[-121.60051,38.39769],[-121.56829,38.42779],[-121.49052,38.48124],[-121.44615,38.50829]]}
}
