{
  "id": 2048520291,
  "type": "Feature",
  "properties": {
    "date:inception_lower": "2026-10-05",
    "date:inception_upper": "2026-10-05",
    "edtf:cessation": "",
    "edtf:inception": "2026-10-05",
    "flysfo:actual_timestamp": -1,
    "flysfo:airline": "EK",
    "flysfo:base_airline": "",
    "flysfo:base_flight_number": "4145",
    "flysfo:date": "2026-10-05",
    "flysfo:estimated_timestamp": 1791230220,
    "flysfo:event": "A",
    "flysfo:flight_number": "EK6338",
    "flysfo:gate": "E2",
    "flysfo:journey": "RNO-SFO",
    "flysfo:scheduled_timestamp": 1791230700,
    "flysfo:timestamp": 1791230700,
    "geom:area": 0,
    "geom:bbox": "-122.370943,37.617990,-119.772167,39.505219",
    "geom:latitude": 38.5616045,
    "geom:longitude": -121.07155499999999,
    "iata:airline": "EK",
    "iata:base_airline": "",
    "icao:airline": "UAE",
    "icao:base_airline": "ACA",
    "lbl:latitude": 37.618678,
    "lbl:longitude": -122.385955,
    "sfomuseum:airline_id": 1159284333,
    "sfomuseum:arrival_id": 102527513,
    "sfomuseum:base_flight_id": "20261005-A-ACA-4145",
    "sfomuseum:departure_id": 102525535,
    "sfomuseum:flight_id": "20261005-A-UAE-6338",
    "sfomuseum:flight_number": [
      "UAE6338",
      "EK6338"
    ],
    "sfomuseum:placetype": "flight",
    "src:geom": "flysfo",
    "wof:belongsto": [
      1947304067,
      102527513,
      1947304451,
      102191575,
      85633793,
      102087579,
      85922583,
      554784711,
      85688637,
      1947304481,
      1947304447,
      102085387
    ],
    "wof:country": "US",
    "wof:created": 1791302864,
    "wof:geomhash": "a4d4dc469296ca0f5ad383dc766835b1",
    "wof:hierarchy": [
      {
        "building_id": 1947304067,
        "campus_id": 102527513,
        "concourse_id": 1947304451,
        "continent_id": 102191575,
        "country_id": 85633793,
        "county_id": 102087579,
        "custom_id": 2048520291,
        "flight_id": 2048520291,
        "locality_id": 85922583,
        "postalcode_id": 554784711,
        "region_id": 85688637,
        "venue_id": 1947304481,
        "wing_id": 1947304447
      },
      {
        "building_id": 1947304067,
        "campus_id": 102527513,
        "concourse_id": 1947304451,
        "continent_id": 102191575,
        "country_id": 85633793,
        "county_id": 102085387,
        "custom_id": 2048520291,
        "flight_id": 2048520291,
        "region_id": 85688637,
        "venue_id": 1947304481,
        "wing_id": 1947304447
      }
    ],
    "wof:id": 2048520291,
    "wof:involves": [
      102527513,
      102525535,
      1159284333,
      1947304481,
      1159283597
    ],
    "wof:lastmodified": 1791302864,
    "wof:name": "EK6338 (RNO-SFO)",
    "wof:parent_id": 1947304481,
    "wof:placetype": "custom",
    "wof:placetype_alt": [
      "flight"
    ],
    "wof:repo": "sfomuseum-data-flights-2026-10",
    "wof:superseded_by": [],
    "wof:supersedes": []
  },
  "bbox": [
    -122.370943,
    37.61799,
    -119.772167,
    39.505219
  ],
  "geometry": {"type":"MultiPoint","coordinates":[[-119.772167,39.505219],[-122.370943,37.61799]]}
}
