{
  "id": 2048515579,
  "type": "Feature",
  "properties": {
    "geom:area": 0,
    "geom:bbox": "-122.368000,37.625920,-121.280420,38.404140",
    "geom:latitude": 38.02556256159214,
    "geom:longitude": -121.83348937984454,
    "src:alt_label": "swim-takeoff",
    "src:geom": "swim",
    "swim:elevations": [
      122,
      426,
      791,
      913,
      1163,
      1471,
      1635,
      1888,
      2576,
      2727,
      3225,
      3307,
      3589,
      3811,
      4177,
      4610,
      4776,
      4966,
      5283,
      5443,
      5932,
      6016,
      6182,
      6387,
      6855,
      6907,
      7319,
      7508,
      7561
    ],
    "swim:geom": "takeoff",
    "swim:timestamps": [
      1791126298,
      1791126322,
      1791126353,
      1791126366,
      1791126398,
      1791126443,
      1791126461,
      1791126488,
      1791126533,
      1791126544,
      1791126577,
      1791126586,
      1791126624,
      1791126640,
      1791126668,
      1791126705,
      1791126722,
      1791126740,
      1791126768,
      1791126784,
      1791126831,
      1791126851,
      1791126880,
      1791126905,
      1791126955,
      1791126961,
      1791127015,
      1791127046,
      1791127054
    ],
    "wof:geomhash": "8f317831dd1d144901aaec6a92c9084b",
    "wof:id": 2048515579,
    "wof:repo": "sfomuseum-data-flights-2026-10"
  },
  "bbox": [
    -122.368,
    37.62592,
    -121.28042,
    38.40414
  ],
  "geometry": {"type":"LineString","coordinates":[[-122.368,37.62592],[-122.35401,37.6385],[-122.33119,37.65256],[-122.32156,37.65835],[-122.29519,37.67366],[-122.25043,37.69895],[-122.2288,37.71013],[-122.19888,37.73517],[-122.15482,37.78407],[-122.144,37.79633],[-122.11085,37.833],[-122.10196,37.84252],[-122.05705,37.88713],[-122.03179,37.90351],[-121.98995,37.93202],[-121.93158,37.97231],[-121.90564,37.99003],[-121.87604,38.01013],[-121.82847,38.04256],[-121.80187,38.06066],[-121.71983,38.11594],[-121.68345,38.14031],[-121.62945,38.17635],[-121.58245,38.20776],[-121.48436,38.27321],[-121.47215,38.28132],[-121.36356,38.35338],[-121.2971,38.39392],[-121.28042,38.40414]]}
}
