{
  "id": 2048505269,
  "type": "Feature",
  "properties": {
    "date:cessation_lower": "1970-01-01",
    "date:cessation_upper": "1970-01-01",
    "date:inception_lower": "2026-10-03",
    "date:inception_upper": "2026-10-03",
    "edtf:cessation": "1970-01-01T00:00:00Z",
    "edtf:inception": "2026-10-03T08:09:24-07:00",
    "flysfo:actual_timestamp": -1,
    "flysfo:airline": "DL",
    "flysfo:base_airline": "",
    "flysfo:base_flight_number": "6731",
    "flysfo:date": "2026-10-03",
    "flysfo:estimated_timestamp": 1791064500,
    "flysfo:event": "D",
    "flysfo:flight_number": "DL860",
    "flysfo:gate": "C6",
    "flysfo:journey": "SFO-BOS",
    "flysfo:scheduled_timestamp": 1791064800,
    "flysfo:timestamp": 1791064800,
    "geom:area": 0,
    "geom:bbox": "-122.370943,37.617990,-71.014750,42.362322",
    "geom:latitude": 39.990156,
    "geom:longitude": -96.6928465,
    "iata:airline": "DL",
    "iata:base_airline": "",
    "icao:aircraft": "A21N",
    "icao:airline": "DAL",
    "icao:base_airline": "KAL",
    "lbl:latitude": 37.614759,
    "lbl:longitude": -122.382707,
    "sfomuseum:aircraft_id": 1377564297,
    "sfomuseum:airline_id": 1159284261,
    "sfomuseum:arrival_id": 102530741,
    "sfomuseum:base_flight_id": "20261003-D-KAL-6731",
    "sfomuseum:departure_id": 102527513,
    "sfomuseum:flight_id": "20261003-D-DAL-860",
    "sfomuseum:flight_number": [
      "DAL860",
      "DL860"
    ],
    "sfomuseum:placetype": "flight",
    "src:geom": "flysfo",
    "src:geom_alt": [
      "swim-takeoff"
    ],
    "swim:tail_number": "N598DN",
    "wof:belongsto": [
      1947304067,
      102527513,
      1947304663,
      102191575,
      85633793,
      102087579,
      85922583,
      554784711,
      85688637,
      1947304679,
      1947304591,
      102085387
    ],
    "wof:country": "US",
    "wof:created": 1791130341,
    "wof:geomhash": "92fb504f17f3373e6b03bb6769f65d8a",
    "wof:hierarchy": [
      {
        "building_id": 1947304067,
        "campus_id": 102527513,
        "concourse_id": 1947304663,
        "continent_id": 102191575,
        "country_id": 85633793,
        "county_id": 102087579,
        "custom_id": 2048505269,
        "flight_id": 2048505269,
        "locality_id": 85922583,
        "postalcode_id": 554784711,
        "region_id": 85688637,
        "venue_id": 1947304679,
        "wing_id": 1947304591
      },
      {
        "building_id": 1947304067,
        "campus_id": 102527513,
        "concourse_id": 1947304663,
        "continent_id": 102191575,
        "country_id": 85633793,
        "county_id": 102085387,
        "custom_id": 2048505269,
        "flight_id": 2048505269,
        "region_id": 85688637,
        "venue_id": 1947304679,
        "wing_id": 1947304591
      }
    ],
    "wof:id": 2048505269,
    "wof:involves": [
      1377564297,
      102530741,
      102527513,
      1159284261,
      1947304679,
      1159284625
    ],
    "wof:lastmodified": 1791130620,
    "wof:name": "DL860 (SFO-BOS)",
    "wof:parent_id": 1947304679,
    "wof:placetype": "custom",
    "wof:placetype_alt": [
      "flight"
    ],
    "wof:repo": "sfomuseum-data-flights-2026-10",
    "wof:superseded_by": [],
    "wof:supersedes": []
  },
  "bbox": [
    -122.370943,
    37.61799,
    -71.01475,
    42.362322
  ],
  "geometry": {"type":"MultiPoint","coordinates":[[-122.370943,37.61799],[-71.01475,42.362322]]}
}
