{
  "id": 2048516647,
  "type": "Feature",
  "properties": {
    "date:inception_lower": "2026-10-04",
    "date:inception_upper": "2026-10-04",
    "edtf:cessation": "",
    "edtf:inception": "2026-10-04",
    "flysfo:actual_timestamp": -1,
    "flysfo:airline": "VA",
    "flysfo:base_airline": "",
    "flysfo:base_flight_number": "2017",
    "flysfo:date": "2026-10-04",
    "flysfo:estimated_timestamp": 1791181680,
    "flysfo:event": "D",
    "flysfo:flight_number": "VA8506",
    "flysfo:gate": "G10",
    "flysfo:journey": "SFO-BNE",
    "flysfo:scheduled_timestamp": 1791181500,
    "flysfo:timestamp": 1791181680,
    "geom:area": 0,
    "geom:bbox": "-122.370943,-27.390847,153.120898,37.617990",
    "geom:latitude": 5.113571499999999,
    "geom:longitude": 15.374977500000007,
    "iata:airline": "VA",
    "iata:base_airline": "",
    "icao:airline": "VOZ",
    "icao:base_airline": "AVA",
    "lbl:latitude": 37.618742,
    "lbl:longitude": -122.392935,
    "sfomuseum:airline_id": 1159285485,
    "sfomuseum:arrival_id": 102557775,
    "sfomuseum:base_flight_id": "20261004-D-AVA-2017",
    "sfomuseum:departure_id": 102527513,
    "sfomuseum:flight_id": "20261004-D-VOZ-8506",
    "sfomuseum:flight_number": [
      "VOZ8506",
      "VA8506"
    ],
    "sfomuseum:placetype": "flight",
    "src:geom": "flysfo",
    "wof:belongsto": [
      1947304067,
      102527513,
      1947304129,
      102191575,
      85633793,
      102087579,
      85922583,
      554784711,
      85688637,
      1947304157,
      1947304069,
      102085387
    ],
    "wof:country": "US",
    "wof:created": 1791217117,
    "wof:geomhash": "2816398c66be3da27e7024f224ecf0ab",
    "wof:hierarchy": [
      {
        "building_id": 1947304067,
        "campus_id": 102527513,
        "concourse_id": 1947304129,
        "continent_id": 102191575,
        "country_id": 85633793,
        "county_id": 102087579,
        "custom_id": 2048516647,
        "flight_id": 2048516647,
        "locality_id": 85922583,
        "postalcode_id": 554784711,
        "region_id": 85688637,
        "venue_id": 1947304157,
        "wing_id": 1947304069
      },
      {
        "building_id": 1947304067,
        "campus_id": 102527513,
        "concourse_id": 1947304129,
        "continent_id": 102191575,
        "country_id": 85633793,
        "county_id": 102085387,
        "custom_id": 2048516647,
        "flight_id": 2048516647,
        "region_id": 85688637,
        "venue_id": 1947304157,
        "wing_id": 1947304069
      }
    ],
    "wof:id": 2048516647,
    "wof:involves": [
      102557775,
      102527513,
      1159285485,
      1947304157,
      1159285749
    ],
    "wof:lastmodified": 1791217117,
    "wof:name": "VA8506 (SFO-BNE)",
    "wof:parent_id": 1947304157,
    "wof:placetype": "custom",
    "wof:placetype_alt": [
      "flight"
    ],
    "wof:repo": "sfomuseum-data-flights-2026-10",
    "wof:superseded_by": [],
    "wof:supersedes": []
  },
  "bbox": [
    -122.370943,
    -27.390847,
    153.120898,
    37.61799
  ],
  "geometry": {"type":"MultiPoint","coordinates":[[-122.370943,37.61799],[153.120898,-27.390847]]}
}
