{
  "id": 2048551621,
  "type": "Feature",
  "properties": {
    "geom:area": 0,
    "geom:bbox": "-123.491880,37.631250,-122.405800,37.731760",
    "geom:latitude": 37.69891468210518,
    "geom:longitude": -122.94480921921264,
    "src:alt_label": "swim-takeoff",
    "src:geom": "swim",
    "swim:elevations": [
      303,
      617,
      809,
      1014,
      1099,
      1259,
      1408,
      1707,
      1735,
      1833,
      2049,
      2725,
      3287,
      3313,
      3533,
      3557,
      3758,
      3974,
      4242,
      4391,
      4968,
      5004
    ],
    "swim:geom": "takeoff",
    "swim:timestamps": [
      1791466287,
      1791466316,
      1791466344,
      1791466369,
      1791466390,
      1791466427,
      1791466451,
      1791466499,
      1791466502,
      1791466512,
      1791466532,
      1791466595,
      1791466648,
      1791466652,
      1791466688,
      1791466695,
      1791466736,
      1791466767,
      1791466796,
      1791466814,
      1791466883,
      1791466892
    ],
    "wof:geomhash": "03804e70d08f11f748c79acc26a3806b",
    "wof:id": 2048551621,
    "wof:repo": "sfomuseum-data-flights-2026-10"
  },
  "bbox": [
    -123.49188,
    37.63125,
    -122.4058,
    37.73176
  ],
  "geometry": {"type":"LineString","coordinates":[[-122.4058,37.63125],[-122.43453,37.64352],[-122.46343,37.65671],[-122.49012,37.66886],[-122.51408,37.67617],[-122.56503,37.6788],[-122.60155,37.68072],[-122.67953,37.68541],[-122.68646,37.68589],[-122.70285,37.6869],[-122.73812,37.68894],[-122.85052,37.69573],[-122.94823,37.70142],[-122.95448,37.70179],[-123.0241,37.70565],[-123.03855,37.70646],[-123.12674,37.71141],[-123.19694,37.71538],[-123.26393,37.71937],[-123.30555,37.72166],[-123.46987,37.73058],[-123.49188,37.73176]]}
}
